{"type":"FeatureCollection","features":[{"type":"Feature","properties":{"Id":0,"Sheet_ID":"ニコラエフスク 10","label":"ニコラエフスク 10","call_short":"G7330 S100 .J3","call_num":"G7330 S100 .J3 N10","recid":"nh791my4761","websiteUrl":"https://purl.stanford.edu/nh791my4761","title":"北樺太十万分一圖","ckey":10651303,"web_map":"","available":"true","iiiUrl":"https://purl.stanford.edu/nh791my4761/iiif/manifest"},"geometry":{"bbox":[141.5,51.666667,142,52.0000002],"type":"Polygon","coordinates":[[[141.5,51.666667],[141.5,52.0000002],[142,52.0000002],[142,51.666667],[141.5,51.666667]]]}},{"type":"Feature","properties":{"Id":0,"Sheet_ID":"ニコラエフスク 5","label":"ニコラエフスク 5","call_short":"G7330 S100 .J3","call_num":"G7330 S100 .J3 N5","recid":"ts056np1764","websiteUrl":"https://purl.stanford.edu/ts056np1764","title":"北樺太十万分一圖","ckey":10651303,"web_map":"","available":"true","iiiUrl":"https://purl.stanford.edu/ts056np1764/iiif/manifest"},"geometry":{"bbox":[142,51.666667,142.5,52.0000002],"type":"Polygon","coordinates":[[[142,51.666667],[142,52.0000002],[142.5,52.0000002],[142.5,51.666667],[142,51.666667]]]}},{"type":"Feature","properties":{"Id":0,"Sheet_ID":"ニコラエフスク 9","label":"ニコラエフスク 9","call_short":"G7330 S100 .J3","call_num":"G7330 S100 .J3 N9","recid":"bv967pg1141","websiteUrl":"https://purl.stanford.edu/bv967pg1141","title":"北樺太十万分一圖","ckey":10651303,"web_map":"","available":"true","iiiUrl":"https://purl.stanford.edu/bv967pg1141/iiif/manifest"},"geometry":{"bbox":[141.5,52.0000002,142,52.333333399999994],"type":"Polygon","coordinates":[[[141.5,52.0000002],[141.5,52.333333399999994],[142,52.333333399999994],[142,52.0000002],[141.5,52.0000002]]]}},{"type":"Feature","properties":{"Id":0,"Sheet_ID":"ニコラエフスク 4","label":"ニコラエフスク 4","call_short":"G7330 S100 .J3","call_num":"G7330 S100 .J3 N4","recid":"ns278rg2414","websiteUrl":"https://purl.stanford.edu/ns278rg2414","title":"北樺太十万分一圖","ckey":10651303,"web_map":"","available":"true","iiiUrl":"https://purl.stanford.edu/ns278rg2414/iiif/manifest"},"geometry":{"bbox":[142,52.0000002,142.5,52.333333399999994],"type":"Polygon","coordinates":[[[142,52.0000002],[142,52.333333399999994],[142.5,52.333333399999994],[142.5,52.0000002],[142,52.0000002]]]}},{"type":"Feature","properties":{"Id":0,"Sheet_ID":"ニコラエフスク 8","label":"ニコラエフスク 8","call_short":"","call_num":"","recid":"","websiteUrl":"","title":"","ckey":0,"web_map":"","available":"false","iiiUrl":""},"geometry":{"bbox":[141.5,52.33333340000001,142,52.6666666],"type":"Polygon","coordinates":[[[141.5,52.33333340000001],[141.5,52.6666666],[142,52.6666666],[142,52.33333340000001],[141.5,52.33333340000001]]]}},{"type":"Feature","properties":{"Id":0,"Sheet_ID":"ニコラエフスク 3","label":"ニコラエフスク 3","call_short":"G7330 S100 .J3","call_num":"G7330 S100 .J3 N3","recid":"wg286sk8854","websiteUrl":"https://purl.stanford.edu/wg286sk8854","title":"北樺太十万分一圖","ckey":10651303,"web_map":"","available":"true","iiiUrl":"https://purl.stanford.edu/wg286sk8854/iiif/manifest"},"geometry":{"bbox":[142,52.33333340000001,142.5,52.6666666],"type":"Polygon","coordinates":[[[142,52.33333340000001],[142,52.6666666],[142.5,52.6666666],[142.5,52.33333340000001],[142,52.33333340000001]]]}},{"type":"Feature","properties":{"Id":0,"Sheet_ID":"ニコラエフスク 7","label":"ニコラエフスク 7","call_short":"G7330 S100 .J3","call_num":"G7330 S100 .J3 N7","recid":"jq293fs3654","websiteUrl":"https://purl.stanford.edu/jq293fs3654","title":"北樺太十万分一圖","ckey":10651303,"web_map":"","available":"true","iiiUrl":"https://purl.stanford.edu/jq293fs3654/iiif/manifest"},"geometry":{"bbox":[141.5,52.6666666,142,52.9999998],"type":"Polygon","coordinates":[[[141.5,52.6666666],[141.5,52.9999998],[142,52.9999998],[142,52.6666666],[141.5,52.6666666]]]}},{"type":"Feature","properties":{"Id":0,"Sheet_ID":"ニコラエフスク 2","label":"ニコラエフスク 2","call_short":"G7330 S100 .J3","call_num":"G7330 S100 .J3 N2","recid":"nd260xw4742","websiteUrl":"https://purl.stanford.edu/nd260xw4742","title":"北樺太十万分一圖","ckey":10651303,"web_map":"","available":"true","iiiUrl":"https://purl.stanford.edu/nd260xw4742/iiif/manifest"},"geometry":{"bbox":[142,52.6666666,142.5,52.9999998],"type":"Polygon","coordinates":[[[142,52.6666666],[142,52.9999998],[142.5,52.9999998],[142.5,52.6666666],[142,52.6666666]]]}},{"type":"Feature","properties":{"Id":0,"Sheet_ID":"ニコラエフスク 6","label":"ニコラエフスク 6","call_short":"G7330 S100 .J3","call_num":"G7330 S100 .J3 N6","recid":"wn848sb3242","websiteUrl":"https://purl.stanford.edu/wn848sb3242","title":"北樺太十万分一圖","ckey":10651303,"web_map":"","available":"true","iiiUrl":"https://purl.stanford.edu/wn848sb3242/iiif/manifest"},"geometry":{"bbox":[141.5,52.999999800000005,142,53.333333],"type":"Polygon","coordinates":[[[141.5,52.999999800000005],[141.5,53.333333],[142,53.333333],[142,52.999999800000005],[141.5,52.999999800000005]]]}},{"type":"Feature","properties":{"Id":0,"Sheet_ID":"ニコラエフスク 1","label":"ニコラエフスク 1","call_short":"G7330 S100 .J3","call_num":"G7330 S100 .J3 N1","recid":"ty939ny7975","websiteUrl":"https://purl.stanford.edu/ty939ny7975","title":"北樺太十万分一圖","ckey":10651303,"web_map":"","available":"true","iiiUrl":"https://purl.stanford.edu/ty939ny7975/iiif/manifest"},"geometry":{"bbox":[142,52.999999800000005,142.5,53.333333],"type":"Polygon","coordinates":[[[142,52.999999800000005],[142,53.333333],[142.5,53.333333],[142.5,52.999999800000005],[142,52.999999800000005]]]}},{"type":"Feature","properties":{"Id":0,"Sheet_ID":"オハ 22","label":"オハ 22","call_short":"G7330 S100 .J3","call_num":"G7330 S100 .J3 O22","recid":"zt426gk3570","websiteUrl":"https://purl.stanford.edu/zt426gk3570","title":"北樺太十万分一圖","ckey":10651303,"web_map":"","available":"true","iiiUrl":"https://purl.stanford.edu/zt426gk3570/iiif/manifest"},"geometry":{"bbox":[142.5,54.333333,143,54.666667],"type":"Polygon","coordinates":[[[142.5,54.333333],[142.5,54.666667],[143,54.666667],[143,54.333333],[142.5,54.333333]]]}},{"type":"Feature","properties":{"Id":0,"Sheet_ID":"ルイコフ 18","label":"ルイコフ 18","call_short":"G7330 S100 .J3","call_num":"G7330 S100 .J3 R18","recid":"zn741fv6201","websiteUrl":"https://purl.stanford.edu/zn741fv6201","title":"北樺太十万分一圖","ckey":10651303,"web_map":"","available":"true","iiiUrl":"https://purl.stanford.edu/zn741fv6201/iiif/manifest"},"geometry":{"bbox":[143,50.666667,143.5,51],"type":"Polygon","coordinates":[[[143,50.666667],[143,51],[143.5,51],[143.5,50.666667],[143,50.666667]]]}}],"name":"index_10651303"}
