{
"type": "FeatureCollection",
"name": "index_map",
"features": [
{ "type": "Feature", "properties": { "Id": 0, "Sheet_ID": "25. 羅子溝", "label": "25. 羅子溝", "call_short": "G7064 .P76 S100 .J3", "call_num": "G7064 .P76 S100 .J3 SHEET 25", "recid": "fx576cn7966", "websiteUrl": "https://purl.stanford.edu/fx576cn7966", "title": "満州十万分一圖 興凱湖", "ckey": 12373507, "available": true, "iiifUrl": "https://purl.stanford.edu/fx576cn7966/iiif/manifest" }, "geometry": { "type": "Polygon", "coordinates": [ [ [ 130.0, 43.333333 ], [ 131.0, 43.333333 ], [ 131.0, 43.9999998 ], [ 130.0, 43.9999998 ], [ 130.0, 43.333333 ] ] ] } },
{ "type": "Feature", "properties": { "Id": 0, "Sheet_ID": "20. ウオロシーロフ", "label": "20. ウオロシーロフ", "call_short": "G7064 .P76 S100 .J3", "call_num": "G7064 .P76 S100 .J3 SHEET 20", "recid": "fj616gc0115", "websiteUrl": "https://purl.stanford.edu/fj616gc0115", "title": "満州及西伯利十万分一圖 興凱湖", "ckey": 12373507, "available": true, "iiifUrl": "https://purl.stanford.edu/fj616gc0115/iiif/manifest" }, "geometry": { "type": "Polygon", "coordinates": [ [ [ 131.0, 43.333333 ], [ 132.0, 43.333333 ], [ 132.0, 43.9999998 ], [ 131.0, 43.9999998 ], [ 131.0, 43.333333 ] ] ] } },
{ "type": "Feature", "properties": { "Id": 0, "Sheet_ID": "15. オシノーフカ", "label": "15. オシノーフカ", "call_short": "G7064 .P76 S100 .J3", "call_num": "G7064 .P76 S100 .J3 SHEET 15", "recid": "dg028zh6411", "websiteUrl": "https://purl.stanford.edu/dg028zh6411", "title": "西伯利十万分一圖 興凱湖", "ckey": 12373507, "available": true, "iiifUrl": "https://purl.stanford.edu/dg028zh6411/iiif/manifest" }, "geometry": { "type": "Polygon", "coordinates": [ [ [ 132.0, 43.333333 ], [ 133.0, 43.333333 ], [ 133.0, 43.9999998 ], [ 132.0, 43.9999998 ], [ 132.0, 43.333333 ] ] ] } },
{ "type": "Feature", "properties": { "Id": 0, "Sheet_ID": "10. セルゲーエフカ ED.2", "label": "10. セルゲーエフカ ED.2", "call_short": "G7064 .P76 S100 .J3", "call_num": "G7064 .P76 S100 .J3 SHEET 10 ED.2", "recid": "dk554kj8887", "websiteUrl": "https://purl.stanford.edu/dk554kj8887", "title": "西伯利十万分一圖 興凱湖", "ckey": 12373507, "available": true, "iiifUrl": "https://purl.stanford.edu/dk554kj8887/iiif/manifest" }, "geometry": { "type": "Polygon", "coordinates": [ [ [ 133.0, 43.333333 ], [ 134.0, 43.333333 ], [ 134.0, 43.9999998 ], [ 133.0, 43.9999998 ], [ 133.0, 43.333333 ] ] ] } },
{ "type": "Feature", "properties": { "Id": 0, "Sheet_ID": "5. ペトロパウロスカヤ", "label": "5. ペトロパウロスカヤ", "call_short": "G7064 .P76 S100 .J3", "call_num": "G7064 .P76 S100 .J3 SHEET 5", "recid": "vw912xv9666", "websiteUrl": "https://purl.stanford.edu/vw912xv9666", "title": "西伯利十万分一圖 興凱湖", "ckey": 12373507, "available": true, "iiifUrl": "https://purl.stanford.edu/vw912xv9666/iiif/manifest" }, "geometry": { "type": "Polygon", "coordinates": [ [ [ 134.0, 43.333333 ], [ 135.0, 43.333333 ], [ 135.0, 43.9999998 ], [ 134.0, 43.9999998 ], [ 134.0, 43.333333 ] ] ] } },
{ "type": "Feature", "properties": { "Id": 0, "Sheet_ID": "24. 穆稜", "label": "24. 穆稜", "call_short": "G7064 .P76 S100 .J3", "call_num": "G7064 .P76 S100 .J3 SHEET 24", "recid": "fs018bt0492", "websiteUrl": "https://purl.stanford.edu/fs018bt0492", "title": "満州十万分一圖 興凱湖", "ckey": 12373507, "available": true, "iiifUrl": "https://purl.stanford.edu/fs018bt0492/iiif/manifest" }, "geometry": { "type": "Polygon", "coordinates": [ [ [ 130.0, 43.9999998 ], [ 131.0, 43.9999998 ], [ 131.0, 44.6666666 ], [ 130.0, 44.6666666 ], [ 130.0, 43.9999998 ] ] ] } },
{ "type": "Feature", "properties": { "Id": 0, "Sheet_ID": "19. 綏芬河", "label": "19. 綏芬河", "call_short": "G7064 .P76 S100 .J3", "call_num": "G7064 .P76 S100 .J3 SHEET 19", "recid": "xg303mr0716", "websiteUrl": "https://purl.stanford.edu/xg303mr0716", "title": "満州及西伯利十万分一圖 興凱湖", "ckey": 12373507, "available": true, "iiifUrl": "https://purl.stanford.edu/xg303mr0716/iiif/manifest" }, "geometry": { "type": "Polygon", "coordinates": [ [ [ 131.0, 43.9999998 ], [ 132.0, 43.9999998 ], [ 132.0, 44.6666666 ], [ 131.0, 44.6666666 ], [ 131.0, 43.9999998 ] ] ] } },
{ "type": "Feature", "properties": { "Id": 0, "Sheet_ID": "14. スパスコーエ", "label": "14. スパスコーエ", "call_short": "G7064 .P76 S100 .J3", "call_num": "G7064 .P76 S100 .J3 SHEET 14", "recid": "gp287kb6001", "websiteUrl": "https://purl.stanford.edu/gp287kb6001", "title": "西伯利十万分一圖 興凱湖", "ckey": 12373507, "available": true, "iiifUrl": "https://purl.stanford.edu/gp287kb6001/iiif/manifest" }, "geometry": { "type": "Polygon", "coordinates": [ [ [ 132.0, 43.9999998 ], [ 133.0, 43.9999998 ], [ 133.0, 44.6666666 ], [ 132.0, 44.6666666 ], [ 132.0, 43.9999998 ] ] ] } },
{ "type": "Feature", "properties": { "Id": 0, "Sheet_ID": "9. チゥグーエフカ", "label": "9. チゥグーエフカ", "call_short": "G7064 .P76 S100 .J3", "call_num": "G7064 .P76 S100 .J3 SHEET 9", "recid": "hx022dg8695", "websiteUrl": "https://purl.stanford.edu/hx022dg8695", "title": "西伯利十万分一圖 興凱湖", "ckey": 12373507, "available": true, "iiifUrl": "https://purl.stanford.edu/hx022dg8695/iiif/manifest" }, "geometry": { "type": "Polygon", "coordinates": [ [ [ 133.0, 43.9999998 ], [ 134.0, 43.9999998 ], [ 134.0, 44.6666666 ], [ 133.0, 44.6666666 ], [ 133.0, 43.9999998 ] ] ] } },
{ "type": "Feature", "properties": { "Id": 0, "Sheet_ID": "4. コクシャーロフカ", "label": "4. コクシャーロフカ", "call_short": "G7064 .P76 S100 .J3", "call_num": "G7064 .P76 S100 .J3 SHEET 4", "recid": "rc546pj3738", "websiteUrl": "https://purl.stanford.edu/rc546pj3738", "title": "西伯利十万分一圖 興凱湖", "ckey": 12373507, "available": true, "iiifUrl": "https://purl.stanford.edu/rc546pj3738/iiif/manifest" }, "geometry": { "type": "Polygon", "coordinates": [ [ [ 134.0, 43.9999998 ], [ 135.0, 43.9999998 ], [ 135.0, 44.6666666 ], [ 134.0, 44.6666666 ], [ 134.0, 43.9999998 ] ] ] } },
{ "type": "Feature", "properties": { "Id": 0, "Sheet_ID": "23. 梨樹鎮", "label": "23. 梨樹鎮", "call_short": "G7064 .P76 S100 .J3", "call_num": "G7064 .P76 S100 .J3 SHEET 23", "recid": "fh053hq6039", "websiteUrl": "https://purl.stanford.edu/fh053hq6039", "title": "満州及西伯利十万分一圖 興凱湖", "ckey": 12373507, "available": true, "iiifUrl": "https://purl.stanford.edu/fh053hq6039/iiif/manifest" }, "geometry": { "type": "Polygon", "coordinates": [ [ [ 130.0, 44.6666666 ], [ 131.0, 44.6666666 ], [ 131.0, 45.3333334 ], [ 130.0, 45.3333334 ], [ 130.0, 44.6666666 ] ] ] } },
{ "type": "Feature", "properties": { "Id": 0, "Sheet_ID": "18. 半截河", "label": "18. 半截河", "call_short": null, "call_num": null, "recid": null, "websiteUrl": null, "title": null, "ckey": 0, "available": false, "iiifUrl": null }, "geometry": { "type": "Polygon", "coordinates": [ [ [ 131.0, 44.6666666 ], [ 132.0, 44.6666666 ], [ 132.0, 45.3333334 ], [ 131.0, 45.3333334 ], [ 131.0, 44.6666666 ] ] ] } },
{ "type": "Feature", "properties": { "Id": 0, "Sheet_ID": "13. 興凱湖", "label": "13. 興凱湖", "call_short": null, "call_num": null, "recid": null, "websiteUrl": null, "title": null, "ckey": 0, "available": false, "iiifUrl": null }, "geometry": { "type": "Polygon", "coordinates": [ [ [ 132.0, 44.6666666 ], [ 133.0, 44.6666666 ], [ 133.0, 45.3333334 ], [ 132.0, 45.3333334 ], [ 132.0, 44.6666666 ] ] ] } },
{ "type": "Feature", "properties": { "Id": 0, "Sheet_ID": "8. ジニコフカ ED.2", "label": "8. ジニコフカ ED.2", "call_short": "G7064 .P76 S100 .J3", "call_num": "G7064 .P76 S100 .J3 SHEET 8 ED.2", "recid": "vc859rm1809", "websiteUrl": "https://purl.stanford.edu/vc859rm1809", "title": "満州及西伯利十万分一圖 興凱湖", "ckey": 12373507, "available": true, "iiifUrl": "https://purl.stanford.edu/vc859rm1809/iiif/manifest" }, "geometry": { "type": "Polygon", "coordinates": [ [ [ 133.0, 44.6666666 ], [ 134.0, 44.6666666 ], [ 134.0, 45.3333334 ], [ 133.0, 45.3333334 ], [ 133.0, 44.6666666 ] ] ] } },
{ "type": "Feature", "properties": { "Id": 0, "Sheet_ID": "3. ファンヂャーン", "label": "3. ファンヂャーン", "call_short": "G7064 .P76 S100 .J3", "call_num": "G7064 .P76 S100 .J3 SHEET 3", "recid": "ks227ks5379", "websiteUrl": "https://purl.stanford.edu/ks227ks5379", "title": "西伯利十万分一圖 興凱湖", "ckey": 12373507, "available": true, "iiifUrl": "https://purl.stanford.edu/ks227ks5379/iiif/manifest" }, "geometry": { "type": "Polygon", "coordinates": [ [ [ 134.0, 44.6666666 ], [ 135.0, 44.6666666 ], [ 135.0, 45.3333334 ], [ 134.0, 45.3333334 ], [ 134.0, 44.6666666 ] ] ] } },
{ "type": "Feature", "properties": { "Id": 0, "Sheet_ID": "22. 勃利 ED.2", "label": "22. 勃利 ED.2", "call_short": "G7064 .P76 S100 .J3", "call_num": "G7064 .P76 S100 .J3 SHEET 22 ED.2", "recid": "dx377md0306", "websiteUrl": "https://purl.stanford.edu/dx377md0306", "title": "満州十万分一圖 興凱湖", "ckey": 12373507, "available": true, "iiifUrl": "https://purl.stanford.edu/dx377md0306/iiif/manifest" }, "geometry": { "type": "Polygon", "coordinates": [ [ [ 130.0, 45.3333334 ], [ 131.0, 45.3333334 ], [ 131.0, 46.0000002 ], [ 130.0, 46.0000002 ], [ 130.0, 45.3333334 ] ] ] } },
{ "type": "Feature", "properties": { "Id": 0, "Sheet_ID": "17. 密山 ED.2", "label": "17. 密山 ED.2", "call_short": "G7064 .P76 S100 .J3", "call_num": "G7064 .P76 S100 .J3 SHEET 17 ED.2", "recid": "tt363jj5599", "websiteUrl": "https://purl.stanford.edu/tt363jj5599", "title": "満州及西伯利十万分一圖 興凱湖", "ckey": 12373507, "available": true, "iiifUrl": "https://purl.stanford.edu/tt363jj5599/iiif/manifest" }, "geometry": { "type": "Polygon", "coordinates": [ [ [ 131.0, 45.3333334 ], [ 132.0, 45.3333334 ], [ 132.0, 46.0000002 ], [ 131.0, 46.0000002 ], [ 131.0, 45.3333334 ] ] ] } },
{ "type": "Feature", "properties": { "Id": 0, "Sheet_ID": "12. 黒咀子", "label": "12. 黒咀子", "call_short": null, "call_num": null, "recid": null, "websiteUrl": null, "title": null, "ckey": 0, "available": false, "iiifUrl": null }, "geometry": { "type": "Polygon", "coordinates": [ [ [ 132.0, 45.3333334 ], [ 133.0, 45.3333334 ], [ 133.0, 46.0000002 ], [ 132.0, 46.0000002 ], [ 132.0, 45.3333334 ] ] ] } },
{ "type": "Feature", "properties": { "Id": 0, "Sheet_ID": "7. 虎林", "label": "7. 虎林", "call_short": "G7064 .P76 S100 .J3", "call_num": "G7064 .P76 S100 .J3 SHEET 7", "recid": "jy734th0795", "websiteUrl": "https://purl.stanford.edu/jy734th0795", "title": "満州及西伯利十万分一圖 興凱湖", "ckey": 12373507, "available": true, "iiifUrl": "https://purl.stanford.edu/jy734th0795/iiif/manifest" }, "geometry": { "type": "Polygon", "coordinates": [ [ [ 133.0, 45.3333334 ], [ 134.0, 45.3333334 ], [ 134.0, 46.0000002 ], [ 133.0, 46.0000002 ], [ 133.0, 45.3333334 ] ] ] } },
{ "type": "Feature", "properties": { "Id": 0, "Sheet_ID": "2. タワラーザ山", "label": "2. タワラーザ山", "call_short": "G7064 .P76 S100 .J3", "call_num": "G7064 .P76 S100 .J3 SHEET 2", "recid": "kp353fs6824", "websiteUrl": "https://purl.stanford.edu/kp353fs6824", "title": "西伯利十万分一圖 興凱湖", "ckey": 12373507, "available": true, "iiifUrl": "https://purl.stanford.edu/kp353fs6824/iiif/manifest" }, "geometry": { "type": "Polygon", "coordinates": [ [ [ 134.0, 45.3333334 ], [ 135.0, 45.3333334 ], [ 135.0, 46.0000002 ], [ 134.0, 46.0000002 ], [ 134.0, 45.3333334 ] ] ] } },
{ "type": "Feature", "properties": { "Id": 0, "Sheet_ID": "21. 永豊鎮 ED.2", "label": "21. 永豊鎮 ED.2", "call_short": "G7064 .P76 S100 .J3", "call_num": "G7064 .P76 S100 .J3 SHEET 21 ED.2", "recid": "hf648kw8665", "websiteUrl": "https://purl.stanford.edu/hf648kw8665", "title": "満州十万分一圖 興凱湖", "ckey": 12373507, "available": true, "iiifUrl": "https://purl.stanford.edu/hf648kw8665/iiif/manifest" }, "geometry": { "type": "Polygon", "coordinates": [ [ [ 130.0, 46.0000002 ], [ 131.0, 46.0000002 ], [ 131.0, 46.666667 ], [ 130.0, 46.666667 ], [ 130.0, 46.0000002 ] ] ] } },
{ "type": "Feature", "properties": { "Id": 0, "Sheet_ID": "16. 七星河鎮 ED.2", "label": "16. 七星河鎮 ED.2", "call_short": "G7064 .P76 S100 .J3", "call_num": "G7064 .P76 S100 .J3 SHEET 16 ED.2", "recid": "tg681fd9157", "websiteUrl": "https://purl.stanford.edu/tg681fd9157", "title": "満州十万分一圖 興凱湖", "ckey": 12373507, "available": true, "iiifUrl": "https://purl.stanford.edu/tg681fd9157/iiif/manifest" }, "geometry": { "type": "Polygon", "coordinates": [ [ [ 131.0, 46.0000002 ], [ 132.0, 46.0000002 ], [ 132.0, 46.666667 ], [ 131.0, 46.666667 ], [ 131.0, 46.0000002 ] ] ] } },
{ "type": "Feature", "properties": { "Id": 0, "Sheet_ID": "11. 寶清", "label": "11. 寶清", "call_short": "G7064 .P76 S100 .J3", "call_num": "G7064 .P76 S100 .J3 SHEET 11", "recid": "xz614vt5533", "websiteUrl": "https://purl.stanford.edu/xz614vt5533", "title": "満州十万分一圖 興凱湖", "ckey": 12373507, "available": true, "iiifUrl": "https://purl.stanford.edu/xz614vt5533/iiif/manifest" }, "geometry": { "type": "Polygon", "coordinates": [ [ [ 132.0, 46.0000002 ], [ 133.0, 46.0000002 ], [ 133.0, 46.666667 ], [ 132.0, 46.666667 ], [ 132.0, 46.0000002 ] ] ] } },
{ "type": "Feature", "properties": { "Id": 0, "Sheet_ID": "6. 大和鎮", "label": "6. 大和鎮", "call_short": "G7064 .P76 S100 .J3", "call_num": "G7064 .P76 S100 .J3 SHEET 6", "recid": "td934zs8757", "websiteUrl": "https://purl.stanford.edu/td934zs8757", "title": "満州及西伯利十万分一圖 興凱湖", "ckey": 12373507, "available": true, "iiifUrl": "https://purl.stanford.edu/td934zs8757/iiif/manifest" }, "geometry": { "type": "Polygon", "coordinates": [ [ [ 133.0, 46.0000002 ], [ 134.0, 46.0000002 ], [ 134.0, 46.666667 ], [ 133.0, 46.666667 ], [ 133.0, 46.0000002 ] ] ] } },
{ "type": "Feature", "properties": { "Id": 0, "Sheet_ID": "1. ボチローヴォ驛", "label": "1. ボチローヴォ驛", "call_short": "G7064 .P76 S100 .J3", "call_num": "G7064 .P76 S100 .J3 SHEET 1", "recid": "hf426kn0166", "websiteUrl": "https://purl.stanford.edu/hf426kn0166", "title": "満州及西伯利十万分一圖 興凱湖", "ckey": 12373507, "available": true, "iiifUrl": "https://purl.stanford.edu/hf426kn0166/iiif/manifest" }, "geometry": { "type": "Polygon", "coordinates": [ [ [ 134.0, 46.0000002 ], [ 135.0, 46.0000002 ], [ 135.0, 46.666667 ], [ 134.0, 46.666667 ], [ 134.0, 46.0000002 ] ] ] } },
{ "type": "Feature", "properties": { "Id": 0, "Sheet_ID": "8. ジニコフカ", "label": "8. ジニコフカ", "call_short": "G7064 .P76 S100 .J3", "call_num": "G7064 .P76 S100 .J3 SHEET 8", "recid": "hr097bv5409", "websiteUrl": "https://purl.stanford.edu/hr097bv5409", "title": "満州及西伯利十万分一圖 興凱湖", "ckey": 12373507, "available": true, "iiifUrl": "https://purl.stanford.edu/hr097bv5409/iiif/manifest" }, "geometry": { "type": "Polygon", "coordinates": [ [ [ 133.0, 44.6666666 ], [ 134.0, 44.6666666 ], [ 134.0, 45.3333334 ], [ 133.0, 45.3333334 ], [ 133.0, 44.6666666 ] ] ] } },
{ "type": "Feature", "properties": { "Id": 0, "Sheet_ID": "10. セルゲーエフカ", "label": "10. セルゲーエフカ", "call_short": "G7064 .P76 S100 .J3", "call_num": "G7064 .P76 S100 .J3 SHEET 10", "recid": "rv301bh5122", "websiteUrl": "https://purl.stanford.edu/rv301bh5122", "title": "西伯利十万分一圖 興凱湖", "ckey": 12373507, "available": true, "iiifUrl": "https://purl.stanford.edu/rv301bh5122/iiif/manifest" }, "geometry": { "type": "Polygon", "coordinates": [ [ [ 133.0, 43.333333 ], [ 134.0, 43.333333 ], [ 134.0, 43.9999998 ], [ 133.0, 43.9999998 ], [ 133.0, 43.333333 ] ] ] } },
{ "type": "Feature", "properties": { "Id": 0, "Sheet_ID": "16. 七星河鎮", "label": "16. 七星河鎮", "call_short": "G7064 .P76 S100 .J3", "call_num": "G7064 .P76 S100 .J3 SHEET 16", "recid": "tj388jp1613", "websiteUrl": "https://purl.stanford.edu/tj388jp1613", "title": "満州十万分一圖 興凱湖", "ckey": 12373507, "available": true, "iiifUrl": "https://purl.stanford.edu/tj388jp1613/iiif/manifest" }, "geometry": { "type": "Polygon", "coordinates": [ [ [ 131.0, 46.0000002 ], [ 132.0, 46.0000002 ], [ 132.0, 46.666667 ], [ 131.0, 46.666667 ], [ 131.0, 46.0000002 ] ] ] } },
{ "type": "Feature", "properties": { "Id": 0, "Sheet_ID": "17. 密山", "label": "17. 密山", "call_short": "G7064 .P76 S100 .J3", "call_num": "G7064 .P76 S100 .J3 SHEET 17", "recid": "dw452qz6310", "websiteUrl": "https://purl.stanford.edu/dw452qz6310", "title": "満州及西伯利十万分一圖 興凱湖", "ckey": 12373507, "available": true, "iiifUrl": "https://purl.stanford.edu/dw452qz6310/iiif/manifest" }, "geometry": { "type": "Polygon", "coordinates": [ [ [ 131.0, 45.3333334 ], [ 132.0, 45.3333334 ], [ 132.0, 46.0000002 ], [ 131.0, 46.0000002 ], [ 131.0, 45.3333334 ] ] ] } },
{ "type": "Feature", "properties": { "Id": 0, "Sheet_ID": "21. 永豊鎮", "label": "21. 永豊鎮", "call_short": "G7064 .P76 S100 .J3", "call_num": "G7064 .P76 S100 .J3 SHEET 21", "recid": "ww890zp8338", "websiteUrl": "https://purl.stanford.edu/ww890zp8338", "title": "満州十万分一圖 興凱湖", "ckey": 12373507, "available": true, "iiifUrl": "https://purl.stanford.edu/ww890zp8338/iiif/manifest" }, "geometry": { "type": "Polygon", "coordinates": [ [ [ 130.0, 46.0000002 ], [ 131.0, 46.0000002 ], [ 131.0, 46.666667 ], [ 130.0, 46.666667 ], [ 130.0, 46.0000002 ] ] ] } },
{ "type": "Feature", "properties": { "Id": 0, "Sheet_ID": "22. 勃利", "label": "22. 勃利", "call_short": "G7064 .P76 S100 .J3", "call_num": "G7064 .P76 S100 .J3 SHEET 22", "recid": "tj423qz5386", "websiteUrl": "https://purl.stanford.edu/tj423qz5386", "title": "満州十万分一圖 興凱湖", "ckey": 12373507, "available": true, "iiifUrl": "https://purl.stanford.edu/tj423qz5386/iiif/manifest" }, "geometry": { "type": "Polygon", "coordinates": [ [ [ 130.0, 45.3333334 ], [ 131.0, 45.3333334 ], [ 131.0, 46.0000002 ], [ 130.0, 46.0000002 ], [ 130.0, 45.3333334 ] ] ] } },
{ "type": "Feature", "properties": { "Id": 0, "Sheet_ID": "23. 梨樹鎮 ED.2", "label": "23. 梨樹鎮 ED.2", "call_short": "G7064 .P76 S100 .J3", "call_num": "G7064 .P76 S100 .J3 SHEET 23 ED.2", "recid": "rz798hb5022", "websiteUrl": "https://purl.stanford.edu/rz798hb5022", "title": "満州及西伯利十万分一圖 興凱湖", "ckey": 12373507, "available": true, "iiifUrl": "https://purl.stanford.edu/rz798hb5022/iiif/manifest" }, "geometry": { "type": "Polygon", "coordinates": [ [ [ 130.0, 44.6666666 ], [ 131.0, 44.6666666 ], [ 131.0, 45.3333334 ], [ 130.0, 45.3333334 ], [ 130.0, 44.6666666 ] ] ] } }
]
}
