{
"type": "FeatureCollection",
"name": "index_map",
"features": [
{ "type": "Feature", "properties": { "Id": 0, "Sheet_ID": "4. マスカット - アデン - カイロ", "label": "4. マスカット - アデン - カイロ", "call_short": "G5671 .P6 S3000 .J3", "call_num": "G5671 .P6 S3000 .J3 SHEET 4", "recid": "jr757xq1156", "websiteUrl": "https://purl.stanford.edu/jr757xq1156", "title": "三百万分一歐亞航空圖", "ckey": 10496600, "available": true, "iiifUrl": "https://purl.stanford.edu/jr757xq1156/iiif/manifest" }, "geometry": { "type": "Polygon", "coordinates": [ [ [ 30.0, 10.0 ], [ 60.0, 10.0 ], [ 60.0, 26.7777777 ], [ 30.0, 26.7777777 ], [ 30.0, 10.0 ] ] ] } },
{ "type": "Feature", "properties": { "Id": 0, "Sheet_ID": "10. アテネ - ローマ", "label": "10. アテネ - ローマ", "call_short": "G5671 .P6 S3000 .J3", "call_num": "G5671 .P6 S3000 .J3 SHEET 10", "recid": "br551zk3484", "websiteUrl": "https://purl.stanford.edu/br551zk3484", "title": "三百万分一歐亞航空圖", "ckey": 10496600, "available": true, "iiifUrl": "https://purl.stanford.edu/br551zk3484/iiif/manifest" }, "geometry": { "type": "Polygon", "coordinates": [ [ [ 0.0, 26.7777777 ], [ 30.0, 26.7777777 ], [ 30.0, 43.5555553 ], [ 0.0, 43.5555553 ], [ 0.0, 26.7777777 ] ] ] } },
{ "type": "Feature", "properties": { "Id": 0, "Sheet_ID": "3. テヘラン - バグダッド - アンカラ ED.2", "label": "3. テヘラン - バグダッド - アンカラ ED.2", "call_short": "G5671 .P6 S3000 .J3", "call_num": "G5671 .P6 S3000 .J3 SHEET 3 ED.2", "recid": "jt828dz7002", "websiteUrl": "https://purl.stanford.edu/jt828dz7002", "title": "三百万分一歐亞航空圖", "ckey": 10496600, "available": true, "iiifUrl": "https://purl.stanford.edu/jt828dz7002/iiif/manifest" }, "geometry": { "type": "Polygon", "coordinates": [ [ [ 30.0, 26.7777777 ], [ 60.0, 26.7777777 ], [ 60.0, 43.5555553 ], [ 30.0, 43.5555553 ], [ 30.0, 26.7777777 ] ] ] } },
{ "type": "Feature", "properties": { "Id": 0, "Sheet_ID": "9. ワルソー - ベルリン - ロンドン", "label": "9. ワルソー - ベルリン - ロンドン", "call_short": "G5671 .P6 S3000 .J3", "call_num": "G5671 .P6 S3000 .J3 SHEET 9", "recid": "sz797tq2898", "websiteUrl": "https://purl.stanford.edu/sz797tq2898", "title": "三百万分一歐亞航空圖", "ckey": 10496600, "available": true, "iiifUrl": "https://purl.stanford.edu/sz797tq2898/iiif/manifest" }, "geometry": { "type": "Polygon", "coordinates": [ [ [ 0.0, 43.5555553 ], [ 30.0, 43.5555553 ], [ 30.0, 60.333333 ], [ 0.0, 60.333333 ], [ 0.0, 43.5555553 ] ] ] } },
{ "type": "Feature", "properties": { "Id": 0, "Sheet_ID": "2. レニングラード - モスクワ - スターリングラード", "label": "2. レニングラード - モスクワ - スターリングラード", "call_short": "G5671 .P6 S3000 .J3", "call_num": "G5671 .P6 S3000 .J3 SHEET 2", "recid": "bp959ws4503", "websiteUrl": "https://purl.stanford.edu/bp959ws4503", "title": "三百万分一歐亞航空圖", "ckey": 10496600, "available": true, "iiifUrl": "https://purl.stanford.edu/bp959ws4503/iiif/manifest" }, "geometry": { "type": "Polygon", "coordinates": [ [ [ 30.0, 43.5555553 ], [ 60.0, 43.5555553 ], [ 60.0, 60.333333 ], [ 30.0, 60.333333 ], [ 30.0, 43.5555553 ] ] ] } },
{ "type": "Feature", "properties": { "Id": 0, "Sheet_ID": "16. ロンドン - ダブリン", "label": "16. ロンドン - ダブリン", "call_short": null, "call_num": null, "recid": null, "websiteUrl": null, "title": null, "ckey": 0, "available": false, "iiifUrl": null }, "geometry": { "type": "Polygon", "coordinates": [ [ [ 0.0, 43.5555553 ], [ 0.0, 60.333333 ], [ -15.0, 60.333333 ], [ -15.0, 43.5555553 ], [ 0.0, 43.5555553 ] ] ] } },
{ "type": "Feature", "properties": { "Id": 0, "Sheet_ID": "17. マドリード - モロッコ", "label": "17. マドリード - モロッコ", "call_short": "G5671 .P6 S3000 .J3", "call_num": "G5671 .P6 S3000 .J3 SHEET 17", "recid": "gd707bb3888", "websiteUrl": "https://purl.stanford.edu/gd707bb3888", "title": "三百万分一歐亞航空圖", "ckey": 10496600, "available": true, "iiifUrl": "https://purl.stanford.edu/gd707bb3888/iiif/manifest" }, "geometry": { "type": "Polygon", "coordinates": [ [ [ 0.0, 26.7777777 ], [ 0.0, 43.5555553 ], [ -15.0, 43.5555553 ], [ -15.0, 26.7777777 ], [ 0.0, 26.7777777 ] ] ] } },
{ "type": "Feature", "properties": { "Id": 0, "Sheet_ID": "3. テヘラン - バグダッド - アンカラ", "label": "3. テヘラン - バグダッド - アンカラ", "call_short": "G5671 .P6 S3000 .J3", "call_num": "G5671 .P6 S3000 .J3 SHEET 3", "recid": "vf304sd2579", "websiteUrl": "https://purl.stanford.edu/vf304sd2579", "title": "三百万分一歐亞航空圖", "ckey": 10496600, "available": true, "iiifUrl": "https://purl.stanford.edu/vf304sd2579/iiif/manifest" }, "geometry": { "type": "Polygon", "coordinates": [ [ [ 30.0, 26.7777777 ], [ 60.0, 26.7777777 ], [ 60.0, 43.5555553 ], [ 30.0, 43.5555553 ], [ 30.0, 26.7777777 ] ] ] } }
]
}
