{
"type": "FeatureCollection",
"name": "index_map",
"features": [
{ "type": "Feature", "properties": { "Id": 0, "Sheet_ID": "六號", "label": "六號", "call_short": "G7064 .O415 1926 .J2", "call_num": "G7064 .O415 1926 .J2 SHEET 6", "recid": "pg095cv6739", "websiteUrl": "https://purl.stanford.edu/pg095cv6739", "title": "一万分一圖オハ近傍", "ckey": 10642345, "available": true, "iiifUrl": "https://purl.stanford.edu/pg095cv6739/iiif/manifest" }, "geometry": { "type": "Polygon", "coordinates": [ [ [ 142.898611, 53.521944 ], [ 142.9902775, 53.521944 ], [ 142.9902775, 53.559722 ], [ 142.898611, 53.559722 ], [ 142.898611, 53.521944 ] ] ] } },
{ "type": "Feature", "properties": { "Id": 0, "Sheet_ID": "三號", "label": "三號", "call_short": "G7064 .O415 1926 .J2", "call_num": "G7064 .O415 1926 .J2 SHEET 3", "recid": "fg138qw4185", "websiteUrl": "https://purl.stanford.edu/fg138qw4185", "title": "一万分一圖オハ近傍", "ckey": 10642345, "available": true, "iiifUrl": "https://purl.stanford.edu/fg138qw4185/iiif/manifest" }, "geometry": { "type": "Polygon", "coordinates": [ [ [ 142.9902775, 53.521944 ], [ 143.081944, 53.521944 ], [ 143.081944, 53.559722 ], [ 142.9902775, 53.559722 ], [ 142.9902775, 53.521944 ] ] ] } },
{ "type": "Feature", "properties": { "Id": 0, "Sheet_ID": "五號", "label": "五號", "call_short": "G7064 .O415 1926 .J2", "call_num": "G7064 .O415 1926 .J2 SHEET 5", "recid": "cp135ck6474", "websiteUrl": "https://purl.stanford.edu/cp135ck6474", "title": "一万分一圖オハ近傍", "ckey": 10642345, "available": true, "iiifUrl": "https://purl.stanford.edu/cp135ck6474/iiif/manifest" }, "geometry": { "type": "Polygon", "coordinates": [ [ [ 142.898611, 53.559722 ], [ 142.9902775, 53.559722 ], [ 142.9902775, 53.5975 ], [ 142.898611, 53.5975 ], [ 142.898611, 53.559722 ] ] ] } },
{ "type": "Feature", "properties": { "Id": 0, "Sheet_ID": "二號", "label": "二號", "call_short": "G7064 .O415 1926 .J2", "call_num": "G7064 .O415 1926 .J2 SHEET 2", "recid": "nb733hg5680", "websiteUrl": "https://purl.stanford.edu/nb733hg5680", "title": "一万分一圖オハ近傍", "ckey": 10642345, "available": true, "iiifUrl": "https://purl.stanford.edu/nb733hg5680/iiif/manifest" }, "geometry": { "type": "Polygon", "coordinates": [ [ [ 142.9902775, 53.559722 ], [ 143.081944, 53.559722 ], [ 143.081944, 53.5975 ], [ 142.9902775, 53.5975 ], [ 142.9902775, 53.559722 ] ] ] } },
{ "type": "Feature", "properties": { "Id": 0, "Sheet_ID": "四號", "label": "四號", "call_short": "G7064 .O415 1926 .J2", "call_num": "G7064 .O415 1926 .J2 SHEET 4", "recid": "bf590qz9932", "websiteUrl": "https://purl.stanford.edu/bf590qz9932", "title": "一万分一圖オハ近傍", "ckey": 10642345, "available": true, "iiifUrl": "https://purl.stanford.edu/bf590qz9932/iiif/manifest" }, "geometry": { "type": "Polygon", "coordinates": [ [ [ 142.898611, 53.5975 ], [ 142.9902775, 53.5975 ], [ 142.9902775, 53.635278 ], [ 142.898611, 53.635278 ], [ 142.898611, 53.5975 ] ] ] } },
{ "type": "Feature", "properties": { "Id": 0, "Sheet_ID": "一號", "label": "一號", "call_short": "G7064 .O415 1926 .J2", "call_num": "G7064 .O415 1926 .J2 SHEET 1", "recid": "fg028vd4641", "websiteUrl": "https://purl.stanford.edu/fg028vd4641", "title": "一万分一圖オハ近傍", "ckey": 10642345, "available": true, "iiifUrl": "https://purl.stanford.edu/fg028vd4641/iiif/manifest" }, "geometry": { "type": "Polygon", "coordinates": [ [ [ 142.9902775, 53.5975 ], [ 143.081944, 53.5975 ], [ 143.081944, 53.635278 ], [ 142.9902775, 53.635278 ], [ 142.9902775, 53.5975 ] ] ] } }
]
}
