{"type":"FeatureCollection","features":[{"type":"Feature","properties":{"Id":0,"Sheet_ID":"七南ニ501","label":"七南ニ501","call_short":"","call_num":"","recid":"","websiteUrl":"","title":"","ckey":"0","web_map":"","available":"false","iiiUrl":""},"geometry":{"bbox":[147.5,-11.666667,150,-10.00000025],"type":"Polygon","coordinates":[[[147.5,-11.666667],[147.5,-10.00000025],[150,-10.00000025],[150,-11.666667],[147.5,-11.666667]]]}},{"type":"Feature","properties":{"Id":0,"Sheet_ID":"六南ニ503","label":"六南ニ503","call_short":"","call_num":"","recid":"","websiteUrl":"","title":"","ckey":"0","web_map":"","available":"false","iiiUrl":""},"geometry":{"bbox":[150,-11.666667,152.5,-10.00000025],"type":"Polygon","coordinates":[[[150,-11.666667],[150,-10.00000025],[152.5,-10.00000025],[152.5,-11.666667],[150,-11.666667]]]}},{"type":"Feature","properties":{"Id":0,"Sheet_ID":"六南ニ501","label":"六南ニ501","call_short":"","call_num":"","recid":"","websiteUrl":"","title":"","ckey":"0","web_map":"","available":"false","iiiUrl":""},"geometry":{"bbox":[152.5,-11.666667,155,-10.00000025],"type":"Polygon","coordinates":[[[152.5,-11.666667],[152.5,-10.00000025],[155,-10.00000025],[155,-11.666667],[152.5,-11.666667]]]}},{"type":"Feature","properties":{"Id":0,"Sheet_ID":"八南ハ504","label":"八南ハ504","call_short":"","call_num":"","recid":"","websiteUrl":"","title":"","ckey":"0","web_map":"","available":"false","iiiUrl":""},"geometry":{"bbox":[140,-10.00000025,142.5,-8.333333499999998],"type":"Polygon","coordinates":[[[140,-10.00000025],[140,-8.333333499999998],[142.5,-8.333333499999998],[142.5,-10.00000025],[140,-10.00000025]]]}},{"type":"Feature","properties":{"Id":0,"Sheet_ID":"八南ハ502","label":"八南ハ502","call_short":"","call_num":"","recid":"","websiteUrl":"","title":"","ckey":"0","web_map":"","available":"false","iiiUrl":""},"geometry":{"bbox":[142.5,-10.00000025,145,-8.333333499999998],"type":"Polygon","coordinates":[[[142.5,-10.00000025],[142.5,-8.333333499999998],[145,-8.333333499999998],[145,-10.00000025],[142.5,-10.00000025]]]}},{"type":"Feature","properties":{"Id":0,"Sheet_ID":"七南ハ504","label":"七南ハ504","call_short":"","call_num":"","recid":"","websiteUrl":"","title":"","ckey":"0","web_map":"","available":"false","iiiUrl":""},"geometry":{"bbox":[145,-10.00000025,147.5,-8.333333499999998],"type":"Polygon","coordinates":[[[145,-10.00000025],[145,-8.333333499999998],[147.5,-8.333333499999998],[147.5,-10.00000025],[145,-10.00000025]]]}},{"type":"Feature","properties":{"Id":0,"Sheet_ID":"七南ハ502","label":"七南ハ502","call_short":"","call_num":"","recid":"","websiteUrl":"","title":"","ckey":"0","web_map":"","available":"false","iiiUrl":""},"geometry":{"bbox":[147.5,-10.00000025,150,-8.333333499999998],"type":"Polygon","coordinates":[[[147.5,-10.00000025],[147.5,-8.333333499999998],[150,-8.333333499999998],[150,-10.00000025],[147.5,-10.00000025]]]}},{"type":"Feature","properties":{"Id":0,"Sheet_ID":"六南ハ504","label":"六南ハ504","call_short":"","call_num":"","recid":"","websiteUrl":"","title":"","ckey":"0","web_map":"","available":"false","iiiUrl":""},"geometry":{"bbox":[150,-10.00000025,152.5,-8.333333499999998],"type":"Polygon","coordinates":[[[150,-10.00000025],[150,-8.333333499999998],[152.5,-8.333333499999998],[152.5,-10.00000025],[150,-10.00000025]]]}},{"type":"Feature","properties":{"Id":0,"Sheet_ID":"六南ハ502","label":"六南ハ502","call_short":"","call_num":"","recid":"","websiteUrl":"","title":"","ckey":"0","web_map":"","available":"false","iiiUrl":""},"geometry":{"bbox":[152.5,-10.00000025,155,-8.333333499999998],"type":"Polygon","coordinates":[[[152.5,-10.00000025],[152.5,-8.333333499999998],[155,-8.333333499999998],[155,-10.00000025],[152.5,-10.00000025]]]}},{"type":"Feature","properties":{"Id":0,"Sheet_ID":"壹壹南ハ503","label":"壹壹南ハ503","call_short":"","call_num":"","recid":"","websiteUrl":"","title":"","ckey":"0","web_map":"","available":"false","iiiUrl":""},"geometry":{"bbox":[125.00000000000001,-8.3333335,127.50000000000001,-6.66666675],"type":"Polygon","coordinates":[[[125.00000000000001,-8.3333335],[125.00000000000001,-6.66666675],[127.50000000000001,-6.66666675],[127.50000000000001,-8.3333335],[125.00000000000001,-8.3333335]]]}},{"type":"Feature","properties":{"Id":0,"Sheet_ID":"壹壹南ハ501","label":"壹壹南ハ501","call_short":"","call_num":"","recid":"","websiteUrl":"","title":"","ckey":"0","web_map":"","available":"false","iiiUrl":""},"geometry":{"bbox":[127.50000000000001,-8.3333335,130,-6.66666675],"type":"Polygon","coordinates":[[[127.50000000000001,-8.3333335],[127.50000000000001,-6.66666675],[130,-6.66666675],[130,-8.3333335],[127.50000000000001,-8.3333335]]]}},{"type":"Feature","properties":{"Id":0,"Sheet_ID":"壹〇南ハ503","label":"壹〇南ハ503","call_short":"","call_num":"","recid":"","websiteUrl":"","title":"","ckey":"0","web_map":"","available":"false","iiiUrl":""},"geometry":{"bbox":[130,-8.3333335,132.5,-6.66666675],"type":"Polygon","coordinates":[[[130,-8.3333335],[130,-6.66666675],[132.5,-6.66666675],[132.5,-8.3333335],[130,-8.3333335]]]}},{"type":"Feature","properties":{"Id":0,"Sheet_ID":"壹〇南ハ501","label":"壹〇南ハ501","call_short":"G8073 .P3 S500 .J31","call_num":"G8073 .P3 S500 .J31 10S/HA501","recid":"gt419dk5707","websiteUrl":"https://purl.stanford.edu/gt419dk5707","title":"パプア五十万分一圖","ckey":"10652613","web_map":"","available":"true","iiiUrl":"https://purl.stanford.edu/gt419dk5707/iiif/manifest"},"geometry":{"bbox":[132.5,-8.3333335,135,-6.66666675],"type":"Polygon","coordinates":[[[132.5,-8.3333335],[132.5,-6.66666675],[135,-6.66666675],[135,-8.3333335],[132.5,-8.3333335]]]}},{"type":"Feature","properties":{"Id":0,"Sheet_ID":"九南ハ501","label":"九南ハ501","call_short":"","call_num":"","recid":"","websiteUrl":"","title":"","ckey":"0","web_map":"","available":"false","iiiUrl":""},"geometry":{"bbox":[137.5,-8.3333335,140,-6.66666675],"type":"Polygon","coordinates":[[[137.5,-8.3333335],[137.5,-6.66666675],[140,-6.66666675],[140,-8.3333335],[137.5,-8.3333335]]]}},{"type":"Feature","properties":{"Id":0,"Sheet_ID":"八南ハ503","label":"八南ハ503","call_short":"","call_num":"","recid":"","websiteUrl":"","title":"","ckey":"0","web_map":"","available":"false","iiiUrl":""},"geometry":{"bbox":[140,-8.3333335,142.5,-6.66666675],"type":"Polygon","coordinates":[[[140,-8.3333335],[140,-6.66666675],[142.5,-6.66666675],[142.5,-8.3333335],[140,-8.3333335]]]}},{"type":"Feature","properties":{"Id":0,"Sheet_ID":"八南ハ501","label":"八南ハ501","call_short":"","call_num":"","recid":"","websiteUrl":"","title":"","ckey":"0","web_map":"","available":"false","iiiUrl":""},"geometry":{"bbox":[142.5,-8.3333335,145,-6.66666675],"type":"Polygon","coordinates":[[[142.5,-8.3333335],[142.5,-6.66666675],[145,-6.66666675],[145,-8.3333335],[142.5,-8.3333335]]]}},{"type":"Feature","properties":{"Id":0,"Sheet_ID":"七南ハ503","label":"七南ハ503","call_short":"","call_num":"","recid":"","websiteUrl":"","title":"","ckey":"0","web_map":"","available":"false","iiiUrl":""},"geometry":{"bbox":[145,-8.3333335,147.5,-6.66666675],"type":"Polygon","coordinates":[[[145,-8.3333335],[145,-6.66666675],[147.5,-6.66666675],[147.5,-8.3333335],[145,-8.3333335]]]}},{"type":"Feature","properties":{"Id":0,"Sheet_ID":"七南ハ501","label":"七南ハ501","call_short":"","call_num":"","recid":"","websiteUrl":"","title":"","ckey":"0","web_map":"","available":"false","iiiUrl":""},"geometry":{"bbox":[147.5,-8.3333335,150,-6.66666675],"type":"Polygon","coordinates":[[[147.5,-8.3333335],[147.5,-6.66666675],[150,-6.66666675],[150,-8.3333335],[147.5,-8.3333335]]]}},{"type":"Feature","properties":{"Id":0,"Sheet_ID":"壹壹南ロ502","label":"壹壹南ロ502","call_short":"","call_num":"","recid":"","websiteUrl":"","title":"","ckey":"0","web_map":"","available":"false","iiiUrl":""},"geometry":{"bbox":[127.50000000000001,-6.66666675,130,-5],"type":"Polygon","coordinates":[[[127.50000000000001,-6.66666675],[127.50000000000001,-5],[130,-5],[130,-6.66666675],[127.50000000000001,-6.66666675]]]}},{"type":"Feature","properties":{"Id":0,"Sheet_ID":"壹〇南ロ504","label":"壹〇南ロ504","call_short":"","call_num":"","recid":"","websiteUrl":"","title":"","ckey":"0","web_map":"","available":"false","iiiUrl":""},"geometry":{"bbox":[130,-6.66666675,132.5,-5],"type":"Polygon","coordinates":[[[130,-6.66666675],[130,-5],[132.5,-5],[132.5,-6.66666675],[130,-6.66666675]]]}},{"type":"Feature","properties":{"Id":0,"Sheet_ID":"壹〇南ロ502","label":"壹〇南ロ502","call_short":"","call_num":"","recid":"","websiteUrl":"","title":"","ckey":"0","web_map":"","available":"false","iiiUrl":""},"geometry":{"bbox":[132.5,-6.66666675,135,-5],"type":"Polygon","coordinates":[[[132.5,-6.66666675],[132.5,-5],[135,-5],[135,-6.66666675],[132.5,-6.66666675]]]}},{"type":"Feature","properties":{"Id":0,"Sheet_ID":"九南ロ504","label":"九南ロ504","call_short":"","call_num":"","recid":"","websiteUrl":"","title":"","ckey":"0","web_map":"","available":"false","iiiUrl":""},"geometry":{"bbox":[135,-6.66666675,137.5,-5],"type":"Polygon","coordinates":[[[135,-6.66666675],[135,-5],[137.5,-5],[137.5,-6.66666675],[135,-6.66666675]]]}},{"type":"Feature","properties":{"Id":0,"Sheet_ID":"九南ロ502","label":"九南ロ502","call_short":"G8073 .P3 S500 .J31","call_num":"G8073 .P3 S500 .J31 9S/RO502","recid":"xg623mt4306","websiteUrl":"https://purl.stanford.edu/xg623mt4306","title":"パプア五十万分一圖","ckey":"10652613","web_map":"","available":"true","iiiUrl":"https://purl.stanford.edu/xg623mt4306/iiif/manifest"},"geometry":{"bbox":[137.5,-6.66666675,140,-5],"type":"Polygon","coordinates":[[[137.5,-6.66666675],[137.5,-5],[140,-5],[140,-6.66666675],[137.5,-6.66666675]]]}},{"type":"Feature","properties":{"Id":0,"Sheet_ID":"八南ロ504","label":"八南ロ504","call_short":"","call_num":"","recid":"","websiteUrl":"","title":"","ckey":"0","web_map":"","available":"false","iiiUrl":""},"geometry":{"bbox":[140,-6.66666675,142.5,-5],"type":"Polygon","coordinates":[[[140,-6.66666675],[140,-5],[142.5,-5],[142.5,-6.66666675],[140,-6.66666675]]]}},{"type":"Feature","properties":{"Id":0,"Sheet_ID":"八南ロ502","label":"八南ロ502","call_short":"","call_num":"","recid":"","websiteUrl":"","title":"","ckey":"0","web_map":"","available":"false","iiiUrl":""},"geometry":{"bbox":[142.5,-6.66666675,145,-5],"type":"Polygon","coordinates":[[[142.5,-6.66666675],[142.5,-5],[145,-5],[145,-6.66666675],[142.5,-6.66666675]]]}},{"type":"Feature","properties":{"Id":0,"Sheet_ID":"七南ロ504","label":"七南ロ504","call_short":"","call_num":"","recid":"","websiteUrl":"","title":"","ckey":"0","web_map":"","available":"false","iiiUrl":""},"geometry":{"bbox":[145,-6.66666675,147.5,-5],"type":"Polygon","coordinates":[[[145,-6.66666675],[145,-5],[147.5,-5],[147.5,-6.66666675],[145,-6.66666675]]]}},{"type":"Feature","properties":{"Id":0,"Sheet_ID":"七南ロ502","label":"七南ロ502","call_short":"","call_num":"","recid":"","websiteUrl":"","title":"","ckey":"0","web_map":"","available":"false","iiiUrl":""},"geometry":{"bbox":[147.5,-6.66666675,150,-5],"type":"Polygon","coordinates":[[[147.5,-6.66666675],[147.5,-5],[150,-5],[150,-6.66666675],[147.5,-6.66666675]]]}},{"type":"Feature","properties":{"Id":0,"Sheet_ID":"六南ロ504","label":"六南ロ504","call_short":"","call_num":"","recid":"","websiteUrl":"","title":"","ckey":"0","web_map":"","available":"false","iiiUrl":""},"geometry":{"bbox":[150,-6.66666675,152.5,-5],"type":"Polygon","coordinates":[[[150,-6.66666675],[150,-5],[152.5,-5],[152.5,-6.66666675],[150,-6.66666675]]]}},{"type":"Feature","properties":{"Id":0,"Sheet_ID":"壹壹南ロ503","label":"壹壹南ロ503","call_short":"","call_num":"","recid":"","websiteUrl":"","title":"","ckey":"0","web_map":"","available":"false","iiiUrl":""},"geometry":{"bbox":[125.00000000000001,-5,127.50000000000001,-3.33333325],"type":"Polygon","coordinates":[[[125.00000000000001,-5],[125.00000000000001,-3.33333325],[127.50000000000001,-3.33333325],[127.50000000000001,-5],[125.00000000000001,-5]]]}},{"type":"Feature","properties":{"Id":0,"Sheet_ID":"壹壹南ロ501","label":"壹壹南ロ501","call_short":"","call_num":"","recid":"","websiteUrl":"","title":"","ckey":"0","web_map":"","available":"false","iiiUrl":""},"geometry":{"bbox":[127.50000000000001,-5,130,-3.33333325],"type":"Polygon","coordinates":[[[127.50000000000001,-5],[127.50000000000001,-3.33333325],[130,-3.33333325],[130,-5],[127.50000000000001,-5]]]}},{"type":"Feature","properties":{"Id":0,"Sheet_ID":"壹〇南ロ503","label":"壹〇南ロ503","call_short":"","call_num":"","recid":"","websiteUrl":"","title":"","ckey":"0","web_map":"","available":"false","iiiUrl":""},"geometry":{"bbox":[130,-5,132.5,-3.33333325],"type":"Polygon","coordinates":[[[130,-5],[130,-3.33333325],[132.5,-3.33333325],[132.5,-5],[130,-5]]]}},{"type":"Feature","properties":{"Id":0,"Sheet_ID":"壹〇南ロ501","label":"壹〇南ロ501","call_short":"","call_num":"","recid":"","websiteUrl":"","title":"","ckey":"0","web_map":"","available":"false","iiiUrl":""},"geometry":{"bbox":[132.5,-5,135,-3.33333325],"type":"Polygon","coordinates":[[[132.5,-5],[132.5,-3.33333325],[135,-3.33333325],[135,-5],[132.5,-5]]]}},{"type":"Feature","properties":{"Id":0,"Sheet_ID":"九南ロ503","label":"九南ロ503","call_short":"","call_num":"","recid":"","websiteUrl":"","title":"","ckey":"0","web_map":"","available":"false","iiiUrl":""},"geometry":{"bbox":[135,-5,137.5,-3.33333325],"type":"Polygon","coordinates":[[[135,-5],[135,-3.33333325],[137.5,-3.33333325],[137.5,-5],[135,-5]]]}},{"type":"Feature","properties":{"Id":0,"Sheet_ID":"九南ロ501","label":"九南ロ501","call_short":"","call_num":"","recid":"","websiteUrl":"","title":"","ckey":"0","web_map":"","available":"false","iiiUrl":""},"geometry":{"bbox":[137.5,-5,140,-3.33333325],"type":"Polygon","coordinates":[[[137.5,-5],[137.5,-3.33333325],[140,-3.33333325],[140,-5],[137.5,-5]]]}},{"type":"Feature","properties":{"Id":0,"Sheet_ID":"八南ロ503","label":"八南ロ503","call_short":"","call_num":"","recid":"","websiteUrl":"","title":"","ckey":"0","web_map":"","available":"false","iiiUrl":""},"geometry":{"bbox":[140,-5,142.5,-3.33333325],"type":"Polygon","coordinates":[[[140,-5],[140,-3.33333325],[142.5,-3.33333325],[142.5,-5],[140,-5]]]}},{"type":"Feature","properties":{"Id":0,"Sheet_ID":"八南ロ501","label":"八南ロ501","call_short":"","call_num":"","recid":"","websiteUrl":"","title":"","ckey":"0","web_map":"","available":"false","iiiUrl":""},"geometry":{"bbox":[142.5,-5,145,-3.33333325],"type":"Polygon","coordinates":[[[142.5,-5],[142.5,-3.33333325],[145,-3.33333325],[145,-5],[142.5,-5]]]}},{"type":"Feature","properties":{"Id":0,"Sheet_ID":"七南ロ503","label":"七南ロ503","call_short":"","call_num":"","recid":"","websiteUrl":"","title":"","ckey":"0","web_map":"","available":"false","iiiUrl":""},"geometry":{"bbox":[145,-5,147.5,-3.33333325],"type":"Polygon","coordinates":[[[145,-5],[145,-3.33333325],[147.5,-3.33333325],[147.5,-5],[145,-5]]]}},{"type":"Feature","properties":{"Id":0,"Sheet_ID":"七南ロ501","label":"七南ロ501","call_short":"","call_num":"","recid":"","websiteUrl":"","title":"","ckey":"0","web_map":"","available":"false","iiiUrl":""},"geometry":{"bbox":[147.5,-5,150,-3.33333325],"type":"Polygon","coordinates":[[[147.5,-5],[147.5,-3.33333325],[150,-3.33333325],[150,-5],[147.5,-5]]]}},{"type":"Feature","properties":{"Id":0,"Sheet_ID":"六南ロ503","label":"六南ロ503","call_short":"","call_num":"","recid":"","websiteUrl":"","title":"","ckey":"0","web_map":"","available":"false","iiiUrl":""},"geometry":{"bbox":[150,-5,152.5,-3.33333325],"type":"Polygon","coordinates":[[[150,-5],[150,-3.33333325],[152.5,-3.33333325],[152.5,-5],[150,-5]]]}},{"type":"Feature","properties":{"Id":0,"Sheet_ID":"壹壹南イ504","label":"壹壹南イ504","call_short":"","call_num":"","recid":"","websiteUrl":"","title":"","ckey":"0","web_map":"","available":"false","iiiUrl":""},"geometry":{"bbox":[125.00000000000001,-3.333333249999999,127.50000000000001,-1.666666499999999],"type":"Polygon","coordinates":[[[125.00000000000001,-3.333333249999999],[125.00000000000001,-1.666666499999999],[127.50000000000001,-1.666666499999999],[127.50000000000001,-3.333333249999999],[125.00000000000001,-3.333333249999999]]]}},{"type":"Feature","properties":{"Id":0,"Sheet_ID":"壹壹南イ502","label":"壹壹南イ502","call_short":"","call_num":"","recid":"","websiteUrl":"","title":"","ckey":"0","web_map":"","available":"false","iiiUrl":""},"geometry":{"bbox":[127.50000000000001,-3.333333249999999,130,-1.666666499999999],"type":"Polygon","coordinates":[[[127.50000000000001,-3.333333249999999],[127.50000000000001,-1.666666499999999],[130,-1.666666499999999],[130,-3.333333249999999],[127.50000000000001,-3.333333249999999]]]}},{"type":"Feature","properties":{"Id":0,"Sheet_ID":"壹〇南イ504","label":"壹〇南イ504","call_short":"","call_num":"","recid":"","websiteUrl":"","title":"","ckey":"0","web_map":"","available":"false","iiiUrl":""},"geometry":{"bbox":[130,-3.333333249999999,132.5,-1.666666499999999],"type":"Polygon","coordinates":[[[130,-3.333333249999999],[130,-1.666666499999999],[132.5,-1.666666499999999],[132.5,-3.333333249999999],[130,-3.333333249999999]]]}},{"type":"Feature","properties":{"Id":0,"Sheet_ID":"壹〇南イ502","label":"壹〇南イ502","call_short":"","call_num":"","recid":"","websiteUrl":"","title":"","ckey":"0","web_map":"","available":"false","iiiUrl":""},"geometry":{"bbox":[132.5,-3.333333249999999,135,-1.666666499999999],"type":"Polygon","coordinates":[[[132.5,-3.333333249999999],[132.5,-1.666666499999999],[135,-1.666666499999999],[135,-3.333333249999999],[132.5,-3.333333249999999]]]}},{"type":"Feature","properties":{"Id":0,"Sheet_ID":"九南イ504","label":"九南イ504","call_short":"","call_num":"","recid":"","websiteUrl":"","title":"","ckey":"0","web_map":"","available":"false","iiiUrl":""},"geometry":{"bbox":[135,-3.333333249999999,137.5,-1.666666499999999],"type":"Polygon","coordinates":[[[135,-3.333333249999999],[135,-1.666666499999999],[137.5,-1.666666499999999],[137.5,-3.333333249999999],[135,-3.333333249999999]]]}},{"type":"Feature","properties":{"Id":0,"Sheet_ID":"九南イ502","label":"九南イ502","call_short":"","call_num":"","recid":"","websiteUrl":"","title":"","ckey":"0","web_map":"","available":"false","iiiUrl":""},"geometry":{"bbox":[137.5,-3.333333249999999,140,-1.666666499999999],"type":"Polygon","coordinates":[[[137.5,-3.333333249999999],[137.5,-1.666666499999999],[140,-1.666666499999999],[140,-3.333333249999999],[137.5,-3.333333249999999]]]}},{"type":"Feature","properties":{"Id":0,"Sheet_ID":"八南イ504","label":"八南イ504","call_short":"","call_num":"","recid":"","websiteUrl":"","title":"","ckey":"0","web_map":"","available":"false","iiiUrl":""},"geometry":{"bbox":[140,-3.333333249999999,142.5,-1.666666499999999],"type":"Polygon","coordinates":[[[140,-3.333333249999999],[140,-1.666666499999999],[142.5,-1.666666499999999],[142.5,-3.333333249999999],[140,-3.333333249999999]]]}},{"type":"Feature","properties":{"Id":0,"Sheet_ID":"八南イ502","label":"八南イ502","call_short":"","call_num":"","recid":"","websiteUrl":"","title":"","ckey":"0","web_map":"","available":"false","iiiUrl":""},"geometry":{"bbox":[142.5,-3.333333249999999,145,-1.666666499999999],"type":"Polygon","coordinates":[[[142.5,-3.333333249999999],[142.5,-1.666666499999999],[145,-1.666666499999999],[145,-3.333333249999999],[142.5,-3.333333249999999]]]}},{"type":"Feature","properties":{"Id":0,"Sheet_ID":"七南イ504","label":"七南イ504","call_short":"","call_num":"","recid":"","websiteUrl":"","title":"","ckey":"0","web_map":"","available":"false","iiiUrl":""},"geometry":{"bbox":[145,-3.333333249999999,147.5,-1.666666499999999],"type":"Polygon","coordinates":[[[145,-3.333333249999999],[145,-1.666666499999999],[147.5,-1.666666499999999],[147.5,-3.333333249999999],[145,-3.333333249999999]]]}},{"type":"Feature","properties":{"Id":0,"Sheet_ID":"七南イ502","label":"七南イ502","call_short":"","call_num":"","recid":"","websiteUrl":"","title":"","ckey":"0","web_map":"","available":"false","iiiUrl":""},"geometry":{"bbox":[147.5,-3.333333249999999,150,-1.666666499999999],"type":"Polygon","coordinates":[[[147.5,-3.333333249999999],[147.5,-1.666666499999999],[150,-1.666666499999999],[150,-3.333333249999999],[147.5,-3.333333249999999]]]}},{"type":"Feature","properties":{"Id":0,"Sheet_ID":"六南イ504","label":"六南イ504","call_short":"","call_num":"","recid":"","websiteUrl":"","title":"","ckey":"0","web_map":"","available":"false","iiiUrl":""},"geometry":{"bbox":[150,-3.333333249999999,152.5,-1.666666499999999],"type":"Polygon","coordinates":[[[150,-3.333333249999999],[150,-1.666666499999999],[152.5,-1.666666499999999],[152.5,-3.333333249999999],[150,-3.333333249999999]]]}},{"type":"Feature","properties":{"Id":0,"Sheet_ID":"六南イ502","label":"六南イ502","call_short":"","call_num":"","recid":"","websiteUrl":"","title":"","ckey":"0","web_map":"","available":"false","iiiUrl":""},"geometry":{"bbox":[152.5,-3.333333249999999,155,-1.666666499999999],"type":"Polygon","coordinates":[[[152.5,-3.333333249999999],[152.5,-1.666666499999999],[155,-1.666666499999999],[155,-3.333333249999999],[152.5,-3.333333249999999]]]}},{"type":"Feature","properties":{"Id":0,"Sheet_ID":"壹〇南イ503","label":"壹〇南イ503","call_short":"","call_num":"","recid":"","websiteUrl":"","title":"","ckey":"0","web_map":"","available":"false","iiiUrl":""},"geometry":{"bbox":[130,-1.6666664999999998,132.5,2.500000002569891e-7],"type":"Polygon","coordinates":[[[130,-1.6666664999999998],[130,2.500000002569891e-7],[132.5,2.500000002569891e-7],[132.5,-1.6666664999999998],[130,-1.6666664999999998]]]}},{"type":"Feature","properties":{"Id":0,"Sheet_ID":"壹〇南イ501","label":"壹〇南イ501","call_short":"","call_num":"","recid":"","websiteUrl":"","title":"","ckey":"0","web_map":"","available":"false","iiiUrl":""},"geometry":{"bbox":[132.5,-1.6666664999999998,135,2.500000002569891e-7],"type":"Polygon","coordinates":[[[132.5,-1.6666664999999998],[132.5,2.500000002569891e-7],[135,2.500000002569891e-7],[135,-1.6666664999999998],[132.5,-1.6666664999999998]]]}},{"type":"Feature","properties":{"Id":0,"Sheet_ID":"九南イ503","label":"九南イ503","call_short":"","call_num":"","recid":"","websiteUrl":"","title":"","ckey":"0","web_map":"","available":"false","iiiUrl":""},"geometry":{"bbox":[135,-1.6666664999999998,137.5,2.500000002569891e-7],"type":"Polygon","coordinates":[[[135,-1.6666664999999998],[135,2.500000002569891e-7],[137.5,2.500000002569891e-7],[137.5,-1.6666664999999998],[135,-1.6666664999999998]]]}},{"type":"Feature","properties":{"Id":0,"Sheet_ID":"九南イ501","label":"九南イ501","call_short":"G8073 .P3 S500 .J31","call_num":"G8073 .P3 S500 .J31 9S/I501","recid":"md824zj7912","websiteUrl":"https://purl.stanford.edu/md824zj7912","title":"パプア五十万分一圖","ckey":"10652613","web_map":"","available":"true","iiiUrl":"https://purl.stanford.edu/md824zj7912/iiif/manifest"},"geometry":{"bbox":[137.5,-1.6666664999999998,140,2.500000002569891e-7],"type":"Polygon","coordinates":[[[137.5,-1.6666664999999998],[137.5,2.500000002569891e-7],[140,2.500000002569891e-7],[140,-1.6666664999999998],[137.5,-1.6666664999999998]]]}},{"type":"Feature","properties":{"Id":0,"Sheet_ID":"八南イ501","label":"八南イ501","call_short":"","call_num":"","recid":"","websiteUrl":"","title":"","ckey":"0","web_map":"","available":"false","iiiUrl":""},"geometry":{"bbox":[142.5,-1.6666664999999998,145,2.500000002569891e-7],"type":"Polygon","coordinates":[[[142.5,-1.6666664999999998],[142.5,2.500000002569891e-7],[145,2.500000002569891e-7],[145,-1.6666664999999998],[142.5,-1.6666664999999998]]]}},{"type":"Feature","properties":{"Id":0,"Sheet_ID":"七南イ503","label":"七南イ503","call_short":"","call_num":"","recid":"","websiteUrl":"","title":"","ckey":"0","web_map":"","available":"false","iiiUrl":""},"geometry":{"bbox":[145,-1.6666664999999998,147.5,2.500000002569891e-7],"type":"Polygon","coordinates":[[[145,-1.6666664999999998],[145,2.500000002569891e-7],[147.5,2.500000002569891e-7],[147.5,-1.6666664999999998],[145,-1.6666664999999998]]]}},{"type":"Feature","properties":{"Id":0,"Sheet_ID":"七南イ501","label":"七南イ501","call_short":"","call_num":"","recid":"","websiteUrl":"","title":"","ckey":"0","web_map":"","available":"false","iiiUrl":""},"geometry":{"bbox":[147.5,-1.6666664999999998,150,2.500000002569891e-7],"type":"Polygon","coordinates":[[[147.5,-1.6666664999999998],[147.5,2.500000002569891e-7],[150,2.500000002569891e-7],[150,-1.6666664999999998],[147.5,-1.6666664999999998]]]}},{"type":"Feature","properties":{"Id":0,"Sheet_ID":"壹〇イ504","label":"壹〇イ504","call_short":"","call_num":"","recid":"","websiteUrl":"","title":"","ckey":"0","web_map":"","available":"false","iiiUrl":""},"geometry":{"bbox":[130,2.499999993688107e-7,132.5,1.6666669999999995],"type":"Polygon","coordinates":[[[130,2.499999993688107e-7],[130,1.6666669999999995],[132.5,1.6666669999999995],[132.5,2.499999993688107e-7],[130,2.499999993688107e-7]]]}},{"type":"Feature","properties":{"Id":0,"Sheet_ID":"壹〇イ502","label":"壹〇イ502","call_short":"","call_num":"","recid":"","websiteUrl":"","title":"","ckey":"0","web_map":"","available":"false","iiiUrl":""},"geometry":{"bbox":[132.5,2.499999993688107e-7,135,1.6666669999999995],"type":"Polygon","coordinates":[[[132.5,2.499999993688107e-7],[132.5,1.6666669999999995],[135,1.6666669999999995],[135,2.499999993688107e-7],[132.5,2.499999993688107e-7]]]}}],"name":"index_10652613"}
