{
"type": "FeatureCollection",
"name": "index_map",
"features": [
{ "type": "Feature", "properties": { "Id": 0, "Sheet_ID": "欧「ソ」産業資源圖", "label": "欧「ソ」産業資源圖", "call_short": "G7012 .M1 1944 .J2", "call_num": "G7012 .M1 1944 .J2", "recid": "yp256wc3773", "websiteUrl": "https://purl.stanford.edu/yp256wc3773", "title": "欧「ソ」産業資源圖", "ckey": 11352800, "available": true, "iiifUrl": "https://purl.stanford.edu/yp256wc3773/iiif/manifest" }, "geometry": { "type": "Polygon", "coordinates": [ [ [ 15.133333, 38.333333 ], [ 80.05, 38.333333 ], [ 80.05, 73.533333 ], [ 15.133333, 73.533333 ], [ 15.133333, 38.333333 ] ] ] } }
]
}
