{"type":"FeatureCollection","features":[{"type":"Feature","properties":{"Id":0,"Sheet_ID":"6. 新京南部","label":"6. 新京南部","call_short":"G7824 .C415 S10 .J3","call_num":"G7824 .C415 S10 .J3 SHEET 6","recid":"hp534tn3178","websiteUrl":"https://purl.stanford.edu/hp534tn3178","title":"一万分一地形圖 新京近傍","ckey":10425360,"web_map":"","available":"true","iiifUrl":"https://purl.stanford.edu/hp534tn3178/iiif/manifest"},"geometry":{"bbox":[125.27500000000002,43.833333,125.32500000000002,43.866666333333335],"type":"Polygon","coordinates":[[[125.27500000000002,43.833333],[125.27500000000002,43.866666333333335],[125.32500000000002,43.866666333333335],[125.32500000000002,43.833333],[125.27500000000002,43.833333]]]}},{"type":"Feature","properties":{"Id":0,"Sheet_ID":"3. 新京東南部","label":"3. 新京東南部","call_short":"G7824 .C415 S10 .J3","call_num":"G7824 .C415 S10 .J3 SHEET 3","recid":"ym723pq7305","websiteUrl":"https://purl.stanford.edu/ym723pq7305","title":"一万分一地形圖 新京近傍","ckey":10425360,"web_map":"","available":"true","iiifUrl":"https://purl.stanford.edu/ym723pq7305/iiif/manifest"},"geometry":{"bbox":[125.32500000000002,43.833333,125.37500000000001,43.866666333333335],"type":"Polygon","coordinates":[[[125.32500000000002,43.833333],[125.32500000000002,43.866666333333335],[125.37500000000001,43.866666333333335],[125.37500000000001,43.833333],[125.32500000000002,43.833333]]]}},{"type":"Feature","properties":{"Id":0,"Sheet_ID":"5. 新京首部","label":"5. 新京首部","call_short":"G7824 .C415 S10 .J3","call_num":"G7824 .C415 S10 .J3 SHEET 5","recid":"xc630mh2565","websiteUrl":"https://purl.stanford.edu/xc630mh2565","title":"一万分一地形圖 新京近傍","ckey":10425360,"web_map":"","available":"true","iiifUrl":"https://purl.stanford.edu/xc630mh2565/iiif/manifest"},"geometry":{"bbox":[125.27500000000002,43.866666333333335,125.32500000000002,43.899999666666666],"type":"Polygon","coordinates":[[[125.27500000000002,43.866666333333335],[125.27500000000002,43.899999666666666],[125.32500000000002,43.899999666666666],[125.32500000000002,43.866666333333335],[125.27500000000002,43.866666333333335]]]}},{"type":"Feature","properties":{"Id":0,"Sheet_ID":"2. 新京東部","label":"2. 新京東部","call_short":"G7824 .C415 S10 .J3","call_num":"G7824 .C415 S10 .J3 SHEET 2","recid":"cg974bk3465","websiteUrl":"https://purl.stanford.edu/cg974bk3465","title":"一万分一地形圖 新京近傍","ckey":10425360,"web_map":"","available":"true","iiifUrl":"https://purl.stanford.edu/cg974bk3465/iiif/manifest"},"geometry":{"bbox":[125.32500000000002,43.866666333333335,125.37500000000001,43.899999666666666],"type":"Polygon","coordinates":[[[125.32500000000002,43.866666333333335],[125.32500000000002,43.899999666666666],[125.37500000000001,43.899999666666666],[125.37500000000001,43.866666333333335],[125.32500000000002,43.866666333333335]]]}},{"type":"Feature","properties":{"Id":0,"Sheet_ID":"4. 新京北部","label":"4. 新京北部","call_short":"G7824 .C415 S10 .J3","call_num":"G7824 .C415 S10 .J3 SHEET 4","recid":"mc014zx3391","websiteUrl":"https://purl.stanford.edu/mc014zx3391","title":"一万分一地形圖 新京近傍","ckey":10425360,"web_map":"","available":"true","iiifUrl":"https://purl.stanford.edu/mc014zx3391/iiif/manifest"},"geometry":{"bbox":[125.27500000000002,43.899999666666666,125.32500000000002,43.933333000000005],"type":"Polygon","coordinates":[[[125.27500000000002,43.899999666666666],[125.27500000000002,43.933333000000005],[125.32500000000002,43.933333000000005],[125.32500000000002,43.899999666666666],[125.27500000000002,43.899999666666666]]]}},{"type":"Feature","properties":{"Id":0,"Sheet_ID":"1. 新京東北部","label":"1. 新京東北部","call_short":"G7824 .C415 S10 .J3","call_num":"G7824 .C415 S10 .J3 SHEET 1","recid":"jc790cg6868","websiteUrl":"https://purl.stanford.edu/jc790cg6868","title":"一万分一地形圖 新京近傍","ckey":10425360,"web_map":"","available":"true","iiifUrl":"https://purl.stanford.edu/jc790cg6868/iiif/manifest"},"geometry":{"bbox":[125.32500000000002,43.899999666666666,125.37500000000001,43.933333000000005],"type":"Polygon","coordinates":[[[125.32500000000002,43.899999666666666],[125.32500000000002,43.933333000000005],[125.37500000000001,43.933333000000005],[125.37500000000001,43.899999666666666],[125.32500000000002,43.899999666666666]]]}}],"name":"index_10425360"}
