{"type":"FeatureCollection","features":[{"type":"Feature","properties":{"Id":0,"Sheet_ID":"1-17. 相川","label":"1-17. 相川","call_short":"G7964 .Y9 A1 1900 .Y8","call_num":"G7964 .Y9 A1 1900 .Y8 SHEET 1-17","recid":"zk072fg0325","websiteUrl":"https://purl.stanford.edu/zk072fg0325","title":"由良要塞近傍","ckey":10645328,"web_map":"","available":"true","iiifUrl":"https://purl.stanford.edu/zk072fg0325/iiif/manifest"},"geometry":{"bbox":[134.85000000000002,34.233333,134.9,34.26666633333333],"type":"Polygon","coordinates":[[[134.85000000000002,34.233333],[134.85000000000002,34.26666633333333],[134.9,34.26666633333333],[134.9,34.233333],[134.85000000000002,34.233333]]]}},{"type":"Feature","properties":{"Id":0,"Sheet_ID":"1-15. 中津川","label":"1-15. 中津川","call_short":"G7964 .Y9 A1 1900 .Y8","call_num":"G7964 .Y9 A1 1900 .Y8 SHEET 1-15","recid":"kw295cb0171","websiteUrl":"https://purl.stanford.edu/kw295cb0171","title":"由良要塞近傍","ckey":10645328,"web_map":"","available":"true","iiifUrl":"https://purl.stanford.edu/kw295cb0171/iiif/manifest"},"geometry":{"bbox":[134.9,34.233333,134.95000000000002,34.26666633333333],"type":"Polygon","coordinates":[[[134.9,34.233333],[134.9,34.26666633333333],[134.95000000000002,34.26666633333333],[134.95000000000002,34.233333],[134.9,34.233333]]]}},{"type":"Feature","properties":{"Id":0,"Sheet_ID":"1-12. 生石崎","label":"1-12. 生石崎","call_short":"G7964 .Y9 A1 1900 .Y8","call_num":"G7964 .Y9 A1 1900 .Y8 SHEET 1-12","recid":"mf722jv3953","websiteUrl":"https://purl.stanford.edu/mf722jv3953","title":"由良要塞近傍","ckey":10645328,"web_map":"","available":"true","iiifUrl":"https://purl.stanford.edu/mf722jv3953/iiif/manifest"},"geometry":{"bbox":[134.95,34.233333,135,34.26666633333333],"type":"Polygon","coordinates":[[[134.95,34.233333],[134.95,34.26666633333333],[135,34.26666633333333],[135,34.233333],[134.95,34.233333]]]}},{"type":"Feature","properties":{"Id":0,"Sheet_ID":"1-16. 柏原山","label":"1-16. 柏原山","call_short":"G7964 .Y9 A1 1900 .Y8","call_num":"G7964 .Y9 A1 1900 .Y8 SHEET 1-16","recid":"kv620gq7044","websiteUrl":"https://purl.stanford.edu/kv620gq7044","title":"由良要塞近傍","ckey":10645328,"web_map":"","available":"true","iiifUrl":"https://purl.stanford.edu/kv620gq7044/iiif/manifest"},"geometry":{"bbox":[134.85000000000002,34.26666633333333,134.9,34.299999666666665],"type":"Polygon","coordinates":[[[134.85000000000002,34.26666633333333],[134.85000000000002,34.299999666666665],[134.9,34.299999666666665],[134.9,34.26666633333333],[134.85000000000002,34.26666633333333]]]}},{"type":"Feature","properties":{"Id":0,"Sheet_ID":"1-14. 由良","label":"1-14. 由良","call_short":"G7964 .Y9 A1 1900 .Y8","call_num":"G7964 .Y9 A1 1900 .Y8 SHEET 1-14","recid":"nf122pv0942","websiteUrl":"https://purl.stanford.edu/nf122pv0942","title":"由良要塞近傍","ckey":10645328,"web_map":"","available":"true","iiifUrl":"https://purl.stanford.edu/nf122pv0942/iiif/manifest"},"geometry":{"bbox":[134.9,34.26666633333333,134.95000000000002,34.299999666666665],"type":"Polygon","coordinates":[[[134.9,34.26666633333333],[134.9,34.299999666666665],[134.95000000000002,34.299999666666665],[134.95000000000002,34.26666633333333],[134.9,34.26666633333333]]]}},{"type":"Feature","properties":{"Id":0,"Sheet_ID":"1-11. 高崎砲台","label":"1-11. 高崎砲台","call_short":"G7964 .Y9 A1 1900 .Y8","call_num":"G7964 .Y9 A1 1900 .Y8 SHEET 1-11","recid":"pc325nz6465","websiteUrl":"https://purl.stanford.edu/pc325nz6465","title":"由良要塞近傍","ckey":10645328,"web_map":"","available":"true","iiifUrl":"https://purl.stanford.edu/pc325nz6465/iiif/manifest"},"geometry":{"bbox":[134.95,34.26666633333333,135,34.299999666666665],"type":"Polygon","coordinates":[[[134.95,34.26666633333333],[134.95,34.299999666666665],[135,34.299999666666665],[135,34.26666633333333],[134.95,34.26666633333333]]]}},{"type":"Feature","properties":{"Id":0,"Sheet_ID":"1-10. 友ヶ嶋","label":"1-10. 友ヶ嶋","call_short":"","call_num":"","recid":"","websiteUrl":"","title":"","ckey":0,"web_map":"","available":"false","iiifUrl":""},"geometry":{"bbox":[135,34.26666633333333,135.05,34.299999666666665],"type":"Polygon","coordinates":[[[135,34.26666633333333],[135,34.299999666666665],[135.05,34.299999666666665],[135.05,34.26666633333333],[135,34.26666633333333]]]}},{"type":"Feature","properties":{"Id":0,"Sheet_ID":"1-13. 内田","label":"1-13. 内田","call_short":"G7964 .Y9 A1 1900 .Y8","call_num":"G7964 .Y9 A1 1900 .Y8 SHEET 1-13","recid":"gn465zy1578","websiteUrl":"https://purl.stanford.edu/gn465zy1578","title":"由良要塞近傍","ckey":10645328,"web_map":"","available":"true","iiifUrl":"https://purl.stanford.edu/gn465zy1578/iiif/manifest"},"geometry":{"bbox":[134.9,34.29999966666667,134.95000000000002,34.33333300000001],"type":"Polygon","coordinates":[[[134.9,34.29999966666667],[134.9,34.33333300000001],[134.95000000000002,34.33333300000001],[134.95000000000002,34.29999966666667],[134.9,34.29999966666667]]]}},{"type":"Feature","properties":{"Id":0,"Sheet_ID":"2-11. 高嶋","label":"2-11. 高嶋","call_short":"G7964 .Y9 A1 1900 .Y8","call_num":"G7964 .Y9 A1 1900 .Y8 SHEET 2-11","recid":"hc846yd9845","websiteUrl":"https://purl.stanford.edu/hc846yd9845","title":"由良要塞近傍","ckey":10645328,"web_map":"","available":"true","iiifUrl":"https://purl.stanford.edu/hc846yd9845/iiif/manifest"},"geometry":{"bbox":[134.55,34.166667,134.60000000000002,34.200000249999995],"type":"Polygon","coordinates":[[[134.55,34.166667],[134.55,34.200000249999995],[134.60000000000002,34.200000249999995],[134.60000000000002,34.166667],[134.55,34.166667]]]}},{"type":"Feature","properties":{"Id":0,"Sheet_ID":"2-8. 土佐泊浦","label":"2-8. 土佐泊浦","call_short":"G7964 .Y9 A1 1900 .Y8","call_num":"G7964 .Y9 A1 1900 .Y8 SHEET 2-8","recid":"kq165pk4044","websiteUrl":"https://purl.stanford.edu/kq165pk4044","title":"由良要塞近傍","ckey":10645328,"web_map":"","available":"true","iiifUrl":"https://purl.stanford.edu/kq165pk4044/iiif/manifest"},"geometry":{"bbox":[134.60000000000002,34.166667,134.65000000000003,34.200000249999995],"type":"Polygon","coordinates":[[[134.60000000000002,34.166667],[134.60000000000002,34.200000249999995],[134.65000000000003,34.200000249999995],[134.65000000000003,34.166667],[134.60000000000002,34.166667]]]}},{"type":"Feature","properties":{"Id":0,"Sheet_ID":"2-10. 小嶋田","label":"2-10. 小嶋田","call_short":"G7964 .Y9 A1 1900 .Y8","call_num":"G7964 .Y9 A1 1900 .Y8 SHEET 2-10","recid":"kh135ft4620","websiteUrl":"https://purl.stanford.edu/kh135ft4620","title":"由良要塞近傍","ckey":10645328,"web_map":"","available":"true","iiifUrl":"https://purl.stanford.edu/kh135ft4620/iiif/manifest"},"geometry":{"bbox":[134.55,34.200000249999995,134.60000000000002,34.23333349999999],"type":"Polygon","coordinates":[[[134.55,34.200000249999995],[134.55,34.23333349999999],[134.60000000000002,34.23333349999999],[134.60000000000002,34.200000249999995],[134.55,34.200000249999995]]]}},{"type":"Feature","properties":{"Id":0,"Sheet_ID":"2-7. 大毛","label":"2-7. 大毛","call_short":"G7964 .Y9 A1 1900 .Y8","call_num":"G7964 .Y9 A1 1900 .Y8 SHEET 2-7","recid":"dd790pw5056","websiteUrl":"https://purl.stanford.edu/dd790pw5056","title":"由良要塞近傍","ckey":10645328,"web_map":"","available":"true","iiifUrl":"https://purl.stanford.edu/dd790pw5056/iiif/manifest"},"geometry":{"bbox":[134.60000000000002,34.200000249999995,134.65000000000003,34.23333349999999],"type":"Polygon","coordinates":[[[134.60000000000002,34.200000249999995],[134.60000000000002,34.23333349999999],[134.65000000000003,34.23333349999999],[134.65000000000003,34.200000249999995],[134.60000000000002,34.200000249999995]]]}},{"type":"Feature","properties":{"Id":0,"Sheet_ID":"2-3. 吹上","label":"2-3. 吹上","call_short":"G7964 .Y9 A1 1900 .Y8","call_num":"G7964 .Y9 A1 1900 .Y8 SHEET 2-3","recid":"xy448pv0218","websiteUrl":"https://purl.stanford.edu/xy448pv0218","title":"由良要塞近傍","ckey":10645328,"web_map":"","available":"true","iiifUrl":"https://purl.stanford.edu/xy448pv0218/iiif/manifest"},"geometry":{"bbox":[134.7,34.200000249999995,134.75000000000003,34.23333349999999],"type":"Polygon","coordinates":[[[134.7,34.200000249999995],[134.7,34.23333349999999],[134.75000000000003,34.23333349999999],[134.75000000000003,34.200000249999995],[134.7,34.200000249999995]]]}},{"type":"Feature","properties":{"Id":0,"Sheet_ID":"2-9. 小鳴門","label":"2-9. 小鳴門","call_short":"G7964 .Y9 A1 1900 .Y8","call_num":"G7964 .Y9 A1 1900 .Y8 SHEET 2-9","recid":"jj427qj1864","websiteUrl":"https://purl.stanford.edu/jj427qj1864","title":"由良要塞近傍","ckey":10645328,"web_map":"","available":"true","iiifUrl":"https://purl.stanford.edu/jj427qj1864/iiif/manifest"},"geometry":{"bbox":[134.55,34.2333335,134.60000000000002,34.26666675],"type":"Polygon","coordinates":[[[134.55,34.2333335],[134.55,34.26666675],[134.60000000000002,34.26666675],[134.60000000000002,34.2333335],[134.55,34.2333335]]]}},{"type":"Feature","properties":{"Id":0,"Sheet_ID":"2-6. 大嶋田","label":"2-6. 大嶋田","call_short":"G7964 .Y9 A1 1900 .Y8","call_num":"G7964 .Y9 A1 1900 .Y8 SHEET 2-6","recid":"bs764ht7981","websiteUrl":"https://purl.stanford.edu/bs764ht7981","title":"由良要塞近傍","ckey":10645328,"web_map":"","available":"true","iiifUrl":"https://purl.stanford.edu/bs764ht7981/iiif/manifest"},"geometry":{"bbox":[134.60000000000002,34.2333335,134.65000000000003,34.26666675],"type":"Polygon","coordinates":[[[134.60000000000002,34.2333335],[134.60000000000002,34.26666675],[134.65000000000003,34.26666675],[134.65000000000003,34.2333335],[134.60000000000002,34.2333335]]]}},{"type":"Feature","properties":{"Id":0,"Sheet_ID":"2-5. 刈藻","label":"2-5. 刈藻","call_short":"G7964 .Y9 A1 1900 .Y8","call_num":"G7964 .Y9 A1 1900 .Y8 SHEET 2-5","recid":"yr203fw6365","websiteUrl":"https://purl.stanford.edu/yr203fw6365","title":"由良要塞近傍","ckey":10645328,"web_map":"","available":"true","iiifUrl":"https://purl.stanford.edu/yr203fw6365/iiif/manifest"},"geometry":{"bbox":[134.65,34.2333335,134.7,34.26666675],"type":"Polygon","coordinates":[[[134.65,34.2333335],[134.65,34.26666675],[134.7,34.26666675],[134.7,34.2333335],[134.65,34.2333335]]]}},{"type":"Feature","properties":{"Id":0,"Sheet_ID":"2-2. 福良","label":"2-2. 福良","call_short":"G7964 .Y9 A1 1900 .Y8","call_num":"G7964 .Y9 A1 1900 .Y8 SHEET 2-2","recid":"xf901tr0424","websiteUrl":"https://purl.stanford.edu/xf901tr0424","title":"由良要塞近傍","ckey":10645328,"web_map":"","available":"true","iiifUrl":"https://purl.stanford.edu/xf901tr0424/iiif/manifest"},"geometry":{"bbox":[134.7,34.2333335,134.75000000000003,34.26666675],"type":"Polygon","coordinates":[[[134.7,34.2333335],[134.7,34.26666675],[134.75000000000003,34.26666675],[134.75000000000003,34.2333335],[134.7,34.2333335]]]}},{"type":"Feature","properties":{"Id":0,"Sheet_ID":"2-4. 阿那賀浦","label":"2-4. 阿那賀浦","call_short":"G7964 .Y9 A1 1900 .Y8","call_num":"G7964 .Y9 A1 1900 .Y8 SHEET 2-4","recid":"zk424wn0387","websiteUrl":"https://purl.stanford.edu/zk424wn0387","title":"由良要塞近傍","ckey":10645328,"web_map":"","available":"true","iiifUrl":"https://purl.stanford.edu/zk424wn0387/iiif/manifest"},"geometry":{"bbox":[134.65,34.26666675,134.7,34.3],"type":"Polygon","coordinates":[[[134.65,34.26666675],[134.65,34.3],[134.7,34.3],[134.7,34.26666675],[134.65,34.26666675]]]}},{"type":"Feature","properties":{"Id":0,"Sheet_ID":"2-1. 南邊寺山","label":"2-1. 南邊寺山","call_short":"G7964 .Y9 A1 1900 .Y8","call_num":"G7964 .Y9 A1 1900 .Y8 SHEET 2-1","recid":"jh296cw2815","websiteUrl":"https://purl.stanford.edu/jh296cw2815","title":"由良要塞近傍","ckey":10645328,"web_map":"","available":"true","iiifUrl":"https://purl.stanford.edu/jh296cw2815/iiif/manifest"},"geometry":{"bbox":[134.7,34.26666675,134.75000000000003,34.3],"type":"Polygon","coordinates":[[[134.7,34.26666675],[134.7,34.3],[134.75000000000003,34.3],[134.75000000000003,34.26666675],[134.7,34.26666675]]]}}],"name":"index_10645328"}
