{
"type": "FeatureCollection",
"name": "index_map",
"features": [
{ "type": "Feature", "properties": { "Id": 0, "Sheet_ID": "徳山市", "label": "徳山市", "call_short": "G7964 .T65 B5 1946 .N5", "call_num": "G7964 .T65 B5 1946 .N5", "recid": "sd246gp9987", "websiteUrl": "https://purl.stanford.edu/sd246gp9987", "title": "徳山市航空寫眞測量圖", "ckey": 10429426, "available": true, "iiifUrl": "https://purl.stanford.edu/sd246gp9987/iiif/manifest" }, "geometry": { "type": "Polygon", "coordinates": [ [ [ 131.775278, 34.046389 ], [ 131.8175, 34.020833 ], [ 131.836667, 34.0425 ], [ 131.794167, 34.067778 ], [ 131.775278, 34.046389 ] ] ] } }
]
}
