{
"type": "FeatureCollection",
"name": "index_map",
"features": [
{ "type": "Feature", "properties": { "Id": 0, "Sheet_ID": "黒河地方", "label": "黒河地方", "call_short": "G7064 .B56P61 1941 .J3", "call_num": "G7064 .B56P61 1941 .J3", "recid": "yf913xh0809", "websiteUrl": "https://purl.stanford.edu/yf913xh0809", "title": "極東「ソ」領飛行場一覧圖 (黒河地方) / 五十万分一黒河地方素圖", "ckey": 12381383, "web_map": null, "available": true, "iiifUrl": "https://purl.stanford.edu/yf913xh0809/iiif/manifest" }, "geometry": { "type": "Polygon", "coordinates": [ [ [ 125.0, 48.333333 ], [ 130.0, 48.333333 ], [ 130.0, 51.666667 ], [ 125.0, 51.666667 ], [ 125.0, 48.333333 ] ] ] } }
]
}
