{"type":"FeatureCollection","features":[{"type":"Feature","properties":{"Id":0,"Sheet_ID":"[9.] ハンダサー南部","label":"[9.] ハンダサー南部","call_short":"G7330 S50 .J4","call_num":"G7330 S50 .J4 SHEET 9","recid":"fn719bb3031","websiteUrl":"https://purl.stanford.edu/fn719bb3031","title":"仮製 樺太北部五万分一圖","ckey":12121655,"web_map":"","available":"true","iiiUrl":"https://purl.stanford.edu/fn719bb3031/iiif/manifest"},"geometry":{"bbox":[142.5,49.75,142.75,49.90625],"type":"Polygon","coordinates":[[[142.5,49.75],[142.5,49.90625],[142.75,49.90625],[142.75,49.75],[142.5,49.75]]]}},{"type":"Feature","properties":{"Id":0,"Sheet_ID":"[8.] 第二ハンダサー","label":"[8.] 第二ハンダサー","call_short":"G7330 S50 .J4","call_num":"G7330 S50 .J4 SHEET 8","recid":"rb668bg5989","websiteUrl":"https://purl.stanford.edu/rb668bg5989","title":"仮製 樺太北部五万分一圖","ckey":12121655,"web_map":"","available":"true","iiiUrl":"https://purl.stanford.edu/rb668bg5989/iiif/manifest"},"geometry":{"bbox":[142.5,49.90625,142.75,50.0625],"type":"Polygon","coordinates":[[[142.5,49.90625],[142.5,50.0625],[142.75,50.0625],[142.75,49.90625],[142.5,49.90625]]]}},{"type":"Feature","properties":{"Id":0,"Sheet_ID":"[2.] ウユートノ","label":"[2.] ウユートノ","call_short":"G7330 S50 .J4","call_num":"G7330 S50 .J4 SHEET 2","recid":"gw129sr1549","websiteUrl":"https://purl.stanford.edu/gw129sr1549","title":"仮製 樺太北部五万分一圖","ckey":12121655,"web_map":"","available":"true","iiiUrl":"https://purl.stanford.edu/gw129sr1549/iiif/manifest"},"geometry":{"bbox":[142.75,49.90625,143,50.0625],"type":"Polygon","coordinates":[[[142.75,49.90625],[142.75,50.0625],[143,50.0625],[143,49.90625],[142.75,49.90625]]]}},{"type":"Feature","properties":{"Id":0,"Sheet_ID":"[7.] アノール","label":"[7.] アノール","call_short":"G7330 S50 .J4","call_num":"G7330 S50 .J4 SHEET 7","recid":"kg347np7907","websiteUrl":"https://purl.stanford.edu/kg347np7907","title":"仮製 樺太北部五万分一圖","ckey":12121655,"web_map":"","available":"true","iiiUrl":"https://purl.stanford.edu/kg347np7907/iiif/manifest"},"geometry":{"bbox":[142.5,50.0625,142.75,50.21875],"type":"Polygon","coordinates":[[[142.5,50.0625],[142.5,50.21875],[142.75,50.21875],[142.75,50.0625],[142.5,50.0625]]]}},{"type":"Feature","properties":{"Id":0,"Sheet_ID":"[1.] アブラモフカ","label":"[1.] アブラモフカ","call_short":"G7330 S50 .J4","call_num":"G7330 S50 .J4 SHEET 1","recid":"sj784sx3606","websiteUrl":"https://purl.stanford.edu/sj784sx3606","title":"仮製 樺太北部五万分一圖","ckey":12121655,"web_map":"","available":"true","iiiUrl":"https://purl.stanford.edu/sj784sx3606/iiif/manifest"},"geometry":{"bbox":[142.75,50.0625,143,50.21875],"type":"Polygon","coordinates":[[[142.75,50.0625],[142.75,50.21875],[143,50.21875],[143,50.0625],[142.75,50.0625]]]}},{"type":"Feature","properties":{"Id":0,"Sheet_ID":"[6.] タウラン","label":"[6.] タウラン","call_short":"","call_num":"","recid":"","websiteUrl":"","title":"","ckey":0,"web_map":"","available":"false","iiiUrl":""},"geometry":{"bbox":[142.5,50.21875,142.75,50.375],"type":"Polygon","coordinates":[[[142.5,50.21875],[142.5,50.375],[142.75,50.375],[142.75,50.21875],[142.5,50.21875]]]}},{"type":"Feature","properties":{"Id":0,"Sheet_ID":"[17.] ウラジイミロウフカ","label":"[17.] ウラジイミロウフカ","call_short":"G7330 S50 .J4","call_num":"G7330 S50 .J4 SHEET 17","recid":"wn935fv1934","websiteUrl":"https://purl.stanford.edu/wn935fv1934","title":"仮製 樺太北部五万分一圖","ckey":12121655,"web_map":"","available":"true","iiiUrl":"https://purl.stanford.edu/wn935fv1934/iiif/manifest"},"geometry":{"bbox":[142,50.375,142.25,50.53125],"type":"Polygon","coordinates":[[[142,50.375],[142,50.53125],[142.25,50.53125],[142.25,50.375],[142,50.375]]]}},{"type":"Feature","properties":{"Id":0,"Sheet_ID":"[13.] ソープカ山","label":"[13.] ソープカ山","call_short":"G7330 S50 .J4","call_num":"G7330 S50 .J4 SHEET 13","recid":"fq555vq7403","websiteUrl":"https://purl.stanford.edu/fq555vq7403","title":"仮製 樺太北部五万分一圖","ckey":12121655,"web_map":"","available":"true","iiiUrl":"https://purl.stanford.edu/fq555vq7403/iiif/manifest"},"geometry":{"bbox":[142.25,50.375,142.5,50.53125],"type":"Polygon","coordinates":[[[142.25,50.375],[142.25,50.53125],[142.5,50.53125],[142.5,50.375],[142.25,50.375]]]}},{"type":"Feature","properties":{"Id":0,"Sheet_ID":"[5.] セレゲーヨースキー","label":"[5.] セレゲーヨースキー","call_short":"G7330 S50 .J4","call_num":"G7330 S50 .J4 SHEET 5","recid":"pw858hj6900","websiteUrl":"https://purl.stanford.edu/pw858hj6900","title":"仮製 樺太北部五万分一圖","ckey":12121655,"web_map":"","available":"true","iiiUrl":"https://purl.stanford.edu/pw858hj6900/iiif/manifest"},"geometry":{"bbox":[142.5,50.375,142.75,50.53125],"type":"Polygon","coordinates":[[[142.5,50.375],[142.5,50.53125],[142.75,50.53125],[142.75,50.375],[142.5,50.375]]]}},{"type":"Feature","properties":{"Id":0,"Sheet_ID":"[16.] クラスノヤール","label":"[16.] クラスノヤール","call_short":"G7330 S50 .J4","call_num":"G7330 S50 .J4 SHEET 16","recid":"fd861zp6978","websiteUrl":"https://purl.stanford.edu/fd861zp6978","title":"仮製 樺太北部五万分一圖","ckey":12121655,"web_map":"","available":"true","iiiUrl":"https://purl.stanford.edu/fd861zp6978/iiif/manifest"},"geometry":{"bbox":[142,50.53125,142.25,50.6875],"type":"Polygon","coordinates":[[[142,50.53125],[142,50.6875],[142.25,50.6875],[142.25,50.53125],[142,50.53125]]]}},{"type":"Feature","properties":{"Id":0,"Sheet_ID":"[12.] マーロツイモフ","label":"[12.] マーロツイモフ","call_short":"G7330 S50 .J4","call_num":"G7330 S50 .J4 SHEET 12","recid":"km891cf6166","websiteUrl":"https://purl.stanford.edu/km891cf6166","title":"仮製 樺太北部五万分一圖","ckey":12121655,"web_map":"","available":"true","iiiUrl":"https://purl.stanford.edu/km891cf6166/iiif/manifest"},"geometry":{"bbox":[142.25,50.53125,142.5,50.6875],"type":"Polygon","coordinates":[[[142.25,50.53125],[142.25,50.6875],[142.5,50.6875],[142.5,50.53125],[142.25,50.53125]]]}},{"type":"Feature","properties":{"Id":0,"Sheet_ID":"[4.] ルヰーコウフ","label":"[4.] ルヰーコウフ","call_short":"G7330 S50 .J4","call_num":"G7330 S50 .J4 SHEET 4","recid":"ym616gc5490","websiteUrl":"https://purl.stanford.edu/ym616gc5490","title":"仮製 樺太北部五万分一圖","ckey":12121655,"web_map":"","available":"true","iiiUrl":"https://purl.stanford.edu/ym616gc5490/iiif/manifest"},"geometry":{"bbox":[142.5,50.53125,142.75,50.6875],"type":"Polygon","coordinates":[[[142.5,50.53125],[142.5,50.6875],[142.75,50.6875],[142.75,50.53125],[142.5,50.53125]]]}},{"type":"Feature","properties":{"Id":0,"Sheet_ID":"[15.] アレキサンドロフ","label":"[15.] アレキサンドロフ","call_short":"G7330 S50 .J4","call_num":"G7330 S50 .J4 SHEET 15","recid":"zj869sv8825","websiteUrl":"https://purl.stanford.edu/zj869sv8825","title":"仮製 樺太北部五万分一圖","ckey":12121655,"web_map":"","available":"true","iiiUrl":"https://purl.stanford.edu/zj869sv8825/iiif/manifest"},"geometry":{"bbox":[142,50.6875,142.25,50.84375],"type":"Polygon","coordinates":[[[142,50.6875],[142,50.84375],[142.25,50.84375],[142.25,50.6875],[142,50.6875]]]}},{"type":"Feature","properties":{"Id":0,"Sheet_ID":"[11.] 下アルムダン","label":"[11.] 下アルムダン","call_short":"G7330 S50 .J4","call_num":"G7330 S50 .J4 SHEET 11","recid":"hp726rn6420","websiteUrl":"https://purl.stanford.edu/hp726rn6420","title":"仮製 樺太北部五万分一圖","ckey":12121655,"web_map":"","available":"true","iiiUrl":"https://purl.stanford.edu/hp726rn6420/iiif/manifest"},"geometry":{"bbox":[142.25,50.6875,142.5,50.84375],"type":"Polygon","coordinates":[[[142.25,50.6875],[142.25,50.84375],[142.5,50.84375],[142.5,50.6875],[142.25,50.6875]]]}},{"type":"Feature","properties":{"Id":0,"Sheet_ID":"[3.] デレベンスコーエ","label":"[3.] デレベンスコーエ","call_short":"G7330 S50 .J4","call_num":"G7330 S50 .J4 SHEET 3","recid":"py634hq3410","websiteUrl":"https://purl.stanford.edu/py634hq3410","title":"仮製 樺太北部五万分一圖","ckey":12121655,"web_map":"","available":"true","iiiUrl":"https://purl.stanford.edu/py634hq3410/iiif/manifest"},"geometry":{"bbox":[142.5,50.6875,142.75,50.84375],"type":"Polygon","coordinates":[[[142.5,50.6875],[142.5,50.84375],[142.75,50.84375],[142.75,50.6875],[142.5,50.6875]]]}},{"type":"Feature","properties":{"Id":0,"Sheet_ID":"[14.] 第一アルコワ","label":"[14.] 第一アルコワ","call_short":"G7330 S50 .J4","call_num":"G7330 S50 .J4 SHEET 14","recid":"mg056dm2875","websiteUrl":"https://purl.stanford.edu/mg056dm2875","title":"仮製 樺太北部五万分一圖","ckey":12121655,"web_map":"","available":"true","iiiUrl":"https://purl.stanford.edu/mg056dm2875/iiif/manifest"},"geometry":{"bbox":[142,50.84375,142.25,51],"type":"Polygon","coordinates":[[[142,50.84375],[142,51],[142.25,51],[142.25,50.84375],[142,50.84375]]]}},{"type":"Feature","properties":{"Id":0,"Sheet_ID":"[10.] 第二アルコワ","label":"[10.] 第二アルコワ","call_short":"G7330 S50 .J4","call_num":"G7330 S50 .J4 SHEET 10","recid":"vk440dj0481","websiteUrl":"https://purl.stanford.edu/vk440dj0481","title":"仮製 樺太北部五万分一圖","ckey":12121655,"web_map":"","available":"true","iiiUrl":"https://purl.stanford.edu/vk440dj0481/iiif/manifest"},"geometry":{"bbox":[142.25,50.84375,142.5,51],"type":"Polygon","coordinates":[[[142.25,50.84375],[142.25,51],[142.5,51],[142.5,50.84375],[142.25,50.84375]]]}}],"name":"index_12121655"}
