{
"type": "FeatureCollection",
"name": "index_map",
"xy_coordinate_resolution": 1e-07,
"features": [
{ "type": "Feature", "properties": { "Id": 0, "Sheet_ID": "アムール州_アルハラ", "label": "アムール州_アルハラ", "call_short": "G7000 S25 .J3", "call_num": "G7000 S25 .J3 SHEET A-1", "recid": "dg924nk2101", "websiteUrl": "https://purl.stanford.edu/dg924nk2101", "title": "二万五千分一東部ソ領市街圖", "ckey": 10556389, "available": true, "iiifUrl": "https://purl.stanford.edu/dg924nk2101/iiif/manifest" }, "geometry": { "type": "Polygon", "coordinates": [ [ [ 130.0, 49.3 ], [ 130.2, 49.3 ], [ 130.2, 49.5 ], [ 130.0, 49.5 ], [ 130.0, 49.3 ] ] ] } },
{ "type": "Feature", "properties": { "Id": 0, "Sheet_ID": "アムール州_ブレーヤ", "label": "アムール州_ブレーヤ", "call_short": "G7000 S25 .J3", "call_num": "G7000 S25 .J3 SHEET A-2", "recid": "zq363pd7858", "websiteUrl": "https://purl.stanford.edu/zq363pd7858", "title": "二万五千分一東部ソ領市街圖", "ckey": 10556389, "available": true, "iiifUrl": "https://purl.stanford.edu/zq363pd7858/iiif/manifest" }, "geometry": { "type": "Polygon", "coordinates": [ [ [ 129.725, 49.708333 ], [ 129.975, 49.708333 ], [ 129.975, 49.841667 ], [ 129.725, 49.841667 ], [ 129.725, 49.708333 ] ] ] } },
{ "type": "Feature", "properties": { "Id": 0, "Sheet_ID": "アムール州_モルチャーノワ", "label": "アムール州_モルチャーノワ", "call_short": "G7000 S25 .J3", "call_num": "G7000 S25 .J3 SHEET A-3", "recid": "wh314ns8552", "websiteUrl": "https://purl.stanford.edu/wh314ns8552", "title": "二万五千分一東部ソ領市街圖", "ckey": 10556389, "available": true, "iiifUrl": "https://purl.stanford.edu/wh314ns8552/iiif/manifest" }, "geometry": { "type": "Polygon", "coordinates": [ [ [ 128.25, 51.266667 ], [ 128.45, 51.266667 ], [ 128.45, 51.466667 ], [ 128.25, 51.466667 ], [ 128.25, 51.266667 ] ] ] } },
{ "type": "Feature", "properties": { "Id": 0, "Sheet_ID": "アムール州_ポスデェフカ", "label": "アムール州_ポスデェフカ", "call_short": "G7000 S25 .J3", "call_num": "G7000 S25 .J3 SHEET A-4", "recid": "gx024my7820", "websiteUrl": "https://purl.stanford.edu/gx024my7820", "title": "二万五千分一東部ソ領市街圖", "ckey": 10556389, "available": true, "iiifUrl": "https://purl.stanford.edu/gx024my7820/iiif/manifest" }, "geometry": { "type": "Polygon", "coordinates": [ [ [ 128.806389, 50.479167 ], [ 129.006389, 50.479167 ], [ 129.006389, 50.679167 ], [ 128.806389, 50.679167 ], [ 128.806389, 50.479167 ] ] ] } },
{ "type": "Feature", "properties": { "Id": 0, "Sheet_ID": "アムール州_ライチーハ", "label": "アムール州_ライチーハ", "call_short": "G7000 S25 .J3", "call_num": "G7000 S25 .J3 SHEET A-5", "recid": "zw205gy0299", "websiteUrl": "https://purl.stanford.edu/zw205gy0299", "title": "二万五千分一東部ソ領市街圖", "ckey": 10556389, "available": true, "iiifUrl": "https://purl.stanford.edu/zw205gy0299/iiif/manifest" }, "geometry": { "type": "Polygon", "coordinates": [ [ [ 129.15, 49.633333 ], [ 129.35, 49.633333 ], [ 129.35, 49.833333 ], [ 129.15, 49.833333 ], [ 129.15, 49.633333 ] ] ] } },
{ "type": "Feature", "properties": { "Id": 0, "Sheet_ID": "アムール州_ライチーハ炭坑", "label": "アムール州_ライチーハ炭坑", "call_short": "G7000 S25 .J3", "call_num": "G7000 S25 .J3 SHEET A-6", "recid": "pr369zh4276", "websiteUrl": "https://purl.stanford.edu/pr369zh4276", "title": "二万五千分一東部ソ領市街圖", "ckey": 10556389, "available": true, "iiifUrl": "https://purl.stanford.edu/pr369zh4276/iiif/manifest" }, "geometry": { "type": "Polygon", "coordinates": [ [ [ 129.316667, 49.716667 ], [ 129.516667, 49.716667 ], [ 129.516667, 49.9 ], [ 129.316667, 49.9 ], [ 129.316667, 49.716667 ] ] ] } },
{ "type": "Feature", "properties": { "Id": 0, "Sheet_ID": "アムール州_スウォボドヌイ", "label": "アムール州_スウォボドヌイ", "call_short": "G7000 S25 .J3", "call_num": "G7000 S25 .J3 SHEET A-7", "recid": "bd543br0944", "websiteUrl": "https://purl.stanford.edu/bd543br0944", "title": "二万五千分一東部ソ領市街圖", "ckey": 10556389, "available": true, "iiifUrl": "https://purl.stanford.edu/bd543br0944/iiif/manifest" }, "geometry": { "type": "Polygon", "coordinates": [ [ [ 128.063889, 51.283333 ], [ 128.263889, 51.283333 ], [ 128.263889, 51.483333 ], [ 128.063889, 51.483333 ], [ 128.063889, 51.283333 ] ] ] } },
{ "type": "Feature", "properties": { "Id": 0, "Sheet_ID": "アムール州_ヴォズヂャエフカ", "label": "アムール州_ヴォズヂャエフカ", "call_short": "G7000 S25 .J3", "call_num": "G7000 S25 .J3 SHEET A-8", "recid": "rc691ww8588", "websiteUrl": "https://purl.stanford.edu/rc691ww8588", "title": "二万五千分一東部ソ領市街圖", "ckey": 10556389, "available": true, "iiifUrl": "https://purl.stanford.edu/rc691ww8588/iiif/manifest" }, "geometry": { "type": "Polygon", "coordinates": [ [ [ 128.65, 50.691667 ], [ 128.85, 50.691667 ], [ 128.85, 50.891667 ], [ 128.65, 50.891667 ], [ 128.65, 50.691667 ] ] ] } },
{ "type": "Feature", "properties": { "Id": 0, "Sheet_ID": "アムール州_ザウィタヤ", "label": "アムール州_ザウィタヤ", "call_short": "G7000 S25 .J3", "call_num": "G7000 S25 .J3 SHEET A-9", "recid": "zf419ww9874", "websiteUrl": "https://purl.stanford.edu/zf419ww9874", "title": "二万五千分一東部ソ領市街圖", "ckey": 10556389, "available": true, "iiifUrl": "https://purl.stanford.edu/zf419ww9874/iiif/manifest" }, "geometry": { "type": "Polygon", "coordinates": [ [ [ 129.341667, 50.008333 ], [ 129.541667, 50.008333 ], [ 129.541667, 50.208333 ], [ 129.341667, 50.208333 ], [ 129.341667, 50.008333 ] ] ] } },
{ "type": "Feature", "properties": { "Id": 0, "Sheet_ID": "猶太自治州_ビロビッヂャン", "label": "猶太自治州_ビロビッヂャン", "call_short": "G7000 S25 .J3", "call_num": "G7000 S25 .J3 SHEET J-1", "recid": "kp524sw0634", "websiteUrl": "https://purl.stanford.edu/kp524sw0634", "title": "二万五千分一東部ソ領市街圖", "ckey": 10556389, "available": true, "iiifUrl": "https://purl.stanford.edu/kp524sw0634/iiif/manifest" }, "geometry": { "type": "Polygon", "coordinates": [ [ [ 132.833333, 48.734722 ], [ 133.083333, 48.734722 ], [ 133.083333, 48.876389 ], [ 132.833333, 48.876389 ], [ 132.833333, 48.734722 ] ] ] } },
{ "type": "Feature", "properties": { "Id": 0, "Sheet_ID": "猶太自治州_オブルチエ", "label": "猶太自治州_オブルチエ", "call_short": "G7000 S25 .J3", "call_num": "G7000 S25 .J3 SHEET J-2", "recid": "cq780dg6817", "websiteUrl": "https://purl.stanford.edu/cq780dg6817", "title": "二万五千分一東部ソ領市街圖", "ckey": 10556389, "available": true, "iiifUrl": "https://purl.stanford.edu/cq780dg6817/iiif/manifest" }, "geometry": { "type": "Polygon", "coordinates": [ [ [ 130.975, 48.95 ], [ 131.191667, 48.95 ], [ 131.191667, 49.05 ], [ 130.975, 49.05 ], [ 130.975, 48.95 ] ] ] } },
{ "type": "Feature", "properties": { "Id": 0, "Sheet_ID": "猶太自治州_バブストーワ", "label": "猶太自治州_バブストーワ", "call_short": "G7000 S25 .J3", "call_num": "G7000 S25 .J3 SHEET J-3", "recid": "pj868gx4142", "websiteUrl": "https://purl.stanford.edu/pj868gx4142", "title": "二万五千分一東部ソ領市街圖", "ckey": 10556389, "available": true, "iiifUrl": "https://purl.stanford.edu/pj868gx4142/iiif/manifest" }, "geometry": { "type": "Polygon", "coordinates": [ [ [ 132.3, 48.058333 ], [ 132.5, 48.058333 ], [ 132.5, 48.258333 ], [ 132.3, 48.258333 ], [ 132.3, 48.058333 ] ] ] } },
{ "type": "Feature", "properties": { "Id": 0, "Sheet_ID": "ハバロフスク地方_哈府", "label": "ハバロフスク地方_哈府", "call_short": "G7000 S25 .J3", "call_num": "G7000 S25 .J3 SHEET K-1", "recid": "gq155rp3058", "websiteUrl": "https://purl.stanford.edu/gq155rp3058", "title": "二万五千分一東部ソ領市街圖", "ckey": 10556389, "available": true, "iiifUrl": "https://purl.stanford.edu/gq155rp3058/iiif/manifest" }, "geometry": { "type": "Polygon", "coordinates": [ [ [ 135.025, 48.325 ], [ 135.241667, 48.325 ], [ 135.241667, 48.516667 ], [ 135.025, 48.516667 ], [ 135.025, 48.325 ] ] ] } },
{ "type": "Feature", "properties": { "Id": 0, "Sheet_ID": "ハバロフスク地方_哈府北部", "label": "ハバロフスク地方_哈府北部", "call_short": "G7000 S25 .J3", "call_num": "G7000 S25 .J3 SHEET K-2", "recid": "zh664sh1415", "websiteUrl": "https://purl.stanford.edu/zh664sh1415", "title": "二万五千分一東部ソ領市街圖", "ckey": 10556389, "available": true, "iiifUrl": "https://purl.stanford.edu/zh664sh1415/iiif/manifest" }, "geometry": { "type": "Polygon", "coordinates": [ [ [ 134.925, 48.516667 ], [ 135.216667, 48.516667 ], [ 135.216667, 48.65 ], [ 134.925, 48.65 ], [ 134.925, 48.516667 ] ] ] } },
{ "type": "Feature", "properties": { "Id": 0, "Sheet_ID": "ハバロフスク地方_イマン", "label": "ハバロフスク地方_イマン", "call_short": "G7000 S25 .J3", "call_num": "G7000 S25 .J3 SHEET K-3", "recid": "bs519kk9323", "websiteUrl": "https://purl.stanford.edu/bs519kk9323", "title": "二万五千分一東部ソ領市街圖", "ckey": 10556389, "available": true, "iiifUrl": "https://purl.stanford.edu/bs519kk9323/iiif/manifest" }, "geometry": { "type": "Polygon", "coordinates": [ [ [ 133.616667, 45.8 ], [ 133.816667, 45.8 ], [ 133.816667, 46.0 ], [ 133.616667, 46.0 ], [ 133.616667, 45.8 ] ] ] } },
{ "type": "Feature", "properties": { "Id": 0, "Sheet_ID": "ハバロフスク地方_ビギンスカヤ", "label": "ハバロフスク地方_ビギンスカヤ", "call_short": "G7000 S25 .J3", "call_num": "G7000 S25 .J3 SHEET K-4", "recid": "rs351mp1325", "websiteUrl": "https://purl.stanford.edu/rs351mp1325", "title": "二万五千分一東部ソ領市街圖", "ckey": 10556389, "available": true, "iiifUrl": "https://purl.stanford.edu/rs351mp1325/iiif/manifest" }, "geometry": { "type": "Polygon", "coordinates": [ [ [ 134.1125, 46.7 ], [ 134.3125, 46.7 ], [ 134.3125, 46.9 ], [ 134.1125, 46.9 ], [ 134.1125, 46.7 ] ] ] } },
{ "type": "Feature", "properties": { "Id": 0, "Sheet_ID": "ハバロフスク地方_グベローウォ", "label": "ハバロフスク地方_グベローウォ", "call_short": "G7000 S25 .J3", "call_num": "G7000 S25 .J3 SHEET K-5", "recid": "dh385wj9599", "websiteUrl": "https://purl.stanford.edu/dh385wj9599", "title": "二万五千分一東部ソ領市街圖", "ckey": 10556389, "available": true, "iiifUrl": "https://purl.stanford.edu/dh385wj9599/iiif/manifest" }, "geometry": { "type": "Polygon", "coordinates": [ [ [ 133.870833, 46.091667 ], [ 134.054167, 46.091667 ], [ 134.054167, 46.258333 ], [ 133.870833, 46.258333 ], [ 133.870833, 46.091667 ] ] ] } },
{ "type": "Feature", "properties": { "Id": 0, "Sheet_ID": "ハバロフスク地方_ローゼンガルトフカ", "label": "ハバロフスク地方_ローゼンガルトフカ", "call_short": "G7000 S25 .J3", "call_num": "G7000 S25 .J3 SHEET K-6", "recid": "zz563mp3976", "websiteUrl": "https://purl.stanford.edu/zz563mp3976", "title": "二万五千分一東部ソ領市街圖", "ckey": 10556389, "available": true, "iiifUrl": "https://purl.stanford.edu/zz563mp3976/iiif/manifest" }, "geometry": { "type": "Polygon", "coordinates": [ [ [ 134.2, 47.041667 ], [ 134.4, 47.041667 ], [ 134.4, 47.241667 ], [ 134.2, 47.241667 ], [ 134.2, 47.041667 ] ] ] } },
{ "type": "Feature", "properties": { "Id": 0, "Sheet_ID": "沿海地方_浦潮斯徳", "label": "沿海地方_浦潮斯徳", "call_short": "G7000 S25 .J3", "call_num": "G7000 S25 .J3 SHEET P-1", "recid": "tk676gn0870", "websiteUrl": "https://purl.stanford.edu/tk676gn0870", "title": "二万五千分一東部ソ領市街圖", "ckey": 10556389, "available": true, "iiifUrl": "https://purl.stanford.edu/tk676gn0870/iiif/manifest" }, "geometry": { "type": "Polygon", "coordinates": [ [ [ 131.839722, 43.064444 ], [ 132.04, 43.064444 ], [ 132.04, 43.264722 ], [ 131.839722, 43.264722 ], [ 131.839722, 43.064444 ] ] ] } },
{ "type": "Feature", "properties": { "Id": 0, "Sheet_ID": "沿海地方_ウグローワヤ", "label": "沿海地方_ウグローワヤ", "call_short": "G7000 S25 .J3", "call_num": "G7000 S25 .J3 SHEET P-2", "recid": "sv537zj1212", "websiteUrl": "https://purl.stanford.edu/sv537zj1212", "title": "二万五千分一東部ソ領市街圖", "ckey": 10556389, "available": true, "iiifUrl": "https://purl.stanford.edu/sv537zj1212/iiif/manifest" }, "geometry": { "type": "Polygon", "coordinates": [ [ [ 131.964444, 43.3 ], [ 132.239722, 43.3 ], [ 132.239722, 43.425833 ], [ 131.964444, 43.425833 ], [ 131.964444, 43.3 ] ] ] } },
{ "type": "Feature", "properties": { "Id": 0, "Sheet_ID": "沿海地方_ラズドリノーエ", "label": "沿海地方_ラズドリノーエ", "call_short": "G7000 S25 .J3", "call_num": "G7000 S25 .J3 SHEET P-3", "recid": "mm590sr3258", "websiteUrl": "https://purl.stanford.edu/mm590sr3258", "title": "二万五千分一東部ソ領市街圖", "ckey": 10556389, "available": true, "iiifUrl": "https://purl.stanford.edu/mm590sr3258/iiif/manifest" }, "geometry": { "type": "Polygon", "coordinates": [ [ [ 131.8, 43.465278 ], [ 132.0, 43.465278 ], [ 132.0, 43.665278 ], [ 131.8, 43.665278 ], [ 131.8, 43.465278 ] ] ] } },
{ "type": "Feature", "properties": { "Id": 0, "Sheet_ID": "ウスリー州_ウスリー及ルヂノ", "label": "ウスリー州_ウスリー及ルヂノ", "call_short": "G7000 S25 .J3", "call_num": "G7000 S25 .J3 SHEET U-1", "recid": "yy450ky6877", "websiteUrl": "https://purl.stanford.edu/yy450ky6877", "title": "二万五千分一東部ソ領市街圖", "ckey": 10556389, "available": true, "iiifUrl": "https://purl.stanford.edu/yy450ky6877/iiif/manifest" }, "geometry": { "type": "Polygon", "coordinates": [ [ [ 133.35, 45.4 ], [ 133.6, 45.4 ], [ 133.6, 45.533333 ], [ 133.35, 45.533333 ], [ 133.35, 45.4 ] ] ] } },
{ "type": "Feature", "properties": { "Id": 0, "Sheet_ID": "ウスリー州_チェルヌイシェフカ", "label": "ウスリー州_チェルヌイシェフカ", "call_short": "G7000 S25 .J3", "call_num": "G7000 S25 .J3 SHEET U-2", "recid": "hm628wf4370", "websiteUrl": "https://purl.stanford.edu/hm628wf4370", "title": "二万五千分一東部ソ領市街圖", "ckey": 10556389, "available": true, "iiifUrl": "https://purl.stanford.edu/hm628wf4370/iiif/manifest" }, "geometry": { "type": "Polygon", "coordinates": [ [ [ 133.041667, 44.133333 ], [ 133.291667, 44.133333 ], [ 133.291667, 44.258333 ], [ 133.041667, 44.258333 ], [ 133.041667, 44.133333 ] ] ] } },
{ "type": "Feature", "properties": { "Id": 0, "Sheet_ID": "ウスリー州_ドウビニンスキー", "label": "ウスリー州_ドウビニンスキー", "call_short": "G7000 S25 .J3", "call_num": "G7000 S25 .J3 SHEET U-3", "recid": "jq299xj2868", "websiteUrl": "https://purl.stanford.edu/jq299xj2868", "title": "二万五千分一東部ソ領市街圖", "ckey": 10556389, "available": true, "iiifUrl": "https://purl.stanford.edu/jq299xj2868/iiif/manifest" }, "geometry": { "type": "Polygon", "coordinates": [ [ [ 131.85, 43.866667 ], [ 132.125, 43.866667 ], [ 132.125, 44.0 ], [ 131.85, 44.0 ], [ 131.85, 43.866667 ] ] ] } },
{ "type": "Feature", "properties": { "Id": 0, "Sheet_ID": "ウスリー州_ドボスコエ", "label": "ウスリー州_ドボスコエ", "call_short": "G7000 S25 .J3", "call_num": "G7000 S25 .J3 SHEET U-4", "recid": "mx523sv3727", "websiteUrl": "https://purl.stanford.edu/mx523sv3727", "title": "二万五千分一東部ソ領市街圖", "ckey": 10556389, "available": true, "iiifUrl": "https://purl.stanford.edu/mx523sv3727/iiif/manifest" }, "geometry": { "type": "Polygon", "coordinates": [ [ [ 132.95, 44.8 ], [ 133.216667, 44.8 ], [ 133.216667, 44.933333 ], [ 132.95, 44.933333 ], [ 132.95, 44.8 ] ] ] } },
{ "type": "Feature", "properties": { "Id": 0, "Sheet_ID": "ウスリー州_イッポリトフカ", "label": "ウスリー州_イッポリトフカ", "call_short": "G7000 S25 .J3", "call_num": "G7000 S25 .J3 SHEET U-5", "recid": "tn559kw0679", "websiteUrl": "https://purl.stanford.edu/tn559kw0679", "title": "二万五千分一東部ソ領市街圖", "ckey": 10556389, "available": true, "iiifUrl": "https://purl.stanford.edu/tn559kw0679/iiif/manifest" }, "geometry": { "type": "Polygon", "coordinates": [ [ [ 132.175, 43.991667 ], [ 132.433333, 43.991667 ], [ 132.433333, 44.133333 ], [ 132.175, 44.133333 ], [ 132.175, 43.991667 ] ] ] } },
{ "type": "Feature", "properties": { "Id": 0, "Sheet_ID": "ウスリー州_マンゾフカ", "label": "ウスリー州_マンゾフカ", "call_short": "G7000 S25 .J3", "call_num": "G7000 S25 .J3 SHEET U-6", "recid": "rz572vq8777", "websiteUrl": "https://purl.stanford.edu/rz572vq8777", "title": "二万五千分一東部ソ領市街圖", "ckey": 10556389, "available": true, "iiifUrl": "https://purl.stanford.edu/rz572vq8777/iiif/manifest" }, "geometry": { "type": "Polygon", "coordinates": [ [ [ 132.391667, 44.159722 ], [ 132.591667, 44.159722 ], [ 132.591667, 44.368056 ], [ 132.391667, 44.368056 ], [ 132.391667, 44.159722 ] ] ] } },
{ "type": "Feature", "properties": { "Id": 0, "Sheet_ID": "ウスリー州_スイソエフカ", "label": "ウスリー州_スイソエフカ", "call_short": "G7000 S25 .J3", "call_num": "G7000 S25 .J3 SHEET U-7", "recid": "tw480nx0942", "websiteUrl": "https://purl.stanford.edu/tw480nx0942", "title": "二万五千分一東部ソ領市街圖", "ckey": 10556389, "available": true, "iiifUrl": "https://purl.stanford.edu/tw480nx0942/iiif/manifest" }, "geometry": { "type": "Polygon", "coordinates": [ [ [ 133.291667, 44.141667 ], [ 133.441667, 44.141667 ], [ 133.441667, 44.3 ], [ 133.291667, 44.3 ], [ 133.291667, 44.141667 ] ] ] } },
{ "type": "Feature", "properties": { "Id": 0, "Sheet_ID": "ウスリー州_スパスク", "label": "ウスリー州_スパスク", "call_short": "G7000 S25 .J3", "call_num": "G7000 S25 .J3 SHEET U-8", "recid": "gw469cc7607", "websiteUrl": "https://purl.stanford.edu/gw469cc7607", "title": "二万五千分一東部ソ領市街圖", "ckey": 10556389, "available": true, "iiifUrl": "https://purl.stanford.edu/gw469cc7607/iiif/manifest" }, "geometry": { "type": "Polygon", "coordinates": [ [ [ 132.625, 44.479167 ], [ 132.933333, 44.479167 ], [ 132.933333, 44.629167 ], [ 132.625, 44.629167 ], [ 132.625, 44.479167 ] ] ] } },
{ "type": "Feature", "properties": { "Id": 0, "Sheet_ID": "ウスリー州_ウオロシーロフ", "label": "ウスリー州_ウオロシーロフ", "call_short": "G7000 S25 .J3", "call_num": "G7000 S25 .J3 SHEET U-9", "recid": "xd338hk6071", "websiteUrl": "https://purl.stanford.edu/xd338hk6071", "title": "二万五千分一東部ソ領市街圖", "ckey": 10556389, "available": true, "iiifUrl": "https://purl.stanford.edu/xd338hk6071/iiif/manifest" }, "geometry": { "type": "Polygon", "coordinates": [ [ [ 131.75, 43.75 ], [ 132.041667, 43.75 ], [ 132.041667, 43.883333 ], [ 131.75, 43.883333 ], [ 131.75, 43.75 ] ] ] } }
]
}
