{
"type": "FeatureCollection",
"name": "index_map",
"xy_coordinate_resolution": 1e-07,
"features": [
{ "type": "Feature", "properties": { "Id": 0, "Sheet_ID": "壹〇ヨ25. 佳木斯", "label": "壹〇ヨ25. 佳木斯", "call_short": "0", "call_num": "0", "recid": "0", "websiteUrl": "0", "title": "0", "ckey": 0, "available": false, "iiifUrl": "0" }, "geometry": { "type": "Polygon", "coordinates": [ [ [ 130.0, 46.666667 ], [ 131.0, 46.666667 ], [ 131.0, 47.3333336 ], [ 130.0, 47.3333336 ], [ 130.0, 46.666667 ] ] ] } },
{ "type": "Feature", "properties": { "Id": 0, "Sheet_ID": "壹〇ヨ20. 綏浜", "label": "壹〇ヨ20. 綏浜", "call_short": "0", "call_num": "0", "recid": "0", "websiteUrl": "0", "title": "0", "ckey": 0, "available": false, "iiifUrl": "0" }, "geometry": { "type": "Polygon", "coordinates": [ [ [ 131.0, 46.666667 ], [ 132.0, 46.666667 ], [ 132.0, 47.3333336 ], [ 131.0, 47.3333336 ], [ 131.0, 46.666667 ] ] ] } },
{ "type": "Feature", "properties": { "Id": 0, "Sheet_ID": "壹〇ヨ15. 富錦", "label": "壹〇ヨ15. 富錦", "call_short": "0", "call_num": "0", "recid": "0", "websiteUrl": "0", "title": "0", "ckey": 0, "available": false, "iiifUrl": "0" }, "geometry": { "type": "Polygon", "coordinates": [ [ [ 132.0, 46.666667 ], [ 133.0, 46.666667 ], [ 133.0, 47.3333336 ], [ 132.0, 47.3333336 ], [ 132.0, 46.666667 ] ] ] } },
{ "type": "Feature", "properties": { "Id": 0, "Sheet_ID": "壹〇ヨ10. 關門咀子", "label": "壹〇ヨ10. 關門咀子", "call_short": "G7822 .M2 S100 .J36", "call_num": "G7822 .M2 S100 .J36 10YO10", "recid": "ck748vd0120", "websiteUrl": "https://purl.stanford.edu/ck748vd0120", "title": "大判 満洲十万分一圖", "ckey": 12735389, "available": true, "iiifUrl": "https://purl.stanford.edu/ck748vd0120/iiif/manifest" }, "geometry": { "type": "Polygon", "coordinates": [ [ [ 133.0, 46.666667 ], [ 134.0, 46.666667 ], [ 134.0, 47.3333336 ], [ 133.0, 47.3333336 ], [ 133.0, 46.666667 ] ] ] } },
{ "type": "Feature", "properties": { "Id": 0, "Sheet_ID": "壹〇ヨ5. 饒河", "label": "壹〇ヨ5. 饒河", "call_short": "0", "call_num": "0", "recid": "0", "websiteUrl": "0", "title": "0", "ckey": 0, "available": false, "iiifUrl": "0" }, "geometry": { "type": "Polygon", "coordinates": [ [ [ 134.0, 46.666667 ], [ 135.0, 46.666667 ], [ 135.0, 47.3333336 ], [ 134.0, 47.3333336 ], [ 134.0, 46.666667 ] ] ] } },
{ "type": "Feature", "properties": { "Id": 0, "Sheet_ID": "九ヨ25. ダーエコウ山", "label": "九ヨ25. ダーエコウ山", "call_short": "0", "call_num": "0", "recid": "0", "websiteUrl": "0", "title": "0", "ckey": 0, "available": false, "iiifUrl": "0" }, "geometry": { "type": "Polygon", "coordinates": [ [ [ 135.0, 46.666667 ], [ 136.0, 46.666667 ], [ 136.0, 47.3333336 ], [ 135.0, 47.3333336 ], [ 135.0, 46.666667 ] ] ] } },
{ "type": "Feature", "properties": { "Id": 0, "Sheet_ID": "壹〇ヨ24. 鎮東村", "label": "壹〇ヨ24. 鎮東村", "call_short": "0", "call_num": "0", "recid": "0", "websiteUrl": "0", "title": "0", "ckey": 0, "available": false, "iiifUrl": "0" }, "geometry": { "type": "Polygon", "coordinates": [ [ [ 130.0, 47.3333336 ], [ 131.0, 47.3333336 ], [ 131.0, 48.0000002 ], [ 130.0, 48.0000002 ], [ 130.0, 47.3333336 ] ] ] } },
{ "type": "Feature", "properties": { "Id": 0, "Sheet_ID": "壹〇ヨ19. 蘿北", "label": "壹〇ヨ19. 蘿北", "call_short": "G7822 .M2 S100 .J36", "call_num": "G7822 .M2 S100 .J36 10YO19", "recid": "hs870ns2463", "websiteUrl": "https://purl.stanford.edu/hs870ns2463", "title": "大判 満洲及西伯利十万分一圖", "ckey": 12735389, "available": true, "iiifUrl": "https://purl.stanford.edu/hs870ns2463/iiif/manifest" }, "geometry": { "type": "Polygon", "coordinates": [ [ [ 131.0, 47.3333336 ], [ 132.0, 47.3333336 ], [ 132.0, 48.0000002 ], [ 131.0, 48.0000002 ], [ 131.0, 47.3333336 ] ] ] } },
{ "type": "Feature", "properties": { "Id": 0, "Sheet_ID": "壹〇ヨ14. 同江", "label": "壹〇ヨ14. 同江", "call_short": "0", "call_num": "0", "recid": "0", "websiteUrl": "0", "title": "0", "ckey": 0, "available": false, "iiifUrl": "0" }, "geometry": { "type": "Polygon", "coordinates": [ [ [ 132.0, 47.3333336 ], [ 133.0, 47.3333336 ], [ 133.0, 48.0000002 ], [ 132.0, 48.0000002 ], [ 132.0, 47.3333336 ] ] ] } },
{ "type": "Feature", "properties": { "Id": 0, "Sheet_ID": "壹〇ヨ9. 果勒根沼", "label": "壹〇ヨ9. 果勒根沼", "call_short": "G7822 .M2 S100 .J36", "call_num": "G7822 .M2 S100 .J36 10YO9", "recid": "yb853cz5764", "websiteUrl": "https://purl.stanford.edu/yb853cz5764", "title": "大判 満洲十万分一圖", "ckey": 12735389, "available": true, "iiifUrl": "https://purl.stanford.edu/yb853cz5764/iiif/manifest" }, "geometry": { "type": "Polygon", "coordinates": [ [ [ 133.0, 47.3333336 ], [ 134.0, 47.3333336 ], [ 134.0, 48.0000002 ], [ 133.0, 48.0000002 ], [ 133.0, 47.3333336 ] ] ] } },
{ "type": "Feature", "properties": { "Id": 0, "Sheet_ID": "壹〇ヨ4. ウォーゼムスカヤ", "label": "壹〇ヨ4. ウォーゼムスカヤ", "call_short": "G7822 .M2 S100 .J36", "call_num": "G7822 .M2 S100 .J36 10YO4", "recid": "tg473kn0188", "websiteUrl": "https://purl.stanford.edu/tg473kn0188", "title": "大判 満洲及西伯利十万分一圖", "ckey": 12735389, "available": true, "iiifUrl": "https://purl.stanford.edu/tg473kn0188/iiif/manifest" }, "geometry": { "type": "Polygon", "coordinates": [ [ [ 134.0, 47.3333336 ], [ 135.0, 47.3333336 ], [ 135.0, 48.0000002 ], [ 134.0, 48.0000002 ], [ 134.0, 47.3333336 ] ] ] } },
{ "type": "Feature", "properties": { "Id": 0, "Sheet_ID": "九ヨ24. ヴェリノー", "label": "九ヨ24. ヴェリノー", "call_short": "0", "call_num": "0", "recid": "0", "websiteUrl": "0", "title": "0", "ckey": 0, "available": false, "iiifUrl": "0" }, "geometry": { "type": "Polygon", "coordinates": [ [ [ 135.0, 47.3333336 ], [ 136.0, 47.3333336 ], [ 136.0, 48.0000002 ], [ 135.0, 48.0000002 ], [ 135.0, 47.3333336 ] ] ] } },
{ "type": "Feature", "properties": { "Id": 0, "Sheet_ID": "壹〇ヨ23. 富源村", "label": "壹〇ヨ23. 富源村", "call_short": "0", "call_num": "0", "recid": "0", "websiteUrl": "0", "title": "0", "ckey": 0, "available": false, "iiifUrl": "0" }, "geometry": { "type": "Polygon", "coordinates": [ [ [ 130.0, 48.0000002 ], [ 131.0, 48.0000002 ], [ 131.0, 48.6666668 ], [ 130.0, 48.6666668 ], [ 130.0, 48.0000002 ] ] ] } },
{ "type": "Feature", "properties": { "Id": 0, "Sheet_ID": "壹〇ヨ18. ビーヂャン河", "label": "壹〇ヨ18. ビーヂャン河", "call_short": "G7822 .M2 S100 .J36", "call_num": "G7822 .M2 S100 .J36 10YO18", "recid": "pw463bt8835", "websiteUrl": "https://purl.stanford.edu/pw463bt8835", "title": "大判 西伯利十万分一圖", "ckey": 12735389, "available": true, "iiifUrl": "https://purl.stanford.edu/pw463bt8835/iiif/manifest" }, "geometry": { "type": "Polygon", "coordinates": [ [ [ 131.0, 48.0000002 ], [ 132.0, 48.0000002 ], [ 132.0, 48.6666668 ], [ 131.0, 48.6666668 ], [ 131.0, 48.0000002 ] ] ] } },
{ "type": "Feature", "properties": { "Id": 0, "Sheet_ID": "壹〇ヨ13. バブストーワ", "label": "壹〇ヨ13. バブストーワ", "call_short": "G7822 .M2 S100 .J36", "call_num": "G7822 .M2 S100 .J36 10YO13", "recid": "fm553pc8402", "websiteUrl": "https://purl.stanford.edu/fm553pc8402", "title": "大判 満洲及西伯利十万分一圖", "ckey": 12735389, "available": true, "iiifUrl": "https://purl.stanford.edu/fm553pc8402/iiif/manifest" }, "geometry": { "type": "Polygon", "coordinates": [ [ [ 132.0, 48.0000002 ], [ 133.0, 48.0000002 ], [ 133.0, 48.6666668 ], [ 132.0, 48.6666668 ], [ 132.0, 48.0000002 ] ] ] } },
{ "type": "Feature", "properties": { "Id": 0, "Sheet_ID": "壹〇ヨ8. ゴロウィンスキー", "label": "壹〇ヨ8. ゴロウィンスキー", "call_short": "0", "call_num": "0", "recid": "0", "websiteUrl": "0", "title": "0", "ckey": 0, "available": false, "iiifUrl": "0" }, "geometry": { "type": "Polygon", "coordinates": [ [ [ 133.0, 48.0000002 ], [ 134.0, 48.0000002 ], [ 134.0, 48.6666668 ], [ 133.0, 48.6666668 ], [ 133.0, 48.0000002 ] ] ] } },
{ "type": "Feature", "properties": { "Id": 0, "Sheet_ID": "壹〇ヨ3. 撫遠", "label": "壹〇ヨ3. 撫遠", "call_short": "0", "call_num": "0", "recid": "0", "websiteUrl": "0", "title": "0", "ckey": 0, "available": false, "iiifUrl": "0" }, "geometry": { "type": "Polygon", "coordinates": [ [ [ 134.0, 48.0000002 ], [ 135.0, 48.0000002 ], [ 135.0, 48.6666668 ], [ 134.0, 48.6666668 ], [ 134.0, 48.0000002 ] ] ] } },
{ "type": "Feature", "properties": { "Id": 0, "Sheet_ID": "九ヨ23. ハバロフスク", "label": "九ヨ23. ハバロフスク", "call_short": "0", "call_num": "0", "recid": "0", "websiteUrl": "0", "title": "0", "ckey": 0, "available": false, "iiifUrl": "0" }, "geometry": { "type": "Polygon", "coordinates": [ [ [ 135.0, 48.0000002 ], [ 136.0, 48.0000002 ], [ 136.0, 48.6666668 ], [ 135.0, 48.6666668 ], [ 135.0, 48.0000002 ] ] ] } },
{ "type": "Feature", "properties": { "Id": 0, "Sheet_ID": "壹〇ヨ22. パシコフスキー", "label": "壹〇ヨ22. パシコフスキー", "call_short": "0", "call_num": "0", "recid": "0", "websiteUrl": "0", "title": "0", "ckey": 0, "available": false, "iiifUrl": "0" }, "geometry": { "type": "Polygon", "coordinates": [ [ [ 130.0, 48.6666668 ], [ 131.0, 48.6666668 ], [ 131.0, 49.3333334 ], [ 130.0, 49.3333334 ], [ 130.0, 48.6666668 ] ] ] } },
{ "type": "Feature", "properties": { "Id": 0, "Sheet_ID": "壹〇ヨ17. イズヴェストコーウィ", "label": "壹〇ヨ17. イズヴェストコーウィ", "call_short": "0", "call_num": "0", "recid": "0", "websiteUrl": "0", "title": "0", "ckey": 0, "available": false, "iiifUrl": "0" }, "geometry": { "type": "Polygon", "coordinates": [ [ [ 131.0, 48.6666668 ], [ 132.0, 48.6666668 ], [ 132.0, 49.3333334 ], [ 131.0, 49.3333334 ], [ 131.0, 48.6666668 ] ] ] } },
{ "type": "Feature", "properties": { "Id": 0, "Sheet_ID": "壹〇ヨ12. ビロビッヂャン", "label": "壹〇ヨ12. ビロビッヂャン", "call_short": "0", "call_num": "0", "recid": "0", "websiteUrl": "0", "title": "0", "ckey": 0, "available": false, "iiifUrl": "0" }, "geometry": { "type": "Polygon", "coordinates": [ [ [ 132.0, 48.6666668 ], [ 133.0, 48.6666668 ], [ 133.0, 49.3333334 ], [ 132.0, 49.3333334 ], [ 132.0, 48.6666668 ] ] ] } },
{ "type": "Feature", "properties": { "Id": 0, "Sheet_ID": "壹〇ヨ7. クパーヅィ", "label": "壹〇ヨ7. クパーヅィ", "call_short": "0", "call_num": "0", "recid": "0", "websiteUrl": "0", "title": "0", "ckey": 0, "available": false, "iiifUrl": "0" }, "geometry": { "type": "Polygon", "coordinates": [ [ [ 133.0, 48.6666668 ], [ 134.0, 48.6666668 ], [ 134.0, 49.3333334 ], [ 133.0, 49.3333334 ], [ 133.0, 48.6666668 ] ] ] } },
{ "type": "Feature", "properties": { "Id": 0, "Sheet_ID": "九ヨ22. ハバロフスク北部", "label": "九ヨ22. ハバロフスク北部", "call_short": "0", "call_num": "0", "recid": "0", "websiteUrl": "0", "title": "0", "ckey": 0, "available": false, "iiifUrl": "0" }, "geometry": { "type": "Polygon", "coordinates": [ [ [ 135.0, 48.6666668 ], [ 136.0, 48.6666668 ], [ 136.0, 49.3333334 ], [ 135.0, 49.3333334 ], [ 135.0, 48.6666668 ] ] ] } },
{ "type": "Feature", "properties": { "Id": 0, "Sheet_ID": "壹〇ヨ21. アルハラ", "label": "壹〇ヨ21. アルハラ", "call_short": "0", "call_num": "0", "recid": "0", "websiteUrl": "0", "title": "0", "ckey": 0, "available": false, "iiifUrl": "0" }, "geometry": { "type": "Polygon", "coordinates": [ [ [ 130.0, 49.3333334 ], [ 131.0, 49.3333334 ], [ 131.0, 50.0 ], [ 130.0, 50.0 ], [ 130.0, 49.3333334 ] ] ] } },
{ "type": "Feature", "properties": { "Id": 0, "Sheet_ID": "壹〇ワ22. 羅津", "label": "壹〇ワ22. 羅津", "call_short": "0", "call_num": "0", "recid": "0", "websiteUrl": "0", "title": "0", "ckey": 0, "available": false, "iiifUrl": "0" }, "geometry": { "type": "Polygon", "coordinates": [ [ [ 130.0, 42.0 ], [ 131.0, 42.0 ], [ 131.0, 42.6666667 ], [ 130.0, 42.6666667 ], [ 130.0, 42.0 ] ] ] } },
{ "type": "Feature", "properties": { "Id": 0, "Sheet_ID": "壹〇ワ21. 琿春", "label": "壹〇ワ21. 琿春", "call_short": "0", "call_num": "0", "recid": "0", "websiteUrl": "0", "title": "0", "ckey": 0, "available": false, "iiifUrl": "0" }, "geometry": { "type": "Polygon", "coordinates": [ [ [ 130.0, 42.6666667 ], [ 131.0, 42.6666667 ], [ 131.0, 43.3333334 ], [ 130.0, 43.3333334 ], [ 130.0, 42.6666667 ] ] ] } },
{ "type": "Feature", "properties": { "Id": 0, "Sheet_ID": "壹〇ワ16. 浦潮斯徳", "label": "壹〇ワ16. 浦潮斯徳", "call_short": "0", "call_num": "0", "recid": "0", "websiteUrl": "0", "title": "0", "ckey": 0, "available": false, "iiifUrl": "0" }, "geometry": { "type": "Polygon", "coordinates": [ [ [ 131.0, 42.6666667 ], [ 132.0, 42.6666667 ], [ 132.0, 43.3333334 ], [ 131.0, 43.3333334 ], [ 131.0, 42.6666667 ] ] ] } },
{ "type": "Feature", "properties": { "Id": 0, "Sheet_ID": "壹壹カ5. 大興溝", "label": "壹壹カ5. 大興溝", "call_short": "0", "call_num": "0", "recid": "0", "websiteUrl": "0", "title": "0", "ckey": 0, "available": false, "iiifUrl": "0" }, "geometry": { "type": "Polygon", "coordinates": [ [ [ 129.0, 43.3333334 ], [ 130.0, 43.3333334 ], [ 130.0, 44.0000001 ], [ 129.0, 44.0000001 ], [ 129.0, 43.3333334 ] ] ] } },
{ "type": "Feature", "properties": { "Id": 0, "Sheet_ID": "壹〇カ25. 羅子溝", "label": "壹〇カ25. 羅子溝", "call_short": "0", "call_num": "0", "recid": "0", "websiteUrl": "0", "title": "0", "ckey": 0, "available": false, "iiifUrl": "0" }, "geometry": { "type": "Polygon", "coordinates": [ [ [ 130.0, 43.3333334 ], [ 131.0, 43.3333334 ], [ 131.0, 44.0000001 ], [ 130.0, 44.0000001 ], [ 130.0, 43.3333334 ] ] ] } },
{ "type": "Feature", "properties": { "Id": 0, "Sheet_ID": "壹〇カ20. ウオロシーロフ", "label": "壹〇カ20. ウオロシーロフ", "call_short": "0", "call_num": "0", "recid": "0", "websiteUrl": "0", "title": "0", "ckey": 0, "available": false, "iiifUrl": "0" }, "geometry": { "type": "Polygon", "coordinates": [ [ [ 131.0, 43.3333334 ], [ 132.0, 43.3333334 ], [ 132.0, 44.0000001 ], [ 131.0, 44.0000001 ], [ 131.0, 43.3333334 ] ] ] } },
{ "type": "Feature", "properties": { "Id": 0, "Sheet_ID": "壹壹カ4. 牡丹江", "label": "壹壹カ4. 牡丹江", "call_short": "0", "call_num": "0", "recid": "0", "websiteUrl": "0", "title": "0", "ckey": 0, "available": false, "iiifUrl": "0" }, "geometry": { "type": "Polygon", "coordinates": [ [ [ 129.0, 44.0000001 ], [ 130.0, 44.0000001 ], [ 130.0, 44.6666669 ], [ 129.0, 44.6666669 ], [ 129.0, 44.0000001 ] ] ] } },
{ "type": "Feature", "properties": { "Id": 0, "Sheet_ID": "壹〇カ24. 穆棱", "label": "壹〇カ24. 穆棱", "call_short": "0", "call_num": "0", "recid": "0", "websiteUrl": "0", "title": "0", "ckey": 0, "available": false, "iiifUrl": "0" }, "geometry": { "type": "Polygon", "coordinates": [ [ [ 130.0, 44.0000001 ], [ 131.0, 44.0000001 ], [ 131.0, 44.6666669 ], [ 130.0, 44.6666669 ], [ 130.0, 44.0000001 ] ] ] } },
{ "type": "Feature", "properties": { "Id": 0, "Sheet_ID": "壹〇カ19. 綏芬河", "label": "壹〇カ19. 綏芬河", "call_short": "0", "call_num": "0", "recid": "0", "websiteUrl": "0", "title": "0", "ckey": 0, "available": false, "iiifUrl": "0" }, "geometry": { "type": "Polygon", "coordinates": [ [ [ 131.0, 44.0000001 ], [ 132.0, 44.0000001 ], [ 132.0, 44.6666669 ], [ 131.0, 44.6666669 ], [ 131.0, 44.0000001 ] ] ] } },
{ "type": "Feature", "properties": { "Id": 0, "Sheet_ID": "壹〇カ23. 梨樹鎮", "label": "壹〇カ23. 梨樹鎮", "call_short": "0", "call_num": "0", "recid": "0", "websiteUrl": "0", "title": "0", "ckey": 0, "available": false, "iiifUrl": "0" }, "geometry": { "type": "Polygon", "coordinates": [ [ [ 130.0, 44.6666669 ], [ 131.0, 44.6666669 ], [ 131.0, 45.3333336 ], [ 130.0, 45.3333336 ], [ 130.0, 44.6666669 ] ] ] } },
{ "type": "Feature", "properties": { "Id": 0, "Sheet_ID": "壹〇カ18. 半截河", "label": "壹〇カ18. 半截河", "call_short": "0", "call_num": "0", "recid": "0", "websiteUrl": "0", "title": "0", "ckey": 0, "available": false, "iiifUrl": "0" }, "geometry": { "type": "Polygon", "coordinates": [ [ [ 131.0, 44.6666669 ], [ 132.0, 44.6666669 ], [ 132.0, 45.3333336 ], [ 131.0, 45.3333336 ], [ 131.0, 44.6666669 ] ] ] } },
{ "type": "Feature", "properties": { "Id": 0, "Sheet_ID": "壹〇カ13. 興凱湖", "label": "壹〇カ13. 興凱湖", "call_short": "0", "call_num": "0", "recid": "0", "websiteUrl": "0", "title": "0", "ckey": 0, "available": false, "iiifUrl": "0" }, "geometry": { "type": "Polygon", "coordinates": [ [ [ 132.0, 44.6666669 ], [ 133.0, 44.6666669 ], [ 133.0, 45.3333336 ], [ 132.0, 45.3333336 ], [ 132.0, 44.6666669 ] ] ] } },
{ "type": "Feature", "properties": { "Id": 0, "Sheet_ID": "壹〇カ8. ジニコフカ", "label": "壹〇カ8. ジニコフカ", "call_short": "0", "call_num": "0", "recid": "0", "websiteUrl": "0", "title": "0", "ckey": 0, "available": false, "iiifUrl": "0" }, "geometry": { "type": "Polygon", "coordinates": [ [ [ 133.0, 44.6666669 ], [ 134.0, 44.6666669 ], [ 134.0, 45.3333336 ], [ 133.0, 45.3333336 ], [ 133.0, 44.6666669 ] ] ] } },
{ "type": "Feature", "properties": { "Id": 0, "Sheet_ID": "壹〇カ17. 東安", "label": "壹〇カ17. 東安", "call_short": "0", "call_num": "0", "recid": "0", "websiteUrl": "0", "title": "0", "ckey": 0, "available": false, "iiifUrl": "0" }, "geometry": { "type": "Polygon", "coordinates": [ [ [ 131.0, 45.3333336 ], [ 132.0, 45.3333336 ], [ 132.0, 46.0000003 ], [ 131.0, 46.0000003 ], [ 131.0, 45.3333336 ] ] ] } },
{ "type": "Feature", "properties": { "Id": 0, "Sheet_ID": "壹〇カ12. 虎林", "label": "壹〇カ12. 虎林", "call_short": "0", "call_num": "0", "recid": "0", "websiteUrl": "0", "title": "0", "ckey": 0, "available": false, "iiifUrl": "0" }, "geometry": { "type": "Polygon", "coordinates": [ [ [ 132.0, 45.3333336 ], [ 133.0, 45.3333336 ], [ 133.0, 46.0000003 ], [ 132.0, 46.0000003 ], [ 132.0, 45.3333336 ] ] ] } },
{ "type": "Feature", "properties": { "Id": 0, "Sheet_ID": "壹〇カ7. 虎頭", "label": "壹〇カ7. 虎頭", "call_short": "0", "call_num": "0", "recid": "0", "websiteUrl": "0", "title": "0", "ckey": 0, "available": false, "iiifUrl": "0" }, "geometry": { "type": "Polygon", "coordinates": [ [ [ 133.0, 45.3333336 ], [ 134.0, 45.3333336 ], [ 134.0, 46.0000003 ], [ 133.0, 46.0000003 ], [ 133.0, 45.3333336 ] ] ] } },
{ "type": "Feature", "properties": { "Id": 0, "Sheet_ID": "壹〇カ21. 永豊鎮", "label": "壹〇カ21. 永豊鎮", "call_short": "0", "call_num": "0", "recid": "0", "websiteUrl": "0", "title": "0", "ckey": 0, "available": false, "iiifUrl": "0" }, "geometry": { "type": "Polygon", "coordinates": [ [ [ 130.0, 46.0000003 ], [ 131.0, 46.0000003 ], [ 131.0, 46.666667 ], [ 130.0, 46.666667 ], [ 130.0, 46.0000003 ] ] ] } },
{ "type": "Feature", "properties": { "Id": 0, "Sheet_ID": "壹〇カ16. 七星河鎮", "label": "壹〇カ16. 七星河鎮", "call_short": "0", "call_num": "0", "recid": "0", "websiteUrl": "0", "title": "0", "ckey": 0, "available": false, "iiifUrl": "0" }, "geometry": { "type": "Polygon", "coordinates": [ [ [ 131.0, 46.0000003 ], [ 132.0, 46.0000003 ], [ 132.0, 46.666667 ], [ 131.0, 46.666667 ], [ 131.0, 46.0000003 ] ] ] } },
{ "type": "Feature", "properties": { "Id": 0, "Sheet_ID": "壹〇カ11. 寶清", "label": "壹〇カ11. 寶清", "call_short": "0", "call_num": "0", "recid": "0", "websiteUrl": "0", "title": "0", "ckey": 0, "available": false, "iiifUrl": "0" }, "geometry": { "type": "Polygon", "coordinates": [ [ [ 132.0, 46.0000003 ], [ 133.0, 46.0000003 ], [ 133.0, 46.666667 ], [ 132.0, 46.666667 ], [ 132.0, 46.0000003 ] ] ] } },
{ "type": "Feature", "properties": { "Id": 0, "Sheet_ID": "壹〇カ6. 大和鎮", "label": "壹〇カ6. 大和鎮", "call_short": "0", "call_num": "0", "recid": "0", "websiteUrl": "0", "title": "0", "ckey": 0, "available": false, "iiifUrl": "0" }, "geometry": { "type": "Polygon", "coordinates": [ [ [ 133.0, 46.0000003 ], [ 134.0, 46.0000003 ], [ 134.0, 46.666667 ], [ 133.0, 46.666667 ], [ 133.0, 46.0000003 ] ] ] } },
{ "type": "Feature", "properties": { "Id": 0, "Sheet_ID": "壹〇カ1. ブルリット駅", "label": "壹〇カ1. ブルリット駅", "call_short": "0", "call_num": "0", "recid": "0", "websiteUrl": "0", "title": "0", "ckey": 0, "available": false, "iiifUrl": "0" }, "geometry": { "type": "Polygon", "coordinates": [ [ [ 134.0, 46.0000003 ], [ 135.0, 46.0000003 ], [ 135.0, 46.666667 ], [ 134.0, 46.666667 ], [ 134.0, 46.0000003 ] ] ] } },
{ "type": "Feature", "properties": { "Id": 0, "Sheet_ID": "壹壹ヨ18. 北安", "label": "壹壹ヨ18. 北安", "call_short": "0", "call_num": "0", "recid": "0", "websiteUrl": "0", "title": "0", "ckey": 0, "available": false, "iiifUrl": "0" }, "geometry": { "type": "Polygon", "coordinates": [ [ [ 126.0, 48.0 ], [ 127.0, 48.0 ], [ 127.0, 48.6666667 ], [ 126.0, 48.6666667 ], [ 126.0, 48.0 ] ] ] } },
{ "type": "Feature", "properties": { "Id": 0, "Sheet_ID": "壹壹ヨ13. 努敏河源", "label": "壹壹ヨ13. 努敏河源", "call_short": "0", "call_num": "0", "recid": "0", "websiteUrl": "0", "title": "0", "ckey": 0, "available": false, "iiifUrl": "0" }, "geometry": { "type": "Polygon", "coordinates": [ [ [ 127.0, 48.0 ], [ 128.0, 48.0 ], [ 128.0, 48.6666667 ], [ 127.0, 48.6666667 ], [ 127.0, 48.0 ] ] ] } },
{ "type": "Feature", "properties": { "Id": 0, "Sheet_ID": "壹壹ヨ8. 科爾芬河源", "label": "壹壹ヨ8. 科爾芬河源", "call_short": "0", "call_num": "0", "recid": "0", "websiteUrl": "0", "title": "0", "ckey": 0, "available": false, "iiifUrl": "0" }, "geometry": { "type": "Polygon", "coordinates": [ [ [ 128.0, 48.0 ], [ 129.0, 48.0 ], [ 129.0, 48.6666667 ], [ 128.0, 48.6666667 ], [ 128.0, 48.0 ] ] ] } },
{ "type": "Feature", "properties": { "Id": 0, "Sheet_ID": "壹壹ヨ17. 龍門", "label": "壹壹ヨ17. 龍門", "call_short": "0", "call_num": "0", "recid": "0", "websiteUrl": "0", "title": "0", "ckey": 0, "available": false, "iiifUrl": "0" }, "geometry": { "type": "Polygon", "coordinates": [ [ [ 126.0, 48.6666667 ], [ 127.0, 48.6666667 ], [ 127.0, 49.3333333 ], [ 126.0, 49.3333333 ], [ 126.0, 48.6666667 ] ] ] } },
{ "type": "Feature", "properties": { "Id": 0, "Sheet_ID": "壹壹ヨ12. 辰清", "label": "壹壹ヨ12. 辰清", "call_short": "G7822 .M2 S100 .J36", "call_num": "G7822 .M2 S100 .J36 11YO12", "recid": "mz107tj8239", "websiteUrl": "https://purl.stanford.edu/mz107tj8239", "title": "大判 満洲十万分一圖", "ckey": 12735389, "available": true, "iiifUrl": "https://purl.stanford.edu/mz107tj8239/iiif/manifest" }, "geometry": { "type": "Polygon", "coordinates": [ [ [ 127.0, 48.6666667 ], [ 128.0, 48.6666667 ], [ 128.0, 49.3333333 ], [ 127.0, 49.3333333 ], [ 127.0, 48.6666667 ] ] ] } },
{ "type": "Feature", "properties": { "Id": 0, "Sheet_ID": "壹壹ヨ7. 張格達屯", "label": "壹壹ヨ7. 張格達屯", "call_short": "0", "call_num": "0", "recid": "0", "websiteUrl": "0", "title": "0", "ckey": 0, "available": false, "iiifUrl": "0" }, "geometry": { "type": "Polygon", "coordinates": [ [ [ 128.0, 48.6666667 ], [ 129.0, 48.6666667 ], [ 129.0, 49.3333333 ], [ 128.0, 49.3333333 ], [ 128.0, 48.6666667 ] ] ] } },
{ "type": "Feature", "properties": { "Id": 0, "Sheet_ID": "壹壹ヨ2. 烏雲", "label": "壹壹ヨ2. 烏雲", "call_short": "0", "call_num": "0", "recid": "0", "websiteUrl": "0", "title": "0", "ckey": 0, "available": false, "iiifUrl": "0" }, "geometry": { "type": "Polygon", "coordinates": [ [ [ 129.0, 48.6666667 ], [ 130.0, 48.6666667 ], [ 130.0, 49.3333333 ], [ 129.0, 49.3333333 ], [ 129.0, 48.6666667 ] ] ] } },
{ "type": "Feature", "properties": { "Id": 0, "Sheet_ID": "壹壹ヨ21. 柏根里", "label": "壹壹ヨ21. 柏根里", "call_short": "0", "call_num": "0", "recid": "0", "websiteUrl": "0", "title": "0", "ckey": 0, "available": false, "iiifUrl": "0" }, "geometry": { "type": "Polygon", "coordinates": [ [ [ 125.0, 49.3333333 ], [ 126.0, 49.3333333 ], [ 126.0, 50.0 ], [ 125.0, 50.0 ], [ 125.0, 49.3333333 ] ] ] } },
{ "type": "Feature", "properties": { "Id": 0, "Sheet_ID": "壹壹ヨ16. 塔渓", "label": "壹壹ヨ16. 塔渓", "call_short": "0", "call_num": "0", "recid": "0", "websiteUrl": "0", "title": "0", "ckey": 0, "available": false, "iiifUrl": "0" }, "geometry": { "type": "Polygon", "coordinates": [ [ [ 126.0, 49.3333333 ], [ 127.0, 49.3333333 ], [ 127.0, 50.0 ], [ 126.0, 50.0 ], [ 126.0, 49.3333333 ] ] ] } },
{ "type": "Feature", "properties": { "Id": 0, "Sheet_ID": "壹壹ヨ11. 璦琿", "label": "壹壹ヨ11. 璦琿", "call_short": "0", "call_num": "0", "recid": "0", "websiteUrl": "0", "title": "0", "ckey": 0, "available": false, "iiifUrl": "0" }, "geometry": { "type": "Polygon", "coordinates": [ [ [ 127.0, 49.3333333 ], [ 128.0, 49.3333333 ], [ 128.0, 50.0 ], [ 127.0, 50.0 ], [ 127.0, 49.3333333 ] ] ] } },
{ "type": "Feature", "properties": { "Id": 0, "Sheet_ID": "壹壹ヨ6. 奇克", "label": "壹壹ヨ6. 奇克", "call_short": "0", "call_num": "0", "recid": "0", "websiteUrl": "0", "title": "0", "ckey": 0, "available": false, "iiifUrl": "0" }, "geometry": { "type": "Polygon", "coordinates": [ [ [ 128.0, 49.3333333 ], [ 129.0, 49.3333333 ], [ 129.0, 50.0 ], [ 128.0, 50.0 ], [ 128.0, 49.3333333 ] ] ] } },
{ "type": "Feature", "properties": { "Id": 0, "Sheet_ID": "壹壹ヨ1. ライチーハ", "label": "壹壹ヨ1. ライチーハ", "call_short": "G7822 .M2 S100 .J36", "call_num": "G7822 .M2 S100 .J36 11YO1", "recid": "bs409rw7983", "websiteUrl": "https://purl.stanford.edu/bs409rw7983", "title": "大判 満洲及西伯利十万分一圖", "ckey": 12735389, "available": true, "iiifUrl": "https://purl.stanford.edu/bs409rw7983/iiif/manifest" }, "geometry": { "type": "Polygon", "coordinates": [ [ [ 129.0, 49.3333333 ], [ 130.0, 49.3333333 ], [ 130.0, 50.0 ], [ 129.0, 50.0 ], [ 129.0, 49.3333333 ] ] ] } },
{ "type": "Feature", "properties": { "Id": 0, "Sheet_ID": "壹壹タ25. 七站", "label": "壹壹タ25. 七站", "call_short": "0", "call_num": "0", "recid": "0", "websiteUrl": "0", "title": "0", "ckey": 0, "available": false, "iiifUrl": "0" }, "geometry": { "type": "Polygon", "coordinates": [ [ [ 125.0, 50.0 ], [ 126.0, 50.0 ], [ 126.0, 50.6666667 ], [ 125.0, 50.6666667 ], [ 125.0, 50.0 ] ] ] } },
{ "type": "Feature", "properties": { "Id": 0, "Sheet_ID": "壹壹タ20. 五道溝", "label": "壹壹タ20. 五道溝", "call_short": "G7822 .M2 S100 .J36", "call_num": "G7822 .M2 S100 .J36 11TA20 ED.2", "recid": "zn897gw5902", "websiteUrl": "https://purl.stanford.edu/zn897gw5902", "title": "大判 満洲十万分一圖", "ckey": 12735389, "available": true, "iiifUrl": "https://purl.stanford.edu/zn897gw5902/iiif/manifest" }, "geometry": { "type": "Polygon", "coordinates": [ [ [ 126.0, 50.0 ], [ 127.0, 50.0 ], [ 127.0, 50.6666667 ], [ 126.0, 50.6666667 ], [ 126.0, 50.0 ] ] ] } },
{ "type": "Feature", "properties": { "Id": 0, "Sheet_ID": "壹壹タ15. 黒河", "label": "壹壹タ15. 黒河", "call_short": "G7822 .M2 S100 .J36", "call_num": "G7822 .M2 S100 .J36 11TA15", "recid": "fc623yt5003", "websiteUrl": "https://purl.stanford.edu/fc623yt5003", "title": "大判 満洲及西伯利十万分一圖", "ckey": 12735389, "available": true, "iiifUrl": "https://purl.stanford.edu/fc623yt5003/iiif/manifest" }, "geometry": { "type": "Polygon", "coordinates": [ [ [ 127.0, 50.0 ], [ 128.0, 50.0 ], [ 128.0, 50.6666667 ], [ 127.0, 50.6666667 ], [ 127.0, 50.0 ] ] ] } },
{ "type": "Feature", "properties": { "Id": 0, "Sheet_ID": "壹壹タ10. タンボフカ", "label": "壹壹タ10. タンボフカ", "call_short": "0", "call_num": "0", "recid": "0", "websiteUrl": "0", "title": "0", "ckey": 0, "available": false, "iiifUrl": "0" }, "geometry": { "type": "Polygon", "coordinates": [ [ [ 128.0, 50.0 ], [ 129.0, 50.0 ], [ 129.0, 50.6666667 ], [ 128.0, 50.6666667 ], [ 128.0, 50.0 ] ] ] } },
{ "type": "Feature", "properties": { "Id": 0, "Sheet_ID": "壹壹タ5. ザヴィタヤ", "label": "壹壹タ5. ザヴィタヤ", "call_short": "G7822 .M2 S100 .J36", "call_num": "G7822 .M2 S100 .J36 11TA5", "recid": "xm529bp8852", "websiteUrl": "https://purl.stanford.edu/xm529bp8852", "title": "大判 西伯利十万分一圖", "ckey": 12735389, "available": true, "iiifUrl": "https://purl.stanford.edu/xm529bp8852/iiif/manifest" }, "geometry": { "type": "Polygon", "coordinates": [ [ [ 129.0, 50.0 ], [ 130.0, 50.0 ], [ 130.0, 50.6666667 ], [ 129.0, 50.6666667 ], [ 129.0, 50.0 ] ] ] } },
{ "type": "Feature", "properties": { "Id": 0, "Sheet_ID": "壹壹タ24. 十站", "label": "壹壹タ24. 十站", "call_short": "0", "call_num": "0", "recid": "0", "websiteUrl": "0", "title": "0", "ckey": 0, "available": false, "iiifUrl": "0" }, "geometry": { "type": "Polygon", "coordinates": [ [ [ 125.0, 50.6666667 ], [ 126.0, 50.6666667 ], [ 126.0, 51.3333333 ], [ 125.0, 51.3333333 ], [ 125.0, 50.6666667 ] ] ] } },
{ "type": "Feature", "properties": { "Id": 0, "Sheet_ID": "壹壹タ19. 三道卡", "label": "壹壹タ19. 三道卡", "call_short": "0", "call_num": "0", "recid": "0", "websiteUrl": "0", "title": "0", "ckey": 0, "available": false, "iiifUrl": "0" }, "geometry": { "type": "Polygon", "coordinates": [ [ [ 126.0, 50.6666667 ], [ 127.0, 50.6666667 ], [ 127.0, 51.3333333 ], [ 126.0, 51.3333333 ], [ 126.0, 50.6666667 ] ] ] } },
{ "type": "Feature", "properties": { "Id": 0, "Sheet_ID": "壹壹タ14. アンドレーエフカ", "label": "壹壹タ14. アンドレーエフカ", "call_short": "G7822 .M2 S100 .J36", "call_num": "G7822 .M2 S100 .J36 11TA14", "recid": "tg415zd5405", "websiteUrl": "https://purl.stanford.edu/tg415zd5405", "title": "大判 満洲及西伯利十万分一圖", "ckey": 12735389, "available": true, "iiifUrl": "https://purl.stanford.edu/tg415zd5405/iiif/manifest" }, "geometry": { "type": "Polygon", "coordinates": [ [ [ 127.0, 50.6666667 ], [ 128.0, 50.6666667 ], [ 128.0, 51.3333333 ], [ 127.0, 51.3333333 ], [ 127.0, 50.6666667 ] ] ] } },
{ "type": "Feature", "properties": { "Id": 0, "Sheet_ID": "壹壹タ9. クイブイシェフカ", "label": "壹壹タ9. クイブイシェフカ", "call_short": "0", "call_num": "0", "recid": "0", "websiteUrl": "0", "title": "0", "ckey": 0, "available": false, "iiifUrl": "0" }, "geometry": { "type": "Polygon", "coordinates": [ [ [ 128.0, 50.6666667 ], [ 129.0, 50.6666667 ], [ 129.0, 51.3333333 ], [ 128.0, 51.3333333 ], [ 128.0, 50.6666667 ] ] ] } },
{ "type": "Feature", "properties": { "Id": 0, "Sheet_ID": "壹壹タ4. トルバガタイ", "label": "壹壹タ4. トルバガタイ", "call_short": "G7822 .M2 S100 .J36", "call_num": "G7822 .M2 S100 .J36 11TA4", "recid": "cs042kf0273", "websiteUrl": "https://purl.stanford.edu/cs042kf0273", "title": "大判 西伯利十万分一圖", "ckey": 12735389, "available": true, "iiifUrl": "https://purl.stanford.edu/cs042kf0273/iiif/manifest" }, "geometry": { "type": "Polygon", "coordinates": [ [ [ 129.0, 50.6666667 ], [ 130.0, 50.6666667 ], [ 130.0, 51.3333333 ], [ 129.0, 51.3333333 ], [ 129.0, 50.6666667 ] ] ] } },
{ "type": "Feature", "properties": { "Id": 0, "Sheet_ID": "壹壹タ18. 呼瑪", "label": "壹壹タ18. 呼瑪", "call_short": "G7822 .M2 S100 .J36", "call_num": "G7822 .M2 S100 .J36 11TA18", "recid": "pv177rh0196", "websiteUrl": "https://purl.stanford.edu/pv177rh0196", "title": "大判 満洲及西伯利十万分一圖", "ckey": 12735389, "available": true, "iiifUrl": "https://purl.stanford.edu/pv177rh0196/iiif/manifest" }, "geometry": { "type": "Polygon", "coordinates": [ [ [ 126.0, 51.3333333 ], [ 127.0, 51.3333333 ], [ 127.0, 52.0 ], [ 126.0, 52.0 ], [ 126.0, 51.3333333 ] ] ] } },
{ "type": "Feature", "properties": { "Id": 0, "Sheet_ID": "壹壹タ13. セレクタン", "label": "壹壹タ13. セレクタン", "call_short": "0", "call_num": "0", "recid": "0", "websiteUrl": "0", "title": "0", "ckey": 0, "available": false, "iiifUrl": "0" }, "geometry": { "type": "Polygon", "coordinates": [ [ [ 127.0, 51.3333333 ], [ 128.0, 51.3333333 ], [ 128.0, 52.0 ], [ 127.0, 52.0 ], [ 127.0, 51.3333333 ] ] ] } },
{ "type": "Feature", "properties": { "Id": 0, "Sheet_ID": "壹壹タ8. スウォボドヌイ", "label": "壹壹タ8. スウォボドヌイ", "call_short": "0", "call_num": "0", "recid": "0", "websiteUrl": "0", "title": "0", "ckey": 0, "available": false, "iiifUrl": "0" }, "geometry": { "type": "Polygon", "coordinates": [ [ [ 128.0, 51.3333333 ], [ 129.0, 51.3333333 ], [ 129.0, 52.0 ], [ 128.0, 52.0 ], [ 128.0, 51.3333333 ] ] ] } },
{ "type": "Feature", "properties": { "Id": 0, "Sheet_ID": "壹壹タ3. ボコスロフカ", "label": "壹壹タ3. ボコスロフカ", "call_short": "0", "call_num": "0", "recid": "0", "websiteUrl": "0", "title": "0", "ckey": 0, "available": false, "iiifUrl": "0" }, "geometry": { "type": "Polygon", "coordinates": [ [ [ 129.0, 51.3333333 ], [ 130.0, 51.3333333 ], [ 130.0, 52.0 ], [ 129.0, 52.0 ], [ 129.0, 51.3333333 ] ] ] } },
{ "type": "Feature", "properties": { "Id": 0, "Sheet_ID": "壹壹タ20. 漢達汽", "label": "壹壹タ20. 漢達汽", "call_short": "G7822 .M2 S100 .J36", "call_num": "G7822 .M2 S100 .J36 11TA20", "recid": "mj600mp4754", "websiteUrl": "https://purl.stanford.edu/mj600mp4754", "title": "大判 満洲十万分一圖", "ckey": 12735389, "available": true, "iiifUrl": "https://purl.stanford.edu/mj600mp4754/iiif/manifest" }, "geometry": { "type": "Polygon", "coordinates": [ [ [ 126.0, 50.0 ], [ 127.0, 50.0 ], [ 127.0, 50.6666667 ], [ 126.0, 50.6666667 ], [ 126.0, 50.0 ] ] ] } },
{ "type": "Feature", "properties": { "Id": 0, "Sheet_ID": "壹壹ヨ1 ED2. ライチーハ", "label": "壹壹ヨ1 ED2. ライチーハ", "call_short": "G7822 .M2 S100 .J36", "call_num": "G7822 .M2 S100 .J36 11YO1 ED.2", "recid": "vn950km7610", "websiteUrl": "https://purl.stanford.edu/vn950km7610", "title": "大判 満洲及西伯利十万分一圖", "ckey": 12735389, "available": true, "iiifUrl": "https://purl.stanford.edu/vn950km7610/iiif/manifest" }, "geometry": { "type": "Polygon", "coordinates": [ [ [ 129.0, 49.3333333 ], [ 130.0, 49.3333333 ], [ 130.0, 50.0 ], [ 129.0, 50.0 ], [ 129.0, 49.3333333 ] ] ] } },
{ "type": "Feature", "properties": { "Id": 0, "Sheet_ID": "壹貮タ10. チチリン", "label": "壹貮タ10. チチリン", "call_short": "0", "call_num": "0", "recid": "0", "websiteUrl": "0", "title": "0", "ckey": 0, "available": false, "iiifUrl": "0" }, "geometry": { "type": "Polygon", "coordinates": [ [ [ 123.0, 50.0 ], [ 124.0, 50.0 ], [ 124.0, 50.6666667 ], [ 123.0, 50.6666667 ], [ 123.0, 50.0 ] ] ] } },
{ "type": "Feature", "properties": { "Id": 0, "Sheet_ID": "壹貮タ19. 根河", "label": "壹貮タ19. 根河", "call_short": "0", "call_num": "0", "recid": "0", "websiteUrl": "0", "title": "0", "ckey": 0, "available": false, "iiifUrl": "0" }, "geometry": { "type": "Polygon", "coordinates": [ [ [ 121.0, 50.6666667 ], [ 122.0, 50.6666667 ], [ 122.0, 51.3333334 ], [ 121.0, 51.3333334 ], [ 121.0, 50.6666667 ] ] ] } },
{ "type": "Feature", "properties": { "Id": 0, "Sheet_ID": "壹貮タ14. ナプタルダイ山", "label": "壹貮タ14. ナプタルダイ山", "call_short": "0", "call_num": "0", "recid": "0", "websiteUrl": "0", "title": "0", "ckey": 0, "available": false, "iiifUrl": "0" }, "geometry": { "type": "Polygon", "coordinates": [ [ [ 122.0, 50.6666667 ], [ 123.0, 50.6666667 ], [ 123.0, 51.3333334 ], [ 122.0, 51.3333334 ], [ 122.0, 50.6666667 ] ] ] } },
{ "type": "Feature", "properties": { "Id": 0, "Sheet_ID": "壹貮タ18. 阿拉斉山", "label": "壹貮タ18. 阿拉斉山", "call_short": "0", "call_num": "0", "recid": "0", "websiteUrl": "0", "title": "0", "ckey": 0, "available": false, "iiifUrl": "0" }, "geometry": { "type": "Polygon", "coordinates": [ [ [ 121.0, 51.3333334 ], [ 122.0, 51.3333334 ], [ 122.0, 52.0000001 ], [ 121.0, 52.0000001 ], [ 121.0, 51.3333334 ] ] ] } },
{ "type": "Feature", "properties": { "Id": 0, "Sheet_ID": "壹貮タ13. 三望山", "label": "壹貮タ13. 三望山", "call_short": "0", "call_num": "0", "recid": "0", "websiteUrl": "0", "title": "0", "ckey": 0, "available": false, "iiifUrl": "0" }, "geometry": { "type": "Polygon", "coordinates": [ [ [ 122.0, 51.3333334 ], [ 123.0, 51.3333334 ], [ 123.0, 52.0000001 ], [ 122.0, 52.0000001 ], [ 122.0, 51.3333334 ] ] ] } },
{ "type": "Feature", "properties": { "Id": 0, "Sheet_ID": "壹貮タ8. 大ボウレ山", "label": "壹貮タ8. 大ボウレ山", "call_short": "0", "call_num": "0", "recid": "0", "websiteUrl": "0", "title": "0", "ckey": 0, "available": false, "iiifUrl": "0" }, "geometry": { "type": "Polygon", "coordinates": [ [ [ 123.0, 51.3333334 ], [ 124.0, 51.3333334 ], [ 124.0, 52.0000001 ], [ 123.0, 52.0000001 ], [ 123.0, 51.3333334 ] ] ] } },
{ "type": "Feature", "properties": { "Id": 0, "Sheet_ID": "壹貮タ17. 龍門", "label": "壹貮タ17. 龍門", "call_short": "0", "call_num": "0", "recid": "0", "websiteUrl": "0", "title": "0", "ckey": 0, "available": false, "iiifUrl": "0" }, "geometry": { "type": "Polygon", "coordinates": [ [ [ 121.0, 52.0000001 ], [ 122.0, 52.0000001 ], [ 122.0, 52.6666669 ], [ 121.0, 52.6666669 ], [ 121.0, 52.0000001 ] ] ] } },
{ "type": "Feature", "properties": { "Id": 0, "Sheet_ID": "壹貮タ12. ホロタイ山", "label": "壹貮タ12. ホロタイ山", "call_short": "0", "call_num": "0", "recid": "0", "websiteUrl": "0", "title": "0", "ckey": 0, "available": false, "iiifUrl": "0" }, "geometry": { "type": "Polygon", "coordinates": [ [ [ 122.0, 52.0000001 ], [ 123.0, 52.0000001 ], [ 123.0, 52.6666669 ], [ 122.0, 52.6666669 ], [ 122.0, 52.0000001 ] ] ] } },
{ "type": "Feature", "properties": { "Id": 0, "Sheet_ID": "壹貮タ2. チェマ山", "label": "壹貮タ2. チェマ山", "call_short": "0", "call_num": "0", "recid": "0", "websiteUrl": "0", "title": "0", "ckey": 0, "available": false, "iiifUrl": "0" }, "geometry": { "type": "Polygon", "coordinates": [ [ [ 124.0, 52.0000001 ], [ 125.0, 52.0000001 ], [ 125.0, 52.6666669 ], [ 124.0, 52.6666669 ], [ 124.0, 52.0000001 ] ] ] } },
{ "type": "Feature", "properties": { "Id": 0, "Sheet_ID": "壹貮タ6. 直堂子", "label": "壹貮タ6. 直堂子", "call_short": "0", "call_num": "0", "recid": "0", "websiteUrl": "0", "title": "0", "ckey": 0, "available": false, "iiifUrl": "0" }, "geometry": { "type": "Polygon", "coordinates": [ [ [ 123.0, 52.6666669 ], [ 124.0, 52.6666669 ], [ 124.0, 53.3333336 ], [ 123.0, 53.3333336 ], [ 123.0, 52.6666669 ] ] ] } },
{ "type": "Feature", "properties": { "Id": 0, "Sheet_ID": "壹貮タ1. 開庫康", "label": "壹貮タ1. 開庫康", "call_short": "0", "call_num": "0", "recid": "0", "websiteUrl": "0", "title": "0", "ckey": 0, "available": false, "iiifUrl": "0" }, "geometry": { "type": "Polygon", "coordinates": [ [ [ 124.0, 52.6666669 ], [ 125.0, 52.6666669 ], [ 125.0, 53.3333336 ], [ 124.0, 53.3333336 ], [ 124.0, 52.6666669 ] ] ] } },
{ "type": "Feature", "properties": { "Id": 0, "Sheet_ID": "壹貮レ20. エロフェイ・パヴロヴィチ", "label": "壹貮レ20. エロフェイ・パヴロヴィチ", "call_short": "0", "call_num": "0", "recid": "0", "websiteUrl": "0", "title": "0", "ckey": 0, "available": false, "iiifUrl": "0" }, "geometry": { "type": "Polygon", "coordinates": [ [ [ 121.0, 53.3333336 ], [ 122.0, 53.3333336 ], [ 122.0, 54.0000003 ], [ 121.0, 54.0000003 ], [ 121.0, 53.3333336 ] ] ] } },
{ "type": "Feature", "properties": { "Id": 0, "Sheet_ID": "壹貮レ15. 漠河", "label": "壹貮レ15. 漠河", "call_short": "0", "call_num": "0", "recid": "0", "websiteUrl": "0", "title": "0", "ckey": 0, "available": false, "iiifUrl": "0" }, "geometry": { "type": "Polygon", "coordinates": [ [ [ 122.0, 53.3333336 ], [ 123.0, 53.3333336 ], [ 123.0, 54.0000003 ], [ 122.0, 54.0000003 ], [ 122.0, 53.3333336 ] ] ] } },
{ "type": "Feature", "properties": { "Id": 0, "Sheet_ID": "壹貮レ10. 連釜", "label": "壹貮レ10. 連釜", "call_short": "0", "call_num": "0", "recid": "0", "websiteUrl": "0", "title": "0", "ckey": 0, "available": false, "iiifUrl": "0" }, "geometry": { "type": "Polygon", "coordinates": [ [ [ 123.0, 53.3333336 ], [ 124.0, 53.3333336 ], [ 124.0, 54.0000003 ], [ 123.0, 54.0000003 ], [ 123.0, 53.3333336 ] ] ] } },
{ "type": "Feature", "properties": { "Id": 0, "Sheet_ID": "壹貮レ19. チチャートカ", "label": "壹貮レ19. チチャートカ", "call_short": "0", "call_num": "0", "recid": "0", "websiteUrl": "0", "title": "0", "ckey": 0, "available": false, "iiifUrl": "0" }, "geometry": { "type": "Polygon", "coordinates": [ [ [ 121.0, 54.0000003 ], [ 122.0, 54.0000003 ], [ 122.0, 54.666667 ], [ 121.0, 54.666667 ], [ 121.0, 54.0000003 ] ] ] } },
{ "type": "Feature", "properties": { "Id": 0, "Sheet_ID": "壹貮レ9. タフタムイグダ", "label": "壹貮レ9. タフタムイグダ", "call_short": "0", "call_num": "0", "recid": "0", "websiteUrl": "0", "title": "0", "ckey": 0, "available": false, "iiifUrl": "0" }, "geometry": { "type": "Polygon", "coordinates": [ [ [ 123.0, 54.0000003 ], [ 124.0, 54.0000003 ], [ 124.0, 54.666667 ], [ 123.0, 54.666667 ], [ 123.0, 54.0000003 ] ] ] } },
{ "type": "Feature", "properties": { "Id": 0, "Sheet_ID": "壹貮レ4. ウルカン", "label": "壹貮レ4. ウルカン", "call_short": "0", "call_num": "0", "recid": "0", "websiteUrl": "0", "title": "0", "ckey": 0, "available": false, "iiifUrl": "0" }, "geometry": { "type": "Polygon", "coordinates": [ [ [ 124.0, 54.0000003 ], [ 125.0, 54.0000003 ], [ 125.0, 54.666667 ], [ 124.0, 54.666667 ], [ 124.0, 54.0000003 ] ] ] } },
{ "type": "Feature", "properties": { "Id": 0, "Sheet_ID": "壹貮カ16. 索倫", "label": "壹貮カ16. 索倫", "call_short": "0", "call_num": "0", "recid": "0", "websiteUrl": "0", "title": "0", "ckey": 0, "available": false, "iiifUrl": "0" }, "geometry": { "type": "Polygon", "coordinates": [ [ [ 121.0, 46.0 ], [ 122.0, 46.0 ], [ 122.0, 46.6666667 ], [ 121.0, 46.6666667 ], [ 121.0, 46.0 ] ] ] } },
{ "type": "Feature", "properties": { "Id": 0, "Sheet_ID": "壹貮ヨ25. 五叉溝", "label": "壹貮ヨ25. 五叉溝", "call_short": "G7822 .M2 S100 .J36", "call_num": "G7822 .M2 S100 .J36 12YO25", "recid": "rx537hc0271", "websiteUrl": "https://purl.stanford.edu/rx537hc0271", "title": "大判 満洲十万分一圖", "ckey": 12735389, "available": true, "iiifUrl": "https://purl.stanford.edu/rx537hc0271/iiif/manifest" }, "geometry": { "type": "Polygon", "coordinates": [ [ [ 120.0, 46.6666667 ], [ 121.0, 46.6666667 ], [ 121.0, 47.3333333 ], [ 120.0, 47.3333333 ], [ 120.0, 46.6666667 ] ] ] } },
{ "type": "Feature", "properties": { "Id": 0, "Sheet_ID": "壹貮ヨ20. 九名屯", "label": "壹貮ヨ20. 九名屯", "call_short": "0", "call_num": "0", "recid": "0", "websiteUrl": "0", "title": "0", "ckey": 0, "available": false, "iiifUrl": "0" }, "geometry": { "type": "Polygon", "coordinates": [ [ [ 121.0, 46.6666667 ], [ 122.0, 46.6666667 ], [ 122.0, 47.3333333 ], [ 121.0, 47.3333333 ], [ 121.0, 46.6666667 ] ] ] } },
{ "type": "Feature", "properties": { "Id": 0, "Sheet_ID": "壹貮ヨ24. タフヒン湖", "label": "壹貮ヨ24. タフヒン湖", "call_short": "0", "call_num": "0", "recid": "0", "websiteUrl": "0", "title": "0", "ckey": 0, "available": false, "iiifUrl": "0" }, "geometry": { "type": "Polygon", "coordinates": [ [ [ 120.0, 47.3333333 ], [ 121.0, 47.3333333 ], [ 121.0, 48.0 ], [ 120.0, 48.0 ], [ 120.0, 47.3333333 ] ] ] } },
{ "type": "Feature", "properties": { "Id": 0, "Sheet_ID": "壹貮ヨ19. オネー湖", "label": "壹貮ヨ19. オネー湖", "call_short": "0", "call_num": "0", "recid": "0", "websiteUrl": "0", "title": "0", "ckey": 0, "available": false, "iiifUrl": "0" }, "geometry": { "type": "Polygon", "coordinates": [ [ [ 121.0, 47.3333333 ], [ 122.0, 47.3333333 ], [ 122.0, 48.0 ], [ 121.0, 48.0 ], [ 121.0, 47.3333333 ] ] ] } },
{ "type": "Feature", "properties": { "Id": 0, "Sheet_ID": "壹貮ヨ14. 碾子山", "label": "壹貮ヨ14. 碾子山", "call_short": "0", "call_num": "0", "recid": "0", "websiteUrl": "0", "title": "0", "ckey": 0, "available": false, "iiifUrl": "0" }, "geometry": { "type": "Polygon", "coordinates": [ [ [ 122.0, 47.3333333 ], [ 123.0, 47.3333333 ], [ 123.0, 48.0 ], [ 122.0, 48.0 ], [ 122.0, 47.3333333 ] ] ] } },
{ "type": "Feature", "properties": { "Id": 0, "Sheet_ID": "壹貮ヨ18. 二道河子", "label": "壹貮ヨ18. 二道河子", "call_short": "0", "call_num": "0", "recid": "0", "websiteUrl": "0", "title": "0", "ckey": 0, "available": false, "iiifUrl": "0" }, "geometry": { "type": "Polygon", "coordinates": [ [ [ 121.0, 48.0 ], [ 122.0, 48.0 ], [ 122.0, 48.6666667 ], [ 121.0, 48.6666667 ], [ 121.0, 48.0 ] ] ] } },
{ "type": "Feature", "properties": { "Id": 0, "Sheet_ID": "壹貮ヨ13. 孔蘭屯", "label": "壹貮ヨ13. 孔蘭屯", "call_short": "0", "call_num": "0", "recid": "0", "websiteUrl": "0", "title": "0", "ckey": 0, "available": false, "iiifUrl": "0" }, "geometry": { "type": "Polygon", "coordinates": [ [ [ 122.0, 48.0 ], [ 123.0, 48.0 ], [ 123.0, 48.6666667 ], [ 122.0, 48.6666667 ], [ 122.0, 48.0 ] ] ] } },
{ "type": "Feature", "properties": { "Id": 0, "Sheet_ID": "壹貮ヨ17. 博克圖", "label": "壹貮ヨ17. 博克圖", "call_short": "0", "call_num": "0", "recid": "0", "websiteUrl": "0", "title": "0", "ckey": 0, "available": false, "iiifUrl": "0" }, "geometry": { "type": "Polygon", "coordinates": [ [ [ 121.0, 48.6666667 ], [ 122.0, 48.6666667 ], [ 122.0, 49.3333333 ], [ 121.0, 49.3333333 ], [ 121.0, 48.6666667 ] ] ] } },
{ "type": "Feature", "properties": { "Id": 0, "Sheet_ID": "壹貮ヨ12. ホリゴール", "label": "壹貮ヨ12. ホリゴール", "call_short": "0", "call_num": "0", "recid": "0", "websiteUrl": "0", "title": "0", "ckey": 0, "available": false, "iiifUrl": "0" }, "geometry": { "type": "Polygon", "coordinates": [ [ [ 122.0, 48.6666667 ], [ 123.0, 48.6666667 ], [ 123.0, 49.3333333 ], [ 122.0, 49.3333333 ], [ 122.0, 48.6666667 ] ] ] } },
{ "type": "Feature", "properties": { "Id": 0, "Sheet_ID": "壹貮ヨ2. 和禮屯", "label": "壹貮ヨ2. 和禮屯", "call_short": "0", "call_num": "0", "recid": "0", "websiteUrl": "0", "title": "0", "ckey": 0, "available": false, "iiifUrl": "0" }, "geometry": { "type": "Polygon", "coordinates": [ [ [ 124.0, 48.6666667 ], [ 125.0, 48.6666667 ], [ 125.0, 49.3333333 ], [ 124.0, 49.3333333 ], [ 124.0, 48.6666667 ] ] ] } },
{ "type": "Feature", "properties": { "Id": 0, "Sheet_ID": "壹貮ヨ16. 卓羅爾山", "label": "壹貮ヨ16. 卓羅爾山", "call_short": "0", "call_num": "0", "recid": "0", "websiteUrl": "0", "title": "0", "ckey": 0, "available": false, "iiifUrl": "0" }, "geometry": { "type": "Polygon", "coordinates": [ [ [ 121.0, 49.3333333 ], [ 122.0, 49.3333333 ], [ 122.0, 50.0 ], [ 121.0, 50.0 ], [ 121.0, 49.3333333 ] ] ] } },
{ "type": "Feature", "properties": { "Id": 0, "Sheet_ID": "壹貮ヨ11. シングリートカントーラ", "label": "壹貮ヨ11. シングリートカントーラ", "call_short": "0", "call_num": "0", "recid": "0", "websiteUrl": "0", "title": "0", "ckey": 0, "available": false, "iiifUrl": "0" }, "geometry": { "type": "Polygon", "coordinates": [ [ [ 122.0, 49.3333333 ], [ 123.0, 49.3333333 ], [ 123.0, 50.0 ], [ 122.0, 50.0 ], [ 122.0, 49.3333333 ] ] ] } },
{ "type": "Feature", "properties": { "Id": 0, "Sheet_ID": "壹貮ヨ6. 禿葫蘆山", "label": "壹貮ヨ6. 禿葫蘆山", "call_short": "0", "call_num": "0", "recid": "0", "websiteUrl": "0", "title": "0", "ckey": 0, "available": false, "iiifUrl": "0" }, "geometry": { "type": "Polygon", "coordinates": [ [ [ 123.0, 49.3333333 ], [ 124.0, 49.3333333 ], [ 124.0, 50.0 ], [ 123.0, 50.0 ], [ 123.0, 49.3333333 ] ] ] } },
{ "type": "Feature", "properties": { "Id": 0, "Sheet_ID": "壹貮ヨ1. 巴彦街", "label": "壹貮ヨ1. 巴彦街", "call_short": "0", "call_num": "0", "recid": "0", "websiteUrl": "0", "title": "0", "ckey": 0, "available": false, "iiifUrl": "0" }, "geometry": { "type": "Polygon", "coordinates": [ [ [ 124.0, 49.3333333 ], [ 125.0, 49.3333333 ], [ 125.0, 50.0 ], [ 124.0, 50.0 ], [ 124.0, 49.3333333 ] ] ] } },
{ "type": "Feature", "properties": { "Id": 0, "Sheet_ID": "壹参タ20. ボルヂャ", "label": "壹参タ20. ボルヂャ", "call_short": "0", "call_num": "0", "recid": "0", "websiteUrl": "0", "title": "0", "ckey": 0, "available": false, "iiifUrl": "0" }, "geometry": { "type": "Polygon", "coordinates": [ [ [ 116.0, 50.0 ], [ 117.0, 50.0 ], [ 117.0, 50.6666667 ], [ 116.0, 50.6666667 ], [ 116.0, 50.0 ] ] ] } },
{ "type": "Feature", "properties": { "Id": 0, "Sheet_ID": "壹参タ15. ツァガンオルーエフスカヤ", "label": "壹参タ15. ツァガンオルーエフスカヤ", "call_short": "0", "call_num": "0", "recid": "0", "websiteUrl": "0", "title": "0", "ckey": 0, "available": false, "iiifUrl": "0" }, "geometry": { "type": "Polygon", "coordinates": [ [ [ 117.0, 50.0 ], [ 118.0, 50.0 ], [ 118.0, 50.6666667 ], [ 117.0, 50.6666667 ], [ 117.0, 50.0 ] ] ] } },
{ "type": "Feature", "properties": { "Id": 0, "Sheet_ID": "壹参タ10. ブィルカ", "label": "壹参タ10. ブィルカ", "call_short": "0", "call_num": "0", "recid": "0", "websiteUrl": "0", "title": "0", "ckey": 0, "available": false, "iiifUrl": "0" }, "geometry": { "type": "Polygon", "coordinates": [ [ [ 118.0, 50.0 ], [ 119.0, 50.0 ], [ 119.0, 50.6666667 ], [ 118.0, 50.6666667 ], [ 118.0, 50.0 ] ] ] } },
{ "type": "Feature", "properties": { "Id": 0, "Sheet_ID": "壹参タ19. ボルジャ北方", "label": "壹参タ19. ボルジャ北方", "call_short": "0", "call_num": "0", "recid": "0", "websiteUrl": "0", "title": "0", "ckey": 0, "available": false, "iiifUrl": "0" }, "geometry": { "type": "Polygon", "coordinates": [ [ [ 116.0, 50.6666667 ], [ 117.0, 50.6666667 ], [ 117.0, 51.3333333 ], [ 116.0, 51.3333333 ], [ 116.0, 50.6666667 ] ] ] } },
{ "type": "Feature", "properties": { "Id": 0, "Sheet_ID": "壹参タ14. アレキサンドロフスキーザヴォード", "label": "壹参タ14. アレキサンドロフスキーザヴォード", "call_short": "0", "call_num": "0", "recid": "0", "websiteUrl": "0", "title": "0", "ckey": 0, "available": false, "iiifUrl": "0" }, "geometry": { "type": "Polygon", "coordinates": [ [ [ 117.0, 50.6666667 ], [ 118.0, 50.6666667 ], [ 118.0, 51.3333333 ], [ 117.0, 51.3333333 ], [ 117.0, 50.6666667 ] ] ] } },
{ "type": "Feature", "properties": { "Id": 0, "Sheet_ID": "壹参タ9. ドノー", "label": "壹参タ9. ドノー", "call_short": "0", "call_num": "0", "recid": "0", "websiteUrl": "0", "title": "0", "ckey": 0, "available": false, "iiifUrl": "0" }, "geometry": { "type": "Polygon", "coordinates": [ [ [ 118.0, 50.6666667 ], [ 119.0, 50.6666667 ], [ 119.0, 51.3333333 ], [ 118.0, 51.3333333 ], [ 118.0, 50.6666667 ] ] ] } },
{ "type": "Feature", "properties": { "Id": 0, "Sheet_ID": "壹参タ18. ネルチンスク", "label": "壹参タ18. ネルチンスク", "call_short": "0", "call_num": "0", "recid": "0", "websiteUrl": "0", "title": "0", "ckey": 0, "available": false, "iiifUrl": "0" }, "geometry": { "type": "Polygon", "coordinates": [ [ [ 116.0, 51.3333333 ], [ 117.0, 51.3333333 ], [ 117.0, 52.0 ], [ 116.0, 52.0 ], [ 116.0, 51.3333333 ] ] ] } },
{ "type": "Feature", "properties": { "Id": 0, "Sheet_ID": "壹参タ13. ヂドキンスカヤ", "label": "壹参タ13. ヂドキンスカヤ", "call_short": "0", "call_num": "0", "recid": "0", "websiteUrl": "0", "title": "0", "ckey": 0, "available": false, "iiifUrl": "0" }, "geometry": { "type": "Polygon", "coordinates": [ [ [ 117.0, 51.3333333 ], [ 118.0, 51.3333333 ], [ 118.0, 52.0 ], [ 117.0, 52.0 ], [ 117.0, 51.3333333 ] ] ] } },
{ "type": "Feature", "properties": { "Id": 0, "Sheet_ID": "壹参タ8. ガジムルスキー", "label": "壹参タ8. ガジムルスキー", "call_short": "0", "call_num": "0", "recid": "0", "websiteUrl": "0", "title": "0", "ckey": 0, "available": false, "iiifUrl": "0" }, "geometry": { "type": "Polygon", "coordinates": [ [ [ 118.0, 51.3333333 ], [ 119.0, 51.3333333 ], [ 119.0, 52.0 ], [ 118.0, 52.0 ], [ 118.0, 51.3333333 ] ] ] } },
{ "type": "Feature", "properties": { "Id": 0, "Sheet_ID": "壹参ヨ5. ハロンアルシャン", "label": "壹参ヨ5. ハロンアルシャン", "call_short": "0", "call_num": "0", "recid": "0", "websiteUrl": "0", "title": "0", "ckey": 0, "available": false, "iiifUrl": "0" }, "geometry": { "type": "Polygon", "coordinates": [ [ [ 119.0, 46.666667 ], [ 120.0, 46.666667 ], [ 120.0, 47.3333336 ], [ 119.0, 47.3333336 ], [ 119.0, 46.666667 ] ] ] } },
{ "type": "Feature", "properties": { "Id": 0, "Sheet_ID": "壹参ヨ19. ハンベンスーム", "label": "壹参ヨ19. ハンベンスーム", "call_short": "0", "call_num": "0", "recid": "0", "websiteUrl": "0", "title": "0", "ckey": 0, "available": false, "iiifUrl": "0" }, "geometry": { "type": "Polygon", "coordinates": [ [ [ 116.0, 47.3333336 ], [ 117.0, 47.3333336 ], [ 117.0, 48.0000002 ], [ 116.0, 48.0000002 ], [ 116.0, 47.3333336 ] ] ] } },
{ "type": "Feature", "properties": { "Id": 0, "Sheet_ID": "壹参ヨ14. 貝爾湖", "label": "壹参ヨ14. 貝爾湖", "call_short": "0", "call_num": "0", "recid": "0", "websiteUrl": "0", "title": "0", "ckey": 0, "available": false, "iiifUrl": "0" }, "geometry": { "type": "Polygon", "coordinates": [ [ [ 117.0, 47.3333336 ], [ 118.0, 47.3333336 ], [ 118.0, 48.0000002 ], [ 117.0, 48.0000002 ], [ 117.0, 47.3333336 ] ] ] } },
{ "type": "Feature", "properties": { "Id": 0, "Sheet_ID": "壹参ヨ4. ハンダガイ", "label": "壹参ヨ4. ハンダガイ", "call_short": "0", "call_num": "0", "recid": "0", "websiteUrl": "0", "title": "0", "ckey": 0, "available": false, "iiifUrl": "0" }, "geometry": { "type": "Polygon", "coordinates": [ [ [ 119.0, 47.3333336 ], [ 120.0, 47.3333336 ], [ 120.0, 48.0000002 ], [ 119.0, 48.0000002 ], [ 119.0, 47.3333336 ] ] ] } },
{ "type": "Feature", "properties": { "Id": 0, "Sheet_ID": "壹参ヨ18. アルタイメン", "label": "壹参ヨ18. アルタイメン", "call_short": "G7822 .M2 S100 .J36", "call_num": "G7822 .M2 S100 .J36 13YO18", "recid": "pj894qw7720", "websiteUrl": "https://purl.stanford.edu/pj894qw7720", "title": "大判 満洲十万分一圖", "ckey": 12735389, "available": true, "iiifUrl": "https://purl.stanford.edu/pj894qw7720/iiif/manifest" }, "geometry": { "type": "Polygon", "coordinates": [ [ [ 116.0, 48.0000002 ], [ 117.0, 48.0000002 ], [ 117.0, 48.6666668 ], [ 116.0, 48.6666668 ], [ 116.0, 48.0000002 ] ] ] } },
{ "type": "Feature", "properties": { "Id": 0, "Sheet_ID": "壹参ヨ13. 達木博廟", "label": "壹参ヨ13. 達木博廟", "call_short": "0", "call_num": "0", "recid": "0", "websiteUrl": "0", "title": "0", "ckey": 0, "available": false, "iiifUrl": "0" }, "geometry": { "type": "Polygon", "coordinates": [ [ [ 117.0, 48.0000002 ], [ 118.0, 48.0000002 ], [ 118.0, 48.6666668 ], [ 117.0, 48.6666668 ], [ 117.0, 48.0000002 ] ] ] } },
{ "type": "Feature", "properties": { "Id": 0, "Sheet_ID": "壹参ヨ3. アゴイ廟", "label": "壹参ヨ3. アゴイ廟", "call_short": "0", "call_num": "0", "recid": "0", "websiteUrl": "0", "title": "0", "ckey": 0, "available": false, "iiifUrl": "0" }, "geometry": { "type": "Polygon", "coordinates": [ [ [ 119.0, 48.0000002 ], [ 120.0, 48.0000002 ], [ 120.0, 48.6666668 ], [ 119.0, 48.6666668 ], [ 119.0, 48.0000002 ] ] ] } },
{ "type": "Feature", "properties": { "Id": 0, "Sheet_ID": "壹参ヨ17. モゴイツー山", "label": "壹参ヨ17. モゴイツー山", "call_short": "0", "call_num": "0", "recid": "0", "websiteUrl": "0", "title": "0", "ckey": 0, "available": false, "iiifUrl": "0" }, "geometry": { "type": "Polygon", "coordinates": [ [ [ 116.0, 48.6666668 ], [ 117.0, 48.6666668 ], [ 117.0, 49.3333334 ], [ 116.0, 49.3333334 ], [ 116.0, 48.6666668 ] ] ] } },
{ "type": "Feature", "properties": { "Id": 0, "Sheet_ID": "壹参ヨ12. 達頼湖", "label": "壹参ヨ12. 達頼湖", "call_short": "0", "call_num": "0", "recid": "0", "websiteUrl": "0", "title": "0", "ckey": 0, "available": false, "iiifUrl": "0" }, "geometry": { "type": "Polygon", "coordinates": [ [ [ 117.0, 48.6666668 ], [ 118.0, 48.6666668 ], [ 118.0, 49.3333334 ], [ 117.0, 49.3333334 ], [ 117.0, 48.6666668 ] ] ] } },
{ "type": "Feature", "properties": { "Id": 0, "Sheet_ID": "壹参ヨ7. 完工", "label": "壹参ヨ7. 完工", "call_short": "0", "call_num": "0", "recid": "0", "websiteUrl": "0", "title": "0", "ckey": 0, "available": false, "iiifUrl": "0" }, "geometry": { "type": "Polygon", "coordinates": [ [ [ 118.0, 48.6666668 ], [ 119.0, 48.6666668 ], [ 119.0, 49.3333334 ], [ 118.0, 49.3333334 ], [ 118.0, 48.6666668 ] ] ] } },
{ "type": "Feature", "properties": { "Id": 0, "Sheet_ID": "壹参ヨ2. 海拉爾", "label": "壹参ヨ2. 海拉爾", "call_short": "0", "call_num": "0", "recid": "0", "websiteUrl": "0", "title": "0", "ckey": 0, "available": false, "iiifUrl": "0" }, "geometry": { "type": "Polygon", "coordinates": [ [ [ 119.0, 48.6666668 ], [ 120.0, 48.6666668 ], [ 120.0, 49.3333334 ], [ 119.0, 49.3333334 ], [ 119.0, 48.6666668 ] ] ] } },
{ "type": "Feature", "properties": { "Id": 0, "Sheet_ID": "壹参ヨ16. ダウリヤ", "label": "壹参ヨ16. ダウリヤ", "call_short": "0", "call_num": "0", "recid": "0", "websiteUrl": "0", "title": "0", "ckey": 0, "available": false, "iiifUrl": "0" }, "geometry": { "type": "Polygon", "coordinates": [ [ [ 116.0, 49.3333334 ], [ 117.0, 49.3333334 ], [ 117.0, 50.0 ], [ 116.0, 50.0 ], [ 116.0, 49.3333334 ] ] ] } },
{ "type": "Feature", "properties": { "Id": 0, "Sheet_ID": "壹参ヨ11. 満州里", "label": "壹参ヨ11. 満州里", "call_short": "G7822 .M2 S100 .J36", "call_num": "G7822 .M2 S100 .J36 13YO11", "recid": "gk861hb7351", "websiteUrl": "https://purl.stanford.edu/gk861hb7351", "title": "大判 満洲及西伯利十万分一圖", "ckey": 12735389, "available": true, "iiifUrl": "https://purl.stanford.edu/gk861hb7351/iiif/manifest" }, "geometry": { "type": "Polygon", "coordinates": [ [ [ 117.0, 49.3333334 ], [ 118.0, 49.3333334 ], [ 118.0, 50.0 ], [ 117.0, 50.0 ], [ 117.0, 49.3333334 ] ] ] } },
{ "type": "Feature", "properties": { "Id": 0, "Sheet_ID": "壹参ヨ6. 呼其爾圖山", "label": "壹参ヨ6. 呼其爾圖山", "call_short": "0", "call_num": "0", "recid": "0", "websiteUrl": "0", "title": "0", "ckey": 0, "available": false, "iiifUrl": "0" }, "geometry": { "type": "Polygon", "coordinates": [ [ [ 118.0, 49.3333334 ], [ 119.0, 49.3333334 ], [ 119.0, 50.0 ], [ 118.0, 50.0 ], [ 118.0, 49.3333334 ] ] ] } },
{ "type": "Feature", "properties": { "Id": 0, "Sheet_ID": "壹参ヨ1. 頭站", "label": "壹参ヨ1. 頭站", "call_short": "0", "call_num": "0", "recid": "0", "websiteUrl": "0", "title": "0", "ckey": 0, "available": false, "iiifUrl": "0" }, "geometry": { "type": "Polygon", "coordinates": [ [ [ 119.0, 49.3333334 ], [ 120.0, 49.3333334 ], [ 120.0, 50.0 ], [ 119.0, 50.0 ], [ 119.0, 49.3333334 ] ] ] } }
]
}
