{
"type": "FeatureCollection",
"name": "index_map",
"xy_coordinate_resolution": 1e-07,
"features": [
{ "type": "Feature", "properties": { "Id": 0, "Sheet_ID": "七南イ168. ムブケ島", "label": "七南イ168. ムブケ島", "call_short": "G8182 .A2 S100 .J3", "call_num": "G8182 .A2 S100 .J3 SHEET 7SI/168", "recid": "np186mp3161", "websiteUrl": "https://purl.stanford.edu/np186mp3161", "title": "空中写真測圖要圖 アドミラルティ諸島十万分一", "ckey": 10550201, "available": true, "iiifUrl": "https://purl.stanford.edu/np186mp3161/iiif/manifest" }, "geometry": { "type": "Polygon", "coordinates": [ [ [ 146.5, -2.666667 ], [ 147.0, -2.666667 ], [ 147.0, -2.3333337 ], [ 146.5, -2.3333337 ], [ 146.5, -2.666667 ] ] ] } },
{ "type": "Feature", "properties": { "Id": 0, "Sheet_ID": "七南イ177. パヒ島", "label": "七南イ177. パヒ島", "call_short": "G8182 .A2 S100 .J3", "call_num": "G8182 .A2 S100 .J3 SHEET 7SI/177", "recid": "cm954rs8788", "websiteUrl": "https://purl.stanford.edu/cm954rs8788", "title": "空中写真測圖要圖 アドミラルティ諸島十万分一", "ckey": 10550201, "available": true, "iiifUrl": "https://purl.stanford.edu/cm954rs8788/iiif/manifest" }, "geometry": { "type": "Polygon", "coordinates": [ [ [ 146.0, -2.3333337 ], [ 146.5, -2.3333337 ], [ 146.5, -2.0000003 ], [ 146.0, -2.0000003 ], [ 146.0, -2.3333337 ] ] ] } },
{ "type": "Feature", "properties": { "Id": 0, "Sheet_ID": "七南イ167. マヌス島西南部", "label": "七南イ167. マヌス島西南部", "call_short": "G8182 .A2 S100 .J3", "call_num": "G8182 .A2 S100 .J3 SHEET 7SI/167", "recid": "km822bb1338", "websiteUrl": "https://purl.stanford.edu/km822bb1338", "title": "空中写真測圖要圖 アドミラルティ諸島十万分一", "ckey": 10550201, "available": true, "iiifUrl": "https://purl.stanford.edu/km822bb1338/iiif/manifest" }, "geometry": { "type": "Polygon", "coordinates": [ [ [ 146.5, -2.3333337 ], [ 147.0, -2.3333337 ], [ 147.0, -2.0000003 ], [ 146.5, -2.0000003 ], [ 146.5, -2.3333337 ] ] ] } },
{ "type": "Feature", "properties": { "Id": 0, "Sheet_ID": "七南イ157. マヌス島東南部", "label": "七南イ157. マヌス島東南部", "call_short": "G8182 .A2 S100 .J3", "call_num": "G8182 .A2 S100 .J3 SHEET 7SI/157", "recid": "pd319xh7719", "websiteUrl": "https://purl.stanford.edu/pd319xh7719", "title": "空中写真測圖要圖 アドミラルティ諸島十万分一", "ckey": 10550201, "available": true, "iiifUrl": "https://purl.stanford.edu/pd319xh7719/iiif/manifest" }, "geometry": { "type": "Polygon", "coordinates": [ [ [ 147.0, -2.3333337 ], [ 147.5, -2.3333337 ], [ 147.5, -2.0000003 ], [ 147.0, -2.0000003 ], [ 147.0, -2.3333337 ] ] ] } },
{ "type": "Feature", "properties": { "Id": 0, "Sheet_ID": "七南イ147. パック島", "label": "七南イ147. パック島", "call_short": null, "call_num": null, "recid": null, "websiteUrl": null, "title": null, "ckey": 0, "available": false, "iiifUrl": null }, "geometry": { "type": "Polygon", "coordinates": [ [ [ 147.5, -2.3333337 ], [ 148.0, -2.3333337 ], [ 148.0, -2.0000003 ], [ 147.5, -2.0000003 ], [ 147.5, -2.3333337 ] ] ] } },
{ "type": "Feature", "properties": { "Id": 0, "Sheet_ID": "七南イ166. マヌス島西北部", "label": "七南イ166. マヌス島西北部", "call_short": "G8182 .A2 S100 .J3", "call_num": "G8182 .A2 S100 .J3 SHEET 7SI/166", "recid": "jq552cw6585", "websiteUrl": "https://purl.stanford.edu/jq552cw6585", "title": "空中写真測圖要圖 アドミラルティ諸島十万分一", "ckey": 10550201, "available": true, "iiifUrl": "https://purl.stanford.edu/jq552cw6585/iiif/manifest" }, "geometry": { "type": "Polygon", "coordinates": [ [ [ 146.5, -2.0000003 ], [ 147.0, -2.0000003 ], [ 147.0, -1.666667 ], [ 146.5, -1.666667 ], [ 146.5, -2.0000003 ] ] ] } },
{ "type": "Feature", "properties": { "Id": 0, "Sheet_ID": "七南イ156. マヌス島東北部", "label": "七南イ156. マヌス島東北部", "call_short": "G8182 .A2 S100 .J3", "call_num": "G8182 .A2 S100 .J3 SHEET 7SI/156", "recid": "ft087zh8503", "websiteUrl": "https://purl.stanford.edu/ft087zh8503", "title": "空中写真測圖要圖 アドミラルティ諸島十万分一", "ckey": 10550201, "available": true, "iiifUrl": "https://purl.stanford.edu/ft087zh8503/iiif/manifest" }, "geometry": { "type": "Polygon", "coordinates": [ [ [ 147.0, -2.0000003 ], [ 147.5, -2.0000003 ], [ 147.5, -1.666667 ], [ 147.0, -1.666667 ], [ 147.0, -2.0000003 ] ] ] } }
]
}
