{
"type": "FeatureCollection",
"name": "index_map",
"xy_coordinate_resolution": 1e-07,
"features": [
{ "type": "Feature", "properties": { "Id": 0, "Sheet_ID": "壹〇南ハ185. セラル島", "label": "壹〇南ハ185. セラル島", "call_short": "G8132 .T3 S100 .J3", "call_num": "G8132 .T3 S100 .J3 10S-HA185", "recid": "yh643bh9365", "websiteUrl": "https://purl.stanford.edu/yh643bh9365", "title": "空中寫真測圖要圖 タニンバル諸島十万分一圖", "ckey": 10550241, "available": true, "iiifUrl": "https://purl.stanford.edu/yh643bh9365/iiif/manifest" }, "geometry": { "type": "Polygon", "coordinates": [ [ [ 130.5, -8.333333 ], [ 131.0, -8.333333 ], [ 131.0, -7.9999998 ], [ 130.5, -7.9999998 ], [ 130.5, -8.333333 ] ] ] } },
{ "type": "Feature", "properties": { "Id": 0, "Sheet_ID": "壹〇南ハ175. マックス島", "label": "壹〇南ハ175. マックス島", "call_short": "G8132 .T3 S100 .J3", "call_num": "G8132 .T3 S100 .J3 10S-HA175", "recid": "rr403fp4573", "websiteUrl": "https://purl.stanford.edu/rr403fp4573", "title": "空中寫真測圖要圖 タニンバル諸島十万分一圖", "ckey": 10550241, "available": true, "iiifUrl": "https://purl.stanford.edu/rr403fp4573/iiif/manifest" }, "geometry": { "type": "Polygon", "coordinates": [ [ [ 131.0, -8.333333 ], [ 131.5, -8.333333 ], [ 131.5, -7.9999998 ], [ 131.0, -7.9999998 ], [ 131.0, -8.333333 ] ] ] } },
{ "type": "Feature", "properties": { "Id": 0, "Sheet_ID": "壹〇南ハ184. ゴリン島", "label": "壹〇南ハ184. ゴリン島", "call_short": null, "call_num": null, "recid": null, "websiteUrl": null, "title": null, "ckey": 0, "available": false, "iiifUrl": null }, "geometry": { "type": "Polygon", "coordinates": [ [ [ 130.5, -7.9999998 ], [ 131.0, -7.9999998 ], [ 131.0, -7.6666666 ], [ 130.5, -7.6666666 ], [ 130.5, -7.9999998 ] ] ] } },
{ "type": "Feature", "properties": { "Id": 0, "Sheet_ID": "壹〇南ハ174. サゥムラキ", "label": "壹〇南ハ174. サゥムラキ", "call_short": "G8132 .T3 S100 .J3", "call_num": "G8132 .T3 S100 .J3 10S-HA174", "recid": "mj456fd1344", "websiteUrl": "https://purl.stanford.edu/mj456fd1344", "title": "空中寫真測圖要圖 タニンバル諸島十万分一圖", "ckey": 10550241, "available": true, "iiifUrl": "https://purl.stanford.edu/mj456fd1344/iiif/manifest" }, "geometry": { "type": "Polygon", "coordinates": [ [ [ 131.0, -7.9999998 ], [ 131.5, -7.9999998 ], [ 131.5, -7.6666666 ], [ 131.0, -7.6666666 ], [ 131.0, -7.9999998 ] ] ] } },
{ "type": "Feature", "properties": { "Id": 0, "Sheet_ID": "壹〇南ハ164. アルイ．バブ", "label": "壹〇南ハ164. アルイ．バブ", "call_short": "G8132 .T3 S100 .J3", "call_num": "G8132 .T3 S100 .J3 10S-HA164", "recid": "wm287nb9363", "websiteUrl": "https://purl.stanford.edu/wm287nb9363", "title": "空中寫真測圖要圖 タニンバル諸島十万分一圖", "ckey": 10550241, "available": true, "iiifUrl": "https://purl.stanford.edu/wm287nb9363/iiif/manifest" }, "geometry": { "type": "Polygon", "coordinates": [ [ [ 131.5, -7.9999998 ], [ 132.0, -7.9999998 ], [ 132.0, -7.6666666 ], [ 131.5, -7.6666666 ], [ 131.5, -7.9999998 ] ] ] } },
{ "type": "Feature", "properties": { "Id": 0, "Sheet_ID": "壹〇南ハ183. セルゥ島", "label": "壹〇南ハ183. セルゥ島", "call_short": "G8132 .T3 S100 .J3", "call_num": "G8132 .T3 S100 .J3 10S-HA183", "recid": "zb351yx7151", "websiteUrl": "https://purl.stanford.edu/zb351yx7151", "title": "空中寫真測圖要圖 タニンバル諸島十万分一圖", "ckey": 10550241, "available": true, "iiifUrl": "https://purl.stanford.edu/zb351yx7151/iiif/manifest" }, "geometry": { "type": "Polygon", "coordinates": [ [ [ 130.5, -7.6666666 ], [ 131.0, -7.6666666 ], [ 131.0, -7.3333334 ], [ 130.5, -7.3333334 ], [ 130.5, -7.6666666 ] ] ] } },
{ "type": "Feature", "properties": { "Id": 0, "Sheet_ID": "壹〇南ハ173. マカティアン", "label": "壹〇南ハ173. マカティアン", "call_short": "G8132 .T3 S100 .J3", "call_num": "G8132 .T3 S100 .J3 10S-HA173", "recid": "vh361yn1991", "websiteUrl": "https://purl.stanford.edu/vh361yn1991", "title": "空中寫真測圖要圖 タニンバル諸島十万分一圖", "ckey": 10550241, "available": true, "iiifUrl": "https://purl.stanford.edu/vh361yn1991/iiif/manifest" }, "geometry": { "type": "Polygon", "coordinates": [ [ [ 131.0, -7.6666666 ], [ 131.5, -7.6666666 ], [ 131.5, -7.3333334 ], [ 131.0, -7.3333334 ], [ 131.0, -7.6666666 ] ] ] } },
{ "type": "Feature", "properties": { "Id": 0, "Sheet_ID": "壹〇南ハ163. ワツル", "label": "壹〇南ハ163. ワツル", "call_short": "G8132 .T3 S100 .J3", "call_num": "G8132 .T3 S100 .J3 10S-HA163", "recid": "pg760pf6066", "websiteUrl": "https://purl.stanford.edu/pg760pf6066", "title": "空中寫真測圖要圖 タニンバル諸島十万分一圖", "ckey": 10550241, "available": true, "iiifUrl": "https://purl.stanford.edu/pg760pf6066/iiif/manifest" }, "geometry": { "type": "Polygon", "coordinates": [ [ [ 131.5, -7.6666666 ], [ 132.0, -7.6666666 ], [ 132.0, -7.3333334 ], [ 131.5, -7.3333334 ], [ 131.5, -7.6666666 ] ] ] } },
{ "type": "Feature", "properties": { "Id": 0, "Sheet_ID": "壹〇南ハ172. ナムワアン島", "label": "壹〇南ハ172. ナムワアン島", "call_short": "G8132 .T3 S100 .J3", "call_num": "G8132 .T3 S100 .J3 10S-HA172", "recid": "hk321wn0215", "websiteUrl": "https://purl.stanford.edu/hk321wn0215", "title": "空中寫真測圖要圖 タニンバル諸島十万分一圖", "ckey": 10550241, "available": true, "iiifUrl": "https://purl.stanford.edu/hk321wn0215/iiif/manifest" }, "geometry": { "type": "Polygon", "coordinates": [ [ [ 131.0, -7.3333334 ], [ 131.5, -7.3333334 ], [ 131.5, -7.0000002 ], [ 131.0, -7.0000002 ], [ 131.0, -7.3333334 ] ] ] } },
{ "type": "Feature", "properties": { "Id": 0, "Sheet_ID": "壹〇南ハ162. ララト島", "label": "壹〇南ハ162. ララト島", "call_short": "G8132 .T3 S100 .J3", "call_num": "G8132 .T3 S100 .J3 10S-HA162", "recid": "dx271vm5717", "websiteUrl": "https://purl.stanford.edu/dx271vm5717", "title": "空中寫真測圖要圖 タニンバル諸島十万分一圖", "ckey": 10550241, "available": true, "iiifUrl": "https://purl.stanford.edu/dx271vm5717/iiif/manifest" }, "geometry": { "type": "Polygon", "coordinates": [ [ [ 131.5, -7.3333334 ], [ 132.0, -7.3333334 ], [ 132.0, -7.0000002 ], [ 131.5, -7.0000002 ], [ 131.5, -7.3333334 ] ] ] } },
{ "type": "Feature", "properties": { "Id": 0, "Sheet_ID": "壹〇南ハ161. モル島", "label": "壹〇南ハ161. モル島", "call_short": "G8132 .T3 S100 .J3", "call_num": "G8132 .T3 S100 .J3 10S-HA161", "recid": "ts369bf8387", "websiteUrl": "https://purl.stanford.edu/ts369bf8387", "title": "空中寫真測圖要圖 タニンバル諸島十万分一圖", "ckey": 10550241, "available": true, "iiifUrl": "https://purl.stanford.edu/ts369bf8387/iiif/manifest" }, "geometry": { "type": "Polygon", "coordinates": [ [ [ 131.45, -7.0000002 ], [ 132.016667, -7.0000002 ], [ 132.016667, -6.65 ], [ 131.45, -6.65 ], [ 131.45, -7.0000002 ] ] ] } }
]
}
