{
"type": "FeatureCollection",
"name": "index_map",
"features": [
{ "type": "Feature", "properties": { "Id": 0, "Sheet_ID": "ザバイカル", "label": "ザバイカル", "call_short": "G7064 .Z2P61 1941 .J3", "call_num": "G7064 .Z2P61 1941 .J3", "recid": "yj261xg5456", "websiteUrl": "https://purl.stanford.edu/yj261xg5456", "title": "極東「ソ」領飛行場一覧圖 (ザバイカル) / 五十万分一後貝加爾方面素圖", "ckey": 12381344, "web_map": null, "available": true, "iiifUrl": "https://purl.stanford.edu/yj261xg5456/iiif/manifest" }, "geometry": { "type": "Polygon", "coordinates": [ [ [ 112.5, 49.5 ], [ 119.666667, 49.5 ], [ 119.666667, 52.833333 ], [ 112.5, 52.833333 ], [ 112.5, 49.5 ] ] ] } }
]
}
