{"type":"FeatureCollection","features":[{"type":"Feature","properties":{"Id":0,"Sheet_ID":"[1.] バンコック - ピナン","label":"[1.] バンコック - ピナン","call_short":"G8031 .P6 S1000 .J3","call_num":"G8031 .P6 S1000 .J3 SHEET 1","recid":"yw925cz0572","websiteUrl":"https://purl.stanford.edu/yw925cz0572","title":"百万分一南方圖 / 百万分一南方航空圖","ckey":10160337,"web_map":"","available":"true","iiiUrl":"https://purl.stanford.edu/yw925cz0572/iiif/manifest"},"geometry":{"bbox":[98.33333,5.166667,105.00000000000001,14],"type":"Polygon","coordinates":[[[98.33333,5.166667],[98.33333,14],[105.00000000000001,14],[105.00000000000001,5.166667],[98.33333,5.166667]]]}},{"type":"Feature","properties":{"Id":0,"Sheet_ID":"[3.] スマトラ北端","label":"[3.] スマトラ北端","call_short":"G8031 .P6 S1000 .J3","call_num":"G8031 .P6 S1000 .J3 SHEET 3","recid":"hr508cm9819","websiteUrl":"https://purl.stanford.edu/hr508cm9819","title":"百万分一南方圖 / 百万分一南方航空圖","ckey":10160337,"web_map":"","available":"true","iiiUrl":"https://purl.stanford.edu/hr508cm9819/iiif/manifest"},"geometry":{"bbox":[94.166667,1.8333329999999999,96.91667,6.166667],"type":"Polygon","coordinates":[[[94.166667,1.8333329999999999],[94.166667,6.166667],[96.91667,6.166667],[96.91667,1.8333329999999999],[94.166667,1.8333329999999999]]]}},{"type":"Feature","properties":{"Id":0,"Sheet_ID":"[2.] マレー半島南部 - スマトラ北部","label":"[2.] マレー半島南部 - スマトラ北部","call_short":"G8031 .P6 S1000 .J3","call_num":"G8031 .P6 S1000 .J3 SHEET 2","recid":"rq850sv8872","websiteUrl":"https://purl.stanford.edu/rq850sv8872","title":"百万分一南方圖 / 百万分一南方航空圖","ckey":10160337,"web_map":"","available":"true","iiiUrl":"https://purl.stanford.edu/rq850sv8872/iiif/manifest"},"geometry":{"bbox":[96.91667000000012,-1,106.16666700000003,5.75],"type":"Polygon","coordinates":[[[96.91667000000012,-1],[96.91667000000012,5.75],[106.16666700000003,5.75],[106.16666700000003,-1],[96.91667000000012,-1]]]}}],"name":"index_10160337"}
