{
"type": "FeatureCollection",
"name": "index_map",
"xy_coordinate_resolution": 1e-07,
"features": [
{ "type": "Feature", "properties": { "Id": 0, "Sheet_ID": "八ヨ153. 惠須取", "label": "八ヨ153. 惠須取", "call_short": "0", "call_num": "0", "recid": "0", "websiteUrl": "0", "title": "0", "ckey": 0, "available": false, "iiifUrl": "0" }, "geometry": { "type": "Polygon", "coordinates": [ [ [ 142.0, 49.0 ], [ 142.5, 49.0 ], [ 142.5, 49.3333333 ], [ 142.0, 49.3333333 ], [ 142.0, 49.0 ] ] ] } },
{ "type": "Feature", "properties": { "Id": 0, "Sheet_ID": "八ヨ143. 内路", "label": "八ヨ143. 内路", "call_short": "G7330 S100 .J4", "call_num": "G7330 S100 .J4 SHEET 8YO143", "recid": "fs698nd2869", "websiteUrl": "https://purl.stanford.edu/fs698nd2869", "title": "縮製 樺太十万分一圖", "ckey": 11955416, "available": true, "iiifUrl": "https://purl.stanford.edu/fs698nd2869/iiif/manifest" }, "geometry": { "type": "Polygon", "coordinates": [ [ [ 142.5, 49.0 ], [ 143.0, 49.0 ], [ 143.0, 49.3333333 ], [ 142.5, 49.3333333 ], [ 142.5, 49.0 ] ] ] } },
{ "type": "Feature", "properties": { "Id": 0, "Sheet_ID": "八ヨ133. 敷香", "label": "八ヨ133. 敷香", "call_short": "G7330 S100 .J4", "call_num": "G7330 S100 .J4 SHEET 8YO133", "recid": "jk395ww1863", "websiteUrl": "https://purl.stanford.edu/jk395ww1863", "title": "縮製 樺太十万分一圖", "ckey": 11955416, "available": true, "iiifUrl": "https://purl.stanford.edu/jk395ww1863/iiif/manifest" }, "geometry": { "type": "Polygon", "coordinates": [ [ [ 143.0, 49.0 ], [ 143.5, 49.0 ], [ 143.5, 49.3333333 ], [ 143.0, 49.3333333 ], [ 143.0, 49.0 ] ] ] } },
{ "type": "Feature", "properties": { "Id": 0, "Sheet_ID": "八ヨ152. 名好", "label": "八ヨ152. 名好", "call_short": "G7330 S100 .J4", "call_num": "G7330 S100 .J4 SHEET 8YO152", "recid": "pn613kd7246", "websiteUrl": "https://purl.stanford.edu/pn613kd7246", "title": "縮製 樺太十万分一圖", "ckey": 11955416, "available": true, "iiifUrl": "https://purl.stanford.edu/pn613kd7246/iiif/manifest" }, "geometry": { "type": "Polygon", "coordinates": [ [ [ 142.0, 49.3333333 ], [ 142.5, 49.3333333 ], [ 142.5, 49.6666667 ], [ 142.0, 49.6666667 ], [ 142.0, 49.3333333 ] ] ] } },
{ "type": "Feature", "properties": { "Id": 0, "Sheet_ID": "八ヨ142. 保恵", "label": "八ヨ142. 保恵", "call_short": "G7330 S100 .J4", "call_num": "G7330 S100 .J4 SHEET 8YO142", "recid": "fy154mm6336", "websiteUrl": "https://purl.stanford.edu/fy154mm6336", "title": "縮製 樺太十万分一圖", "ckey": 11955416, "available": true, "iiifUrl": "https://purl.stanford.edu/fy154mm6336/iiif/manifest" }, "geometry": { "type": "Polygon", "coordinates": [ [ [ 142.5, 49.3333333 ], [ 143.0, 49.3333333 ], [ 143.0, 49.6666667 ], [ 142.5, 49.6666667 ], [ 142.5, 49.3333333 ] ] ] } },
{ "type": "Feature", "properties": { "Id": 0, "Sheet_ID": "八ヨ132. 多来加湖", "label": "八ヨ132. 多来加湖", "call_short": "G7330 S100 .J4", "call_num": "G7330 S100 .J4 SHEET 8YO132", "recid": "hv757hj4169", "websiteUrl": "https://purl.stanford.edu/hv757hj4169", "title": "縮製 樺太十万分一圖", "ckey": 11955416, "available": true, "iiifUrl": "https://purl.stanford.edu/hv757hj4169/iiif/manifest" }, "geometry": { "type": "Polygon", "coordinates": [ [ [ 143.0, 49.3333333 ], [ 143.5, 49.3333333 ], [ 143.5, 49.6666667 ], [ 143.0, 49.6666667 ], [ 143.0, 49.3333333 ] ] ] } },
{ "type": "Feature", "properties": { "Id": 0, "Sheet_ID": "八ヨ151 ED2. 安別", "label": "八ヨ151 ED2. 安別", "call_short": "G7330 S100 .J4", "call_num": "G7330 S100 .J4 SHEET 8YO151 ED.2", "recid": "rb945km3649", "websiteUrl": "https://purl.stanford.edu/rb945km3649", "title": "縮製 樺太十万分一圖", "ckey": 11955416, "available": true, "iiifUrl": "https://purl.stanford.edu/rb945km3649/iiif/manifest" }, "geometry": { "type": "Polygon", "coordinates": [ [ [ 142.0, 49.6666667 ], [ 142.5, 49.6666667 ], [ 142.5, 50.0 ], [ 142.0, 50.0 ], [ 142.0, 49.6666667 ] ] ] } },
{ "type": "Feature", "properties": { "Id": 0, "Sheet_ID": "八ヨ141. 氣屯", "label": "八ヨ141. 氣屯", "call_short": "G7330 S100 .J4", "call_num": "G7330 S100 .J4 SHEET 8YO141", "recid": "nx371rn6063", "websiteUrl": "https://purl.stanford.edu/nx371rn6063", "title": "縮製 樺太十万分一圖", "ckey": 11955416, "available": true, "iiifUrl": "https://purl.stanford.edu/nx371rn6063/iiif/manifest" }, "geometry": { "type": "Polygon", "coordinates": [ [ [ 142.5, 49.6666667 ], [ 143.0, 49.6666667 ], [ 143.0, 50.0 ], [ 142.5, 50.0 ], [ 142.5, 49.6666667 ] ] ] } },
{ "type": "Feature", "properties": { "Id": 0, "Sheet_ID": "八ヨ131 ED2. 沖見山", "label": "八ヨ131 ED2. 沖見山", "call_short": "G7330 S100 .J4", "call_num": "G7330 S100 .J4 SHEET 8YO131 ED.2", "recid": "gv028mr0314", "websiteUrl": "https://purl.stanford.edu/gv028mr0314", "title": "縮製 樺太十万分一圖", "ckey": 11955416, "available": true, "iiifUrl": "https://purl.stanford.edu/gv028mr0314/iiif/manifest" }, "geometry": { "type": "Polygon", "coordinates": [ [ [ 143.0, 49.6666667 ], [ 143.5, 49.6666667 ], [ 143.5, 50.0 ], [ 143.0, 50.0 ], [ 143.0, 49.6666667 ] ] ] } },
{ "type": "Feature", "properties": { "Id": 0, "Sheet_ID": "八ヨ121. 散頃", "label": "八ヨ121. 散頃", "call_short": "G7330 S100 .J4", "call_num": "G7330 S100 .J4 SHEET 8YO121", "recid": "bc286cr7435", "websiteUrl": "https://purl.stanford.edu/bc286cr7435", "title": "縮製 樺太十万分一圖", "ckey": 11955416, "available": true, "iiifUrl": "https://purl.stanford.edu/bc286cr7435/iiif/manifest" }, "geometry": { "type": "Polygon", "coordinates": [ [ [ 143.5, 49.6666667 ], [ 144.166667, 49.6666667 ], [ 144.166667, 50.0 ], [ 143.5, 50.0 ], [ 143.5, 49.6666667 ] ] ] } },
{ "type": "Feature", "properties": { "Id": 0, "Sheet_ID": "八ヨ131. 沖見山", "label": "八ヨ131. 沖見山", "call_short": "G7330 S100 .J4", "call_num": "G7330 S100 .J4 SHEET 8YO131", "recid": "hf183hy1304", "websiteUrl": "https://purl.stanford.edu/hf183hy1304", "title": "縮製 樺太十万分一圖", "ckey": 11955416, "available": true, "iiifUrl": "https://purl.stanford.edu/hf183hy1304/iiif/manifest" }, "geometry": { "type": "Polygon", "coordinates": [ [ [ 143.0, 49.6666667 ], [ 143.5, 49.6666667 ], [ 143.5, 50.0 ], [ 143.0, 50.0 ], [ 143.0, 49.6666667 ] ] ] } },
{ "type": "Feature", "properties": { "Id": 0, "Sheet_ID": "八ヨ151. 安別", "label": "八ヨ151. 安別", "call_short": "G7330 S100 .J4", "call_num": "G7330 S100 .J4 SHEET 8YO151", "recid": "tx304by6419", "websiteUrl": "https://purl.stanford.edu/tx304by6419", "title": "縮製 樺太十万分一圖", "ckey": 11955416, "available": true, "iiifUrl": "https://purl.stanford.edu/tx304by6419/iiif/manifest" }, "geometry": { "type": "Polygon", "coordinates": [ [ [ 142.0, 49.6666667 ], [ 142.5, 49.6666667 ], [ 142.5, 50.0 ], [ 142.0, 50.0 ], [ 142.0, 49.6666667 ] ] ] } }
]
}
