{
"type": "FeatureCollection",
"name": "index_map",
"xy_coordinate_resolution": 1e-07,
"features": [
{ "type": "Feature", "properties": { "Id": 0, "Sheet_ID": "第2號. キンキリ", "label": "第2號. キンキリ", "call_short": "G7322 .K3 1943 .J3", "call_num": "G7322 .K3 1943 .J3 SHEET 2", "recid": "hf873qs0581", "websiteUrl": "https://purl.stanford.edu/hf873qs0581", "title": "パラナ", "ckey": 9954935, "available": true, "iiifUrl": "https://purl.stanford.edu/hf873qs0581/iiif/manifest" }, "geometry": { "type": "Polygon", "coordinates": [ [ [ 160.1739034, 59.1475898 ], [ 160.5976937, 59.4178693 ], [ 160.4901502, 59.5864943 ], [ 160.0673889, 59.3168711 ], [ 160.1739034, 59.1475898 ] ] ] } },
{ "type": "Feature", "properties": { "Id": 0, "Sheet_ID": "第1號. パラナ", "label": "第1號. パラナ", "call_short": "G7322 .K3 1943 .J3", "call_num": "G7322 .K3 1943 .J3 SHEET 1", "recid": "dv780xp2095", "websiteUrl": "https://purl.stanford.edu/dv780xp2095", "title": "パラナ", "ckey": 9954935, "available": true, "iiifUrl": "https://purl.stanford.edu/dv780xp2095/iiif/manifest" }, "geometry": { "type": "Polygon", "coordinates": [ [ [ 160.1739034, 59.1475898 ], [ 160.0673889, 59.3168711 ], [ 159.6470251, 59.048777 ], [ 159.7545685, 58.8801519 ], [ 160.1739034, 59.1475898 ] ] ] } }
]
}
