{
"type": "FeatureCollection",
"name": "index_map",
"features": [
{ "type": "Feature", "properties": { "Id": 0, "Sheet_ID": "東部國境近傍圖", "label": "東部國境近傍圖", "call_short": "G7830 S500 .J35", "call_num": "G7830 S500 .J35", "recid": "ff601ms8965", "websiteUrl": "https://purl.stanford.edu/ff601ms8965", "title": "五十万分一 東部國境近傍圖", "ckey": 10745962, "web_map": null, "available": true, "iiifUrl": "https://purl.stanford.edu/ff601ms8965/iiif/manifest" }, "geometry": { "type": "Polygon", "coordinates": [ [ [ 130.0, 42.166667 ], [ 134.5, 42.166667 ], [ 134.5, 46.666667 ], [ 130.0, 46.666667 ], [ 130.0, 42.166667 ] ] ] } }
]
}
