{
"type": "FeatureCollection",
"name": "index_map",
"xy_coordinate_resolution": 1e-07,
"features": [
{ "type": "Feature", "properties": { "Id": 0, "Sheet_ID": "南部23. 印度西部 - イラン東部_航空圖", "label": "南部23. 印度西部 - イラン東部_航空圖", "call_short": "G7801 .P6 S2000 .J3", "call_num": "G7801 .P6 S2000 .J3 S-23-A", "recid": "jh390gj3351", "websiteUrl": "https://purl.stanford.edu/jh390gj3351", "title": "二百万分一太平洋周域（南部）輿地圖", "ckey": 10114060, "available": true, "iiifUrl": "https://purl.stanford.edu/jh390gj3351/iiif/manifest" }, "geometry": { "type": "Polygon", "coordinates": [ [ [ 59.666667, 17.833333 ], [ 72.3333336, 17.833333 ], [ 72.3333336, 34.0 ], [ 59.666667, 34.0 ], [ 59.666667, 17.833333 ] ] ] } },
{ "type": "Feature", "properties": { "Id": 0, "Sheet_ID": "南部21. デリー - ボンベイ_航空圖", "label": "南部21. デリー - ボンベイ_航空圖", "call_short": "G7801 .P6 S2000 .J3", "call_num": "G7801 .P6 S2000 .J3 S-21-A", "recid": "xk418py6521", "websiteUrl": "https://purl.stanford.edu/xk418py6521", "title": "二百万分一太平洋周域（南部）輿地圖", "ckey": 10114060, "available": true, "iiifUrl": "https://purl.stanford.edu/xk418py6521/iiif/manifest" }, "geometry": { "type": "Polygon", "coordinates": [ [ [ 72.3333336, 17.833333 ], [ 85.0000002, 17.833333 ], [ 85.0000002, 34.0 ], [ 72.3333336, 34.0 ], [ 72.3333336, 17.833333 ] ] ] } },
{ "type": "Feature", "properties": { "Id": 0, "Sheet_ID": "南部19. マンダレー - カルカッタ_航空圖", "label": "南部19. マンダレー - カルカッタ_航空圖", "call_short": "G7801 .P6 S2000 .J3", "call_num": "G7801 .P6 S2000 .J3 S-19-A", "recid": "gw783xd5977", "websiteUrl": "https://purl.stanford.edu/gw783xd5977", "title": "二百万分一太平洋周域（南部）輿地圖", "ckey": 10114060, "available": true, "iiifUrl": "https://purl.stanford.edu/gw783xd5977/iiif/manifest" }, "geometry": { "type": "Polygon", "coordinates": [ [ [ 85.0000002, 17.833333 ], [ 97.6666668, 17.833333 ], [ 97.6666668, 34.0 ], [ 85.0000002, 34.0 ], [ 85.0000002, 17.833333 ] ] ] } },
{ "type": "Feature", "properties": { "Id": 0, "Sheet_ID": "南部16. 重慶 - ハノイ_航空圖", "label": "南部16. 重慶 - ハノイ_航空圖", "call_short": "G7801 .P6 S2000 .J3", "call_num": "G7801 .P6 S2000 .J3 S-16-A", "recid": "mf001kw2478", "websiteUrl": "https://purl.stanford.edu/mf001kw2478", "title": "二百万分一太平洋周域（南部）輿地圖", "ckey": 10114060, "available": true, "iiifUrl": "https://purl.stanford.edu/mf001kw2478/iiif/manifest" }, "geometry": { "type": "Polygon", "coordinates": [ [ [ 97.6666668, 17.833333 ], [ 110.3333334, 17.833333 ], [ 110.3333334, 34.0 ], [ 97.6666668, 34.0 ], [ 97.6666668, 17.833333 ] ] ] } },
{ "type": "Feature", "properties": { "Id": 0, "Sheet_ID": "[南部11]", "label": "[南部11]", "call_short": "0", "call_num": "0", "recid": "0", "websiteUrl": "0", "title": "0", "ckey": 0, "available": false, "iiifUrl": "0" }, "geometry": { "type": "Polygon", "coordinates": [ [ [ 110.3333334, 17.833333 ], [ 123.0, 17.833333 ], [ 123.0, 34.0 ], [ 110.3333334, 34.0 ], [ 110.3333334, 17.833333 ] ] ] } },
{ "type": "Feature", "properties": { "Id": 0, "Sheet_ID": "南部22. 印度南部 - セイロン島_航空圖", "label": "南部22. 印度南部 - セイロン島_航空圖", "call_short": "G7801 .P6 S2000 .J3", "call_num": "G7801 .P6 S2000 .J3 S-22-A", "recid": "wz415rz7220", "websiteUrl": "https://purl.stanford.edu/wz415rz7220", "title": "二百万分一太平洋周域（南部）輿地圖", "ckey": 10114060, "available": true, "iiifUrl": "https://purl.stanford.edu/wz415rz7220/iiif/manifest" }, "geometry": { "type": "Polygon", "coordinates": [ [ [ 72.333333, 0.0 ], [ 84.9999998, 0.0 ], [ 84.9999998, 17.833333 ], [ 72.333333, 17.833333 ], [ 72.333333, 0.0 ] ] ] } },
{ "type": "Feature", "properties": { "Id": 0, "Sheet_ID": "南部20. ラングーン - アンダマン諸島 - スマトラ西部_航空圖", "label": "南部20. ラングーン - アンダマン諸島 - スマトラ西部_航空圖", "call_short": "G7801 .P6 S2000 .J3", "call_num": "G7801 .P6 S2000 .J3 S-20-A", "recid": "kn019kx2981", "websiteUrl": "https://purl.stanford.edu/kn019kx2981", "title": "二百万分一太平洋周域（南部）輿地圖", "ckey": 10114060, "available": true, "iiifUrl": "https://purl.stanford.edu/kn019kx2981/iiif/manifest" }, "geometry": { "type": "Polygon", "coordinates": [ [ [ 84.9999998, 0.0 ], [ 97.6666666, 0.0 ], [ 97.6666666, 17.833333 ], [ 84.9999998, 17.833333 ], [ 84.9999998, 0.0 ] ] ] } },
{ "type": "Feature", "properties": { "Id": 0, "Sheet_ID": "[南部17]", "label": "[南部17]", "call_short": "0", "call_num": "0", "recid": "0", "websiteUrl": "0", "title": "0", "ckey": 0, "available": false, "iiifUrl": "0" }, "geometry": { "type": "Polygon", "coordinates": [ [ [ 97.6666666, 0.0 ], [ 110.3333334, 0.0 ], [ 110.3333334, 17.833333 ], [ 97.6666666, 17.833333 ], [ 97.6666666, 0.0 ] ] ] } },
{ "type": "Feature", "properties": { "Id": 0, "Sheet_ID": "[南部12]", "label": "[南部12]", "call_short": "0", "call_num": "0", "recid": "0", "websiteUrl": "0", "title": "0", "ckey": 0, "available": false, "iiifUrl": "0" }, "geometry": { "type": "Polygon", "coordinates": [ [ [ 110.3333334, 0.0 ], [ 123.0, 0.0 ], [ 123.0, 17.833333 ], [ 110.3333334, 17.833333 ], [ 110.3333334, 0.0 ] ] ] } },
{ "type": "Feature", "properties": { "Id": 0, "Sheet_ID": "[南部10]", "label": "[南部10]", "call_short": "0", "call_num": "0", "recid": "0", "websiteUrl": "0", "title": "0", "ckey": 0, "available": false, "iiifUrl": "0" }, "geometry": { "type": "Polygon", "coordinates": [ [ [ 123.0, 0.0 ], [ 135.666667, 0.0 ], [ 135.666667, 17.833333 ], [ 123.0, 17.833333 ], [ 123.0, 0.0 ] ] ] } },
{ "type": "Feature", "properties": { "Id": 0, "Sheet_ID": "[南部18]", "label": "[南部18]", "call_short": "0", "call_num": "0", "recid": "0", "websiteUrl": "0", "title": "0", "ckey": 0, "available": false, "iiifUrl": "0" }, "geometry": { "type": "Polygon", "coordinates": [ [ [ 94.0, -12.666667 ], [ 112.0, -12.666667 ], [ 112.0, 0.0 ], [ 94.0, 0.0 ], [ 94.0, -12.666667 ] ] ] } },
{ "type": "Feature", "properties": { "Id": 0, "Sheet_ID": "南部13. ボルネオ東南部 - ティモール_航空圖", "label": "南部13. ボルネオ東南部 - ティモール_航空圖", "call_short": "G7801 .P6 S2000 .J3", "call_num": "G7801 .P6 S2000 .J3 S-13-A", "recid": "qw869gv1854", "websiteUrl": "https://purl.stanford.edu/qw869gv1854", "title": "二百万分一太平洋周域（南部）輿地圖", "ckey": 10114060, "available": true, "iiifUrl": "https://purl.stanford.edu/qw869gv1854/iiif/manifest" }, "geometry": { "type": "Polygon", "coordinates": [ [ [ 112.0, -12.666667 ], [ 130.0, -12.666667 ], [ 130.0, 0.0 ], [ 112.0, 0.0 ], [ 112.0, -12.666667 ] ] ] } },
{ "type": "Feature", "properties": { "Id": 0, "Sheet_ID": "南部6. ニューギニァ - オーストラリア北端_航空圖", "label": "南部6. ニューギニァ - オーストラリア北端_航空圖", "call_short": "G7801 .P6 S2000 .J3", "call_num": "G7801 .P6 S2000 .J3 S-6-A", "recid": "kn202rj1662", "websiteUrl": "https://purl.stanford.edu/kn202rj1662", "title": "二百万分一太平洋周域（南部）輿地圖", "ckey": 10114060, "available": true, "iiifUrl": "https://purl.stanford.edu/kn202rj1662/iiif/manifest" }, "geometry": { "type": "Polygon", "coordinates": [ [ [ 130.0, -12.666667 ], [ 148.0, -12.666667 ], [ 148.0, 0.0 ], [ 130.0, 0.0 ], [ 130.0, -12.666667 ] ] ] } },
{ "type": "Feature", "properties": { "Id": 0, "Sheet_ID": "南部3. ソロモン諸島 - ビスマルク群島_航空圖", "label": "南部3. ソロモン諸島 - ビスマルク群島_航空圖", "call_short": "G7801 .P6 S2000 .J3", "call_num": "G7801 .P6 S2000 .J3 S-3-A", "recid": "zp433cv2484", "websiteUrl": "https://purl.stanford.edu/zp433cv2484", "title": "二百万分一太平洋周域（南部）輿地圖", "ckey": 10114060, "available": true, "iiifUrl": "https://purl.stanford.edu/zp433cv2484/iiif/manifest" }, "geometry": { "type": "Polygon", "coordinates": [ [ [ 148.0, -12.666667 ], [ 166.0, -12.666667 ], [ 166.0, 0.0 ], [ 148.0, 0.0 ], [ 148.0, -12.666667 ] ] ] } },
{ "type": "Feature", "properties": { "Id": 0, "Sheet_ID": "南部14. オーストラリア西北部_航空圖", "label": "南部14. オーストラリア西北部_航空圖", "call_short": "G7801 .P6 S2000 .J3", "call_num": "G7801 .P6 S2000 .J3 S-14-A", "recid": "yt218wy4588", "websiteUrl": "https://purl.stanford.edu/yt218wy4588", "title": "二百万分一太平洋周域（南部）輿地圖", "ckey": 10114060, "available": true, "iiifUrl": "https://purl.stanford.edu/yt218wy4588/iiif/manifest" }, "geometry": { "type": "Polygon", "coordinates": [ [ [ 112.0, -24.666667 ], [ 130.0, -24.666667 ], [ 130.0, -12.666667 ], [ 112.0, -12.666667 ], [ 112.0, -24.666667 ] ] ] } },
{ "type": "Feature", "properties": { "Id": 0, "Sheet_ID": "南部7. オーストラリア東北部", "label": "南部7. オーストラリア東北部", "call_short": "G7801 .P6 S2000 .J3", "call_num": "G7801 .P6 S2000 .J3 S-7", "recid": "ms599nh7338", "websiteUrl": "https://purl.stanford.edu/ms599nh7338", "title": "二百万分一太平洋周域（南部）輿地圖", "ckey": 10114060, "available": true, "iiifUrl": "https://purl.stanford.edu/ms599nh7338/iiif/manifest" }, "geometry": { "type": "Polygon", "coordinates": [ [ [ 130.0, -24.666667 ], [ 148.0, -24.666667 ], [ 148.0, -12.666667 ], [ 130.0, -12.666667 ], [ 130.0, -24.666667 ] ] ] } },
{ "type": "Feature", "properties": { "Id": 0, "Sheet_ID": "南部4. ニューカレドニヤ西部 - ロックハムプトン(濠洲)_航空圖", "label": "南部4. ニューカレドニヤ西部 - ロックハムプトン(濠洲)_航空圖", "call_short": "G7801 .P6 S2000 .J3", "call_num": "G7801 .P6 S2000 .J3 S-4-A", "recid": "dh812mt7013", "websiteUrl": "https://purl.stanford.edu/dh812mt7013", "title": "二百万分一太平洋周域（南部）輿地圖", "ckey": 10114060, "available": true, "iiifUrl": "https://purl.stanford.edu/dh812mt7013/iiif/manifest" }, "geometry": { "type": "Polygon", "coordinates": [ [ [ 148.0, -24.666667 ], [ 166.0, -24.666667 ], [ 166.0, -12.666667 ], [ 148.0, -12.666667 ], [ 148.0, -24.666667 ] ] ] } },
{ "type": "Feature", "properties": { "Id": 0, "Sheet_ID": "南部15. オーストラリア西南部_航空圖", "label": "南部15. オーストラリア西南部_航空圖", "call_short": "G7801 .P6 S2000 .J3", "call_num": "G7801 .P6 S2000 .J3 S-15-A", "recid": "hq233fz8396", "websiteUrl": "https://purl.stanford.edu/hq233fz8396", "title": "二百万分一太平洋周域（南部）輿地圖", "ckey": 10114060, "available": true, "iiifUrl": "https://purl.stanford.edu/hq233fz8396/iiif/manifest" }, "geometry": { "type": "Polygon", "coordinates": [ [ [ 112.0, -35.666667 ], [ 130.0, -35.666667 ], [ 130.0, -24.666667 ], [ 112.0, -24.666667 ], [ 112.0, -35.666667 ] ] ] } },
{ "type": "Feature", "properties": { "Id": 0, "Sheet_ID": "南部8. アデレード_航空圖", "label": "南部8. アデレード_航空圖", "call_short": "G7801 .P6 S2000 .J3", "call_num": "G7801 .P6 S2000 .J3 S-8-A", "recid": "dy988wr5691", "websiteUrl": "https://purl.stanford.edu/dy988wr5691", "title": "二百万分一太平洋周域（南部）輿地圖", "ckey": 10114060, "available": true, "iiifUrl": "https://purl.stanford.edu/dy988wr5691/iiif/manifest" }, "geometry": { "type": "Polygon", "coordinates": [ [ [ 130.0, -35.666667 ], [ 148.0, -35.666667 ], [ 148.0, -24.666667 ], [ 130.0, -24.666667 ], [ 130.0, -35.666667 ] ] ] } },
{ "type": "Feature", "properties": { "Id": 0, "Sheet_ID": "南部5. ブリスベーン - シドニー_航空圖", "label": "南部5. ブリスベーン - シドニー_航空圖", "call_short": "G7801 .P6 S2000 .J3", "call_num": "G7801 .P6 S2000 .J3 S-5-A", "recid": "vn786yz1883", "websiteUrl": "https://purl.stanford.edu/vn786yz1883", "title": "二百万分一太平洋周域（南部）輿地圖", "ckey": 10114060, "available": true, "iiifUrl": "https://purl.stanford.edu/vn786yz1883/iiif/manifest" }, "geometry": { "type": "Polygon", "coordinates": [ [ [ 148.0, -35.666667 ], [ 166.0, -35.666667 ], [ 166.0, -24.666667 ], [ 148.0, -24.666667 ], [ 148.0, -35.666667 ] ] ] } },
{ "type": "Feature", "properties": { "Id": 0, "Sheet_ID": "南部9. メルボルン - ホバート", "label": "南部9. メルボルン - ホバート", "call_short": "G7801 .P6 S2000 .J3", "call_num": "G7801 .P6 S2000 .J3 S-9", "recid": "kz101cx3242", "websiteUrl": "https://purl.stanford.edu/kz101cx3242", "title": "二百万分一太平洋周域（南部）輿地圖", "ckey": 10114060, "available": true, "iiifUrl": "https://purl.stanford.edu/kz101cx3242/iiif/manifest" }, "geometry": { "type": "Polygon", "coordinates": [ [ [ 135.0, -45.333333 ], [ 153.0, -45.333333 ], [ 153.0, -35.666667 ], [ 135.0, -35.666667 ], [ 135.0, -45.333333 ] ] ] } },
{ "type": "Feature", "properties": { "Id": 0, "Sheet_ID": "南部1. ニュージーランド北部", "label": "南部1. ニュージーランド北部", "call_short": "G7801 .P6 S2000 .J3", "call_num": "G7801 .P6 S2000 .J3 S-1", "recid": "fh280wh6845", "websiteUrl": "https://purl.stanford.edu/fh280wh6845", "title": "二百万分一太平洋周域（南部）輿地圖", "ckey": 10114060, "available": true, "iiifUrl": "https://purl.stanford.edu/fh280wh6845/iiif/manifest" }, "geometry": { "type": "MultiPolygon", "coordinates": [ [ [ [ -175.833333, -42.5 ], [ -175.833333, -32.5 ], [ -180.0, -32.5 ], [ -180.0, -42.5 ], [ -175.833333, -42.5 ] ] ], [ [ [ 180.0, -42.5 ], [ 180.0, -32.5 ], [ 166.0, -32.5 ], [ 166.0, -42.5 ], [ 180.0, -42.5 ] ] ] ] } },
{ "type": "Feature", "properties": { "Id": 0, "Sheet_ID": "南部2. ニュージーランド南部", "label": "南部2. ニュージーランド南部", "call_short": "G7801 .P6 S2000 .J3", "call_num": "G7801 .P6 S2000 .J3 S-2", "recid": "mg698mx0981", "websiteUrl": "https://purl.stanford.edu/mg698mx0981", "title": "二百万分一太平洋周域（南部）輿地圖", "ckey": 10114060, "available": true, "iiifUrl": "https://purl.stanford.edu/mg698mx0981/iiif/manifest" }, "geometry": { "type": "MultiPolygon", "coordinates": [ [ [ [ -175.833333, -51.0 ], [ -175.833333, -42.5 ], [ -180.0, -42.5 ], [ -180.0, -51.0 ], [ -175.833333, -51.0 ] ] ], [ [ [ 180.0, -51.0 ], [ 180.0, -42.5 ], [ 166.0, -42.5 ], [ 166.0, -51.0 ], [ 180.0, -51.0 ] ] ] ] } },
{ "type": "Feature", "properties": { "Id": 0, "Sheet_ID": "南部1. ニュージーランド北部_航空圖", "label": "南部1. ニュージーランド北部_航空圖", "call_short": "G7801 .P6 S2000 .J3", "call_num": "G7801 .P6 S2000 .J3 S-1-A", "recid": "gz877fn7534", "websiteUrl": "https://purl.stanford.edu/gz877fn7534", "title": "二百万分一太平洋周域（南部）輿地圖", "ckey": 10114060, "available": true, "iiifUrl": "https://purl.stanford.edu/gz877fn7534/iiif/manifest" }, "geometry": { "type": "MultiPolygon", "coordinates": [ [ [ [ -175.833333, -42.5 ], [ -175.833333, -32.5 ], [ -180.0, -32.5 ], [ -180.0, -42.5 ], [ -175.833333, -42.5 ] ] ], [ [ [ 180.0, -42.5 ], [ 180.0, -32.5 ], [ 166.0, -32.5 ], [ 166.0, -42.5 ], [ 180.0, -42.5 ] ] ] ] } },
{ "type": "Feature", "properties": { "Id": 0, "Sheet_ID": "南部2. ニュージーランド南部_航空圖", "label": "南部2. ニュージーランド南部_航空圖", "call_short": "G7801 .P6 S2000 .J3", "call_num": "G7801 .P6 S2000 .J3 S-2-A", "recid": "fd186qc0017", "websiteUrl": "https://purl.stanford.edu/fd186qc0017", "title": "二百万分一太平洋周域（南部）輿地圖", "ckey": 10114060, "available": true, "iiifUrl": "https://purl.stanford.edu/fd186qc0017/iiif/manifest" }, "geometry": { "type": "MultiPolygon", "coordinates": [ [ [ [ -175.833333, -51.0 ], [ -175.833333, -42.5 ], [ -180.0, -42.5 ], [ -180.0, -51.0 ], [ -175.833333, -51.0 ] ] ], [ [ [ 180.0, -51.0 ], [ 180.0, -42.5 ], [ 166.0, -42.5 ], [ 166.0, -51.0 ], [ 180.0, -51.0 ] ] ] ] } },
{ "type": "Feature", "properties": { "Id": 0, "Sheet_ID": "南部7. オーストラリア東北部_航空圖", "label": "南部7. オーストラリア東北部_航空圖", "call_short": "G7801 .P6 S2000 .J3", "call_num": "G7801 .P6 S2000 .J3 S-7-A", "recid": "hf420hd8177", "websiteUrl": "https://purl.stanford.edu/hf420hd8177", "title": "二百万分一太平洋周域（南部）輿地圖", "ckey": 10114060, "available": true, "iiifUrl": "https://purl.stanford.edu/hf420hd8177/iiif/manifest" }, "geometry": { "type": "Polygon", "coordinates": [ [ [ 130.0, -24.666667 ], [ 148.0, -24.666667 ], [ 148.0, -12.666667 ], [ 130.0, -12.666667 ], [ 130.0, -24.666667 ] ] ] } },
{ "type": "Feature", "properties": { "Id": 0, "Sheet_ID": "南部9. メルボルン - ホバート_航空圖", "label": "南部9. メルボルン - ホバート_航空圖", "call_short": "G7801 .P6 S2000 .J3", "call_num": "G7801 .P6 S2000 .J3 S-9-A", "recid": "pq456cv3297", "websiteUrl": "https://purl.stanford.edu/pq456cv3297", "title": "二百万分一太平洋周域（南部）輿地圖", "ckey": 10114060, "available": true, "iiifUrl": "https://purl.stanford.edu/pq456cv3297/iiif/manifest" }, "geometry": { "type": "Polygon", "coordinates": [ [ [ 135.0, -45.333333 ], [ 153.0, -45.333333 ], [ 153.0, -35.666667 ], [ 135.0, -35.666667 ], [ 135.0, -45.333333 ] ] ] } },
{ "type": "Feature", "properties": { "Id": 0, "Sheet_ID": "北部11. イルクーツク - クラスノヤルスク_航空圖", "label": "北部11. イルクーツク - クラスノヤルスク_航空圖", "call_short": "G7801 .P6 S2000 .J3", "call_num": "G7801 .P6 S2000 .J3 N-11-A", "recid": "zr449pr4724", "websiteUrl": "https://purl.stanford.edu/zr449pr4724", "title": "二百万分一太平洋周域（北部）輿地圖", "ckey": 10114060, "available": true, "iiifUrl": "https://purl.stanford.edu/zr449pr4724/iiif/manifest" }, "geometry": { "type": "Polygon", "coordinates": [ [ [ 90.0, 50.0 ], [ 105.0, 50.0 ], [ 105.0, 63.0 ], [ 90.0, 63.0 ], [ 90.0, 50.0 ] ] ] } },
{ "type": "Feature", "properties": { "Id": 0, "Sheet_ID": "北部8. バイカル湖_航空圖", "label": "北部8. バイカル湖_航空圖", "call_short": "G7801 .P6 S2000 .J3", "call_num": "G7801 .P6 S2000 .J3 N-8-A", "recid": "qd409yx7147", "websiteUrl": "https://purl.stanford.edu/qd409yx7147", "title": "二百万分一太平洋周域（北部）輿地圖", "ckey": 10114060, "available": true, "iiifUrl": "https://purl.stanford.edu/qd409yx7147/iiif/manifest" }, "geometry": { "type": "Polygon", "coordinates": [ [ [ 105.0, 50.0 ], [ 120.0, 50.0 ], [ 120.0, 63.0 ], [ 105.0, 63.0 ], [ 105.0, 50.0 ] ] ] } },
{ "type": "Feature", "properties": { "Id": 0, "Sheet_ID": "北部5. ヤクーツク - 滿洲北部_航空圖", "label": "北部5. ヤクーツク - 滿洲北部_航空圖", "call_short": "G7801 .P6 S2000 .J3", "call_num": "G7801 .P6 S2000 .J3 N-5-A", "recid": "ws669sk2413", "websiteUrl": "https://purl.stanford.edu/ws669sk2413", "title": "二百万分一太平洋周域（北部）輿地圖", "ckey": 10114060, "available": true, "iiifUrl": "https://purl.stanford.edu/ws669sk2413/iiif/manifest" }, "geometry": { "type": "Polygon", "coordinates": [ [ [ 120.0, 50.0 ], [ 135.0, 50.0 ], [ 135.0, 63.0 ], [ 120.0, 63.0 ], [ 120.0, 50.0 ] ] ] } },
{ "type": "Feature", "properties": { "Id": 0, "Sheet_ID": "北部3. オホーツク - アレクサンドロフスク", "label": "北部3. オホーツク - アレクサンドロフスク", "call_short": "G7801 .P6 S2000 .J3", "call_num": "G7801 .P6 S2000 .J3 N-3", "recid": "kt932sx1636", "websiteUrl": "https://purl.stanford.edu/kt932sx1636", "title": "二百万分一太平洋周域（北部）輿地圖", "ckey": 10114060, "available": true, "iiifUrl": "https://purl.stanford.edu/kt932sx1636/iiif/manifest" }, "geometry": { "type": "Polygon", "coordinates": [ [ [ 135.0, 50.0 ], [ 150.0, 50.0 ], [ 150.0, 63.0 ], [ 135.0, 63.0 ], [ 135.0, 50.0 ] ] ] } },
{ "type": "Feature", "properties": { "Id": 0, "Sheet_ID": "北部2. 勘察加半島", "label": "北部2. 勘察加半島", "call_short": "0", "call_num": "0", "recid": "0", "websiteUrl": "0", "title": "0", "ckey": 0, "available": false, "iiifUrl": "0" }, "geometry": { "type": "Polygon", "coordinates": [ [ [ 150.0, 50.0 ], [ 165.0, 50.0 ], [ 165.0, 63.0 ], [ 150.0, 63.0 ], [ 150.0, 50.0 ] ] ] } },
{ "type": "Feature", "properties": { "Id": 0, "Sheet_ID": "北部12. 蘭州 - 哈密_航空圖", "label": "北部12. 蘭州 - 哈密_航空圖", "call_short": "G7801 .P6 S2000 .J3", "call_num": "G7801 .P6 S2000 .J3 N-12-A", "recid": "dg165zd1943", "websiteUrl": "https://purl.stanford.edu/dg165zd1943", "title": "二百万分一太平洋周域（北部）輿地圖", "ckey": 10114060, "available": true, "iiifUrl": "https://purl.stanford.edu/dg165zd1943/iiif/manifest" }, "geometry": { "type": "Polygon", "coordinates": [ [ [ 90.0, 32.666667 ], [ 105.0, 32.666667 ], [ 105.0, 50.0 ], [ 90.0, 50.0 ], [ 90.0, 32.666667 ] ] ] } },
{ "type": "Feature", "properties": { "Id": 0, "Sheet_ID": "北部9. 北京 - 西安 - 庫倫_航空圖", "label": "北部9. 北京 - 西安 - 庫倫_航空圖", "call_short": "G7801 .P6 S2000 .J3", "call_num": "G7801 .P6 S2000 .J3 N-9-A", "recid": "gn873qr3246", "websiteUrl": "https://purl.stanford.edu/gn873qr3246", "title": "二百万分一太平洋周域（北部）輿地圖", "ckey": 10114060, "available": true, "iiifUrl": "https://purl.stanford.edu/gn873qr3246/iiif/manifest" }, "geometry": { "type": "Polygon", "coordinates": [ [ [ 105.0, 32.666667 ], [ 120.0, 32.666667 ], [ 120.0, 50.0 ], [ 105.0, 50.0 ], [ 105.0, 32.666667 ] ] ] } },
{ "type": "Feature", "properties": { "Id": 0, "Sheet_ID": "北部6. 日本西部 - 満州首部_航空圖", "label": "北部6. 日本西部 - 満州首部_航空圖", "call_short": "G7801 .P6 S2000 .J3", "call_num": "G7801 .P6 S2000 .J3 N-6-A", "recid": "jz048jd5350", "websiteUrl": "https://purl.stanford.edu/jz048jd5350", "title": "二百万分一太平洋周域（北部）輿地圖", "ckey": 10114060, "available": true, "iiifUrl": "https://purl.stanford.edu/jz048jd5350/iiif/manifest" }, "geometry": { "type": "Polygon", "coordinates": [ [ [ 120.0, 32.666667 ], [ 135.0, 32.666667 ], [ 135.0, 50.0 ], [ 120.0, 50.0 ], [ 120.0, 32.666667 ] ] ] } },
{ "type": "Feature", "properties": { "Id": 0, "Sheet_ID": "北部4. 日本東部_航空圖", "label": "北部4. 日本東部_航空圖", "call_short": "G7801 .P6 S2000 .J3", "call_num": "G7801 .P6 S2000 .J3 N-4-A", "recid": "wh988dx8384", "websiteUrl": "https://purl.stanford.edu/wh988dx8384", "title": "二百万分一太平洋周域（北部）輿地圖", "ckey": 10114060, "available": true, "iiifUrl": "https://purl.stanford.edu/wh988dx8384/iiif/manifest" }, "geometry": { "type": "Polygon", "coordinates": [ [ [ 135.0, 32.666667 ], [ 150.0, 32.666667 ], [ 150.0, 50.0 ], [ 135.0, 50.0 ], [ 135.0, 32.666667 ] ] ] } },
{ "type": "Feature", "properties": { "Id": 0, "Sheet_ID": "北部2南. 千島列島中部_航空圖", "label": "北部2南. 千島列島中部_航空圖", "call_short": "G7801 .P6 S2000 .J3", "call_num": "G7801 .P6 S2000 .J3 N-2-A SOUTH", "recid": "jv060xc2413", "websiteUrl": "https://purl.stanford.edu/jv060xc2413", "title": "二百万分一太平洋周域（北部）輿地圖", "ckey": 10114060, "available": true, "iiifUrl": "https://purl.stanford.edu/jv060xc2413/iiif/manifest" }, "geometry": { "type": "Polygon", "coordinates": [ [ [ 150.0, 32.666667 ], [ 165.0, 32.666667 ], [ 165.0, 50.0 ], [ 150.0, 50.0 ], [ 150.0, 32.666667 ] ] ] } }
]
}
