{
"type": "FeatureCollection",
"name": "index_map",
"xy_coordinate_resolution": 1e-07,
"features": [
{ "type": "Feature", "properties": { "Id": 0, "Sheet_ID": "[15. 上大岡]", "label": "[15. 上大岡]", "call_short": "0", "call_num": "0", "recid": "0", "websiteUrl": "0", "title": "0", "ckey": 0, "available": false, "iiifUrl": "0" }, "geometry": { "type": "Polygon", "coordinates": [ [ [ 139.552778, 35.4 ], [ 139.602778, 35.4 ], [ 139.602778, 35.4333334 ], [ 139.552778, 35.4333334 ], [ 139.552778, 35.4 ] ] ] } },
{ "type": "Feature", "properties": { "Id": 0, "Sheet_ID": "[11. 根岸]", "label": "[11. 根岸]", "call_short": "0", "call_num": "0", "recid": "0", "websiteUrl": "0", "title": "0", "ckey": 0, "available": false, "iiifUrl": "0" }, "geometry": { "type": "Polygon", "coordinates": [ [ [ 139.602778, 35.4 ], [ 139.652778, 35.4 ], [ 139.652778, 35.4333334 ], [ 139.602778, 35.4333334 ], [ 139.602778, 35.4 ] ] ] } },
{ "type": "Feature", "properties": { "Id": 0, "Sheet_ID": "[6. 本牧]", "label": "[6. 本牧]", "call_short": "0", "call_num": "0", "recid": "0", "websiteUrl": "0", "title": "0", "ckey": 0, "available": false, "iiifUrl": "0" }, "geometry": { "type": "Polygon", "coordinates": [ [ [ 139.652778, 35.4 ], [ 139.702778, 35.4 ], [ 139.702778, 35.4333334 ], [ 139.652778, 35.4333334 ], [ 139.652778, 35.4 ] ] ] } },
{ "type": "Feature", "properties": { "Id": 0, "Sheet_ID": "[17. 二俣川]", "label": "[17. 二俣川]", "call_short": "0", "call_num": "0", "recid": "0", "websiteUrl": "0", "title": "0", "ckey": 0, "available": false, "iiifUrl": "0" }, "geometry": { "type": "Polygon", "coordinates": [ [ [ 139.502778, 35.4333334 ], [ 139.552778, 35.4333334 ], [ 139.552778, 35.4666668 ], [ 139.502778, 35.4666668 ], [ 139.502778, 35.4333334 ] ] ] } },
{ "type": "Feature", "properties": { "Id": 0, "Sheet_ID": "[14. 保土ヶ谷]", "label": "[14. 保土ヶ谷]", "call_short": "0", "call_num": "0", "recid": "0", "websiteUrl": "0", "title": "0", "ckey": 0, "available": false, "iiifUrl": "0" }, "geometry": { "type": "Polygon", "coordinates": [ [ [ 139.552778, 35.4333334 ], [ 139.602778, 35.4333334 ], [ 139.602778, 35.4666668 ], [ 139.552778, 35.4666668 ], [ 139.552778, 35.4333334 ] ] ] } },
{ "type": "Feature", "properties": { "Id": 0, "Sheet_ID": "[10. 横濱]", "label": "[10. 横濱]", "call_short": "0", "call_num": "0", "recid": "0", "websiteUrl": "0", "title": "0", "ckey": 0, "available": false, "iiifUrl": "0" }, "geometry": { "type": "Polygon", "coordinates": [ [ [ 139.602778, 35.4333334 ], [ 139.652778, 35.4333334 ], [ 139.652778, 35.4666668 ], [ 139.602778, 35.4666668 ], [ 139.602778, 35.4333334 ] ] ] } },
{ "type": "Feature", "properties": { "Id": 0, "Sheet_ID": "[5. 横浜港口]", "label": "[5. 横浜港口]", "call_short": "0", "call_num": "0", "recid": "0", "websiteUrl": "0", "title": "0", "ckey": 0, "available": false, "iiifUrl": "0" }, "geometry": { "type": "Polygon", "coordinates": [ [ [ 139.652778, 35.4333334 ], [ 139.702778, 35.4333334 ], [ 139.702778, 35.4666668 ], [ 139.652778, 35.4666668 ], [ 139.652778, 35.4333334 ] ] ] } },
{ "type": "Feature", "properties": { "Id": 0, "Sheet_ID": "16. 下川井", "label": "16. 下川井", "call_short": "G7964 .Y6 1939 .J3", "call_num": "G7964 .Y6 1939 .J3 SHEET 16", "recid": "nc802hx7514", "websiteUrl": "https://purl.stanford.edu/nc802hx7514", "title": "一万分一地形圖 横濱近傍", "ckey": 10645354, "available": true, "iiifUrl": "https://purl.stanford.edu/nc802hx7514/iiif/manifest" }, "geometry": { "type": "Polygon", "coordinates": [ [ [ 139.502778, 35.4666668 ], [ 139.552778, 35.4666668 ], [ 139.552778, 35.5000002 ], [ 139.502778, 35.5000002 ], [ 139.502778, 35.4666668 ] ] ] } },
{ "type": "Feature", "properties": { "Id": 0, "Sheet_ID": "[13. 川島]", "label": "[13. 川島]", "call_short": "0", "call_num": "0", "recid": "0", "websiteUrl": "0", "title": "0", "ckey": 0, "available": false, "iiifUrl": "0" }, "geometry": { "type": "Polygon", "coordinates": [ [ [ 139.552778, 35.4666668 ], [ 139.602778, 35.4666668 ], [ 139.602778, 35.5000002 ], [ 139.552778, 35.5000002 ], [ 139.552778, 35.4666668 ] ] ] } },
{ "type": "Feature", "properties": { "Id": 0, "Sheet_ID": "[9. 神奈川]", "label": "[9. 神奈川]", "call_short": "0", "call_num": "0", "recid": "0", "websiteUrl": "0", "title": "0", "ckey": 0, "available": false, "iiifUrl": "0" }, "geometry": { "type": "Polygon", "coordinates": [ [ [ 139.602778, 35.4666668 ], [ 139.652778, 35.4666668 ], [ 139.652778, 35.5000002 ], [ 139.602778, 35.5000002 ], [ 139.602778, 35.4666668 ] ] ] } },
{ "type": "Feature", "properties": { "Id": 0, "Sheet_ID": "[4. 生麥]", "label": "[4. 生麥]", "call_short": "0", "call_num": "0", "recid": "0", "websiteUrl": "0", "title": "0", "ckey": 0, "available": false, "iiifUrl": "0" }, "geometry": { "type": "Polygon", "coordinates": [ [ [ 139.652778, 35.4666668 ], [ 139.702778, 35.4666668 ], [ 139.702778, 35.5000002 ], [ 139.652778, 35.5000002 ], [ 139.652778, 35.4666668 ] ] ] } },
{ "type": "Feature", "properties": { "Id": 0, "Sheet_ID": "[2. 安善町]", "label": "[2. 安善町]", "call_short": "0", "call_num": "0", "recid": "0", "websiteUrl": "0", "title": "0", "ckey": 0, "available": false, "iiifUrl": "0" }, "geometry": { "type": "Polygon", "coordinates": [ [ [ 139.702778, 35.4666668 ], [ 139.752778, 35.4666668 ], [ 139.752778, 35.5000002 ], [ 139.702778, 35.5000002 ], [ 139.702778, 35.4666668 ] ] ] } },
{ "type": "Feature", "properties": { "Id": 0, "Sheet_ID": "12. 小机", "label": "12. 小机", "call_short": "G7964 .Y6 1939 .J3", "call_num": "G7964 .Y6 1939 .J3 SHEET 12", "recid": "dq318hs8409", "websiteUrl": "https://purl.stanford.edu/dq318hs8409", "title": "一万分一地形圖 横濱近傍", "ckey": 10645354, "available": true, "iiifUrl": "https://purl.stanford.edu/dq318hs8409/iiif/manifest" }, "geometry": { "type": "Polygon", "coordinates": [ [ [ 139.552778, 35.5000002 ], [ 139.602778, 35.5000002 ], [ 139.602778, 35.5333336 ], [ 139.552778, 35.5333336 ], [ 139.552778, 35.5000002 ] ] ] } },
{ "type": "Feature", "properties": { "Id": 0, "Sheet_ID": "[8. 菊名]", "label": "[8. 菊名]", "call_short": "0", "call_num": "0", "recid": "0", "websiteUrl": "0", "title": "0", "ckey": 0, "available": false, "iiifUrl": "0" }, "geometry": { "type": "Polygon", "coordinates": [ [ [ 139.602778, 35.5000002 ], [ 139.652778, 35.5000002 ], [ 139.652778, 35.5333336 ], [ 139.602778, 35.5333336 ], [ 139.602778, 35.5000002 ] ] ] } },
{ "type": "Feature", "properties": { "Id": 0, "Sheet_ID": "[3. 鶴見]", "label": "[3. 鶴見]", "call_short": "0", "call_num": "0", "recid": "0", "websiteUrl": "0", "title": "0", "ckey": 0, "available": false, "iiifUrl": "0" }, "geometry": { "type": "Polygon", "coordinates": [ [ [ 139.652778, 35.5000002 ], [ 139.702778, 35.5000002 ], [ 139.702778, 35.5333336 ], [ 139.652778, 35.5333336 ], [ 139.652778, 35.5000002 ] ] ] } },
{ "type": "Feature", "properties": { "Id": 0, "Sheet_ID": "[1. 川崎]", "label": "[1. 川崎]", "call_short": "0", "call_num": "0", "recid": "0", "websiteUrl": "0", "title": "0", "ckey": 0, "available": false, "iiifUrl": "0" }, "geometry": { "type": "Polygon", "coordinates": [ [ [ 139.702778, 35.5000002 ], [ 139.752778, 35.5000002 ], [ 139.752778, 35.5333336 ], [ 139.702778, 35.5333336 ], [ 139.702778, 35.5000002 ] ] ] } },
{ "type": "Feature", "properties": { "Id": 0, "Sheet_ID": "7. 日吉", "label": "7. 日吉", "call_short": "G7964 .Y6 1939 .J3", "call_num": "G7964 .Y6 1939 .J3 SHEET 7", "recid": "gj474jx6930", "websiteUrl": "https://purl.stanford.edu/gj474jx6930", "title": "一万分一地形圖 横濱近傍", "ckey": 10645354, "available": true, "iiifUrl": "https://purl.stanford.edu/gj474jx6930/iiif/manifest" }, "geometry": { "type": "Polygon", "coordinates": [ [ [ 139.602778, 35.5333336 ], [ 139.652778, 35.5333336 ], [ 139.652778, 35.566667 ], [ 139.602778, 35.566667 ], [ 139.602778, 35.5333336 ] ] ] } }
]
}
