{
"type": "FeatureCollection",
"name": "index_map",
"xy_coordinate_resolution": 1e-07,
"features": [
{ "type": "Feature", "properties": { "Id": 0, "Sheet_ID": "平壌西部 / WEST", "label": "平壌西部 / WEST", "call_short": "G7909 .P9 1932 .K6 1947", "call_num": "G7909 .P9 1932 .K6 1947 WEST", "recid": "gf738rt4022", "websiteUrl": "https://purl.stanford.edu/gf738rt4022", "title": "一万分一朝鮮地形圖 平壤", "ckey": 11351812, "available": true, "iiifUrl": "https://purl.stanford.edu/gf738rt4022/iiif/manifest" }, "geometry": { "type": "Polygon", "coordinates": [ [ [ 125.681944, 38.966667 ], [ 125.758333, 38.966667 ], [ 125.758333, 39.052778 ], [ 125.681944, 39.052778 ], [ 125.681944, 38.966667 ] ] ] } },
{ "type": "Feature", "properties": { "Id": 0, "Sheet_ID": "平壌東部 / EAST", "label": "平壌東部 / EAST", "call_short": "G7909 .P9 1932 .K6 1947", "call_num": "G7909 .P9 1932 .K6 1947 EAST", "recid": "dq615xp0271", "websiteUrl": "https://purl.stanford.edu/dq615xp0271", "title": "一万分一朝鮮地形圖 平壤", "ckey": 11351812, "available": true, "iiifUrl": "https://purl.stanford.edu/dq615xp0271/iiif/manifest" }, "geometry": { "type": "Polygon", "coordinates": [ [ [ 125.758333, 38.966667 ], [ 125.822222, 38.966667 ], [ 125.822222, 39.052778 ], [ 125.758333, 39.052778 ], [ 125.758333, 38.966667 ] ] ] } }
]
}
