{
"type": "FeatureCollection",
"name": "index_map",
"xy_coordinate_resolution": 1e-07,
"features": [
{ "type": "Feature", "properties": { "Id": 0, "Sheet_ID": "SHEET 33", "label": "SHEET 33", "call_short": "G7960 S200 .J32", "call_num": "G7960 S200 .J32 SHEET 33", "recid": "dx917fr7205", "websiteUrl": "https://purl.stanford.edu/dx917fr7205", "title": "集成二十万分一帝國圖", "ckey": 10553907, "available": true, "iiifUrl": "https://purl.stanford.edu/dx917fr7205/iiif/manifest" }, "geometry": { "type": "Polygon", "coordinates": [ [ [ 130.0, 32.6666668 ], [ 129.0, 32.6666668 ], [ 128.0, 32.6666668 ], [ 128.0, 32.0 ], [ 129.0, 32.0 ], [ 129.0, 31.3333334 ], [ 130.0, 31.3333334 ], [ 130.0, 32.6666668 ] ] ] } },
{ "type": "Feature", "properties": { "Id": 0, "Sheet_ID": "SHEET 31", "label": "SHEET 31", "call_short": "G7960 S200 .J32", "call_num": "G7960 S200 .J32 SHEET 31", "recid": "tv345dk3995", "websiteUrl": "https://purl.stanford.edu/tv345dk3995", "title": "集成二十万分一帝國圖", "ckey": 10553907, "available": true, "iiifUrl": "https://purl.stanford.edu/tv345dk3995/iiif/manifest" }, "geometry": { "type": "Polygon", "coordinates": [ [ [ 130.0, 31.3333334 ], [ 132.0, 31.3333334 ], [ 132.0, 32.6666668 ], [ 130.0, 32.6666668 ], [ 130.0, 31.3333334 ] ] ] } },
{ "type": "Feature", "properties": { "Id": 0, "Sheet_ID": "SHEET 32", "label": "SHEET 32", "call_short": "G7960 S200 .J32", "call_num": "G7960 S200 .J32 SHEET 32", "recid": "kd238px9710", "websiteUrl": "https://purl.stanford.edu/kd238px9710", "title": "集成二十万分一帝國圖", "ckey": 10553907, "available": true, "iiifUrl": "https://purl.stanford.edu/kd238px9710/iiif/manifest" }, "geometry": { "type": "MultiPolygon", "coordinates": [ [ [ [ 129.0, 32.6666668 ], [ 130.0, 32.6666668 ], [ 130.0, 34.0000002 ], [ 129.0, 34.0000002 ], [ 129.0, 33.333333 ], [ 128.0, 33.333333 ], [ 128.0, 32.6666668 ], [ 129.0, 32.6666668 ] ] ], [ [ [ 129.525, 34.066667 ], [ 129.525, 34.716667 ], [ 129.133333, 34.716667 ], [ 129.133333, 34.066667 ], [ 129.525, 34.066667 ] ] ] ] } },
{ "type": "Feature", "properties": { "Id": 0, "Sheet_ID": "SHEET 30", "label": "SHEET 30", "call_short": "G7960 S200 .J32", "call_num": "G7960 S200 .J32 SHEET 30", "recid": "xv627vx3780", "websiteUrl": "https://purl.stanford.edu/xv627vx3780", "title": "集成二十万分一帝國圖", "ckey": 10553907, "available": true, "iiifUrl": "https://purl.stanford.edu/xv627vx3780/iiif/manifest" }, "geometry": { "type": "Polygon", "coordinates": [ [ [ 130.0, 32.6666668 ], [ 132.0, 32.6666668 ], [ 132.0, 34.0000002 ], [ 130.0, 34.0000002 ], [ 130.0, 32.6666668 ] ] ] } },
{ "type": "Feature", "properties": { "Id": 0, "Sheet_ID": "SHEET 28", "label": "SHEET 28", "call_short": "G7960 S200 .J32", "call_num": "G7960 S200 .J32 SHEET 28", "recid": "cr317bx3758", "websiteUrl": "https://purl.stanford.edu/cr317bx3758", "title": "集成二十万分一帝國圖", "ckey": 10553907, "available": true, "iiifUrl": "https://purl.stanford.edu/cr317bx3758/iiif/manifest" }, "geometry": { "type": "Polygon", "coordinates": [ [ [ 132.0, 32.6666668 ], [ 134.0, 32.6666668 ], [ 134.0, 34.0000002 ], [ 132.0, 34.0000002 ], [ 132.0, 32.6666668 ] ] ] } },
{ "type": "Feature", "properties": { "Id": 0, "Sheet_ID": "SHEET 29", "label": "SHEET 29", "call_short": "G7960 S200 .J32", "call_num": "G7960 S200 .J32 SHEET 29", "recid": "hm014dd0360", "websiteUrl": "https://purl.stanford.edu/hm014dd0360", "title": "集成二十万分一帝國圖", "ckey": 10553907, "available": true, "iiifUrl": "https://purl.stanford.edu/hm014dd0360/iiif/manifest" }, "geometry": { "type": "Polygon", "coordinates": [ [ [ 131.0, 34.0000002 ], [ 132.0, 34.0000002 ], [ 132.0, 35.3333336 ], [ 131.0, 35.3333336 ], [ 131.0, 34.666667 ], [ 130.0, 34.666667 ], [ 130.0, 34.0000002 ], [ 131.0, 34.0000002 ] ] ] } },
{ "type": "Feature", "properties": { "Id": 0, "Sheet_ID": "SHEET 27", "label": "SHEET 27", "call_short": "G7960 S200 .J32", "call_num": "G7960 S200 .J32 SHEET 27", "recid": "qh632ws2818", "websiteUrl": "https://purl.stanford.edu/qh632ws2818", "title": "集成二十万分一帝國圖", "ckey": 10553907, "available": true, "iiifUrl": "https://purl.stanford.edu/qh632ws2818/iiif/manifest" }, "geometry": { "type": "Polygon", "coordinates": [ [ [ 132.0, 34.0000002 ], [ 134.0, 34.0000002 ], [ 134.0, 35.3333336 ], [ 132.0, 35.3333336 ], [ 132.0, 34.0000002 ] ] ] } },
{ "type": "Feature", "properties": { "Id": 0, "Sheet_ID": "SHEET 26", "label": "SHEET 26", "call_short": "G7960 S200 .J32", "call_num": "G7960 S200 .J32 SHEET 26", "recid": "ts436bw2773", "websiteUrl": "https://purl.stanford.edu/ts436bw2773", "title": "集成二十万分一帝國圖", "ckey": 10553907, "available": true, "iiifUrl": "https://purl.stanford.edu/ts436bw2773/iiif/manifest" }, "geometry": { "type": "Polygon", "coordinates": [ [ [ 133.4, 36.383333 ], [ 132.933333, 36.383333 ], [ 132.933333, 36.0 ], [ 132.0, 36.0 ], [ 132.0, 35.3333336 ], [ 134.0, 35.3333336 ], [ 134.0, 36.0 ], [ 133.4, 36.0 ], [ 133.4, 36.383333 ] ] ] } },
{ "type": "Feature", "properties": { "Id": 0, "Sheet_ID": "SHEET 34", "label": "SHEET 34", "call_short": "G7960 S200 .J32", "call_num": "G7960 S200 .J32 SHEET 34", "recid": "mb188sj7198", "websiteUrl": "https://purl.stanford.edu/mb188sj7198", "title": "集成二十万分一帝國圖", "ckey": 10553907, "available": true, "iiifUrl": "https://purl.stanford.edu/mb188sj7198/iiif/manifest" }, "geometry": { "type": "Polygon", "coordinates": [ [ [ 131.15, 31.3333334 ], [ 130.0, 31.3333334 ], [ 129.0, 31.3333334 ], [ 129.0, 30.666667 ], [ 130.0, 30.666667 ], [ 130.0, 30.0 ], [ 131.15, 30.0 ], [ 131.15, 31.3333334 ] ] ] } },
{ "type": "Feature", "properties": { "Id": 0, "Sheet_ID": "SHEET 7", "label": "SHEET 7", "call_short": "G7960 S200 .J32", "call_num": "G7960 S200 .J32 SHEET 7", "recid": "cn909jv6855", "websiteUrl": "https://purl.stanford.edu/cn909jv6855", "title": "集成二十万分一帝國圖", "ckey": 10553907, "available": true, "iiifUrl": "https://purl.stanford.edu/cn909jv6855/iiif/manifest" }, "geometry": { "type": "Polygon", "coordinates": [ [ [ 140.566667, 43.4 ], [ 140.316667, 43.4 ], [ 140.316667, 43.3333334 ], [ 140.0, 43.3333334 ], [ 140.0, 42.7 ], [ 139.85, 42.7 ], [ 139.85, 42.666667 ], [ 139.0, 42.666667 ], [ 139.0, 42.0 ], [ 140.0, 42.0 ], [ 141.0, 42.0 ], [ 141.0, 43.3333334 ], [ 140.566667, 43.3333334 ], [ 140.566667, 43.4 ] ] ] } },
{ "type": "Feature", "properties": { "Id": 0, "Sheet_ID": "SHEET 6", "label": "SHEET 6", "call_short": "G7960 S200 .J32", "call_num": "G7960 S200 .J32 SHEET 6", "recid": "tv342nq1851", "websiteUrl": "https://purl.stanford.edu/tv342nq1851", "title": "集成二十万分一帝國圖", "ckey": 10553907, "available": true, "iiifUrl": "https://purl.stanford.edu/gq473sq6858/iiif/manifest" }, "geometry": { "type": "Polygon", "coordinates": [ [ [ 141.0, 42.0 ], [ 143.0, 42.0 ], [ 143.0, 43.3333334 ], [ 141.0, 43.3333334 ], [ 141.0, 42.0 ] ] ] } },
{ "type": "Feature", "properties": { "Id": 0, "Sheet_ID": "SHEET 3", "label": "SHEET 3", "call_short": "G7960 S200 .J32", "call_num": "G7960 S200 .J32 SHEET 3", "recid": "gc020dz5714", "websiteUrl": "https://purl.stanford.edu/gc020dz5714", "title": "集成二十万分一帝國圖", "ckey": 10553907, "available": true, "iiifUrl": "https://purl.stanford.edu/gc020dz5714/iiif/manifest" }, "geometry": { "type": "Polygon", "coordinates": [ [ [ 143.3, 42.0 ], [ 144.0, 42.0 ], [ 144.0, 42.666667 ], [ 145.0, 42.666667 ], [ 145.0, 43.3333334 ], [ 144.0, 43.3333334 ], [ 143.0, 43.3333334 ], [ 143.0, 42.0 ], [ 143.1, 42.0 ], [ 143.1, 41.9 ], [ 143.3, 41.9 ], [ 143.3, 42.0 ] ] ] } },
{ "type": "Feature", "properties": { "Id": 0, "Sheet_ID": "SHEET 5", "label": "SHEET 5", "call_short": "G7960 S200 .J32", "call_num": "G7960 S200 .J32 SHEET 5", "recid": "yk526tg4979", "websiteUrl": "https://purl.stanford.edu/yk526tg4979", "title": "集成二十万分一帝國圖", "ckey": 10553907, "available": true, "iiifUrl": "https://purl.stanford.edu/yk526tg4979/iiif/manifest" }, "geometry": { "type": "Polygon", "coordinates": [ [ [ 141.0, 43.3333334 ], [ 143.0, 43.3333334 ], [ 143.0, 44.6666668 ], [ 141.0, 44.6666668 ], [ 141.0, 43.3333334 ] ] ] } },
{ "type": "Feature", "properties": { "Id": 0, "Sheet_ID": "SHEET 2", "label": "SHEET 2", "call_short": "G7960 S200 .J32", "call_num": "G7960 S200 .J32 SHEET 2", "recid": "gq473sq6858", "websiteUrl": "https://purl.stanford.edu/gq473sq6858", "title": "集成二十万分一帝國圖", "ckey": 10553907, "available": true, "iiifUrl": "https://purl.stanford.edu/gq473sq6858/iiif/manifest" }, "geometry": { "type": "Polygon", "coordinates": [ [ [ 143.0, 43.3333334 ], [ 145.0, 43.3333334 ], [ 145.0, 44.6666668 ], [ 143.0, 44.6666668 ], [ 143.0, 43.3333334 ] ] ] } },
{ "type": "Feature", "properties": { "Id": 0, "Sheet_ID": "SHEET 1", "label": "SHEET 1", "call_short": "G7960 S200 .J32", "call_num": "G7960 S200 .J32 SHEET 1", "recid": "bj734fd5841", "websiteUrl": "https://purl.stanford.edu/bj734fd5841", "title": "集成二十万分一帝國圖", "ckey": 10553907, "available": true, "iiifUrl": "https://purl.stanford.edu/bj734fd5841/iiif/manifest" }, "geometry": { "type": "Polygon", "coordinates": [ [ [ 145.0, 42.9 ], [ 146.0, 42.9 ], [ 146.0, 44.6666668 ], [ 145.0, 44.6666668 ], [ 145.0, 42.9 ] ] ] } },
{ "type": "Feature", "properties": { "Id": 0, "Sheet_ID": "SHEET 4", "label": "SHEET 4", "call_short": "G7960 S200 .J32", "call_num": "G7960 S200 .J32 SHEET 4", "recid": "sg730bg6762", "websiteUrl": "https://purl.stanford.edu/sg730bg6762", "title": "集成二十万分一帝國圖", "ckey": 10553907, "available": true, "iiifUrl": "https://purl.stanford.edu/sg730bg6762/iiif/manifest" }, "geometry": { "type": "Polygon", "coordinates": [ [ [ 142.0, 45.866667 ], [ 142.166667, 45.866667 ], [ 142.166667, 46.0000002 ], [ 142.0, 46.0000002 ], [ 141.0, 46.0000002 ], [ 141.0, 45.533333 ], [ 140.95, 45.533333 ], [ 140.95, 45.3 ], [ 141.0, 45.3 ], [ 141.0, 44.6666668 ], [ 142.0, 44.6666668 ], [ 143.0, 44.6666668 ], [ 143.0, 45.333333 ], [ 142.266667, 45.333333 ], [ 142.266667, 45.55 ], [ 142.0, 45.55 ], [ 142.0, 45.866667 ] ] ] } },
{ "type": "Feature", "properties": { "Id": 0, "Sheet_ID": "SHEET 10", "label": "SHEET 10", "call_short": "G7960 S200 .J32", "call_num": "G7960 S200 .J32 SHEET 10", "recid": "gw275tp2498", "websiteUrl": "https://purl.stanford.edu/gw275tp2498", "title": "集成二十万分一帝國圖", "ckey": 10553907, "available": true, "iiifUrl": "https://purl.stanford.edu/gw275tp2498/iiif/manifest" }, "geometry": { "type": "Polygon", "coordinates": [ [ [ 143.666667, 47.3333336 ], [ 142.0, 47.3333336 ], [ 141.95, 47.3333336 ], [ 141.95, 47.233333 ], [ 142.0, 47.233333 ], [ 142.0, 47.0 ], [ 141.8, 47.0 ], [ 141.8, 46.666667 ], [ 141.0, 46.666667 ], [ 141.0, 46.0000002 ], [ 143.666667, 46.0000002 ], [ 143.666667, 46.666667 ], [ 143.666667, 47.3333336 ] ] ] } },
{ "type": "Feature", "properties": { "Id": 0, "Sheet_ID": "SHEET 9", "label": "SHEET 9", "call_short": "G7960 S200 .J32", "call_num": "G7960 S200 .J32 SHEET 9", "recid": "fn211bv1833", "websiteUrl": "https://purl.stanford.edu/fn211bv1833", "title": "集成二十万分一帝國圖", "ckey": 10553907, "available": true, "iiifUrl": "https://purl.stanford.edu/fn211bv1833/iiif/manifest" }, "geometry": { "type": "Polygon", "coordinates": [ [ [ 143.0, 48.666667 ], [ 142.0, 48.666667 ], [ 141.866667, 48.666667 ], [ 141.866667, 48.5 ], [ 142.0, 48.5 ], [ 142.0, 47.75 ], [ 141.933333, 47.75 ], [ 141.933333, 47.3333336 ], [ 142.0, 47.3333336 ], [ 143.0, 47.3333336 ], [ 143.0, 48.666667 ] ] ] } },
{ "type": "Feature", "properties": { "Id": 0, "Sheet_ID": "SHEET 25", "label": "SHEET 25", "call_short": "G7960 S200 .J32", "call_num": "G7960 S200 .J32 SHEET 25", "recid": "tm595tb3575", "websiteUrl": "https://purl.stanford.edu/tm595tb3575", "title": "集成二十万分一帝國圖", "ckey": 10553907, "available": true, "iiifUrl": "https://purl.stanford.edu/tm595tb3575/iiif/manifest" }, "geometry": { "type": "Polygon", "coordinates": [ [ [ 134.25, 33.333333 ], [ 136.0, 33.333333 ], [ 136.0, 34.6666664 ], [ 134.0, 34.6666664 ], [ 134.0, 33.333333 ], [ 134.05, 33.333333 ], [ 134.05, 33.233333 ], [ 134.25, 33.233333 ], [ 134.25, 33.333333 ] ] ] } },
{ "type": "Feature", "properties": { "Id": 0, "Sheet_ID": "SHEET 23 ED.2", "label": "SHEET 23 ED.2", "call_short": "G7960 S200 .J32", "call_num": "G7960 S200 .J32 SHEET 23 ED.2", "recid": "cg682hf6209", "websiteUrl": "https://purl.stanford.edu/cg682hf6209", "title": "集成二十万分一帝國圖", "ckey": 10553907, "available": true, "iiifUrl": "https://purl.stanford.edu/cg682hf6209/iiif/manifest" }, "geometry": { "type": "Polygon", "coordinates": [ [ [ 137.0, 33.333333 ], [ 137.0, 34.0 ], [ 138.0, 34.0 ], [ 138.0, 34.6666664 ], [ 137.0, 34.6666664 ], [ 136.0, 34.6666664 ], [ 136.0, 33.333333 ], [ 137.0, 33.333333 ] ] ] } },
{ "type": "Feature", "properties": { "Id": 0, "Sheet_ID": "SHEET 19", "label": "SHEET 19", "call_short": "G7960 S200 .J32", "call_num": "G7960 S200 .J32 SHEET 19", "recid": "fd681yz4689", "websiteUrl": "https://purl.stanford.edu/fd681yz4689", "title": "集成二十万分一帝國圖", "ckey": 10553907, "available": true, "iiifUrl": "https://purl.stanford.edu/fd681yz4689/iiif/manifest" }, "geometry": { "type": "Polygon", "coordinates": [ [ [ 138.0, 33.333333 ], [ 140.0, 33.333333 ], [ 140.0, 34.6666664 ], [ 138.0, 34.6666664 ], [ 138.0, 33.333333 ] ] ] } },
{ "type": "Feature", "properties": { "Id": 0, "Sheet_ID": "SHEET 24", "label": "SHEET 24", "call_short": "G7960 S200 .J32", "call_num": "G7960 S200 .J32 SHEET 24", "recid": "mf338dd9273", "websiteUrl": "https://purl.stanford.edu/mf338dd9273", "title": "集成二十万分一帝國圖", "ckey": 10553907, "available": true, "iiifUrl": "https://purl.stanford.edu/mf338dd9273/iiif/manifest" }, "geometry": { "type": "Polygon", "coordinates": [ [ [ 134.0, 34.6666664 ], [ 136.0, 34.6666664 ], [ 136.0, 35.9999999 ], [ 134.0, 35.9999999 ], [ 134.0, 34.6666664 ] ] ] } },
{ "type": "Feature", "properties": { "Id": 0, "Sheet_ID": "SHEET 22", "label": "SHEET 22", "call_short": "G7960 S200 .J32", "call_num": "G7960 S200 .J32 SHEET 22", "recid": "tp929yc6519", "websiteUrl": "https://purl.stanford.edu/tp929yc6519", "title": "集成二十万分一帝國圖", "ckey": 10553907, "available": true, "iiifUrl": "https://purl.stanford.edu/tp929yc6519/iiif/manifest" }, "geometry": { "type": "Polygon", "coordinates": [ [ [ 136.0, 34.6666664 ], [ 138.0, 34.6666664 ], [ 138.0, 35.9999999 ], [ 136.0, 35.9999999 ], [ 136.0, 34.6666664 ] ] ] } },
{ "type": "Feature", "properties": { "Id": 0, "Sheet_ID": "SHEET 18", "label": "SHEET 18", "call_short": "G7960 S200 .J32", "call_num": "G7960 S200 .J32 SHEET 18", "recid": "kq112hg5525", "websiteUrl": "https://purl.stanford.edu/kq112hg5525", "title": "集成二十万分一帝國圖", "ckey": 10553907, "available": true, "iiifUrl": "https://purl.stanford.edu/kq112hg5525/iiif/manifest" }, "geometry": { "type": "Polygon", "coordinates": [ [ [ 138.0, 34.6666664 ], [ 139.0, 34.6666664 ], [ 139.0, 35.9999999 ], [ 138.0, 35.9999999 ], [ 138.0, 34.6666664 ] ] ] } },
{ "type": "Feature", "properties": { "Id": 0, "Sheet_ID": "SHEET 15", "label": "SHEET 15", "call_short": "0", "call_num": "0", "recid": "0", "websiteUrl": "0", "title": "0", "ckey": 0, "available": false, "iiifUrl": "0" }, "geometry": { "type": "Polygon", "coordinates": [ [ [ 139.0, 34.6666664 ], [ 141.0, 34.6666664 ], [ 141.0, 35.9999999 ], [ 139.0, 35.9999999 ], [ 139.0, 34.6666664 ] ] ] } },
{ "type": "Feature", "properties": { "Id": 0, "Sheet_ID": "SHEET 21 ED.2", "label": "SHEET 21 ED.2", "call_short": "G7960 S200 .J32", "call_num": "G7960 S200 .J32 SHEET 21 ED.2", "recid": "gb599xd0568", "websiteUrl": "https://purl.stanford.edu/gb599xd0568", "title": "集成二十万分一帝國圖", "ckey": 10553907, "available": true, "iiifUrl": "https://purl.stanford.edu/gb599xd0568/iiif/manifest" }, "geometry": { "type": "Polygon", "coordinates": [ [ [ 136.0, 35.9999999 ], [ 138.0, 35.9999999 ], [ 138.0, 37.3333333 ], [ 136.0, 37.3333333 ], [ 136.0, 36.033333 ], [ 135.95, 36.033333 ], [ 135.95, 35.9999999 ], [ 136.0, 35.9999999 ] ] ] } },
{ "type": "Feature", "properties": { "Id": 0, "Sheet_ID": "SHEET 17", "label": "SHEET 17", "call_short": "G7960 S200 .J32", "call_num": "G7960 S200 .J32 SHEET 17", "recid": "rf506yc7619", "websiteUrl": "https://purl.stanford.edu/rf506yc7619", "title": "集成二十万分一帝國圖", "ckey": 10553907, "available": true, "iiifUrl": "https://purl.stanford.edu/rf506yc7619/iiif/manifest" }, "geometry": { "type": "Polygon", "coordinates": [ [ [ 138.0, 35.9999999 ], [ 139.0, 35.9999999 ], [ 139.0, 37.3333333 ], [ 138.0, 37.3333333 ], [ 138.0, 35.9999999 ] ] ] } },
{ "type": "Feature", "properties": { "Id": 0, "Sheet_ID": "SHEET 14", "label": "SHEET 14", "call_short": "0", "call_num": "0", "recid": "0", "websiteUrl": "0", "title": "0", "ckey": 0, "available": false, "iiifUrl": "0" }, "geometry": { "type": "Polygon", "coordinates": [ [ [ 139.0, 35.9999999 ], [ 141.0, 35.9999999 ], [ 141.0, 37.3333333 ], [ 139.0, 37.3333333 ], [ 139.0, 35.9999999 ] ] ] } },
{ "type": "Feature", "properties": { "Id": 0, "Sheet_ID": "SHEET 20 ED.2", "label": "SHEET 20 ED.2", "call_short": "G7960 S200 .J32", "call_num": "G7960 S200 .J32 SHEET 20 ED.2", "recid": "ts166qh4282", "websiteUrl": "https://purl.stanford.edu/ts166qh4282", "title": "集成二十万分一帝國圖", "ckey": 10553907, "available": true, "iiifUrl": "https://purl.stanford.edu/ts166qh4282/iiif/manifest" }, "geometry": { "type": "Polygon", "coordinates": [ [ [ 136.0, 37.3333333 ], [ 138.0, 37.3333333 ], [ 138.0, 38.0 ], [ 136.0, 38.0 ], [ 136.0, 37.3333333 ] ] ] } },
{ "type": "Feature", "properties": { "Id": 0, "Sheet_ID": "SHEET 16", "label": "SHEET 16", "call_short": "G7960 S200 .J32", "call_num": "G7960 S200 .J32 SHEET 16", "recid": "hb709hc2798", "websiteUrl": "https://purl.stanford.edu/hb709hc2798", "title": "集成二十万分一帝國圖", "ckey": 10553907, "available": true, "iiifUrl": "https://purl.stanford.edu/hb709hc2798/iiif/manifest" }, "geometry": { "type": "Polygon", "coordinates": [ [ [ 138.0, 37.3333333 ], [ 140.0, 37.3333333 ], [ 140.0, 38.6666667 ], [ 138.0, 38.6666667 ], [ 138.0, 37.3333333 ] ] ] } },
{ "type": "Feature", "properties": { "Id": 0, "Sheet_ID": "SHEET 13", "label": "SHEET 13", "call_short": "0", "call_num": "0", "recid": "0", "websiteUrl": "0", "title": "0", "ckey": 0, "available": false, "iiifUrl": "0" }, "geometry": { "type": "Polygon", "coordinates": [ [ [ 140.0, 37.3333333 ], [ 142.0, 37.3333333 ], [ 142.0, 38.6666667 ], [ 140.0, 38.6666667 ], [ 140.0, 37.3333333 ] ] ] } },
{ "type": "Feature", "properties": { "Id": 0, "Sheet_ID": "SHEET 12 ED.2", "label": "SHEET 12 ED.2", "call_short": "G7960 S200 .J32", "call_num": "G7960 S200 .J32 SHEET 12 ED.2", "recid": "rm768dk9940", "websiteUrl": "https://purl.stanford.edu/rm768dk9940", "title": "集成二十万分一帝國圖", "ckey": 10553907, "available": true, "iiifUrl": "https://purl.stanford.edu/rm768dk9940/iiif/manifest" }, "geometry": { "type": "Polygon", "coordinates": [ [ [ 139.716667, 40.033333 ], [ 139.683333, 40.033333 ], [ 139.683333, 40.0000001 ], [ 139.633333, 40.0000001 ], [ 139.633333, 39.25 ], [ 139.466667, 39.25 ], [ 139.466667, 39.133333 ], [ 139.633333, 39.133333 ], [ 139.633333, 38.7 ], [ 139.6, 38.7 ], [ 139.6, 38.6666667 ], [ 139.633333, 38.6666667 ], [ 142.0, 38.6666667 ], [ 142.0, 39.383333 ], [ 142.1, 39.383333 ], [ 142.1, 39.666667 ], [ 142.0, 39.666667 ], [ 142.0, 40.0000001 ], [ 139.716667, 40.0000001 ], [ 139.716667, 40.033333 ] ] ] } },
{ "type": "Feature", "properties": { "Id": 0, "Sheet_ID": "SHEET 11", "label": "SHEET 11", "call_short": "G7960 S200 .J32", "call_num": "G7960 S200 .J32 SHEET 11", "recid": "xv601sx8047", "websiteUrl": "https://purl.stanford.edu/xv601sx8047", "title": "集成二十万分一帝國圖", "ckey": 10553907, "available": true, "iiifUrl": "https://purl.stanford.edu/xv601sx8047/iiif/manifest" }, "geometry": { "type": "Polygon", "coordinates": [ [ [ 140.0, 40.0000001 ], [ 142.0, 40.0000001 ], [ 142.0, 41.3333336 ], [ 140.0, 41.3333336 ], [ 140.0, 40.75 ], [ 139.833333, 40.75 ], [ 139.833333, 40.0000001 ], [ 140.0, 40.0000001 ] ] ] } },
{ "type": "Feature", "properties": { "Id": 0, "Sheet_ID": "SHEET 25 ED.2", "label": "SHEET 25 ED.2", "call_short": "G7960 S200 .J32", "call_num": "G7960 S200 .J32 SHEET 25 ED.2", "recid": "hc900vq9518", "websiteUrl": "https://purl.stanford.edu/hc900vq9518", "title": "集成二十万分一帝國圖", "ckey": 10553907, "available": true, "iiifUrl": "https://purl.stanford.edu/hc900vq9518/iiif/manifest" }, "geometry": { "type": "Polygon", "coordinates": [ [ [ 134.25, 33.333333 ], [ 136.0, 33.333333 ], [ 136.0, 34.6666664 ], [ 134.0, 34.6666664 ], [ 134.0, 33.333333 ], [ 134.05, 33.333333 ], [ 134.05, 33.233333 ], [ 134.25, 33.233333 ], [ 134.25, 33.333333 ] ] ] } },
{ "type": "Feature", "properties": { "Id": 0, "Sheet_ID": "SHEET 23", "label": "SHEET 23", "call_short": "G7960 S200 .J32", "call_num": "G7960 S200 .J32 SHEET 23", "recid": "fj655gc8256", "websiteUrl": "https://purl.stanford.edu/fj655gc8256", "title": "集成二十万分一帝國圖", "ckey": 10553907, "available": true, "iiifUrl": "https://purl.stanford.edu/fj655gc8256/iiif/manifest" }, "geometry": { "type": "Polygon", "coordinates": [ [ [ 137.0, 33.333333 ], [ 137.0, 34.0 ], [ 138.0, 34.0 ], [ 138.0, 34.6666664 ], [ 137.0, 34.6666664 ], [ 136.0, 34.6666664 ], [ 136.0, 33.333333 ], [ 137.0, 33.333333 ] ] ] } },
{ "type": "Feature", "properties": { "Id": 0, "Sheet_ID": "SHEET 21", "label": "SHEET 21", "call_short": "G7960 S200 .J32", "call_num": "G7960 S200 .J32 SHEET 21", "recid": "ry976rq1680", "websiteUrl": "https://purl.stanford.edu/ry976rq1680", "title": "集成二十万分一帝國圖", "ckey": 10553907, "available": true, "iiifUrl": "https://purl.stanford.edu/ry976rq1680/iiif/manifest" }, "geometry": { "type": "Polygon", "coordinates": [ [ [ 136.0, 35.9999999 ], [ 138.0, 35.9999999 ], [ 138.0, 37.3333333 ], [ 136.0, 37.3333333 ], [ 136.0, 36.033333 ], [ 135.95, 36.033333 ], [ 135.95, 35.9999999 ], [ 136.0, 35.9999999 ] ] ] } },
{ "type": "Feature", "properties": { "Id": 0, "Sheet_ID": "SHEET 20", "label": "SHEET 20", "call_short": "G7960 S200 .J32", "call_num": "G7960 S200 .J32 SHEET 20", "recid": "wv792ys4432", "websiteUrl": "https://purl.stanford.edu/wv792ys4432", "title": "集成二十万分一帝國圖", "ckey": 10553907, "available": true, "iiifUrl": "https://purl.stanford.edu/wv792ys4432/iiif/manifest" }, "geometry": { "type": "Polygon", "coordinates": [ [ [ 136.0, 37.3333333 ], [ 138.0, 37.3333333 ], [ 138.0, 38.0 ], [ 136.0, 38.0 ], [ 136.0, 37.3333333 ] ] ] } },
{ "type": "Feature", "properties": { "Id": 0, "Sheet_ID": "SHEET 12", "label": "SHEET 12", "call_short": "G7960 S200 .J32", "call_num": "G7960 S200 .J32 SHEET 12", "recid": "sv177bb2814", "websiteUrl": "https://purl.stanford.edu/sv177bb2814", "title": "集成二十万分一帝國圖", "ckey": 10553907, "available": true, "iiifUrl": "https://purl.stanford.edu/sv177bb2814/iiif/manifest" }, "geometry": { "type": "Polygon", "coordinates": [ [ [ 139.716667, 40.033333 ], [ 139.683333, 40.033333 ], [ 139.683333, 40.0000001 ], [ 139.633333, 40.0000001 ], [ 139.633333, 39.25 ], [ 139.466667, 39.25 ], [ 139.466667, 39.133333 ], [ 139.633333, 39.133333 ], [ 139.633333, 38.7 ], [ 139.6, 38.7 ], [ 139.6, 38.6666667 ], [ 139.633333, 38.6666667 ], [ 142.0, 38.6666667 ], [ 142.0, 39.383333 ], [ 142.1, 39.383333 ], [ 142.1, 39.666667 ], [ 142.0, 39.666667 ], [ 142.0, 40.0000001 ], [ 139.716667, 40.0000001 ], [ 139.716667, 40.033333 ] ] ] } },
{ "type": "Feature", "properties": { "Id": 0, "Sheet_ID": "SHEET 11 ED.2", "label": "SHEET 11 ED.2", "call_short": "G7960 S200 .J32", "call_num": "G7960 S200 .J32 SHEET 11 ED.2", "recid": "ht230mz1183", "websiteUrl": "https://purl.stanford.edu/ht230mz1183", "title": "集成二十万分一帝國圖", "ckey": 10553907, "available": true, "iiifUrl": "https://purl.stanford.edu/ht230mz1183/iiif/manifest" }, "geometry": { "type": "Polygon", "coordinates": [ [ [ 140.0, 40.0000001 ], [ 142.0, 40.0000001 ], [ 142.0, 41.3333336 ], [ 140.0, 41.3333336 ], [ 140.0, 40.75 ], [ 139.833333, 40.75 ], [ 139.833333, 40.0000001 ], [ 140.0, 40.0000001 ] ] ] } },
{ "type": "Feature", "properties": { "Id": 0, "Sheet_ID": "SHEET 8", "label": "SHEET 8", "call_short": "G7960 S200 .J32", "call_num": "G7960 S200 .J32 SHEET 8", "recid": "rg847ym8988", "websiteUrl": "https://purl.stanford.edu/rg847ym8988", "title": "集成二十万分一帝國圖", "ckey": 10553907, "available": true, "iiifUrl": "https://purl.stanford.edu/rg847ym8988/iiif/manifest" }, "geometry": { "type": "Polygon", "coordinates": [ [ [ 141.566667, 42.0 ], [ 140.0, 42.0 ], [ 139.316667, 42.0 ], [ 139.316667, 41.333333 ], [ 140.0, 41.333333 ], [ 140.0, 40.75 ], [ 139.9, 40.75 ], [ 139.9, 40.666667 ], [ 140.0, 40.666667 ], [ 141.566667, 40.666667 ], [ 141.566667, 42.0 ] ] ] } }
]
}
