{"type":"FeatureCollection","features":[{"type":"Feature","properties":{"Id":0,"Sheet_ID":"[6.] 厚和","label":"[6.] 厚和","call_short":"G7895 S1000 .J3","call_num":"G7895 S1000 .J3 SHEET 6","recid":"mk343nf5624","websiteUrl":"https://purl.stanford.edu/mk343nf5624","title":"蒙古百万分一圖","ckey":9690663,"web_map":"","available":"true","iiiUrl":"https://purl.stanford.edu/mk343nf5624/iiif/manifest"},"geometry":{"bbox":[108,40,114.00000000000001,44],"type":"Polygon","coordinates":[[[108,40],[108,44],[114.00000000000001,44],[114.00000000000001,40],[108,40]]]}},{"type":"Feature","properties":{"Id":0,"Sheet_ID":"[3.] 張家口","label":"[3.] 張家口","call_short":"G7895 S1000 .J3","call_num":"G7895 S1000 .J3 SHEET 3","recid":"sp975fq7856","websiteUrl":"https://purl.stanford.edu/sp975fq7856","title":"蒙古百万分一圖","ckey":9690663,"web_map":"","available":"true","iiiUrl":"https://purl.stanford.edu/sp975fq7856/iiif/manifest"},"geometry":{"bbox":[114.00000000000001,40,119.99999999999999,44],"type":"Polygon","coordinates":[[[114.00000000000001,40],[114.00000000000001,44],[119.99999999999999,44],[119.99999999999999,40],[114.00000000000001,40]]]}},{"type":"Feature","properties":{"Id":0,"Sheet_ID":"[5.] 車臣汗","label":"[5.] 車臣汗","call_short":"G7895 S1000 .J3","call_num":"G7895 S1000 .J3 SHEET 5","recid":"tw398cf7792","websiteUrl":"https://purl.stanford.edu/tw398cf7792","title":"蒙古百万分一圖","ckey":9690663,"web_map":"","available":"true","iiiUrl":"https://purl.stanford.edu/tw398cf7792/iiif/manifest"},"geometry":{"bbox":[108,44,114.00000000000001,48.00000000000001],"type":"Polygon","coordinates":[[[108,44],[108,48.00000000000001],[114.00000000000001,48.00000000000001],[114.00000000000001,44],[108,44]]]}},{"type":"Feature","properties":{"Id":0,"Sheet_ID":"[2.] 貝爾湖","label":"[2.] 貝爾湖","call_short":"G7895 S1000 .J3","call_num":"G7895 S1000 .J3 SHEET 2","recid":"pf202xs9934","websiteUrl":"https://purl.stanford.edu/pf202xs9934","title":"蒙古百万分一圖","ckey":9690663,"web_map":"","available":"true","iiiUrl":"https://purl.stanford.edu/pf202xs9934/iiif/manifest"},"geometry":{"bbox":[114.00000000000001,44,119.99999999999999,48.00000000000001],"type":"Polygon","coordinates":[[[114.00000000000001,44],[114.00000000000001,48.00000000000001],[119.99999999999999,48.00000000000001],[119.99999999999999,44],[114.00000000000001,44]]]}},{"type":"Feature","properties":{"Id":0,"Sheet_ID":"[4.] モグゾン","label":"[4.] モグゾン","call_short":"G7895 S1000 .J3","call_num":"G7895 S1000 .J3 SHEET 4","recid":"yv808cq7354","websiteUrl":"https://purl.stanford.edu/yv808cq7354","title":"蒙古百万分一圖","ckey":9690663,"web_map":"","available":"true","iiiUrl":"https://purl.stanford.edu/yv808cq7354/iiif/manifest"},"geometry":{"bbox":[108,48.00000000000001,114.00000000000001,52],"type":"Polygon","coordinates":[[[108,48.00000000000001],[108,52],[114.00000000000001,52],[114.00000000000001,48.00000000000001],[108,48.00000000000001]]]}},{"type":"Feature","properties":{"Id":0,"Sheet_ID":"[1.] 満州里","label":"[1.] 満州里","call_short":"G7895 S1000 .J3","call_num":"G7895 S1000 .J3 SHEET 1","recid":"wy687kh4457","websiteUrl":"https://purl.stanford.edu/wy687kh4457","title":"蒙古百万分一圖","ckey":9690663,"web_map":"","available":"true","iiiUrl":"https://purl.stanford.edu/wy687kh4457/iiif/manifest"},"geometry":{"bbox":[114.00000000000001,48.00000000000001,119.99999999999999,52],"type":"Polygon","coordinates":[[[114.00000000000001,48.00000000000001],[114.00000000000001,52],[119.99999999999999,52],[119.99999999999999,48.00000000000001],[114.00000000000001,48.00000000000001]]]}}],"name":"index_9690663"}
