{"type":"FeatureCollection","features":[{"type":"Feature","properties":{"Id":0,"Sheet_ID":"P. Pantar of Pandai","label":"P. Pantar of Pandai","call_short":"G8072 .P3 1942 .J3","call_num":"G8072 .P3 1942 .J3","recid":"vs896bc0895","websiteUrl":"https://purl.stanford.edu/vs896bc0895","title":"二十万分一圖 パンタル島","ckey":"10531430","web_map":"","available":"true","iiifUrl":"https://purl.stanford.edu/vs896bc0895/iiif/manifest"},"geometry":{"bbox":[123.80000000000001,-8.666667,124.466667,-8],"type":"Polygon","coordinates":[[[123.80000000000001,-8.666667],[123.80000000000001,-8],[124.466667,-8],[124.466667,-8.666667],[123.80000000000001,-8.666667]]]}}],"name":"index_10531430"}
