{"type":"FeatureCollection","features":[{"type":"Feature","properties":{"Id":0,"Sheet_ID":"[S.] 承徳","label":"[S.] 承徳","call_short":"G7823 .I5 1945 .J3","call_num":"G7823 .I5 1945 .J3 SHEET S","recid":"nw467nb5539","websiteUrl":"https://purl.stanford.edu/nw467nb5539","title":"百万分一地勢圖","ckey":12376415,"web_map":"","available":"true","iiiUrl":"https://purl.stanford.edu/nw467nb5539/iiif/manifest"},"geometry":{"bbox":[110,40,119.99999999999999,46.66666666666667],"type":"Polygon","coordinates":[[[110,40],[110,46.66666666666667],[119.99999999999999,46.66666666666667],[119.99999999999999,40],[110,40]]]}},{"type":"Feature","properties":{"Id":0,"Sheet_ID":"[H.] 海拉爾","label":"[H.] 海拉爾","call_short":"G7823 .I5 1945 .J3","call_num":"G7823 .I5 1945 .J3 SHEET H","recid":"zx650ch0029","websiteUrl":"https://purl.stanford.edu/zx650ch0029","title":"百万分一地勢圖","ckey":12376415,"web_map":"","available":"true","iiiUrl":"https://purl.stanford.edu/zx650ch0029/iiif/manifest"},"geometry":{"bbox":[110,46.66666666666667,119.99999999999999,53.33333333333334],"type":"Polygon","coordinates":[[[110,46.66666666666667],[110,53.33333333333334],[119.99999999999999,53.33333333333334],[119.99999999999999,46.66666666666667],[110,46.66666666666667]]]}},{"type":"Feature","properties":{"Id":0,"Sheet_ID":"新京","label":"新京","call_short":"","call_num":"","recid":"","websiteUrl":"","title":"","ckey":0,"web_map":"","available":"false","iiiUrl":""},"geometry":{"bbox":[119.99999999999999,46.66666666666667,130,53.33333333333334],"type":"Polygon","coordinates":[[[119.99999999999999,46.66666666666667],[119.99999999999999,53.33333333333334],[130,53.33333333333334],[130,46.66666666666667],[119.99999999999999,46.66666666666667]]]}},{"type":"Feature","properties":{"Id":0,"Sheet_ID":"齊齊哈爾","label":"齊齊哈爾","call_short":"","call_num":"","recid":"","websiteUrl":"","title":"","ckey":0,"web_map":"","available":"false","iiiUrl":""},"geometry":{"bbox":[119.99999999999999,53.333333333333336,130,59.99999999999999],"type":"Polygon","coordinates":[[[119.99999999999999,53.333333333333336],[119.99999999999999,59.99999999999999],[130,59.99999999999999],[130,53.333333333333336],[119.99999999999999,53.333333333333336]]]}}],"name":"index_12376415"}
