{
"type": "FeatureCollection",
"name": "index_map",
"xy_coordinate_resolution": 1e-07,
"features": [
{ "type": "Feature", "properties": { "Id": 0, "Sheet_ID": "第5號. ウリヤ村", "label": "第5號. ウリヤ村", "call_short": "G9237 .O4 S50 .J3", "call_num": "G9237 .O4 S50 .J3 SHEET 5", "recid": "ct047nb2992", "websiteUrl": "https://purl.stanford.edu/ct047nb2992", "title": "オホーツク附近", "ckey": 11392324, "available": true, "iiifUrl": "https://purl.stanford.edu/ct047nb2992/iiif/manifest" }, "geometry": { "type": "Polygon", "coordinates": [ [ [ 141.7597616, 58.68705 ], [ 142.2772625, 59.08036 ], [ 142.146159, 59.2528606 ], [ 141.628658, 58.8595506 ], [ 141.7597616, 58.68705 ] ] ] } }
]
}
