{
"type": "FeatureCollection",
"name": "index_map",
"xy_coordinate_resolution": 1e-07,
"features": [
{ "type": "Feature", "properties": { "Id": 0, "Sheet_ID": "壹五ワ137.", "label": "壹五ワ137.", "call_short": "G7895 S100 .J385", "call_num": "G7895 S100 .J385 15WA137", "recid": "jk913jd4189", "websiteUrl": "https://purl.stanford.edu/jk913jd4189", "title": "蒙古十万分一圖", "ckey": "12131649", "available": true, "iiifUrl": "https://purl.stanford.edu/jk913jd4189/iiif/manifest" }, "geometry": { "type": "Polygon", "coordinates": [ [ [ 108.0, 41.0 ], [ 108.5, 41.0 ], [ 108.5, 41.3333333 ], [ 108.0, 41.3333333 ], [ 108.0, 41.0 ] ] ] } },
{ "type": "Feature", "properties": { "Id": 0, "Sheet_ID": "壹五ワ127. 烏鎮", "label": "壹五ワ127. 烏鎮", "call_short": "G7895 S100 .J385", "call_num": "G7895 S100 .J385 15WA127", "recid": "hq851sy4103", "websiteUrl": "https://purl.stanford.edu/hq851sy4103", "title": "蒙古十万分一圖", "ckey": "12131649", "available": true, "iiifUrl": "https://purl.stanford.edu/hq851sy4103/iiif/manifest" }, "geometry": { "type": "Polygon", "coordinates": [ [ [ 108.5, 41.0 ], [ 109.0, 41.0 ], [ 109.0, 41.3333333 ], [ 108.5, 41.3333333 ], [ 108.5, 41.0 ] ] ] } },
{ "type": "Feature", "properties": { "Id": 0, "Sheet_ID": "壹五ワ146.", "label": "壹五ワ146.", "call_short": "G7895 S100 .J385", "call_num": "G7895 S100 .J385 15WA146", "recid": "td515xw1672", "websiteUrl": "https://purl.stanford.edu/td515xw1672", "title": "蒙古十万分一圖", "ckey": "12131649", "available": true, "iiifUrl": "https://purl.stanford.edu/td515xw1672/iiif/manifest" }, "geometry": { "type": "Polygon", "coordinates": [ [ [ 107.5, 41.3333333 ], [ 108.0, 41.3333333 ], [ 108.0, 41.6666666 ], [ 107.5, 41.6666666 ], [ 107.5, 41.3333333 ] ] ] } },
{ "type": "Feature", "properties": { "Id": 0, "Sheet_ID": "壹五ワ136.", "label": "壹五ワ136.", "call_short": "G7895 S100 .J385", "call_num": "G7895 S100 .J385 15WA136", "recid": "ft938np5563", "websiteUrl": "https://purl.stanford.edu/ft938np5563", "title": "蒙古十万分一圖", "ckey": "12131649", "available": true, "iiifUrl": "https://purl.stanford.edu/ft938np5563/iiif/manifest" }, "geometry": { "type": "Polygon", "coordinates": [ [ [ 108.0, 41.3333333 ], [ 108.5, 41.3333333 ], [ 108.5, 41.6666666 ], [ 108.0, 41.6666666 ], [ 108.0, 41.3333333 ] ] ] } },
{ "type": "Feature", "properties": { "Id": 0, "Sheet_ID": "壹五ワ126. 海流圖", "label": "壹五ワ126. 海流圖", "call_short": "G7895 S100 .J385", "call_num": "G7895 S100 .J385 15WA126", "recid": "zh805kd4995", "websiteUrl": "https://purl.stanford.edu/zh805kd4995", "title": "蒙古十万分一圖", "ckey": "12131649", "available": true, "iiifUrl": "https://purl.stanford.edu/zh805kd4995/iiif/manifest" }, "geometry": { "type": "Polygon", "coordinates": [ [ [ 108.5, 41.3333333 ], [ 109.0, 41.3333333 ], [ 109.0, 41.6666666 ], [ 108.5, 41.6666666 ], [ 108.5, 41.3333333 ] ] ] } },
{ "type": "Feature", "properties": { "Id": 0, "Sheet_ID": "壹五ワ145.", "label": "壹五ワ145.", "call_short": "G7895 S100 .J385", "call_num": "G7895 S100 .J385 15WA145", "recid": "bv806ft5865", "websiteUrl": "https://purl.stanford.edu/bv806ft5865", "title": "蒙古十万分一圖", "ckey": "12131649", "available": true, "iiifUrl": "https://purl.stanford.edu/bv806ft5865/iiif/manifest" }, "geometry": { "type": "Polygon", "coordinates": [ [ [ 107.5, 41.6666666 ], [ 108.0, 41.6666666 ], [ 108.0, 41.9999999 ], [ 107.5, 41.9999999 ], [ 107.5, 41.6666666 ] ] ] } },
{ "type": "Feature", "properties": { "Id": 0, "Sheet_ID": "壹五ワ135.", "label": "壹五ワ135.", "call_short": "G7895 S100 .J385", "call_num": "G7895 S100 .J385 15WA135", "recid": "jt664tv9634", "websiteUrl": "https://purl.stanford.edu/jt664tv9634", "title": "蒙古十万分一圖", "ckey": "12131649", "available": true, "iiifUrl": "https://purl.stanford.edu/jt664tv9634/iiif/manifest" }, "geometry": { "type": "Polygon", "coordinates": [ [ [ 108.0, 41.6666666 ], [ 108.5, 41.6666666 ], [ 108.5, 41.9999999 ], [ 108.0, 41.9999999 ], [ 108.0, 41.6666666 ] ] ] } },
{ "type": "Feature", "properties": { "Id": 0, "Sheet_ID": "壹四ワ175. ハットンゴルスーム", "label": "壹四ワ175. ハットンゴルスーム", "call_short": "G7895 S100 .J385", "call_num": "G7895 S100 .J385 14WA175", "recid": "tr067jc4747", "websiteUrl": "https://purl.stanford.edu/tr067jc4747", "title": "蒙古十万分一圖", "ckey": "12131649", "available": true, "iiifUrl": "https://purl.stanford.edu/tr067jc4747/iiif/manifest" }, "geometry": { "type": "Polygon", "coordinates": [ [ [ 111.0, 41.6666666 ], [ 111.5, 41.6666666 ], [ 111.5, 41.9999999 ], [ 111.0, 41.9999999 ], [ 111.0, 41.6666666 ] ] ] } },
{ "type": "Feature", "properties": { "Id": 0, "Sheet_ID": "壹四ワ135. 土牧爾臺", "label": "壹四ワ135. 土牧爾臺", "call_short": "G7895 S100 .J385", "call_num": "G7895 S100 .J385 14WA135", "recid": "ks063yx6939", "websiteUrl": "https://purl.stanford.edu/ks063yx6939", "title": "蒙古十万分一圖", "ckey": "12131649", "available": true, "iiifUrl": "https://purl.stanford.edu/ks063yx6939/iiif/manifest" }, "geometry": { "type": "Polygon", "coordinates": [ [ [ 113.0, 41.6666666 ], [ 113.5, 41.6666666 ], [ 113.5, 41.9999999 ], [ 113.0, 41.9999999 ], [ 113.0, 41.6666666 ] ] ] } },
{ "type": "Feature", "properties": { "Id": 0, "Sheet_ID": "壹五ワ144.", "label": "壹五ワ144.", "call_short": "G7895 S100 .J385", "call_num": "G7895 S100 .J385 15WA144", "recid": "dc262zq7587", "websiteUrl": "https://purl.stanford.edu/dc262zq7587", "title": "蒙古十万分一圖", "ckey": "12131649", "available": true, "iiifUrl": "https://purl.stanford.edu/dc262zq7587/iiif/manifest" }, "geometry": { "type": "Polygon", "coordinates": [ [ [ 107.5, 41.9999999 ], [ 108.0, 41.9999999 ], [ 108.0, 42.3333331 ], [ 107.5, 42.3333331 ], [ 107.5, 41.9999999 ] ] ] } },
{ "type": "Feature", "properties": { "Id": 0, "Sheet_ID": "壹五ワ134.", "label": "壹五ワ134.", "call_short": "G7895 S100 .J385", "call_num": "G7895 S100 .J385 15WA134", "recid": "rq582kg2412", "websiteUrl": "https://purl.stanford.edu/rq582kg2412", "title": "蒙古十万分一圖", "ckey": "12131649", "available": true, "iiifUrl": "https://purl.stanford.edu/rq582kg2412/iiif/manifest" }, "geometry": { "type": "Polygon", "coordinates": [ [ [ 108.0, 41.9999999 ], [ 108.5, 41.9999999 ], [ 108.5, 42.3333331 ], [ 108.0, 42.3333331 ], [ 108.0, 41.9999999 ] ] ] } },
{ "type": "Feature", "properties": { "Id": 0, "Sheet_ID": "壹四ワ154. ボンボタイ", "label": "壹四ワ154. ボンボタイ", "call_short": "G7895 S100 .J385", "call_num": "G7895 S100 .J385 14WA154", "recid": "sf826vs5773", "websiteUrl": "https://purl.stanford.edu/sf826vs5773", "title": "蒙古十万分一圖", "ckey": "12131649", "available": true, "iiifUrl": "https://purl.stanford.edu/sf826vs5773/iiif/manifest" }, "geometry": { "type": "Polygon", "coordinates": [ [ [ 112.0, 41.9999999 ], [ 112.5, 41.9999999 ], [ 112.5, 42.3333331 ], [ 112.0, 42.3333331 ], [ 112.0, 41.9999999 ] ] ] } },
{ "type": "Feature", "properties": { "Id": 0, "Sheet_ID": "壹四ワ144. ガブチルスーム", "label": "壹四ワ144. ガブチルスーム", "call_short": "G7895 S100 .J385", "call_num": "G7895 S100 .J385 14WA144", "recid": "wz677qz7733", "websiteUrl": "https://purl.stanford.edu/wz677qz7733", "title": "蒙古十万分一圖", "ckey": "12131649", "available": true, "iiifUrl": "https://purl.stanford.edu/wz677qz7733/iiif/manifest" }, "geometry": { "type": "Polygon", "coordinates": [ [ [ 112.5, 41.9999999 ], [ 113.0, 41.9999999 ], [ 113.0, 42.3333331 ], [ 112.5, 42.3333331 ], [ 112.5, 41.9999999 ] ] ] } },
{ "type": "Feature", "properties": { "Id": 0, "Sheet_ID": "壹四ワ134. ドイシングスーム", "label": "壹四ワ134. ドイシングスーム", "call_short": "G7895 S100 .J385", "call_num": "G7895 S100 .J385 14WA134", "recid": "nw031dq3650", "websiteUrl": "https://purl.stanford.edu/nw031dq3650", "title": "蒙古十万分一圖", "ckey": "12131649", "available": true, "iiifUrl": "https://purl.stanford.edu/nw031dq3650/iiif/manifest" }, "geometry": { "type": "Polygon", "coordinates": [ [ [ 113.0, 41.9999999 ], [ 113.5, 41.9999999 ], [ 113.5, 42.3333331 ], [ 113.0, 42.3333331 ], [ 113.0, 41.9999999 ] ] ] } },
{ "type": "Feature", "properties": { "Id": 0, "Sheet_ID": "壹四ワ173. バランソーゲンスーム", "label": "壹四ワ173. バランソーゲンスーム", "call_short": "G7895 S100 .J385", "call_num": "G7895 S100 .J385 14WA173", "recid": "vh661vb8050", "websiteUrl": "https://purl.stanford.edu/vh661vb8050", "title": "蒙古十万分一圖", "ckey": "12131649", "available": true, "iiifUrl": "https://purl.stanford.edu/vh661vb8050/iiif/manifest" }, "geometry": { "type": "Polygon", "coordinates": [ [ [ 111.0, 42.3333331 ], [ 111.5, 42.3333331 ], [ 111.5, 42.6666664 ], [ 111.0, 42.6666664 ], [ 111.0, 42.3333331 ] ] ] } },
{ "type": "Feature", "properties": { "Id": 0, "Sheet_ID": "壹四ワ163. ホルステンスーム", "label": "壹四ワ163. ホルステンスーム", "call_short": "G7895 S100 .J385", "call_num": "G7895 S100 .J385 14WA163", "recid": "fn691kj5953", "websiteUrl": "https://purl.stanford.edu/fn691kj5953", "title": "蒙古十万分一圖", "ckey": "12131649", "available": true, "iiifUrl": "https://purl.stanford.edu/fn691kj5953/iiif/manifest" }, "geometry": { "type": "Polygon", "coordinates": [ [ [ 111.5, 42.3333331 ], [ 112.0, 42.3333331 ], [ 112.0, 42.6666664 ], [ 111.5, 42.6666664 ], [ 111.5, 42.3333331 ] ] ] } },
{ "type": "Feature", "properties": { "Id": 0, "Sheet_ID": "壹四ワ153. オルトゴルスーム", "label": "壹四ワ153. オルトゴルスーム", "call_short": "G7895 S100 .J385", "call_num": "G7895 S100 .J385 14WA153", "recid": "jm418bd1341", "websiteUrl": "https://purl.stanford.edu/jm418bd1341", "title": "蒙古十万分一圖", "ckey": "12131649", "available": true, "iiifUrl": "https://purl.stanford.edu/jm418bd1341/iiif/manifest" }, "geometry": { "type": "Polygon", "coordinates": [ [ [ 112.0, 42.3333331 ], [ 112.5, 42.3333331 ], [ 112.5, 42.6666664 ], [ 112.0, 42.6666664 ], [ 112.0, 42.3333331 ] ] ] } },
{ "type": "Feature", "properties": { "Id": 0, "Sheet_ID": "壹四ワ143. 西蘇尼特", "label": "壹四ワ143. 西蘇尼特", "call_short": "G7895 S100 .J385", "call_num": "G7895 S100 .J385 14WA143", "recid": "ts184zk7951", "websiteUrl": "https://purl.stanford.edu/ts184zk7951", "title": "蒙古十万分一圖", "ckey": "12131649", "available": true, "iiifUrl": "https://purl.stanford.edu/ts184zk7951/iiif/manifest" }, "geometry": { "type": "Polygon", "coordinates": [ [ [ 112.5, 42.3333331 ], [ 113.0, 42.3333331 ], [ 113.0, 42.6666664 ], [ 112.5, 42.6666664 ], [ 112.5, 42.3333331 ] ] ] } },
{ "type": "Feature", "properties": { "Id": 0, "Sheet_ID": "壹四ワ133. ホログスーム", "label": "壹四ワ133. ホログスーム", "call_short": "G7895 S100 .J385", "call_num": "G7895 S100 .J385 14WA133", "recid": "xp275fq4471", "websiteUrl": "https://purl.stanford.edu/xp275fq4471", "title": "蒙古十万分一圖", "ckey": "12131649", "available": true, "iiifUrl": "https://purl.stanford.edu/xp275fq4471/iiif/manifest" }, "geometry": { "type": "Polygon", "coordinates": [ [ [ 113.0, 42.3333331 ], [ 113.5, 42.3333331 ], [ 113.5, 42.6666664 ], [ 113.0, 42.6666664 ], [ 113.0, 42.3333331 ] ] ] } },
{ "type": "Feature", "properties": { "Id": 0, "Sheet_ID": "壹四ワ162. トムギンスーム", "label": "壹四ワ162. トムギンスーム", "call_short": "G7895 S100 .J385", "call_num": "G7895 S100 .J385 14WA162", "recid": "df739ng9968", "websiteUrl": "https://purl.stanford.edu/df739ng9968", "title": "蒙古十万分一圖", "ckey": "12131649", "available": true, "iiifUrl": "https://purl.stanford.edu/df739ng9968/iiif/manifest" }, "geometry": { "type": "Polygon", "coordinates": [ [ [ 111.5, 42.6666664 ], [ 112.0, 42.6666664 ], [ 112.0, 42.9999997 ], [ 111.5, 42.9999997 ], [ 111.5, 42.6666664 ] ] ] } },
{ "type": "Feature", "properties": { "Id": 0, "Sheet_ID": "壹四ワ122. トゴートスーム", "label": "壹四ワ122. トゴートスーム", "call_short": "G7895 S100 .J385", "call_num": "G7895 S100 .J385 14WA122", "recid": "tv503nh6287", "websiteUrl": "https://purl.stanford.edu/tv503nh6287", "title": "蒙古十万分一圖", "ckey": "12131649", "available": true, "iiifUrl": "https://purl.stanford.edu/tv503nh6287/iiif/manifest" }, "geometry": { "type": "Polygon", "coordinates": [ [ [ 113.5, 42.6666664 ], [ 114.0, 42.6666664 ], [ 114.0, 42.9999997 ], [ 113.5, 42.9999997 ], [ 113.5, 42.6666664 ] ] ] } },
{ "type": "Feature", "properties": { "Id": 0, "Sheet_ID": "壹四ワ112. チョロートスーム", "label": "壹四ワ112. チョロートスーム", "call_short": "G7895 S100 .J385", "call_num": "G7895 S100 .J385 14WA112", "recid": "qd415tx8609", "websiteUrl": "https://purl.stanford.edu/qd415tx8609", "title": "蒙古十万分一圖", "ckey": "12131649", "available": true, "iiifUrl": "https://purl.stanford.edu/qd415tx8609/iiif/manifest" }, "geometry": { "type": "Polygon", "coordinates": [ [ [ 114.0, 42.6666664 ], [ 114.5, 42.6666664 ], [ 114.5, 42.9999997 ], [ 114.0, 42.9999997 ], [ 114.0, 42.6666664 ] ] ] } },
{ "type": "Feature", "properties": { "Id": 0, "Sheet_ID": "壹四ワ102. ウランチャビンスーム", "label": "壹四ワ102. ウランチャビンスーム", "call_short": "G7895 S100 .J385", "call_num": "G7895 S100 .J385 14WA102", "recid": "qx310ht9431", "websiteUrl": "https://purl.stanford.edu/qx310ht9431", "title": "蒙古十万分一圖", "ckey": "12131649", "available": true, "iiifUrl": "https://purl.stanford.edu/qx310ht9431/iiif/manifest" }, "geometry": { "type": "Polygon", "coordinates": [ [ [ 114.5, 42.6666664 ], [ 115.0, 42.6666664 ], [ 115.0, 42.9999997 ], [ 114.5, 42.9999997 ], [ 114.5, 42.6666664 ] ] ] } },
{ "type": "Feature", "properties": { "Id": 0, "Sheet_ID": "壹三ワ172. シーペースーム", "label": "壹三ワ172. シーペースーム", "call_short": "G7895 S100 .J385", "call_num": "G7895 S100 .J385 13WA172", "recid": "dn419qr2926", "websiteUrl": "https://purl.stanford.edu/dn419qr2926", "title": "蒙古十万分一圖", "ckey": "12131649", "available": true, "iiifUrl": "https://purl.stanford.edu/dn419qr2926/iiif/manifest" }, "geometry": { "type": "Polygon", "coordinates": [ [ [ 116.0, 42.6666664 ], [ 116.5, 42.6666664 ], [ 116.5, 42.9999997 ], [ 116.0, 42.9999997 ], [ 116.0, 42.6666664 ] ] ] } },
{ "type": "Feature", "properties": { "Id": 0, "Sheet_ID": "壹四ワ161. エリスンチョルヂンスーム", "label": "壹四ワ161. エリスンチョルヂンスーム", "call_short": "G7895 S100 .J385", "call_num": "G7895 S100 .J385 14WA161", "recid": "bd334qt1139", "websiteUrl": "https://purl.stanford.edu/bd334qt1139", "title": "蒙古十万分一圖", "ckey": "12131649", "available": true, "iiifUrl": "https://purl.stanford.edu/bd334qt1139/iiif/manifest" }, "geometry": { "type": "Polygon", "coordinates": [ [ [ 111.5, 42.9999997 ], [ 112.0, 42.9999997 ], [ 112.0, 43.333333 ], [ 111.5, 43.333333 ], [ 111.5, 42.9999997 ] ] ] } },
{ "type": "Feature", "properties": { "Id": 0, "Sheet_ID": "壹四ワ121. ガンヂュルスーム", "label": "壹四ワ121. ガンヂュルスーム", "call_short": "G7895 S100 .J385", "call_num": "G7895 S100 .J385 14WA121", "recid": "hz045gk3014", "websiteUrl": "https://purl.stanford.edu/hz045gk3014", "title": "蒙古十万分一圖", "ckey": "12131649", "available": true, "iiifUrl": "https://purl.stanford.edu/hz045gk3014/iiif/manifest" }, "geometry": { "type": "Polygon", "coordinates": [ [ [ 113.5, 42.9999997 ], [ 114.0, 42.9999997 ], [ 114.0, 43.333333 ], [ 113.5, 43.333333 ], [ 113.5, 42.9999997 ] ] ] } },
{ "type": "Feature", "properties": { "Id": 0, "Sheet_ID": "壹四ワ111. ウラガンノール", "label": "壹四ワ111. ウラガンノール", "call_short": "G7895 S100 .J385", "call_num": "G7895 S100 .J385 14WA111", "recid": "gn905kb9590", "websiteUrl": "https://purl.stanford.edu/gn905kb9590", "title": "蒙古十万分一圖", "ckey": "12131649", "available": true, "iiifUrl": "https://purl.stanford.edu/gn905kb9590/iiif/manifest" }, "geometry": { "type": "Polygon", "coordinates": [ [ [ 114.0, 42.9999997 ], [ 114.5, 42.9999997 ], [ 114.5, 43.333333 ], [ 114.0, 43.333333 ], [ 114.0, 42.9999997 ] ] ] } },
{ "type": "Feature", "properties": { "Id": 0, "Sheet_ID": "壹三ワ171. セクスタイ", "label": "壹三ワ171. セクスタイ", "call_short": "G7895 S100 .J385", "call_num": "G7895 S100 .J385 13WA171", "recid": "qg979ps0388", "websiteUrl": "https://purl.stanford.edu/qg979ps0388", "title": "蒙古十万分一圖", "ckey": "12131649", "available": true, "iiifUrl": "https://purl.stanford.edu/qg979ps0388/iiif/manifest" }, "geometry": { "type": "Polygon", "coordinates": [ [ [ 116.0, 42.9999997 ], [ 116.5, 42.9999997 ], [ 116.5, 43.333333 ], [ 116.0, 43.333333 ], [ 116.0, 42.9999997 ] ] ] } }
]
}
