{"type":"FeatureCollection","features":[{"type":"Feature","properties":{"Id":0,"Sheet_ID":"1. ニアス島 1","label":"1. ニアス島 1","call_short":"G8082 .M4 S100 .J3","call_num":"G8082 .M4 S100 .J3 SHEET 1","recid":"yh884sj8446","websiteUrl":"https://purl.stanford.edu/yh884sj8446","title":"十万分一メンタウェイ諸島陸海編合圖","ckey":10648665,"web_map":"","available":"true","iiifUrl":"https://purl.stanford.edu/yh884sj8446/iiif/manifest"},"geometry":{"bbox":[97.05,0.9583330000000001,97.966667,1.6],"type":"Polygon","coordinates":[[[97.05,0.9583330000000001],[97.05,1.6],[97.966667,1.6],[97.966667,0.9583330000000001],[97.05,0.9583330000000001]]]}},{"type":"Feature","properties":{"Id":0,"Sheet_ID":"シメウルエ島","label":"シメウルエ島","call_short":"","call_num":"","recid":"","websiteUrl":"","title":"","ckey":0,"web_map":"","available":"false","iiifUrl":""},"geometry":{"bbox":[95.6,2.25,96.6,3.0000000000000004],"type":"Polygon","coordinates":[[[95.6,2.25],[95.6,3.0000000000000004],[96.6,3.0000000000000004],[96.6,2.25],[95.6,2.25]]]}},{"type":"Feature","properties":{"Id":0,"Sheet_ID":"2. ニアス島 2","label":"2. ニアス島 2","call_short":"G8082 .M4 S100 .J3","call_num":"G8082 .M4 S100 .J3 SHEET 2","recid":"wb399xk3668","websiteUrl":"https://purl.stanford.edu/wb399xk3668","title":"十万分一メンタウェイ諸島陸海編合圖","ckey":10648665,"web_map":"","available":"true","iiifUrl":"https://purl.stanford.edu/wb399xk3668/iiif/manifest"},"geometry":{"bbox":[97.233333,0.466667,97.966667,0.9583330000000001],"type":"Polygon","coordinates":[[[97.233333,0.466667],[97.233333,0.9583330000000001],[97.966667,0.9583330000000001],[97.966667,0.466667],[97.233333,0.466667]]]}},{"type":"Feature","properties":{"Id":0,"Sheet_ID":"3. バツ諸島","label":"3. バツ諸島","call_short":"G8082 .M4 S100 .J3","call_num":"G8082 .M4 S100 .J3 SHEET 3","recid":"px961xy3598","websiteUrl":"https://purl.stanford.edu/px961xy3598","title":"十万分一メンタウェイ諸島陸海編合圖","ckey":10648665,"web_map":"","available":"true","iiifUrl":"https://purl.stanford.edu/px961xy3598/iiif/manifest"},"geometry":{"bbox":[97.75,-0.666667,98.85,0.23333299999999993],"type":"Polygon","coordinates":[[[97.75,-0.666667],[97.75,0.23333299999999993],[98.85,0.23333299999999993],[98.85,-0.666667],[97.75,-0.666667]]]}},{"type":"Feature","properties":{"Id":0,"Sheet_ID":"エンガノ島","label":"エンガノ島","call_short":"","call_num":"","recid":"","websiteUrl":"","title":"","ckey":0,"web_map":"","available":"false","iiifUrl":""},"geometry":{"bbox":[102,-5.566667,102.5,-5.233333],"type":"Polygon","coordinates":[[[102,-5.566667],[102,-5.233333],[102.5,-5.233333],[102.5,-5.566667],[102,-5.566667]]]}}],"name":"index_10648665"}
