{
"type": "FeatureCollection",
"name": "index_map",
"xy_coordinate_resolution": 1e-07,
"features": [
{ "type": "Feature", "properties": { "Id": 0, "Sheet_ID": "惠須取 16號西部. 伊皿山", "label": "惠須取 16號西部. 伊皿山", "call_short": "G7330 S50 .J3", "call_num": "G7330 S50 .J3 SHEET 16W", "recid": "kp597qf4507", "websiteUrl": "https://purl.stanford.edu/kp597qf4507", "title": "五万分一樺太空中寫眞測量要圖", "ckey": 12365452, "available": true, "iiifUrl": "https://purl.stanford.edu/kp597qf4507/iiif/manifest" }, "geometry": { "type": "Polygon", "coordinates": [ [ [ 141.75, 48.666667 ], [ 142.0, 48.666667 ], [ 142.0, 48.8333335 ], [ 141.75, 48.8333335 ], [ 141.75, 48.666667 ] ] ] } },
{ "type": "Feature", "properties": { "Id": 0, "Sheet_ID": "惠須取 16號. 釡伏山", "label": "惠須取 16號. 釡伏山", "call_short": "0", "call_num": "0", "recid": "0", "websiteUrl": "0", "title": "0", "ckey": 0, "available": false, "iiifUrl": "0" }, "geometry": { "type": "Polygon", "coordinates": [ [ [ 142.0, 48.666667 ], [ 142.25, 48.666667 ], [ 142.25, 48.8333335 ], [ 142.0, 48.8333335 ], [ 142.0, 48.666667 ] ] ] } },
{ "type": "Feature", "properties": { "Id": 0, "Sheet_ID": "惠須取 12號. 西知取山", "label": "惠須取 12號. 西知取山", "call_short": "0", "call_num": "0", "recid": "0", "websiteUrl": "0", "title": "0", "ckey": 0, "available": false, "iiifUrl": "0" }, "geometry": { "type": "Polygon", "coordinates": [ [ [ 142.25, 48.666667 ], [ 142.5, 48.666667 ], [ 142.5, 48.8333335 ], [ 142.25, 48.8333335 ], [ 142.25, 48.666667 ] ] ] } },
{ "type": "Feature", "properties": { "Id": 0, "Sheet_ID": "惠須取 8號. 寳澤", "label": "惠須取 8號. 寳澤", "call_short": "G7330 S50 .J3", "call_num": "G7330 S50 .J3 SHEET 8", "recid": "fx218ws8270", "websiteUrl": "https://purl.stanford.edu/fx218ws8270", "title": "五万分一樺太空中寫眞測量要圖", "ckey": 12365452, "available": true, "iiifUrl": "https://purl.stanford.edu/fx218ws8270/iiif/manifest" }, "geometry": { "type": "Polygon", "coordinates": [ [ [ 142.5, 48.666667 ], [ 142.75, 48.666667 ], [ 142.75, 48.8333335 ], [ 142.5, 48.8333335 ], [ 142.5, 48.666667 ] ] ] } },
{ "type": "Feature", "properties": { "Id": 0, "Sheet_ID": "惠須取 4號. 東栅丹", "label": "惠須取 4號. 東栅丹", "call_short": "G7330 S50 .J3", "call_num": "G7330 S50 .J3 SHEET 4", "recid": "jc762dc3028", "websiteUrl": "https://purl.stanford.edu/jc762dc3028", "title": "五万分一樺太空中寫眞測量要圖", "ckey": 12365452, "available": true, "iiifUrl": "https://purl.stanford.edu/jc762dc3028/iiif/manifest" }, "geometry": { "type": "Polygon", "coordinates": [ [ [ 142.75, 48.666667 ], [ 143.0, 48.666667 ], [ 143.0, 48.8333335 ], [ 142.75, 48.8333335 ], [ 142.75, 48.666667 ] ] ] } },
{ "type": "Feature", "properties": { "Id": 0, "Sheet_ID": "惠須取 15號. 鵜城", "label": "惠須取 15號. 鵜城", "call_short": "0", "call_num": "0", "recid": "0", "websiteUrl": "0", "title": "0", "ckey": 0, "available": false, "iiifUrl": "0" }, "geometry": { "type": "Polygon", "coordinates": [ [ [ 142.0, 48.8333335 ], [ 142.25, 48.8333335 ], [ 142.25, 49.0 ], [ 142.0, 49.0 ], [ 142.0, 48.8333335 ] ] ] } },
{ "type": "Feature", "properties": { "Id": 0, "Sheet_ID": "惠須取 11號. 惠須取川", "label": "惠須取 11號. 惠須取川", "call_short": "0", "call_num": "0", "recid": "0", "websiteUrl": "0", "title": "0", "ckey": 0, "available": false, "iiifUrl": "0" }, "geometry": { "type": "Polygon", "coordinates": [ [ [ 142.25, 48.8333335 ], [ 142.5, 48.8333335 ], [ 142.5, 49.0 ], [ 142.25, 49.0 ], [ 142.25, 48.8333335 ] ] ] } },
{ "type": "Feature", "properties": { "Id": 0, "Sheet_ID": "惠須取 7號. 新問山", "label": "惠須取 7號. 新問山", "call_short": "G7330 S50 .J3", "call_num": "G7330 S50 .J3 SHEET 7", "recid": "ns932rc7773", "websiteUrl": "https://purl.stanford.edu/ns932rc7773", "title": "五万分一樺太空中寫眞測量要圖", "ckey": 12365452, "available": true, "iiifUrl": "https://purl.stanford.edu/ns932rc7773/iiif/manifest" }, "geometry": { "type": "Polygon", "coordinates": [ [ [ 142.5, 48.8333335 ], [ 142.75, 48.8333335 ], [ 142.75, 49.0 ], [ 142.5, 49.0 ], [ 142.5, 48.8333335 ] ] ] } },
{ "type": "Feature", "properties": { "Id": 0, "Sheet_ID": "惠須取 3號. 泊岸", "label": "惠須取 3號. 泊岸", "call_short": "0", "call_num": "0", "recid": "0", "websiteUrl": "0", "title": "0", "ckey": 0, "available": false, "iiifUrl": "0" }, "geometry": { "type": "Polygon", "coordinates": [ [ [ 142.75, 48.8333335 ], [ 143.0, 48.8333335 ], [ 143.0, 49.0 ], [ 142.75, 49.0 ], [ 142.75, 48.8333335 ] ] ] } },
{ "type": "Feature", "properties": { "Id": 0, "Sheet_ID": "惠須取 14號. 惠須取", "label": "惠須取 14號. 惠須取", "call_short": "0", "call_num": "0", "recid": "0", "websiteUrl": "0", "title": "0", "ckey": 0, "available": false, "iiifUrl": "0" }, "geometry": { "type": "Polygon", "coordinates": [ [ [ 142.0, 49.0 ], [ 142.25, 49.0 ], [ 142.25, 49.1666665 ], [ 142.0, 49.1666665 ], [ 142.0, 49.0 ] ] ] } },
{ "type": "Feature", "properties": { "Id": 0, "Sheet_ID": "惠須取 10號. 武道山", "label": "惠須取 10號. 武道山", "call_short": "0", "call_num": "0", "recid": "0", "websiteUrl": "0", "title": "0", "ckey": 0, "available": false, "iiifUrl": "0" }, "geometry": { "type": "Polygon", "coordinates": [ [ [ 142.25, 49.0 ], [ 142.5, 49.0 ], [ 142.5, 49.1666665 ], [ 142.25, 49.1666665 ], [ 142.25, 49.0 ] ] ] } },
{ "type": "Feature", "properties": { "Id": 0, "Sheet_ID": "惠須取 6號. 新内分水嶺", "label": "惠須取 6號. 新内分水嶺", "call_short": "0", "call_num": "0", "recid": "0", "websiteUrl": "0", "title": "0", "ckey": 0, "available": false, "iiifUrl": "0" }, "geometry": { "type": "Polygon", "coordinates": [ [ [ 142.5, 49.0 ], [ 142.75, 49.0 ], [ 142.75, 49.1666665 ], [ 142.5, 49.1666665 ], [ 142.5, 49.0 ] ] ] } },
{ "type": "Feature", "properties": { "Id": 0, "Sheet_ID": "惠須取 2號. 内路", "label": "惠須取 2號. 内路", "call_short": "0", "call_num": "0", "recid": "0", "websiteUrl": "0", "title": "0", "ckey": 0, "available": false, "iiifUrl": "0" }, "geometry": { "type": "Polygon", "coordinates": [ [ [ 142.75, 49.0 ], [ 143.0, 49.0 ], [ 143.0, 49.1666665 ], [ 142.75, 49.1666665 ], [ 142.75, 49.0 ] ] ] } },
{ "type": "Feature", "properties": { "Id": 0, "Sheet_ID": "惠須取 13號. 塔路", "label": "惠須取 13號. 塔路", "call_short": "G7330 S50 .J3", "call_num": "G7330 S50 .J3 SHEET 13", "recid": "ys439fw2131", "websiteUrl": "https://purl.stanford.edu/ys439fw2131", "title": "五万分一樺太空中寫眞測量要圖", "ckey": 12365452, "available": true, "iiifUrl": "https://purl.stanford.edu/ys439fw2131/iiif/manifest" }, "geometry": { "type": "Polygon", "coordinates": [ [ [ 142.0, 49.1666665 ], [ 142.25, 49.1666665 ], [ 142.25, 49.333333 ], [ 142.0, 49.333333 ], [ 142.0, 49.1666665 ] ] ] } },
{ "type": "Feature", "properties": { "Id": 0, "Sheet_ID": "惠須取 9號. 湯ノ澤", "label": "惠須取 9號. 湯ノ澤", "call_short": "0", "call_num": "0", "recid": "0", "websiteUrl": "0", "title": "0", "ckey": 0, "available": false, "iiifUrl": "0" }, "geometry": { "type": "Polygon", "coordinates": [ [ [ 142.25, 49.1666665 ], [ 142.5, 49.1666665 ], [ 142.5, 49.333333 ], [ 142.25, 49.333333 ], [ 142.25, 49.1666665 ] ] ] } },
{ "type": "Feature", "properties": { "Id": 0, "Sheet_ID": "惠須取 5號. 植柴山", "label": "惠須取 5號. 植柴山", "call_short": "0", "call_num": "0", "recid": "0", "websiteUrl": "0", "title": "0", "ckey": 0, "available": false, "iiifUrl": "0" }, "geometry": { "type": "Polygon", "coordinates": [ [ [ 142.5, 49.1666665 ], [ 142.75, 49.1666665 ], [ 142.75, 49.333333 ], [ 142.5, 49.333333 ], [ 142.5, 49.1666665 ] ] ] } },
{ "type": "Feature", "properties": { "Id": 0, "Sheet_ID": "惠須取 1號. 内川", "label": "惠須取 1號. 内川", "call_short": "0", "call_num": "0", "recid": "0", "websiteUrl": "0", "title": "0", "ckey": 0, "available": false, "iiifUrl": "0" }, "geometry": { "type": "Polygon", "coordinates": [ [ [ 142.75, 49.1666665 ], [ 143.0, 49.1666665 ], [ 143.0, 49.333333 ], [ 142.75, 49.333333 ], [ 142.75, 49.1666665 ] ] ] } }
]
}
