{
"type": "FeatureCollection",
"name": "index_map",
"xy_coordinate_resolution": 1e-07,
"features": [
{ "type": "Feature", "properties": { "Id": 0, "Sheet_ID": "1. クムシ河", "label": "1. クムシ河", "call_short": "G8162 .K8 S50 .J3", "call_num": "G8162 .K8 S50 .J3 SHEET 1", "recid": "cb141tn3604", "websiteUrl": "https://purl.stanford.edu/cb141tn3604", "title": "パプア五万分一圖 クムシ河", "ckey": 10550302, "available": true, "iiifUrl": "https://purl.stanford.edu/cb141tn3604/iiif/manifest" }, "geometry": { "type": "Polygon", "coordinates": [ [ [ 148.3078739, -8.4561517 ], [ 148.2675856, -8.4265112 ], [ 148.2560549, -8.4180278 ], [ 148.2273093, -8.3968794 ], [ 148.1985228, -8.3757008 ], [ 148.1870449, -8.3672563 ], [ 148.1467923, -8.337642 ], [ 148.0490077, -8.4704358 ], [ 148.0892895, -8.5000274 ], [ 148.1295832, -8.5296277 ], [ 148.1698889, -8.5592367 ], [ 148.2102065, -8.5888545 ], [ 148.3078739, -8.4561517 ] ] ] } },
{ "type": "Feature", "properties": { "Id": 0, "Sheet_ID": "2. デュー二ア", "label": "2. デュー二ア", "call_short": "G8162 .K8 S50 .J3", "call_num": "G8162 .K8 S50 .J3 SHEET 2", "recid": "gf559yt0364", "websiteUrl": "https://purl.stanford.edu/gf559yt0364", "title": "パプア五万分一圖 クムシ河", "ckey": 10550302, "available": true, "iiifUrl": "https://purl.stanford.edu/gf559yt0364/iiif/manifest" }, "geometry": { "type": "Polygon", "coordinates": [ [ [ 148.089478, -8.5001659 ], [ 148.0491888, -8.4705689 ], [ 148.0089004, -8.4409726 ], [ 147.9686127, -8.4113767 ], [ 147.844102, -8.580405 ], [ 147.8843926, -8.6100187 ], [ 147.924684, -8.6396329 ], [ 147.9649762, -8.6692478 ], [ 148.089478, -8.5001659 ] ] ] } },
{ "type": "Feature", "properties": { "Id": 0, "Sheet_ID": "3. マロー", "label": "3. マロー", "call_short": "G8162 .K8 S50 .J3", "call_num": "G8162 .K8 S50 .J3 SHEET 3", "recid": "rj032zc9738", "websiteUrl": "https://purl.stanford.edu/rj032zc9738", "title": "パプア五万分一圖 クムシ河", "ckey": 10550302, "available": true, "iiifUrl": "https://purl.stanford.edu/rj032zc9738/iiif/manifest" }, "geometry": { "type": "Polygon", "coordinates": [ [ [ 148.0456073, -8.7285118 ], [ 148.0053241, -8.6989035 ], [ 147.9650417, -8.6692959 ], [ 147.9247601, -8.6396889 ], [ 147.8002478, -8.8087754 ], [ 147.8405324, -8.8384006 ], [ 147.8808179, -8.8680265 ], [ 147.9211043, -8.897653 ], [ 148.0456073, -8.7285118 ] ] ] } },
{ "type": "Feature", "properties": { "Id": 0, "Sheet_ID": "4. ココダ", "label": "4. ココダ", "call_short": "G8162 .K8 S50 .J3", "call_num": "G8162 .K8 S50 .J3 SHEET 4", "recid": "xp027sr2589", "websiteUrl": "https://purl.stanford.edu/xp027sr2589", "title": "パプア五万分一圖 クムシ河", "ckey": 10550302, "available": true, "iiifUrl": "https://purl.stanford.edu/xp027sr2589/iiif/manifest" }, "geometry": { "type": "Polygon", "coordinates": [ [ [ 147.8808661, -8.8680619 ], [ 147.8405902, -8.8384431 ], [ 147.8003153, -8.808825 ], [ 147.7600411, -8.7792074 ], [ 147.7197678, -8.7495905 ], [ 147.6218424, -8.8825398 ], [ 147.6621181, -8.9121712 ], [ 147.7023947, -8.9418032 ], [ 147.7426722, -8.9714358 ], [ 147.7829505, -9.0010691 ], [ 147.8808661, -8.8680619 ] ] ] } }
]
}
