{
"type": "FeatureCollection",
"name": "index_map",
"xy_coordinate_resolution": 1e-07,
"features": [
{ "type": "Feature", "properties": { "Id": 0, "Sheet_ID": "[1.] 會寧", "label": "[1.] 會寧", "call_short": "G7901 .A1 S10 .J3", "call_num": "G7901 .A1 S10 .J3 SHEET 1", "recid": "nm908sm9293", "websiteUrl": "https://purl.stanford.edu/nm908sm9293", "title": "[朝鮮一万分一圖]", "ckey": 11351837, "available": true, "iiifUrl": "https://purl.stanford.edu/nm908sm9293/iiif/manifest" }, "geometry": { "type": "Polygon", "coordinates": [ [ [ 129.7319448, 42.429167 ], [ 129.7624998, 42.429167 ], [ 129.7624998, 42.470833 ], [ 129.7319448, 42.470833 ], [ 129.7319448, 42.429167 ] ] ] } },
{ "type": "Feature", "properties": { "Id": 0, "Sheet_ID": "[2.] 羅南", "label": "[2.] 羅南", "call_short": "G7901 .A1 S10 .J3", "call_num": "G7901 .A1 S10 .J3 SHEET 2", "recid": "tk931hb3284", "websiteUrl": "https://purl.stanford.edu/tk931hb3284", "title": "[朝鮮一万分一圖]", "ckey": 11351837, "available": true, "iiifUrl": "https://purl.stanford.edu/tk931hb3284/iiif/manifest" }, "geometry": { "type": "Polygon", "coordinates": [ [ [ 129.6625, 41.7 ], [ 129.729167, 41.7 ], [ 129.729167, 41.733333 ], [ 129.6625, 41.733333 ], [ 129.6625, 41.7 ] ] ] } },
{ "type": "Feature", "properties": { "Id": 0, "Sheet_ID": "[3.] 鏡城", "label": "[3.] 鏡城", "call_short": "G7901 .A1 S10 .J3", "call_num": "G7901 .A1 S10 .J3 SHEET 3", "recid": "rq186zb9099", "websiteUrl": "https://purl.stanford.edu/rq186zb9099", "title": "[朝鮮一万分一圖]", "ckey": 11351837, "available": true, "iiifUrl": "https://purl.stanford.edu/rq186zb9099/iiif/manifest" }, "geometry": { "type": "Polygon", "coordinates": [ [ [ 129.708333, 41.683333 ], [ 129.658333, 41.683333 ], [ 129.658333, 41.675 ], [ 129.654167, 41.675 ], [ 129.654167, 41.670833 ], [ 129.658333, 41.670833 ], [ 129.658333, 41.65 ], [ 129.708333, 41.65 ], [ 129.708333, 41.683333 ] ] ] } },
{ "type": "Feature", "properties": { "Id": 0, "Sheet_ID": "[4.] 浦項", "label": "[4.] 浦項", "call_short": "G7901 .A1 S10 .J3", "call_num": "G7901 .A1 S10 .J3 SHEET 4", "recid": "wh983yz5151", "websiteUrl": "https://purl.stanford.edu/wh983yz5151", "title": "[朝鮮一万分一圖]", "ckey": 11351837, "available": true, "iiifUrl": "https://purl.stanford.edu/wh983yz5151/iiif/manifest" }, "geometry": { "type": "Polygon", "coordinates": [ [ [ 129.352778, 36.022222 ], [ 129.394444, 36.022222 ], [ 129.394444, 36.063889 ], [ 129.352778, 36.063889 ], [ 129.352778, 36.022222 ] ] ] } },
{ "type": "Feature", "properties": { "Id": 0, "Sheet_ID": "[5.] 蔚山", "label": "[5.] 蔚山", "call_short": "G7901 .A1 S10 .J3", "call_num": "G7901 .A1 S10 .J3 SHEET 5", "recid": "mc560pn6276", "websiteUrl": "https://purl.stanford.edu/mc560pn6276", "title": "[朝鮮一万分一圖]", "ckey": 11351837, "available": true, "iiifUrl": "https://purl.stanford.edu/mc560pn6276/iiif/manifest" }, "geometry": { "type": "Polygon", "coordinates": [ [ [ 129.304167, 35.544444 ], [ 129.354167, 35.544444 ], [ 129.354167, 35.577778 ], [ 129.304167, 35.577778 ], [ 129.304167, 35.544444 ] ] ] } },
{ "type": "Feature", "properties": { "Id": 0, "Sheet_ID": "[6.] 慶州", "label": "[6.] 慶州", "call_short": "G7901 .A1 S10 .J3", "call_num": "G7901 .A1 S10 .J3 SHEET 6", "recid": "nt894dt5461", "websiteUrl": "https://purl.stanford.edu/nt894dt5461", "title": "[朝鮮一万分一圖]", "ckey": 11351837, "available": true, "iiifUrl": "https://purl.stanford.edu/nt894dt5461/iiif/manifest" }, "geometry": { "type": "Polygon", "coordinates": [ [ [ 129.183333, 35.819444 ], [ 129.236111, 35.819444 ], [ 129.236111, 35.856111 ], [ 129.183333, 35.856111 ], [ 129.183333, 35.819444 ] ] ] } },
{ "type": "Feature", "properties": { "Id": 0, "Sheet_ID": "[7.] 城津", "label": "[7.] 城津", "call_short": "G7901 .A1 S10 .J3", "call_num": "G7901 .A1 S10 .J3 SHEET 7", "recid": "yz407zt5139", "websiteUrl": "https://purl.stanford.edu/yz407zt5139", "title": "[朝鮮一万分一圖]", "ckey": 11351837, "available": true, "iiifUrl": "https://purl.stanford.edu/yz407zt5139/iiif/manifest" }, "geometry": { "type": "Polygon", "coordinates": [ [ [ 129.166667, 40.65 ], [ 129.216667, 40.65 ], [ 129.216667, 40.683333 ], [ 129.166667, 40.683333 ], [ 129.166667, 40.65 ] ] ] } },
{ "type": "Feature", "properties": { "Id": 0, "Sheet_ID": "[8.] 三陟 (假製版)", "label": "[8.] 三陟 (假製版)", "call_short": "G7901 .A1 S10 .J3", "call_num": "G7901 .A1 S10 .J3 SHEET 8", "recid": "dm488zq2825", "websiteUrl": "https://purl.stanford.edu/dm488zq2825", "title": "[朝鮮一万分一圖]", "ckey": 11351837, "available": true, "iiifUrl": "https://purl.stanford.edu/dm488zq2825/iiif/manifest" }, "geometry": { "type": "Polygon", "coordinates": [ [ [ 129.144444, 37.423333 ], [ 129.194444, 37.423333 ], [ 129.194444, 37.456667 ], [ 129.144444, 37.456667 ], [ 129.144444, 37.423333 ] ] ] } },
{ "type": "Feature", "properties": { "Id": 0, "Sheet_ID": "[9.] 江陵 (假製版)", "label": "[9.] 江陵 (假製版)", "call_short": "G7901 .A1 S10 .J3", "call_num": "G7901 .A1 S10 .J3 SHEET 9", "recid": "vp596rn1806", "websiteUrl": "https://purl.stanford.edu/vp596rn1806", "title": "[朝鮮一万分一圖]", "ckey": 11351837, "available": true, "iiifUrl": "https://purl.stanford.edu/vp596rn1806/iiif/manifest" }, "geometry": { "type": "Polygon", "coordinates": [ [ [ 128.877778, 37.736111 ], [ 128.922222, 37.736111 ], [ 128.922222, 37.777778 ], [ 128.877778, 37.777778 ], [ 128.877778, 37.736111 ] ] ] } },
{ "type": "Feature", "properties": { "Id": 0, "Sheet_ID": "[10.] 密陽", "label": "[10.] 密陽", "call_short": "G7901 .A1 S10 .J3", "call_num": "G7901 .A1 S10 .J3 SHEET 10", "recid": "cv484fg4380", "websiteUrl": "https://purl.stanford.edu/cv484fg4380", "title": "[朝鮮一万分一圖]", "ckey": 11351837, "available": true, "iiifUrl": "https://purl.stanford.edu/cv484fg4380/iiif/manifest" }, "geometry": { "type": "Polygon", "coordinates": [ [ [ 128.741667, 35.458333 ], [ 128.783333, 35.458333 ], [ 128.783333, 35.5 ], [ 128.741667, 35.5 ], [ 128.741667, 35.458333 ] ] ] } },
{ "type": "Feature", "properties": { "Id": 0, "Sheet_ID": "[11.] 安東", "label": "[11.] 安東", "call_short": "G7901 .A1 S10 .J3", "call_num": "G7901 .A1 S10 .J3 SHEET 11", "recid": "dt612sy4199", "websiteUrl": "https://purl.stanford.edu/dt612sy4199", "title": "[朝鮮一万分一圖]", "ckey": 11351837, "available": true, "iiifUrl": "https://purl.stanford.edu/dt612sy4199/iiif/manifest" }, "geometry": { "type": "Polygon", "coordinates": [ [ [ 128.7, 36.541667 ], [ 128.75, 36.541667 ], [ 128.75, 36.575 ], [ 128.7, 36.575 ], [ 128.7, 36.541667 ] ] ] } },
{ "type": "Feature", "properties": { "Id": 0, "Sheet_ID": "[12.] 鎮海", "label": "[12.] 鎮海", "call_short": "G7901 .A1 S10 .J3", "call_num": "G7901 .A1 S10 .J3 SHEET 12", "recid": "xv218tp9710", "websiteUrl": "https://purl.stanford.edu/xv218tp9710", "title": "[朝鮮一万分一圖]", "ckey": 11351837, "available": true, "iiifUrl": "https://purl.stanford.edu/xv218tp9710/iiif/manifest" }, "geometry": { "type": "Polygon", "coordinates": [ [ [ 128.627222, 35.133333 ], [ 128.675, 35.133333 ], [ 128.675, 35.166667 ], [ 128.627222, 35.166667 ], [ 128.627222, 35.133333 ] ] ] } },
{ "type": "Feature", "properties": { "Id": 0, "Sheet_ID": "[13.] 大邱", "label": "[13.] 大邱", "call_short": "G7901 .A1 S10 .J3", "call_num": "G7901 .A1 S10 .J3 SHEET 13", "recid": "wm581qn0257", "websiteUrl": "https://purl.stanford.edu/wm581qn0257", "title": "[朝鮮一万分一圖]", "ckey": 11351837, "available": true, "iiifUrl": "https://purl.stanford.edu/wm581qn0257/iiif/manifest" }, "geometry": { "type": "Polygon", "coordinates": [ [ [ 128.565278, 35.8375 ], [ 128.620833, 35.8375 ], [ 128.620833, 35.902778 ], [ 128.565278, 35.902778 ], [ 128.565278, 35.8375 ] ] ] } },
{ "type": "Feature", "properties": { "Id": 0, "Sheet_ID": "[14.] 北青 (假製版)", "label": "[14.] 北青 (假製版)", "call_short": "G7901 .A1 S10 .J3", "call_num": "G7901 .A1 S10 .J3 SHEET 14", "recid": "xx962jd4815", "websiteUrl": "https://purl.stanford.edu/xx962jd4815", "title": "[朝鮮一万分一圖]", "ckey": 11351837, "available": true, "iiifUrl": "https://purl.stanford.edu/xx962jd4815/iiif/manifest" }, "geometry": { "type": "Polygon", "coordinates": [ [ [ 128.291667, 40.219444 ], [ 128.333333, 40.219444 ], [ 128.333333, 40.261111 ], [ 128.291667, 40.261111 ], [ 128.291667, 40.219444 ] ] ] } },
{ "type": "Feature", "properties": { "Id": 0, "Sheet_ID": "[15.] 恵山鎮", "label": "[15.] 恵山鎮", "call_short": "G7901 .A1 S10 .J3", "call_num": "G7901 .A1 S10 .J3 SHEET 15", "recid": "nv270gt5191", "websiteUrl": "https://purl.stanford.edu/nv270gt5191", "title": "[朝鮮一万分一圖]", "ckey": 11351837, "available": true, "iiifUrl": "https://purl.stanford.edu/nv270gt5191/iiif/manifest" }, "geometry": { "type": "Polygon", "coordinates": [ [ [ 128.207778, 41.38 ], [ 128.207778, 41.41 ], [ 128.215, 41.41 ], [ 128.215, 41.422222 ], [ 128.207778, 41.422222 ], [ 128.153611, 41.422222 ], [ 128.153611, 41.38 ], [ 128.207778, 41.38 ] ] ] } },
{ "type": "Feature", "properties": { "Id": 0, "Sheet_ID": "[16.] 金泉", "label": "[16.] 金泉", "call_short": "G7901 .A1 S10 .J3", "call_num": "G7901 .A1 S10 .J3 SHEET 16", "recid": "pq418wd2751", "websiteUrl": "https://purl.stanford.edu/pq418wd2751", "title": "[朝鮮一万分一圖]", "ckey": 11351837, "available": true, "iiifUrl": "https://purl.stanford.edu/pq418wd2751/iiif/manifest" }, "geometry": { "type": "Polygon", "coordinates": [ [ [ 128.088889, 36.105556 ], [ 128.138889, 36.105556 ], [ 128.138889, 36.138889 ], [ 128.088889, 36.138889 ], [ 128.088889, 36.105556 ] ] ] } },
{ "type": "Feature", "properties": { "Id": 0, "Sheet_ID": "[17.] 晋州", "label": "[17.] 晋州", "call_short": "G7901 .A1 S10 .J3", "call_num": "G7901 .A1 S10 .J3 SHEET 17", "recid": "bb539ns1546", "websiteUrl": "https://purl.stanford.edu/bb539ns1546", "title": "[朝鮮一万分一圖]", "ckey": 11351837, "available": true, "iiifUrl": "https://purl.stanford.edu/bb539ns1546/iiif/manifest" }, "geometry": { "type": "Polygon", "coordinates": [ [ [ 128.055556, 35.172222 ], [ 128.105556, 35.172222 ], [ 128.105556, 35.205556 ], [ 128.055556, 35.205556 ], [ 128.055556, 35.172222 ] ] ] } },
{ "type": "Feature", "properties": { "Id": 0, "Sheet_ID": "[18.] 忠州", "label": "[18.] 忠州", "call_short": "G7901 .A1 S10 .J3", "call_num": "G7901 .A1 S10 .J3 SHEET 18", "recid": "zm836fr1063", "websiteUrl": "https://purl.stanford.edu/zm836fr1063", "title": "[朝鮮一万分一圖]", "ckey": 11351837, "available": true, "iiifUrl": "https://purl.stanford.edu/zm836fr1063/iiif/manifest" }, "geometry": { "type": "Polygon", "coordinates": [ [ [ 127.897222, 36.955556 ], [ 127.947222, 36.955556 ], [ 127.947222, 36.988889 ], [ 127.897222, 36.988889 ], [ 127.897222, 36.955556 ] ] ] } },
{ "type": "Feature", "properties": { "Id": 0, "Sheet_ID": "[19.] 春川", "label": "[19.] 春川", "call_short": "G7901 .A1 S10 .J3", "call_num": "G7901 .A1 S10 .J3 SHEET 19", "recid": "fw485fj2745", "websiteUrl": "https://purl.stanford.edu/fw485fj2745", "title": "[朝鮮一万分一圖]", "ckey": 11351837, "available": true, "iiifUrl": "https://purl.stanford.edu/fw485fj2745/iiif/manifest" }, "geometry": { "type": "Polygon", "coordinates": [ [ [ 127.695833, 37.865278 ], [ 127.745833, 37.865278 ], [ 127.745833, 37.898611 ], [ 127.695833, 37.898611 ], [ 127.695833, 37.865278 ] ] ] } },
{ "type": "Feature", "properties": { "Id": 0, "Sheet_ID": "[20.] 興南 (假製版)", "label": "[20.] 興南 (假製版)", "call_short": "G7901 .A1 S10 .J3", "call_num": "G7901 .A1 S10 .J3 SHEET 20", "recid": "dh408br8089", "websiteUrl": "https://purl.stanford.edu/dh408br8089", "title": "[朝鮮一万分一圖]", "ckey": 11351837, "available": true, "iiifUrl": "https://purl.stanford.edu/dh408br8089/iiif/manifest" }, "geometry": { "type": "Polygon", "coordinates": [ [ [ 127.569444, 39.808333 ], [ 127.656944, 39.808333 ], [ 127.656944, 39.848611 ], [ 127.569444, 39.848611 ], [ 127.569444, 39.808333 ] ] ] } },
{ "type": "Feature", "properties": { "Id": 0, "Sheet_ID": "[21.] 咸興", "label": "[21.] 咸興", "call_short": "G7901 .A1 S10 .J3", "call_num": "G7901 .A1 S10 .J3 SHEET 21", "recid": "jt525yh3713", "websiteUrl": "https://purl.stanford.edu/jt525yh3713", "title": "[朝鮮一万分一圖]", "ckey": 11351837, "available": true, "iiifUrl": "https://purl.stanford.edu/jt525yh3713/iiif/manifest" }, "geometry": { "type": "Polygon", "coordinates": [ [ [ 127.508333, 39.886111 ], [ 127.555556, 39.886111 ], [ 127.555556, 39.933333 ], [ 127.508333, 39.933333 ], [ 127.508333, 39.886111 ] ] ] } },
{ "type": "Feature", "properties": { "Id": 0, "Sheet_ID": "[22.] 清州", "label": "[22.] 清州", "call_short": "G7901 .A1 S10 .J3", "call_num": "G7901 .A1 S10 .J3 SHEET 22", "recid": "xr914mg5673", "websiteUrl": "https://purl.stanford.edu/xr914mg5673", "title": "[朝鮮一万分一圖]", "ckey": 11351837, "available": true, "iiifUrl": "https://purl.stanford.edu/xr914mg5673/iiif/manifest" }, "geometry": { "type": "Polygon", "coordinates": [ [ [ 127.463889, 36.605556 ], [ 127.508333, 36.605556 ], [ 127.508333, 36.661111 ], [ 127.463889, 36.661111 ], [ 127.463889, 36.605556 ] ] ] } },
{ "type": "Feature", "properties": { "Id": 0, "Sheet_ID": "[23.] 元山", "label": "[23.] 元山", "call_short": "G7901 .A1 S10 .J3", "call_num": "G7901 .A1 S10 .J3 SHEET 23", "recid": "bj766wf8909", "websiteUrl": "https://purl.stanford.edu/bj766wf8909", "title": "[朝鮮一万分一圖]", "ckey": 11351837, "available": true, "iiifUrl": "https://purl.stanford.edu/bj766wf8909/iiif/manifest" }, "geometry": { "type": "Polygon", "coordinates": [ [ [ 127.415278, 39.145833 ], [ 127.465278, 39.145833 ], [ 127.465278, 39.179167 ], [ 127.415278, 39.179167 ], [ 127.415278, 39.145833 ] ] ] } },
{ "type": "Feature", "properties": { "Id": 0, "Sheet_ID": "[24.] 大田", "label": "[24.] 大田", "call_short": "G7901 .A1 S10 .J3", "call_num": "G7901 .A1 S10 .J3 SHEET 24", "recid": "jq408bp4270", "websiteUrl": "https://purl.stanford.edu/jq408bp4270", "title": "[朝鮮一万分一圖]", "ckey": 11351837, "available": true, "iiifUrl": "https://purl.stanford.edu/jq408bp4270/iiif/manifest" }, "geometry": { "type": "Polygon", "coordinates": [ [ [ 127.397222, 36.304167 ], [ 127.447222, 36.304167 ], [ 127.447222, 36.341667 ], [ 127.397222, 36.341667 ], [ 127.397222, 36.304167 ] ] ] } },
{ "type": "Feature", "properties": { "Id": 0, "Sheet_ID": "[25.] 鳥致院", "label": "[25.] 鳥致院", "call_short": "G7901 .A1 S10 .J3", "call_num": "G7901 .A1 S10 .J3 SHEET 25", "recid": "dk301jn6138", "websiteUrl": "https://purl.stanford.edu/dk301jn6138", "title": "[朝鮮一万分一圖]", "ckey": 11351837, "available": true, "iiifUrl": "https://purl.stanford.edu/dk301jn6138/iiif/manifest" }, "geometry": { "type": "Polygon", "coordinates": [ [ [ 127.283333, 36.577778 ], [ 127.333333, 36.577778 ], [ 127.333333, 36.611111 ], [ 127.283333, 36.611111 ], [ 127.283333, 36.577778 ] ] ] } },
{ "type": "Feature", "properties": { "Id": 0, "Sheet_ID": "[26.] 鐵原", "label": "[26.] 鐵原", "call_short": "G7901 .A1 S10 .J3", "call_num": "G7901 .A1 S10 .J3 SHEET 26", "recid": "dc179yz8316", "websiteUrl": "https://purl.stanford.edu/dc179yz8316", "title": "[朝鮮一万分一圖]", "ckey": 11351837, "available": true, "iiifUrl": "https://purl.stanford.edu/dc179yz8316/iiif/manifest" }, "geometry": { "type": "Polygon", "coordinates": [ [ [ 127.179167, 38.233333 ], [ 127.220833, 38.233333 ], [ 127.220833, 38.275 ], [ 127.179167, 38.275 ], [ 127.179167, 38.233333 ] ] ] } },
{ "type": "Feature", "properties": { "Id": 0, "Sheet_ID": "[27.] 天安 (假製版)", "label": "[27.] 天安 (假製版)", "call_short": "G7901 .A1 S10 .J3", "call_num": "G7901 .A1 S10 .J3 SHEET 27", "recid": "xj940tc4970", "websiteUrl": "https://purl.stanford.edu/xj940tc4970", "title": "[朝鮮一万分一圖]", "ckey": 11351837, "available": true, "iiifUrl": "https://purl.stanford.edu/xj940tc4970/iiif/manifest" }, "geometry": { "type": "Polygon", "coordinates": [ [ [ 127.125, 36.783333 ], [ 127.166667, 36.783333 ], [ 127.166667, 36.825 ], [ 127.125, 36.825 ], [ 127.125, 36.783333 ] ] ] } },
{ "type": "Feature", "properties": { "Id": 0, "Sheet_ID": "[28.] 全州", "label": "[28.] 全州", "call_short": "G7901 .A1 S10 .J3", "call_num": "G7901 .A1 S10 .J3 SHEET 28", "recid": "hs081qf4699", "websiteUrl": "https://purl.stanford.edu/hs081qf4699", "title": "[朝鮮一万分一圖]", "ckey": 11351837, "available": true, "iiifUrl": "https://purl.stanford.edu/hs081qf4699/iiif/manifest" }, "geometry": { "type": "Polygon", "coordinates": [ [ [ 127.125, 35.788889 ], [ 127.166667, 35.788889 ], [ 127.166667, 35.838889 ], [ 127.125, 35.838889 ], [ 127.125, 35.788889 ] ] ] } },
{ "type": "Feature", "properties": { "Id": 0, "Sheet_ID": "[29.] 公州", "label": "[29.] 公州", "call_short": "G7901 .A1 S10 .J3", "call_num": "G7901 .A1 S10 .J3 SHEET 29", "recid": "nd338dd2735", "websiteUrl": "https://purl.stanford.edu/nd338dd2735", "title": "[朝鮮一万分一圖]", "ckey": 11351837, "available": true, "iiifUrl": "https://purl.stanford.edu/nd338dd2735/iiif/manifest" }, "geometry": { "type": "Polygon", "coordinates": [ [ [ 127.094444, 36.440278 ], [ 127.144444, 36.440278 ], [ 127.144444, 36.473611 ], [ 127.094444, 36.473611 ], [ 127.094444, 36.440278 ] ] ] } },
{ "type": "Feature", "properties": { "Id": 0, "Sheet_ID": "[30.] 江景", "label": "[30.] 江景", "call_short": "G7901 .A1 S10 .J3", "call_num": "G7901 .A1 S10 .J3 SHEET 30", "recid": "sy662ss3098", "websiteUrl": "https://purl.stanford.edu/sy662ss3098", "title": "[朝鮮一万分一圖]", "ckey": 11351837, "available": true, "iiifUrl": "https://purl.stanford.edu/sy662ss3098/iiif/manifest" }, "geometry": { "type": "Polygon", "coordinates": [ [ [ 126.997222, 36.133333 ], [ 127.047222, 36.133333 ], [ 127.047222, 36.166667 ], [ 126.997222, 36.166667 ], [ 126.997222, 36.133333 ] ] ] } },
{ "type": "Feature", "properties": { "Id": 0, "Sheet_ID": "[31.] 水原", "label": "[31.] 水原", "call_short": "G7901 .A1 S10 .J3", "call_num": "G7901 .A1 S10 .J3 SHEET 31", "recid": "hh099gm2171", "websiteUrl": "https://purl.stanford.edu/hh099gm2171", "title": "[朝鮮一万分一圖]", "ckey": 11351837, "available": true, "iiifUrl": "https://purl.stanford.edu/hh099gm2171/iiif/manifest" }, "geometry": { "type": "Polygon", "coordinates": [ [ [ 126.976389, 37.258333 ], [ 127.026389, 37.258333 ], [ 127.026389, 37.291667 ], [ 126.976389, 37.291667 ], [ 126.976389, 37.258333 ] ] ] } },
{ "type": "Feature", "properties": { "Id": 0, "Sheet_ID": "[32.] 裡里", "label": "[32.] 裡里", "call_short": "G7901 .A1 S10 .J3", "call_num": "G7901 .A1 S10 .J3 SHEET 32", "recid": "mt493cj9762", "websiteUrl": "https://purl.stanford.edu/mt493cj9762", "title": "[朝鮮一万分一圖]", "ckey": 11351837, "available": true, "iiifUrl": "https://purl.stanford.edu/mt493cj9762/iiif/manifest" }, "geometry": { "type": "Polygon", "coordinates": [ [ [ 126.925, 35.916667 ], [ 126.975, 35.916667 ], [ 126.975, 35.95 ], [ 126.925, 35.95 ], [ 126.925, 35.916667 ] ] ] } },
{ "type": "Feature", "properties": { "Id": 0, "Sheet_ID": "[33.] 光州", "label": "[33.] 光州", "call_short": "G7901 .A1 S10 .J3", "call_num": "G7901 .A1 S10 .J3 SHEET 33", "recid": "nf736cb6837", "websiteUrl": "https://purl.stanford.edu/nf736cb6837", "title": "[朝鮮一万分一圖]", "ckey": 11351837, "available": true, "iiifUrl": "https://purl.stanford.edu/nf736cb6837/iiif/manifest" }, "geometry": { "type": "Polygon", "coordinates": [ [ [ 126.891667, 35.122222 ], [ 126.938889, 35.122222 ], [ 126.938889, 35.166667 ], [ 126.891667, 35.166667 ], [ 126.891667, 35.122222 ] ] ] } },
{ "type": "Feature", "properties": { "Id": 0, "Sheet_ID": "[34.] 永登浦", "label": "[34.] 永登浦", "call_short": "G7901 .A1 S10 .J3", "call_num": "G7901 .A1 S10 .J3 SHEET 34", "recid": "rq651ht1933", "websiteUrl": "https://purl.stanford.edu/rq651ht1933", "title": "[朝鮮一万分一圖]", "ckey": 11351837, "available": true, "iiifUrl": "https://purl.stanford.edu/rq651ht1933/iiif/manifest" }, "geometry": { "type": "Polygon", "coordinates": [ [ [ 126.877778, 37.498611 ], [ 126.936111, 37.498611 ], [ 126.936111, 37.565278 ], [ 126.877778, 37.565278 ], [ 126.877778, 37.498611 ] ] ] } },
{ "type": "Feature", "properties": { "Id": 0, "Sheet_ID": "[35.] 金堤", "label": "[35.] 金堤", "call_short": "G7901 .A1 S10 .J3", "call_num": "G7901 .A1 S10 .J3 SHEET 35", "recid": "zj112mc6550", "websiteUrl": "https://purl.stanford.edu/zj112mc6550", "title": "[朝鮮一万分一圖]", "ckey": 11351837, "available": true, "iiifUrl": "https://purl.stanford.edu/zj112mc6550/iiif/manifest" }, "geometry": { "type": "Polygon", "coordinates": [ [ [ 126.863889, 35.777778 ], [ 126.913889, 35.777778 ], [ 126.913889, 35.811111 ], [ 126.863889, 35.811111 ], [ 126.863889, 35.777778 ] ] ] } },
{ "type": "Feature", "properties": { "Id": 0, "Sheet_ID": "[36.] 井州 (假製版)", "label": "[36.] 井州 (假製版)", "call_short": "G7901 .A1 S10 .J3", "call_num": "G7901 .A1 S10 .J3 SHEET 36", "recid": "cq088ns9854", "websiteUrl": "https://purl.stanford.edu/cq088ns9854", "title": "[朝鮮一万分一圖]", "ckey": 11351837, "available": true, "iiifUrl": "https://purl.stanford.edu/cq088ns9854/iiif/manifest" }, "geometry": { "type": "Polygon", "coordinates": [ [ [ 126.825, 35.548611 ], [ 126.875, 35.548611 ], [ 126.875, 35.581944 ], [ 126.825, 35.581944 ], [ 126.825, 35.548611 ] ] ] } },
{ "type": "Feature", "properties": { "Id": 0, "Sheet_ID": "[37.] 松汀里 (假製版)", "label": "[37.] 松汀里 (假製版)", "call_short": "G7901 .A1 S10 .J3", "call_num": "G7901 .A1 S10 .J3 SHEET 37", "recid": "tc956bj6071", "websiteUrl": "https://purl.stanford.edu/tc956bj6071", "title": "[朝鮮一万分一圖]", "ckey": 11351837, "available": true, "iiifUrl": "https://purl.stanford.edu/tc956bj6071/iiif/manifest" }, "geometry": { "type": "Polygon", "coordinates": [ [ [ 126.772222, 35.116667 ], [ 126.822222, 35.116667 ], [ 126.822222, 35.15 ], [ 126.772222, 35.15 ], [ 126.772222, 35.116667 ] ] ] } },
{ "type": "Feature", "properties": { "Id": 0, "Sheet_ID": "[38.] 羅州", "label": "[38.] 羅州", "call_short": "G7901 .A1 S10 .J3", "call_num": "G7901 .A1 S10 .J3 SHEET 38", "recid": "rp454mp5914", "websiteUrl": "https://purl.stanford.edu/rp454mp5914", "title": "[朝鮮一万分一圖]", "ckey": 11351837, "available": true, "iiifUrl": "https://purl.stanford.edu/rp454mp5914/iiif/manifest" }, "geometry": { "type": "Polygon", "coordinates": [ [ [ 126.7, 35.016667 ], [ 126.75, 35.016667 ], [ 126.75, 35.05 ], [ 126.7, 35.05 ], [ 126.7, 35.016667 ] ] ] } },
{ "type": "Feature", "properties": { "Id": 0, "Sheet_ID": "[39.] 群山", "label": "[39.] 群山", "call_short": "G7901 .A1 S10 .J3", "call_num": "G7901 .A1 S10 .J3 SHEET 39", "recid": "zp050hg0638", "websiteUrl": "https://purl.stanford.edu/zp050hg0638", "title": "[朝鮮一万分一圖]", "ckey": 11351837, "available": true, "iiifUrl": "https://purl.stanford.edu/zp050hg0638/iiif/manifest" }, "geometry": { "type": "Polygon", "coordinates": [ [ [ 126.691667, 35.963889 ], [ 126.730556, 35.963889 ], [ 126.730556, 36.005556 ], [ 126.691667, 36.005556 ], [ 126.691667, 35.963889 ] ] ] } },
{ "type": "Feature", "properties": { "Id": 0, "Sheet_ID": "[40.] 榮山浦", "label": "[40.] 榮山浦", "call_short": "G7901 .A1 S10 .J3", "call_num": "G7901 .A1 S10 .J3 SHEET 40", "recid": "kc258gm1206", "websiteUrl": "https://purl.stanford.edu/kc258gm1206", "title": "[朝鮮一万分一圖]", "ckey": 11351837, "available": true, "iiifUrl": "https://purl.stanford.edu/kc258gm1206/iiif/manifest" }, "geometry": { "type": "Polygon", "coordinates": [ [ [ 126.683333, 34.983333 ], [ 126.733333, 34.983333 ], [ 126.733333, 35.016667 ], [ 126.683333, 35.016667 ], [ 126.683333, 34.983333 ] ] ] } },
{ "type": "Feature", "properties": { "Id": 0, "Sheet_ID": "[41.] 仁川", "label": "[41.] 仁川", "call_short": "G7901 .A1 S10 .J3", "call_num": "G7901 .A1 S10 .J3 SHEET 41", "recid": "vr321zh0845", "websiteUrl": "https://purl.stanford.edu/vr321zh0845", "title": "[朝鮮一万分一圖]", "ckey": 11351837, "available": true, "iiifUrl": "https://purl.stanford.edu/vr321zh0845/iiif/manifest" }, "geometry": { "type": "Polygon", "coordinates": [ [ [ 126.595, 37.445 ], [ 126.666667, 37.445 ], [ 126.666667, 37.486667 ], [ 126.595, 37.486667 ], [ 126.595, 37.445 ] ] ] } },
{ "type": "Feature", "properties": { "Id": 0, "Sheet_ID": "[42.] 江界 (假製版)", "label": "[42.] 江界 (假製版)", "call_short": "G7901 .A1 S10 .J3", "call_num": "G7901 .A1 S10 .J3 SHEET 42", "recid": "mt638dm9623", "websiteUrl": "https://purl.stanford.edu/mt638dm9623", "title": "[朝鮮一万分一圖]", "ckey": 11351837, "available": true, "iiifUrl": "https://purl.stanford.edu/mt638dm9623/iiif/manifest" }, "geometry": { "type": "Polygon", "coordinates": [ [ [ 126.577778, 40.95 ], [ 126.627778, 40.95 ], [ 126.627778, 40.983333 ], [ 126.577778, 40.983333 ], [ 126.577778, 40.95 ] ] ] } },
{ "type": "Feature", "properties": { "Id": 0, "Sheet_ID": "[43.] 開城", "label": "[43.] 開城", "call_short": "G7901 .A1 S10 .J3", "call_num": "G7901 .A1 S10 .J3 SHEET 43", "recid": "tq211mw2798", "websiteUrl": "https://purl.stanford.edu/tq211mw2798", "title": "[朝鮮一万分一圖]", "ckey": 11351837, "available": true, "iiifUrl": "https://purl.stanford.edu/tq211mw2798/iiif/manifest" }, "geometry": { "type": "Polygon", "coordinates": [ [ [ 126.527778, 37.955556 ], [ 126.577778, 37.955556 ], [ 126.577778, 37.989722 ], [ 126.527778, 37.989722 ], [ 126.527778, 37.955556 ] ] ] } },
{ "type": "Feature", "properties": { "Id": 0, "Sheet_ID": "[44.] 黄州 (假製版)", "label": "[44.] 黄州 (假製版)", "call_short": "G7901 .A1 S10 .J3", "call_num": "G7901 .A1 S10 .J3 SHEET 44", "recid": "yg421fh9248", "websiteUrl": "https://purl.stanford.edu/yg421fh9248", "title": "[朝鮮一万分一圖]", "ckey": 11351837, "available": true, "iiifUrl": "https://purl.stanford.edu/yg421fh9248/iiif/manifest" }, "geometry": { "type": "Polygon", "coordinates": [ [ [ 125.75, 38.655556 ], [ 125.791667, 38.655556 ], [ 125.791667, 38.694444 ], [ 125.75, 38.694444 ], [ 125.75, 38.655556 ] ] ] } },
{ "type": "Feature", "properties": { "Id": 0, "Sheet_ID": "[45.] 沙里院 (假製版)", "label": "[45.] 沙里院 (假製版)", "call_short": "G7901 .A1 S10 .J3", "call_num": "G7901 .A1 S10 .J3 SHEET 45", "recid": "cn759pb1035", "websiteUrl": "https://purl.stanford.edu/cn759pb1035", "title": "[朝鮮一万分一圖]", "ckey": 11351837, "available": true, "iiifUrl": "https://purl.stanford.edu/cn759pb1035/iiif/manifest" }, "geometry": { "type": "Polygon", "coordinates": [ [ [ 125.725, 38.486111 ], [ 125.775, 38.486111 ], [ 125.775, 38.519444 ], [ 125.725, 38.519444 ], [ 125.725, 38.486111 ] ] ] } },
{ "type": "Feature", "properties": { "Id": 0, "Sheet_ID": "[46.] 平壌", "label": "[46.] 平壌", "call_short": "G7901 .A1 S10 .J3", "call_num": "G7901 .A1 S10 .J3 SHEET 46", "recid": "bj609rk0731", "websiteUrl": "https://purl.stanford.edu/bj609rk0731", "title": "[朝鮮一万分一圖]", "ckey": 11351837, "available": true, "iiifUrl": "https://purl.stanford.edu/bj609rk0731/iiif/manifest" }, "geometry": { "type": "Polygon", "coordinates": [ [ [ 125.716667, 38.983333 ], [ 125.766667, 38.983333 ], [ 125.766667, 39.05 ], [ 125.716667, 39.05 ], [ 125.716667, 38.983333 ] ] ] } },
{ "type": "Feature", "properties": { "Id": 0, "Sheet_ID": "[47.] 海州", "label": "[47.] 海州", "call_short": "G7901 .A1 S10 .J3", "call_num": "G7901 .A1 S10 .J3 SHEET 47", "recid": "nk969tz6535", "websiteUrl": "https://purl.stanford.edu/nk969tz6535", "title": "[朝鮮一万分一圖]", "ckey": 11351837, "available": true, "iiifUrl": "https://purl.stanford.edu/nk969tz6535/iiif/manifest" }, "geometry": { "type": "Polygon", "coordinates": [ [ [ 125.686111, 38.016667 ], [ 125.738889, 38.016667 ], [ 125.738889, 38.052778 ], [ 125.686111, 38.052778 ], [ 125.686111, 38.016667 ] ] ] } },
{ "type": "Feature", "properties": { "Id": 0, "Sheet_ID": "[48.] 安州 (假製版)", "label": "[48.] 安州 (假製版)", "call_short": "G7901 .A1 S10 .J3", "call_num": "G7901 .A1 S10 .J3 SHEET 48", "recid": "yv571rc2744", "websiteUrl": "https://purl.stanford.edu/yv571rc2744", "title": "[朝鮮一万分一圖]", "ckey": 11351837, "available": true, "iiifUrl": "https://purl.stanford.edu/yv571rc2744/iiif/manifest" }, "geometry": { "type": "Polygon", "coordinates": [ [ [ 125.633333, 39.6 ], [ 125.683333, 39.6 ], [ 125.683333, 39.633333 ], [ 125.633333, 39.633333 ], [ 125.633333, 39.6 ] ] ] } },
{ "type": "Feature", "properties": { "Id": 0, "Sheet_ID": "[49.] 兼二浦 (假製版)", "label": "[49.] 兼二浦 (假製版)", "call_short": "G7901 .A1 S10 .J3", "call_num": "G7901 .A1 S10 .J3 SHEET 49", "recid": "dk160bn8549", "websiteUrl": "https://purl.stanford.edu/dk160bn8549", "title": "[朝鮮一万分一圖]", "ckey": 11351837, "available": true, "iiifUrl": "https://purl.stanford.edu/dk160bn8549/iiif/manifest" }, "geometry": { "type": "Polygon", "coordinates": [ [ [ 125.6, 38.725 ], [ 125.65, 38.725 ], [ 125.65, 38.758333 ], [ 125.6, 38.758333 ], [ 125.6, 38.725 ] ] ] } },
{ "type": "Feature", "properties": { "Id": 0, "Sheet_ID": "[50.] 新安州 (假製版)", "label": "[50.] 新安州 (假製版)", "call_short": "G7901 .A1 S10 .J3", "call_num": "G7901 .A1 S10 .J3 SHEET 50", "recid": "ws347hn5418", "websiteUrl": "https://purl.stanford.edu/ws347hn5418", "title": "[朝鮮一万分一圖]", "ckey": 11351837, "available": true, "iiifUrl": "https://purl.stanford.edu/ws347hn5418/iiif/manifest" }, "geometry": { "type": "Polygon", "coordinates": [ [ [ 125.588889, 39.580556 ], [ 125.633333, 39.580556 ], [ 125.633333, 39.622222 ], [ 125.588889, 39.622222 ], [ 125.588889, 39.580556 ] ] ] } },
{ "type": "Feature", "properties": { "Id": 0, "Sheet_ID": "[51.] 鎮南浦", "label": "[51.] 鎮南浦", "call_short": "G7901 .A1 S10 .J3", "call_num": "G7901 .A1 S10 .J3 SHEET 51", "recid": "cv281xs5404", "websiteUrl": "https://purl.stanford.edu/cv281xs5404", "title": "[朝鮮一万分一圖]", "ckey": 11351837, "available": true, "iiifUrl": "https://purl.stanford.edu/cv281xs5404/iiif/manifest" }, "geometry": { "type": "Polygon", "coordinates": [ [ [ 125.375, 38.711111 ], [ 125.434722, 38.711111 ], [ 125.434722, 38.761111 ], [ 125.375, 38.761111 ], [ 125.375, 38.711111 ] ] ] } },
{ "type": "Feature", "properties": { "Id": 0, "Sheet_ID": "[52.] 定州 (假製版)", "label": "[52.] 定州 (假製版)", "call_short": "G7901 .A1 S10 .J3", "call_num": "G7901 .A1 S10 .J3 SHEET 52", "recid": "sg958kg7763", "websiteUrl": "https://purl.stanford.edu/sg958kg7763", "title": "[朝鮮一万分一圖]", "ckey": 11351837, "available": true, "iiifUrl": "https://purl.stanford.edu/sg958kg7763/iiif/manifest" }, "geometry": { "type": "Polygon", "coordinates": [ [ [ 125.183333, 39.672222 ], [ 125.233333, 39.672222 ], [ 125.233333, 39.705556 ], [ 125.183333, 39.705556 ], [ 125.183333, 39.672222 ] ] ] } },
{ "type": "Feature", "properties": { "Id": 0, "Sheet_ID": "[53.] 義州", "label": "[53.] 義州", "call_short": "G7901 .A1 S10 .J3", "call_num": "G7901 .A1 S10 .J3 SHEET 53", "recid": "nq185zn9374", "websiteUrl": "https://purl.stanford.edu/nq185zn9374", "title": "[朝鮮一万分一圖]", "ckey": 11351837, "available": true, "iiifUrl": "https://purl.stanford.edu/nq185zn9374/iiif/manifest" }, "geometry": { "type": "Polygon", "coordinates": [ [ [ 124.508333, 40.183333 ], [ 124.558333, 40.183333 ], [ 124.558333, 40.216667 ], [ 124.508333, 40.216667 ], [ 124.508333, 40.183333 ] ] ] } },
{ "type": "Feature", "properties": { "Id": 0, "Sheet_ID": "[54.] 新義州及安", "label": "[54.] 新義州及安", "call_short": "G7901 .A1 S10 .J3", "call_num": "G7901 .A1 S10 .J3 SHEET 54", "recid": "cd966gp0686", "websiteUrl": "https://purl.stanford.edu/cd966gp0686", "title": "[朝鮮一万分一圖]", "ckey": 11351837, "available": true, "iiifUrl": "https://purl.stanford.edu/cd966gp0686/iiif/manifest" }, "geometry": { "type": "Polygon", "coordinates": [ [ [ 124.358333, 40.069444 ], [ 124.433333, 40.069444 ], [ 124.433333, 40.144444 ], [ 124.358333, 40.144444 ], [ 124.358333, 40.069444 ] ] ] } }
]
}
