{
"type": "FeatureCollection",
"name": "index_map",
"xy_coordinate_resolution": 1e-07,
"features": [
{ "type": "Feature", "properties": { "Id": 0, "Sheet_ID": "14. 洪家集", "label": "14. 洪家集", "call_short": "G7823 .A5 S50 .J36", "call_num": "G7823 .A5 S50 .J36 SHEET 14", "recid": "vc092vz5110", "websiteUrl": "https://purl.stanford.edu/vc092vz5110", "title": "中支那五万分一 安徽省正陽關地方", "ckey": 13900008, "available": true, "iiifUrl": "https://purl.stanford.edu/vc092vz5110/iiif/manifest" }, "geometry": { "type": "Polygon", "coordinates": [ [ [ 116.2, 31.770833 ], [ 116.425, 31.770833 ], [ 116.425, 31.9374998 ], [ 116.2, 31.9374998 ], [ 116.2, 31.770833 ] ] ] } },
{ "type": "Feature", "properties": { "Id": 0, "Sheet_ID": "9. 王集", "label": "9. 王集", "call_short": "G7823 .A5 S50 .J36", "call_num": "G7823 .A5 S50 .J36 SHEET 9", "recid": "fs806pv3078", "websiteUrl": "https://purl.stanford.edu/fs806pv3078", "title": "中支那五万分一 安徽省正陽關地方", "ckey": 13900008, "available": true, "iiifUrl": "https://purl.stanford.edu/fs806pv3078/iiif/manifest" }, "geometry": { "type": "Polygon", "coordinates": [ [ [ 116.425, 31.770833 ], [ 116.65, 31.770833 ], [ 116.65, 31.9374998 ], [ 116.425, 31.9374998 ], [ 116.425, 31.770833 ] ] ] } },
{ "type": "Feature", "properties": { "Id": 0, "Sheet_ID": "18. 長塘稍", "label": "18. 長塘稍", "call_short": "G7823 .A5 S50 .J36", "call_num": "G7823 .A5 S50 .J36 SHEET 18", "recid": "bp210wd0154", "websiteUrl": "https://purl.stanford.edu/bp210wd0154", "title": "中支那五万分一 安徽省正陽關地方", "ckey": 13900008, "available": true, "iiifUrl": "https://purl.stanford.edu/bp210wd0154/iiif/manifest" }, "geometry": { "type": "Polygon", "coordinates": [ [ [ 115.975, 31.9374998 ], [ 116.2, 31.9374998 ], [ 116.2, 32.1041666 ], [ 115.975, 32.1041666 ], [ 115.975, 31.9374998 ] ] ] } },
{ "type": "Feature", "properties": { "Id": 0, "Sheet_ID": "13. 固縣寺", "label": "13. 固縣寺", "call_short": "G7823 .A5 S50 .J36", "call_num": "G7823 .A5 S50 .J36 SHEET 13", "recid": "rh887nf4311", "websiteUrl": "https://purl.stanford.edu/rh887nf4311", "title": "中支那五万分一 安徽省正陽關地方", "ckey": 13900008, "available": true, "iiifUrl": "https://purl.stanford.edu/rh887nf4311/iiif/manifest" }, "geometry": { "type": "Polygon", "coordinates": [ [ [ 116.2, 31.9374998 ], [ 116.425, 31.9374998 ], [ 116.425, 32.1041666 ], [ 116.2, 32.1041666 ], [ 116.2, 31.9374998 ] ] ] } },
{ "type": "Feature", "properties": { "Id": 0, "Sheet_ID": "8. 碼頭集", "label": "8. 碼頭集", "call_short": "G7823 .A5 S50 .J36", "call_num": "G7823 .A5 S50 .J36 SHEET 8", "recid": "kj605mr2487", "websiteUrl": "https://purl.stanford.edu/kj605mr2487", "title": "中支那五万分一 安徽省正陽關地方", "ckey": 13900008, "available": true, "iiifUrl": "https://purl.stanford.edu/kj605mr2487/iiif/manifest" }, "geometry": { "type": "Polygon", "coordinates": [ [ [ 116.425, 31.9374998 ], [ 116.65, 31.9374998 ], [ 116.65, 32.1041666 ], [ 116.425, 32.1041666 ], [ 116.425, 31.9374998 ] ] ] } },
{ "type": "Feature", "properties": { "Id": 0, "Sheet_ID": "4. 炎劉集", "label": "4. 炎劉集", "call_short": "G7823 .A5 S50 .J36", "call_num": "G7823 .A5 S50 .J36 SHEET 4", "recid": "nr247fm3622", "websiteUrl": "https://purl.stanford.edu/nr247fm3622", "title": "中支那五万分一 安徽省正陽關地方", "ckey": 13900008, "available": true, "iiifUrl": "https://purl.stanford.edu/nr247fm3622/iiif/manifest" }, "geometry": { "type": "Polygon", "coordinates": [ [ [ 116.7541667, 32.1041665 ], [ 116.9791667, 32.1041665 ], [ 116.9791667, 32.2708333 ], [ 116.7541667, 32.2708333 ], [ 116.7541667, 32.1041665 ] ] ] } },
{ "type": "Feature", "properties": { "Id": 0, "Sheet_ID": "2. 雙棗樹", "label": "2. 雙棗樹", "call_short": "G7823 .A5 S50 .J36", "call_num": "G7823 .A5 S50 .J36 SHEET 2", "recid": "hz913gw1087", "websiteUrl": "https://purl.stanford.edu/hz913gw1087", "title": "中支那五万分一 安徽省正陽關地方", "ckey": 13900008, "available": true, "iiifUrl": "https://purl.stanford.edu/hz913gw1087/iiif/manifest" }, "geometry": { "type": "Polygon", "coordinates": [ [ [ 116.9791667, 32.1041665 ], [ 117.2041667, 32.1041665 ], [ 117.2041667, 32.2708333 ], [ 116.9791667, 32.2708333 ], [ 116.9791667, 32.1041665 ] ] ] } },
{ "type": "Feature", "properties": { "Id": 0, "Sheet_ID": "17. 坎山集", "label": "17. 坎山集", "call_short": "G7823 .A5 S50 .J36", "call_num": "G7823 .A5 S50 .J36 SHEET 17", "recid": "vc393zv5886", "websiteUrl": "https://purl.stanford.edu/vc393zv5886", "title": "中支那五万分一 安徽省正陽關地方", "ckey": 13900008, "available": true, "iiifUrl": "https://purl.stanford.edu/vc393zv5886/iiif/manifest" }, "geometry": { "type": "Polygon", "coordinates": [ [ [ 115.975, 32.1041666 ], [ 116.2, 32.1041666 ], [ 116.2, 32.2708334 ], [ 115.975, 32.2708334 ], [ 115.975, 32.1041666 ] ] ] } },
{ "type": "Feature", "properties": { "Id": 0, "Sheet_ID": "12. 梢路店", "label": "12. 梢路店", "call_short": "G7823 .A5 S50 .J36", "call_num": "G7823 .A5 S50 .J36 SHEET 12", "recid": "bs978gc5327", "websiteUrl": "https://purl.stanford.edu/bs978gc5327", "title": "中支那五万分一 安徽省正陽關地方", "ckey": 13900008, "available": true, "iiifUrl": "https://purl.stanford.edu/bs978gc5327/iiif/manifest" }, "geometry": { "type": "Polygon", "coordinates": [ [ [ 116.2, 32.1041666 ], [ 116.425, 32.1041666 ], [ 116.425, 32.2708334 ], [ 116.2, 32.2708334 ], [ 116.2, 32.1041666 ] ] ] } },
{ "type": "Feature", "properties": { "Id": 0, "Sheet_ID": "7. 東隠賢集", "label": "7. 東隠賢集", "call_short": "G7823 .A5 S50 .J36", "call_num": "G7823 .A5 S50 .J36 SHEET 7", "recid": "dh069fj7369", "websiteUrl": "https://purl.stanford.edu/dh069fj7369", "title": "中支那五万分一 安徽省正陽關地方", "ckey": 13900008, "available": true, "iiifUrl": "https://purl.stanford.edu/dh069fj7369/iiif/manifest" }, "geometry": { "type": "Polygon", "coordinates": [ [ [ 116.425, 32.1041666 ], [ 116.65, 32.1041666 ], [ 116.65, 32.2708334 ], [ 116.425, 32.2708334 ], [ 116.425, 32.1041666 ] ] ] } },
{ "type": "Feature", "properties": { "Id": 0, "Sheet_ID": "3. 保義集", "label": "3. 保義集", "call_short": "G7823 .A5 S50 .J36", "call_num": "G7823 .A5 S50 .J36 SHEET 3", "recid": "hg334bd9346", "websiteUrl": "https://purl.stanford.edu/hg334bd9346", "title": "中支那五万分一 安徽省正陽關地方", "ckey": 13900008, "available": true, "iiifUrl": "https://purl.stanford.edu/hg334bd9346/iiif/manifest" }, "geometry": { "type": "Polygon", "coordinates": [ [ [ 116.7541667, 32.2708333 ], [ 116.9791667, 32.2708333 ], [ 116.9791667, 32.4375001 ], [ 116.7541667, 32.4375001 ], [ 116.7541667, 32.2708333 ] ] ] } },
{ "type": "Feature", "properties": { "Id": 0, "Sheet_ID": "1. 呉山廟", "label": "1. 呉山廟", "call_short": "G7823 .A5 S50 .J36", "call_num": "G7823 .A5 S50 .J36 SHEET 1", "recid": "zp536tw3865", "websiteUrl": "https://purl.stanford.edu/zp536tw3865", "title": "中支那五万分一 安徽省正陽關地方", "ckey": 13900008, "available": true, "iiifUrl": "https://purl.stanford.edu/zp536tw3865/iiif/manifest" }, "geometry": { "type": "Polygon", "coordinates": [ [ [ 116.9791667, 32.2708333 ], [ 117.2041667, 32.2708333 ], [ 117.2041667, 32.4375001 ], [ 116.9791667, 32.4375001 ], [ 116.9791667, 32.2708333 ] ] ] } },
{ "type": "Feature", "properties": { "Id": 0, "Sheet_ID": "16. 紹岡鋪", "label": "16. 紹岡鋪", "call_short": "G7823 .A5 S50 .J36", "call_num": "G7823 .A5 S50 .J36 SHEET 16", "recid": "gx371yy0666", "websiteUrl": "https://purl.stanford.edu/gx371yy0666", "title": "中支那五万分一 安徽省正陽關地方", "ckey": 13900008, "available": true, "iiifUrl": "https://purl.stanford.edu/gx371yy0666/iiif/manifest" }, "geometry": { "type": "Polygon", "coordinates": [ [ [ 115.975, 32.2708334 ], [ 116.2, 32.2708334 ], [ 116.2, 32.4375002 ], [ 115.975, 32.4375002 ], [ 115.975, 32.2708334 ] ] ] } },
{ "type": "Feature", "properties": { "Id": 0, "Sheet_ID": "11. 霍邱", "label": "11. 霍邱", "call_short": "G7823 .A5 S50 .J36", "call_num": "G7823 .A5 S50 .J36 SHEET 11", "recid": "nr827sv4162", "websiteUrl": "https://purl.stanford.edu/nr827sv4162", "title": "中支那五万分一 安徽省正陽關地方", "ckey": 13900008, "available": true, "iiifUrl": "https://purl.stanford.edu/nr827sv4162/iiif/manifest" }, "geometry": { "type": "Polygon", "coordinates": [ [ [ 116.2, 32.2708334 ], [ 116.425, 32.2708334 ], [ 116.425, 32.4375002 ], [ 116.2, 32.4375002 ], [ 116.2, 32.2708334 ] ] ] } },
{ "type": "Feature", "properties": { "Id": 0, "Sheet_ID": "6. 迎家集", "label": "6. 迎家集", "call_short": "G7823 .A5 S50 .J36", "call_num": "G7823 .A5 S50 .J36 SHEET 6", "recid": "tv889cp7515", "websiteUrl": "https://purl.stanford.edu/tv889cp7515", "title": "中支那五万分一 安徽省正陽關地方", "ckey": 13900008, "available": true, "iiifUrl": "https://purl.stanford.edu/tv889cp7515/iiif/manifest" }, "geometry": { "type": "Polygon", "coordinates": [ [ [ 116.425, 32.2708334 ], [ 116.65, 32.2708334 ], [ 116.65, 32.4375002 ], [ 116.425, 32.4375002 ], [ 116.425, 32.2708334 ] ] ] } },
{ "type": "Feature", "properties": { "Id": 0, "Sheet_ID": "20. 地里城", "label": "20. 地里城", "call_short": "G7823 .A5 S50 .J36", "call_num": "G7823 .A5 S50 .J36 SHEET 20", "recid": "rz856qz0874", "websiteUrl": "https://purl.stanford.edu/rz856qz0874", "title": "中支那五万分一 安徽省正陽關地方", "ckey": 13900008, "available": true, "iiifUrl": "https://purl.stanford.edu/rz856qz0874/iiif/manifest" }, "geometry": { "type": "Polygon", "coordinates": [ [ [ 115.525, 32.4375002 ], [ 115.75, 32.4375002 ], [ 115.75, 32.604167 ], [ 115.525, 32.604167 ], [ 115.525, 32.4375002 ] ] ] } },
{ "type": "Feature", "properties": { "Id": 0, "Sheet_ID": "19. 中村崗", "label": "19. 中村崗", "call_short": "G7823 .A5 S50 .J36", "call_num": "G7823 .A5 S50 .J36 SHEET 19", "recid": "wg733bk6311", "websiteUrl": "https://purl.stanford.edu/wg733bk6311", "title": "中支那五万分一 安徽省正陽關地方", "ckey": 13900008, "available": true, "iiifUrl": "https://purl.stanford.edu/wg733bk6311/iiif/manifest" }, "geometry": { "type": "Polygon", "coordinates": [ [ [ 115.75, 32.4375002 ], [ 115.975, 32.4375002 ], [ 115.975, 32.604167 ], [ 115.75, 32.604167 ], [ 115.75, 32.4375002 ] ] ] } },
{ "type": "Feature", "properties": { "Id": 0, "Sheet_ID": "15. 潤河集", "label": "15. 潤河集", "call_short": "G7823 .A5 S50 .J36", "call_num": "G7823 .A5 S50 .J36 SHEET 15", "recid": "qc522gm8687", "websiteUrl": "https://purl.stanford.edu/qc522gm8687", "title": "中支那五万分一 安徽省正陽關地方", "ckey": 13900008, "available": true, "iiifUrl": "https://purl.stanford.edu/qc522gm8687/iiif/manifest" }, "geometry": { "type": "Polygon", "coordinates": [ [ [ 115.975, 32.4375002 ], [ 116.2, 32.4375002 ], [ 116.2, 32.604167 ], [ 115.975, 32.604167 ], [ 115.975, 32.4375002 ] ] ] } },
{ "type": "Feature", "properties": { "Id": 0, "Sheet_ID": "10. 垂岡集", "label": "10. 垂岡集", "call_short": "G7823 .A5 S50 .J36", "call_num": "G7823 .A5 S50 .J36 SHEET 10", "recid": "tc420qc9963", "websiteUrl": "https://purl.stanford.edu/tc420qc9963", "title": "中支那五万分一 安徽省正陽關地方", "ckey": 13900008, "available": true, "iiifUrl": "https://purl.stanford.edu/tc420qc9963/iiif/manifest" }, "geometry": { "type": "Polygon", "coordinates": [ [ [ 116.2, 32.4375002 ], [ 116.425, 32.4375002 ], [ 116.425, 32.604167 ], [ 116.2, 32.604167 ], [ 116.2, 32.4375002 ] ] ] } },
{ "type": "Feature", "properties": { "Id": 0, "Sheet_ID": "5. 正陽關", "label": "5. 正陽關", "call_short": "G7823 .A5 S50 .J36", "call_num": "G7823 .A5 S50 .J36 SHEET 5", "recid": "mx908tg6645", "websiteUrl": "https://purl.stanford.edu/mx908tg6645", "title": "中支那五万分一 安徽省正陽關地方", "ckey": 13900008, "available": true, "iiifUrl": "https://purl.stanford.edu/mx908tg6645/iiif/manifest" }, "geometry": { "type": "Polygon", "coordinates": [ [ [ 116.425, 32.4375002 ], [ 116.65, 32.4375002 ], [ 116.65, 32.604167 ], [ 116.425, 32.604167 ], [ 116.425, 32.4375002 ] ] ] } }
]
}
