{
"type": "FeatureCollection",
"name": "index_map",
"features": [
{ "type": "Feature", "properties": { "Id": 0, "Sheet_ID": "石巻-4", "label": "石巻-4", "call_short": "G7960 S50 .J31", "call_num": "G7960 S50 .J31 SHEET 9-4", "recid": "pr214bd2477", "websiteUrl": "https://purl.stanford.edu/pr214bd2477", "title": "集成五万分一地形圖", "ckey": 8103638, "available": true, "iiifUrl": "https://purl.stanford.edu/pr214bd2477/iiif/manifest" }, "geometry": { "type": "Polygon", "coordinates": [ [ [ 141.002778, 38.166667 ], [ 141.502778, 38.166667 ], [ 141.502778, 38.3333334 ], [ 141.002778, 38.3333334 ], [ 141.002778, 38.166667 ] ] ] } },
{ "type": "Feature", "properties": { "Id": 0, "Sheet_ID": "石巻-2", "label": "石巻-2", "call_short": null, "call_num": null, "recid": null, "websiteUrl": null, "title": null, "ckey": 0, "available": false, "iiifUrl": null }, "geometry": { "type": "Polygon", "coordinates": [ [ [ 141.502778, 38.166667 ], [ 141.752778, 38.166667 ], [ 141.752778, 38.3333334 ], [ 141.502778, 38.3333334 ], [ 141.502778, 38.166667 ] ] ] } },
{ "type": "Feature", "properties": { "Id": 0, "Sheet_ID": "石巻-3", "label": "石巻-3", "call_short": "G7960 S50 .J31", "call_num": "G7960 S50 .J31 SHEET 9-3", "recid": "sq128sf8709", "websiteUrl": "https://purl.stanford.edu/sq128sf8709", "title": "集成五万分一地形圖", "ckey": 8103638, "available": true, "iiifUrl": "https://purl.stanford.edu/sq128sf8709/iiif/manifest" }, "geometry": { "type": "Polygon", "coordinates": [ [ [ 141.002778, 38.3333334 ], [ 141.502778, 38.3333334 ], [ 141.502778, 38.6666668 ], [ 141.002778, 38.6666668 ], [ 141.002778, 38.3333334 ] ] ] } },
{ "type": "Feature", "properties": { "Id": 0, "Sheet_ID": "石巻-1", "label": "石巻-1", "call_short": null, "call_num": null, "recid": null, "websiteUrl": null, "title": null, "ckey": 0, "available": false, "iiifUrl": null }, "geometry": { "type": "Polygon", "coordinates": [ [ [ 141.502778, 38.3333334 ], [ 141.752778, 38.3333334 ], [ 141.752778, 38.6666668 ], [ 141.502778, 38.6666668 ], [ 141.502778, 38.3333334 ] ] ] } },
{ "type": "Feature", "properties": { "Id": 0, "Sheet_ID": "一関-4", "label": "一関-4", "call_short": "G7960 S50 .J31", "call_num": "G7960 S50 .J31 SHEET 8-4", "recid": "sm696sn4480", "websiteUrl": "https://purl.stanford.edu/sm696sn4480", "title": "集成五万分一地形圖", "ckey": 8103638, "available": true, "iiifUrl": "https://purl.stanford.edu/sm696sn4480/iiif/manifest" }, "geometry": { "type": "Polygon", "coordinates": [ [ [ 141.002778, 38.6666667 ], [ 141.502778, 38.6666667 ], [ 141.502778, 39.0000001 ], [ 141.002778, 39.0000001 ], [ 141.002778, 38.6666667 ] ] ] } },
{ "type": "Feature", "properties": { "Id": 0, "Sheet_ID": "一関-2", "label": "一関-2", "call_short": null, "call_num": null, "recid": null, "websiteUrl": null, "title": null, "ckey": 0, "available": false, "iiifUrl": null }, "geometry": { "type": "Polygon", "coordinates": [ [ [ 141.502778, 38.6666668 ], [ 141.752778, 38.6666668 ], [ 141.752778, 39.0000001 ], [ 141.502778, 39.0000001 ], [ 141.502778, 38.6666668 ] ] ] } },
{ "type": "Feature", "properties": { "Id": 0, "Sheet_ID": "一関-3", "label": "一関-3", "call_short": "G7960 S50 .J31", "call_num": "G7960 S50 .J31 SHEET 8-3", "recid": "xt291md5882", "websiteUrl": "https://purl.stanford.edu/xt291md5882", "title": "集成五万分一地形圖", "ckey": 8103638, "available": true, "iiifUrl": "https://purl.stanford.edu/xt291md5882/iiif/manifest" }, "geometry": { "type": "Polygon", "coordinates": [ [ [ 141.002778, 39.0000001 ], [ 141.502778, 39.0000001 ], [ 141.502778, 39.3333335 ], [ 141.002778, 39.3333335 ], [ 141.002778, 39.0000001 ] ] ] } },
{ "type": "Feature", "properties": { "Id": 0, "Sheet_ID": "一関-1", "label": "一関-1", "call_short": "G7960 S50 .J31", "call_num": "G7960 S50 .J31 SHEET 8-1", "recid": "tv458fk5441", "websiteUrl": "https://purl.stanford.edu/tv458fk5441", "title": "集成五万分一地形圖", "ckey": 8103638, "available": true, "iiifUrl": "https://purl.stanford.edu/tv458fk5441/iiif/manifest" }, "geometry": { "type": "Polygon", "coordinates": [ [ [ 141.502778, 39.0000001 ], [ 142.002778, 39.0000001 ], [ 142.002778, 39.3333335 ], [ 141.502778, 39.3333335 ], [ 141.502778, 39.0000001 ] ] ] } },
{ "type": "Feature", "properties": { "Id": 0, "Sheet_ID": "盛岡-4", "label": "盛岡-4", "call_short": "G7960 S50 .J31", "call_num": "G7960 S50 .J31 SHEET 7-4", "recid": "qf870nn2371", "websiteUrl": "https://purl.stanford.edu/qf870nn2371", "title": "集成五万分一地形圖", "ckey": 8103638, "available": true, "iiifUrl": "https://purl.stanford.edu/qf870nn2371/iiif/manifest" }, "geometry": { "type": "Polygon", "coordinates": [ [ [ 141.002778, 39.3333335 ], [ 141.502778, 39.3333335 ], [ 141.502778, 39.6666669 ], [ 141.002778, 39.6666669 ], [ 141.002778, 39.3333335 ] ] ] } },
{ "type": "Feature", "properties": { "Id": 0, "Sheet_ID": "盛岡-2", "label": "盛岡-2", "call_short": null, "call_num": null, "recid": null, "websiteUrl": null, "title": null, "ckey": 0, "available": false, "iiifUrl": null }, "geometry": { "type": "Polygon", "coordinates": [ [ [ 141.502778, 39.3333335 ], [ 142.127778, 39.3333335 ], [ 142.127778, 39.6666669 ], [ 141.502778, 39.6666669 ], [ 141.502778, 39.3333335 ] ] ] } },
{ "type": "Feature", "properties": { "Id": 0, "Sheet_ID": "盛岡-3", "label": "盛岡-3", "call_short": "G7960 S50 .J31", "call_num": "G7960 S50 .J31 SHEET 7-3", "recid": "tf365bq4736", "websiteUrl": "https://purl.stanford.edu/tf365bq4736", "title": "集成五万分一地形圖", "ckey": 8103638, "available": true, "iiifUrl": "https://purl.stanford.edu/tf365bq4736/iiif/manifest" }, "geometry": { "type": "Polygon", "coordinates": [ [ [ 141.002778, 39.6666669 ], [ 141.502778, 39.6666669 ], [ 141.502778, 40.0000002 ], [ 141.002778, 40.0000002 ], [ 141.002778, 39.6666669 ] ] ] } },
{ "type": "Feature", "properties": { "Id": 0, "Sheet_ID": "盛岡-1", "label": "盛岡-1", "call_short": null, "call_num": null, "recid": null, "websiteUrl": null, "title": null, "ckey": 0, "available": false, "iiifUrl": null }, "geometry": { "type": "Polygon", "coordinates": [ [ [ 141.502778, 39.6666669 ], [ 142.002778, 39.6666669 ], [ 142.002778, 40.0000002 ], [ 141.502778, 40.0000002 ], [ 141.502778, 39.6666669 ] ] ] } },
{ "type": "Feature", "properties": { "Id": 0, "Sheet_ID": "八戸-4", "label": "八戸-4", "call_short": "G7960 S50 .J31", "call_num": "G7960 S50 .J31 SHEET 6-4", "recid": "mv809dj4960", "websiteUrl": "https://purl.stanford.edu/mv809dj4960", "title": "集成五万分一地形圖", "ckey": 8103638, "available": true, "iiifUrl": "https://purl.stanford.edu/mv809dj4960/iiif/manifest" }, "geometry": { "type": "Polygon", "coordinates": [ [ [ 141.002778, 40.0000002 ], [ 141.502778, 40.0000002 ], [ 141.502778, 40.3333336 ], [ 141.002778, 40.3333336 ], [ 141.002778, 40.0000002 ] ] ] } },
{ "type": "Feature", "properties": { "Id": 0, "Sheet_ID": "八戸-2", "label": "八戸-2", "call_short": "G7960 S50 .J31", "call_num": "G7960 S50 .J31 SHEET 6-2", "recid": "zy508dn3479", "websiteUrl": "https://purl.stanford.edu/zy508dn3479", "title": "集成五万分一地形圖", "ckey": 8103638, "available": true, "iiifUrl": "https://purl.stanford.edu/zy508dn3479/iiif/manifest" }, "geometry": { "type": "Polygon", "coordinates": [ [ [ 141.502778, 40.0000002 ], [ 142.002778, 40.0000002 ], [ 142.002778, 40.3333336 ], [ 141.502778, 40.3333336 ], [ 141.502778, 40.0000002 ] ] ] } },
{ "type": "Feature", "properties": { "Id": 0, "Sheet_ID": "八戸-3", "label": "八戸-3", "call_short": null, "call_num": null, "recid": null, "websiteUrl": null, "title": null, "ckey": 0, "available": false, "iiifUrl": null }, "geometry": { "type": "Polygon", "coordinates": [ [ [ 141.002778, 40.3333336 ], [ 141.502778, 40.3333336 ], [ 141.502778, 40.666667 ], [ 141.002778, 40.666667 ], [ 141.002778, 40.3333336 ] ] ] } },
{ "type": "Feature", "properties": { "Id": 0, "Sheet_ID": "八戸-1", "label": "八戸-1", "call_short": "G7960 S50 .J31", "call_num": "G7960 S50 .J31 SHEET 6-1", "recid": "tk526bn9467", "websiteUrl": "https://purl.stanford.edu/tk526bn9467", "title": "集成五万分一地形圖", "ckey": 8103638, "available": true, "iiifUrl": "https://purl.stanford.edu/tk526bn9467/iiif/manifest" }, "geometry": { "type": "Polygon", "coordinates": [ [ [ 141.502778, 40.3333336 ], [ 142.002778, 40.3333336 ], [ 142.002778, 40.666667 ], [ 141.502778, 40.666667 ], [ 141.502778, 40.3333336 ] ] ] } },
{ "type": "Feature", "properties": { "Id": 0, "Sheet_ID": "日光-2", "label": "日光-2", "call_short": "G7960 S50 .J31", "call_num": "G7960 S50 .J31 SHEET 16-2", "recid": "gd993vn3058", "websiteUrl": "https://purl.stanford.edu/gd993vn3058", "title": "集成五万分一地形圖", "ckey": 8103638, "available": true, "iiifUrl": "https://purl.stanford.edu/gd993vn3058/iiif/manifest" }, "geometry": { "type": "Polygon", "coordinates": [ [ [ 139.502778, 36.666667 ], [ 140.002778, 36.666667 ], [ 140.002778, 37.0000003 ], [ 139.502778, 37.0000003 ], [ 139.502778, 36.666667 ] ] ] } },
{ "type": "Feature", "properties": { "Id": 0, "Sheet_ID": "白河-4", "label": "白河-4", "call_short": null, "call_num": null, "recid": null, "websiteUrl": null, "title": null, "ckey": 0, "available": false, "iiifUrl": null }, "geometry": { "type": "Polygon", "coordinates": [ [ [ 140.002778, 36.666667 ], [ 140.502778, 36.666667 ], [ 140.502778, 37.0000003 ], [ 140.002778, 37.0000003 ], [ 140.002778, 36.666667 ] ] ] } },
{ "type": "Feature", "properties": { "Id": 0, "Sheet_ID": "白河-2", "label": "白河-2", "call_short": "G7960 S50 .J31", "call_num": "G7960 S50 .J31 SHEET 12-2", "recid": "dm979fc2322", "websiteUrl": "https://purl.stanford.edu/dm979fc2322", "title": "集成五万分一地形圖", "ckey": 8103638, "available": true, "iiifUrl": "https://purl.stanford.edu/dm979fc2322/iiif/manifest" }, "geometry": { "type": "Polygon", "coordinates": [ [ [ 140.502778, 36.666667 ], [ 141.002778, 36.666667 ], [ 141.002778, 37.0000003 ], [ 140.502778, 37.0000003 ], [ 140.502778, 36.666667 ] ] ] } },
{ "type": "Feature", "properties": { "Id": 0, "Sheet_ID": "白河-3", "label": "白河-3", "call_short": null, "call_num": null, "recid": null, "websiteUrl": null, "title": null, "ckey": 0, "available": false, "iiifUrl": null }, "geometry": { "type": "Polygon", "coordinates": [ [ [ 140.002778, 37.0000003 ], [ 140.502778, 37.0000003 ], [ 140.502778, 37.3333337 ], [ 140.002778, 37.3333337 ], [ 140.002778, 37.0000003 ] ] ] } },
{ "type": "Feature", "properties": { "Id": 0, "Sheet_ID": "白河-1", "label": "白河-1", "call_short": "G7960 S50 .J31", "call_num": "G7960 S50 .J31 SHEET 12-1", "recid": "zn505hq4247", "websiteUrl": "https://purl.stanford.edu/zn505hq4247", "title": "集成五万分一地形圖", "ckey": 8103638, "available": true, "iiifUrl": "https://purl.stanford.edu/zn505hq4247/iiif/manifest" }, "geometry": { "type": "Polygon", "coordinates": [ [ [ 140.502778, 37.0000003 ], [ 141.086111, 37.0000003 ], [ 141.086111, 37.3333337 ], [ 140.502778, 37.3333337 ], [ 140.502778, 37.0000003 ] ] ] } },
{ "type": "Feature", "properties": { "Id": 0, "Sheet_ID": "福島-2", "label": "福島-2", "call_short": "G7960 S50 .J31", "call_num": "G7960 S50 .J31 SHEET 11-2", "recid": "dv012ms1782", "websiteUrl": "https://purl.stanford.edu/dv012ms1782", "title": "集成五万分一地形圖", "ckey": 8103638, "available": true, "iiifUrl": "https://purl.stanford.edu/dv012ms1782/iiif/manifest" }, "geometry": { "type": "Polygon", "coordinates": [ [ [ 140.502778, 37.3333337 ], [ 141.086111, 37.3333337 ], [ 141.086111, 37.666667 ], [ 140.502778, 37.666667 ], [ 140.502778, 37.3333337 ] ] ] } },
{ "type": "Feature", "properties": { "Id": 0, "Sheet_ID": "福島-1", "label": "福島-1", "call_short": null, "call_num": null, "recid": null, "websiteUrl": null, "title": null, "ckey": 0, "available": false, "iiifUrl": null }, "geometry": { "type": "Polygon", "coordinates": [ [ [ 140.502778, 37.666667 ], [ 141.036111, 37.666667 ], [ 141.036111, 38.0000003 ], [ 140.502778, 38.0000003 ], [ 140.502778, 37.666667 ] ] ] } },
{ "type": "Feature", "properties": { "Id": 0, "Sheet_ID": "仙臺-2", "label": "仙臺-2", "call_short": "G7960 S50 .J31", "call_num": "G7960 S50 .J31 SHEET 10-2", "recid": "bm404wn1555", "websiteUrl": "https://purl.stanford.edu/bm404wn1555", "title": "集成五万分一地形圖", "ckey": 8103638, "available": true, "iiifUrl": "https://purl.stanford.edu/bm404wn1555/iiif/manifest" }, "geometry": { "type": "Polygon", "coordinates": [ [ [ 140.502778, 38.0000003 ], [ 141.002778, 38.0000003 ], [ 141.002778, 38.3333337 ], [ 140.502778, 38.3333337 ], [ 140.502778, 38.0000003 ] ] ] } },
{ "type": "Feature", "properties": { "Id": 0, "Sheet_ID": "仙臺-1", "label": "仙臺-1", "call_short": null, "call_num": null, "recid": null, "websiteUrl": null, "title": null, "ckey": 0, "available": false, "iiifUrl": null }, "geometry": { "type": "Polygon", "coordinates": [ [ [ 140.502778, 38.3333337 ], [ 141.002778, 38.3333337 ], [ 141.002778, 38.666667 ], [ 140.502778, 38.666667 ], [ 140.502778, 38.3333337 ] ] ] } },
{ "type": "Feature", "properties": { "Id": 0, "Sheet_ID": "神子元島-3", "label": "神子元島-3", "call_short": null, "call_num": null, "recid": null, "websiteUrl": null, "title": null, "ckey": 0, "available": false, "iiifUrl": null }, "geometry": { "type": "Polygon", "coordinates": [ [ [ 138.002778, 34.5 ], [ 138.252778, 34.5 ], [ 138.252778, 34.6666664 ], [ 138.002778, 34.6666664 ], [ 138.002778, 34.5 ] ] ] } },
{ "type": "Feature", "properties": { "Id": 0, "Sheet_ID": "神子元島-1", "label": "神子元島-1", "call_short": null, "call_num": null, "recid": null, "websiteUrl": null, "title": null, "ckey": 0, "available": false, "iiifUrl": null }, "geometry": { "type": "Polygon", "coordinates": [ [ [ 138.752778, 34.5 ], [ 139.002778, 34.5 ], [ 139.002778, 34.6666664 ], [ 138.752778, 34.6666664 ], [ 138.752778, 34.5 ] ] ] } },
{ "type": "Feature", "properties": { "Id": 0, "Sheet_ID": "静岡-4", "label": "静岡-4", "call_short": "G7960 S50 .J31", "call_num": "G7960 S50 .J31 SHEET 22-4", "recid": "kw853dt3143", "websiteUrl": "https://purl.stanford.edu/kw853dt3143", "title": "集成五万分一地形圖", "ckey": 8103638, "available": true, "iiifUrl": "https://purl.stanford.edu/kw853dt3143/iiif/manifest" }, "geometry": { "type": "Polygon", "coordinates": [ [ [ 138.002778, 34.6666664 ], [ 138.502778, 34.6666664 ], [ 138.502778, 34.9999999 ], [ 138.002778, 34.9999999 ], [ 138.002778, 34.6666664 ] ] ] } },
{ "type": "Feature", "properties": { "Id": 0, "Sheet_ID": "横須賀-4, 静岡-2", "label": "横須賀-4, 静岡-2", "call_short": "G7960 S50 .J31", "call_num": "G7960 S50 .J31 SHEET 19-4, 22-2", "recid": "qb553qn7084", "websiteUrl": "https://purl.stanford.edu/qb553qn7084", "title": "集成五万分一地形圖", "ckey": 8103638, "available": true, "iiifUrl": "https://purl.stanford.edu/qb553qn7084/iiif/manifest" }, "geometry": { "type": "Polygon", "coordinates": [ [ [ 138.702778, 34.6666664 ], [ 139.202778, 34.6666664 ], [ 139.202778, 34.9999999 ], [ 138.702778, 34.9999999 ], [ 138.702778, 34.6666664 ] ] ] } },
{ "type": "Feature", "properties": { "Id": 0, "Sheet_ID": "横須賀-2", "label": "横須賀-2", "call_short": "G7960 S50 .J31", "call_num": "G7960 S50 .J31 SHEET 19-2", "recid": "kp202sp7263", "websiteUrl": "https://purl.stanford.edu/kp202sp7263", "title": "集成五万分一地形圖", "ckey": 8103638, "available": true, "iiifUrl": "https://purl.stanford.edu/kp202sp7263/iiif/manifest" }, "geometry": { "type": "Polygon", "coordinates": [ [ [ 139.736111, 34.833333 ], [ 140.002778, 34.833333 ], [ 140.002778, 34.9999999 ], [ 139.736111, 34.9999999 ], [ 139.736111, 34.833333 ] ] ] } },
{ "type": "Feature", "properties": { "Id": 0, "Sheet_ID": "静岡-3", "label": "静岡-3", "call_short": null, "call_num": null, "recid": null, "websiteUrl": null, "title": null, "ckey": 0, "available": false, "iiifUrl": null }, "geometry": { "type": "Polygon", "coordinates": [ [ [ 138.002778, 34.9999999 ], [ 138.502778, 34.9999999 ], [ 138.502778, 35.3333333 ], [ 138.002778, 35.3333333 ], [ 138.002778, 34.9999999 ] ] ] } },
{ "type": "Feature", "properties": { "Id": 0, "Sheet_ID": "静岡-1", "label": "静岡-1", "call_short": "G7960 S50 .J31", "call_num": "G7960 S50 .J31 SHEET 22-1", "recid": "dr326sc3257", "websiteUrl": "https://purl.stanford.edu/dr326sc3257", "title": "集成五万分一地形圖", "ckey": 8103638, "available": true, "iiifUrl": "https://purl.stanford.edu/dr326sc3257/iiif/manifest" }, "geometry": { "type": "Polygon", "coordinates": [ [ [ 138.502778, 34.9999999 ], [ 139.002778, 34.9999999 ], [ 139.002778, 35.3333333 ], [ 138.502778, 35.3333333 ], [ 138.502778, 34.9999999 ] ] ] } },
{ "type": "Feature", "properties": { "Id": 0, "Sheet_ID": "横須賀-3", "label": "横須賀-3", "call_short": "G7960 S50 .J31", "call_num": "G7960 S50 .J31 SHEET 19-3", "recid": "zm843kh9015", "websiteUrl": "https://purl.stanford.edu/zm843kh9015", "title": "集成五万分一地形圖", "ckey": 8103638, "available": true, "iiifUrl": "https://purl.stanford.edu/zm843kh9015/iiif/manifest" }, "geometry": { "type": "Polygon", "coordinates": [ [ [ 139.002778, 34.9999999 ], [ 139.502778, 34.9999999 ], [ 139.502778, 35.3333333 ], [ 139.002778, 35.3333333 ], [ 139.002778, 34.9999999 ] ] ] } },
{ "type": "Feature", "properties": { "Id": 0, "Sheet_ID": "横須賀-1", "label": "横須賀-1", "call_short": "G7960 S50 .J31", "call_num": "G7960 S50 .J31 SHEET 19-1", "recid": "sh789gy6538", "websiteUrl": "https://purl.stanford.edu/sh789gy6538", "title": "集成五万分一地形圖", "ckey": 8103638, "available": true, "iiifUrl": "https://purl.stanford.edu/sh789gy6538/iiif/manifest" }, "geometry": { "type": "Polygon", "coordinates": [ [ [ 139.502778, 34.9999999 ], [ 140.002778, 34.9999999 ], [ 140.002778, 35.3333333 ], [ 139.502778, 35.3333333 ], [ 139.502778, 34.9999999 ] ] ] } },
{ "type": "Feature", "properties": { "Id": 0, "Sheet_ID": "大多喜-3", "label": "大多喜-3", "call_short": "G7960 S50 .J31", "call_num": "G7960 S50 .J31 SHEET 15-3", "recid": "ss059ms3240", "websiteUrl": "https://purl.stanford.edu/ss059ms3240", "title": "集成五万分一地形圖", "ckey": 8103638, "available": true, "iiifUrl": "https://purl.stanford.edu/ss059ms3240/iiif/manifest" }, "geometry": { "type": "Polygon", "coordinates": [ [ [ 140.002778, 34.9999999 ], [ 140.502778, 34.9999999 ], [ 140.502778, 35.3333333 ], [ 140.002778, 35.3333333 ], [ 140.002778, 34.9999999 ] ] ] } },
{ "type": "Feature", "properties": { "Id": 0, "Sheet_ID": "甲府-4", "label": "甲府-4", "call_short": "G7960 S50 .J31", "call_num": "G7960 S50 .J31 SHEET 21-4", "recid": "nt601wp3892", "websiteUrl": "https://purl.stanford.edu/nt601wp3892", "title": "集成五万分一地形圖", "ckey": 8103638, "available": true, "iiifUrl": "https://purl.stanford.edu/nt601wp3892/iiif/manifest" }, "geometry": { "type": "Polygon", "coordinates": [ [ [ 138.002778, 35.3333333 ], [ 138.502778, 35.3333333 ], [ 138.502778, 35.6666667 ], [ 138.002778, 35.6666667 ], [ 138.002778, 35.3333333 ] ] ] } },
{ "type": "Feature", "properties": { "Id": 0, "Sheet_ID": "甲府-2", "label": "甲府-2", "call_short": "G7960 S50 .J31", "call_num": "G7960 S50 .J31 SHEET 21-2", "recid": "dj074dy5199", "websiteUrl": "https://purl.stanford.edu/dj074dy5199", "title": "集成五万分一地形圖", "ckey": 8103638, "available": true, "iiifUrl": "https://purl.stanford.edu/dj074dy5199/iiif/manifest" }, "geometry": { "type": "Polygon", "coordinates": [ [ [ 138.502778, 35.3333333 ], [ 139.002778, 35.3333333 ], [ 139.002778, 35.6666667 ], [ 138.502778, 35.6666667 ], [ 138.502778, 35.3333333 ] ] ] } },
{ "type": "Feature", "properties": { "Id": 0, "Sheet_ID": "東京-4", "label": "東京-4", "call_short": "G7960 S50 .J31", "call_num": "G7960 S50 .J31 SHEET 18-4", "recid": "fk544vd2974", "websiteUrl": "https://purl.stanford.edu/fk544vd2974", "title": "集成五万分一地形圖", "ckey": 8103638, "available": true, "iiifUrl": "https://purl.stanford.edu/fk544vd2974/iiif/manifest" }, "geometry": { "type": "Polygon", "coordinates": [ [ [ 139.002778, 35.3333333 ], [ 139.502778, 35.3333333 ], [ 139.502778, 35.6666667 ], [ 139.002778, 35.6666667 ], [ 139.002778, 35.3333333 ] ] ] } },
{ "type": "Feature", "properties": { "Id": 0, "Sheet_ID": "東京-2", "label": "東京-2", "call_short": "G7960 S50 .J31", "call_num": "G7960 S50 .J31 SHEET 18-2", "recid": "yk941fs8124", "websiteUrl": "https://purl.stanford.edu/yk941fs8124", "title": "集成五万分一地形圖", "ckey": 8103638, "available": true, "iiifUrl": "https://purl.stanford.edu/yk941fs8124/iiif/manifest" }, "geometry": { "type": "Polygon", "coordinates": [ [ [ 139.502778, 35.3333333 ], [ 140.002778, 35.3333333 ], [ 140.002778, 35.6666667 ], [ 139.502778, 35.6666667 ], [ 139.502778, 35.3333333 ] ] ] } },
{ "type": "Feature", "properties": { "Id": 0, "Sheet_ID": "佐倉-4", "label": "佐倉-4", "call_short": "G7960 S50 .J31", "call_num": "G7960 S50 .J31 SHEET 14-4", "recid": "mb594ck0101", "websiteUrl": "https://purl.stanford.edu/mb594ck0101", "title": "集成五万分一地形圖", "ckey": 8103638, "available": true, "iiifUrl": "https://purl.stanford.edu/mb594ck0101/iiif/manifest" }, "geometry": { "type": "Polygon", "coordinates": [ [ [ 140.002778, 35.3333333 ], [ 140.502778, 35.3333333 ], [ 140.502778, 35.6666667 ], [ 140.002778, 35.6666667 ], [ 140.002778, 35.3333333 ] ] ] } },
{ "type": "Feature", "properties": { "Id": 0, "Sheet_ID": "佐倉-2", "label": "佐倉-2", "call_short": "G7960 S50 .J31", "call_num": "G7960 S50 .J31 SHEET 14-2", "recid": "rp554sz0001", "websiteUrl": "https://purl.stanford.edu/rp554sz0001", "title": "集成五万分一地形圖", "ckey": 8103638, "available": true, "iiifUrl": "https://purl.stanford.edu/rp554sz0001/iiif/manifest" }, "geometry": { "type": "Polygon", "coordinates": [ [ [ 140.502778, 35.5 ], [ 140.752778, 35.5 ], [ 140.752778, 35.6666667 ], [ 140.502778, 35.6666667 ], [ 140.502778, 35.5 ] ] ] } },
{ "type": "Feature", "properties": { "Id": 0, "Sheet_ID": "甲府-3", "label": "甲府-3", "call_short": "G7960 S50 .J31", "call_num": "G7960 S50 .J31 SHEET 21-3", "recid": "bh894tc4811", "websiteUrl": "https://purl.stanford.edu/bh894tc4811", "title": "集成五万分一地形圖", "ckey": 8103638, "available": true, "iiifUrl": "https://purl.stanford.edu/bh894tc4811/iiif/manifest" }, "geometry": { "type": "Polygon", "coordinates": [ [ [ 138.002778, 35.6666667 ], [ 138.502778, 35.6666667 ], [ 138.502778, 36.0000001 ], [ 138.002778, 36.0000001 ], [ 138.002778, 35.6666667 ] ] ] } },
{ "type": "Feature", "properties": { "Id": 0, "Sheet_ID": "甲府-1", "label": "甲府-1", "call_short": "G7960 S50 .J31", "call_num": "G7960 S50 .J31 SHEET 21-1", "recid": "qv530tm8379", "websiteUrl": "https://purl.stanford.edu/qv530tm8379", "title": "集成五万分一地形圖", "ckey": 8103638, "available": true, "iiifUrl": "https://purl.stanford.edu/qv530tm8379/iiif/manifest" }, "geometry": { "type": "Polygon", "coordinates": [ [ [ 138.502778, 35.6666667 ], [ 139.002778, 35.6666667 ], [ 139.002778, 36.0000001 ], [ 138.502778, 36.0000001 ], [ 138.502778, 35.6666667 ] ] ] } },
{ "type": "Feature", "properties": { "Id": 0, "Sheet_ID": "東京-3", "label": "東京-3", "call_short": "G7960 S50 .J31", "call_num": "G7960 S50 .J31 SHEET 18-3", "recid": "nr486nq2511", "websiteUrl": "https://purl.stanford.edu/nr486nq2511", "title": "集成五万分一地形圖", "ckey": 8103638, "available": true, "iiifUrl": "https://purl.stanford.edu/nr486nq2511/iiif/manifest" }, "geometry": { "type": "Polygon", "coordinates": [ [ [ 139.002778, 35.6666667 ], [ 139.502778, 35.6666667 ], [ 139.502778, 36.0000001 ], [ 139.002778, 36.0000001 ], [ 139.002778, 35.6666667 ] ] ] } },
{ "type": "Feature", "properties": { "Id": 0, "Sheet_ID": "東京-1", "label": "東京-1", "call_short": "G7960 S50 .J31", "call_num": "G7960 S50 .J31 SHEET 18-1", "recid": "sn347jm4106", "websiteUrl": "https://purl.stanford.edu/sn347jm4106", "title": "集成五万分一地形圖", "ckey": 8103638, "available": true, "iiifUrl": "https://purl.stanford.edu/sn347jm4106/iiif/manifest" }, "geometry": { "type": "Polygon", "coordinates": [ [ [ 139.502778, 35.6666667 ], [ 140.002778, 35.6666667 ], [ 140.002778, 36.0000001 ], [ 139.502778, 36.0000001 ], [ 139.502778, 35.6666667 ] ] ] } },
{ "type": "Feature", "properties": { "Id": 0, "Sheet_ID": "佐倉-3", "label": "佐倉-3", "call_short": null, "call_num": null, "recid": null, "websiteUrl": null, "title": null, "ckey": 0, "available": false, "iiifUrl": null }, "geometry": { "type": "Polygon", "coordinates": [ [ [ 140.002778, 35.6666667 ], [ 140.502778, 35.6666667 ], [ 140.502778, 36.0000001 ], [ 140.002778, 36.0000001 ], [ 140.002778, 35.6666667 ] ] ] } },
{ "type": "Feature", "properties": { "Id": 0, "Sheet_ID": "佐倉-1", "label": "佐倉-1", "call_short": null, "call_num": null, "recid": null, "websiteUrl": null, "title": null, "ckey": 0, "available": false, "iiifUrl": null }, "geometry": { "type": "Polygon", "coordinates": [ [ [ 140.502778, 35.6666667 ], [ 141.002778, 35.6666667 ], [ 141.002778, 36.0000001 ], [ 140.502778, 36.0000001 ], [ 140.502778, 35.6666667 ] ] ] } },
{ "type": "Feature", "properties": { "Id": 0, "Sheet_ID": "長野-2", "label": "長野-2", "call_short": "G7960 S50 .J31", "call_num": "G7960 S50 .J31 SHEET 20-2", "recid": "wz049gs2579", "websiteUrl": "https://purl.stanford.edu/wz049gs2579", "title": "集成五万分一地形圖", "ckey": 8103638, "available": true, "iiifUrl": "https://purl.stanford.edu/wz049gs2579/iiif/manifest" }, "geometry": { "type": "Polygon", "coordinates": [ [ [ 138.502778, 36.0000001 ], [ 139.002778, 36.0000001 ], [ 139.002778, 36.3333336 ], [ 138.502778, 36.3333336 ], [ 138.502778, 36.0000001 ] ] ] } },
{ "type": "Feature", "properties": { "Id": 0, "Sheet_ID": "宇都宮-4", "label": "宇都宮-4", "call_short": null, "call_num": null, "recid": null, "websiteUrl": null, "title": null, "ckey": 0, "available": false, "iiifUrl": null }, "geometry": { "type": "Polygon", "coordinates": [ [ [ 139.002778, 36.0000001 ], [ 139.502778, 36.0000001 ], [ 139.502778, 36.3333336 ], [ 139.002778, 36.3333336 ], [ 139.002778, 36.0000001 ] ] ] } },
{ "type": "Feature", "properties": { "Id": 0, "Sheet_ID": "宇都宮-2", "label": "宇都宮-2", "call_short": "G7960 S50 .J31", "call_num": "G7960 S50 .J31 SHEET 17-2", "recid": "rx813zg3736", "websiteUrl": "https://purl.stanford.edu/rx813zg3736", "title": "集成五万分一地形圖", "ckey": 8103638, "available": true, "iiifUrl": "https://purl.stanford.edu/rx813zg3736/iiif/manifest" }, "geometry": { "type": "Polygon", "coordinates": [ [ [ 139.502778, 36.0000001 ], [ 140.002778, 36.0000001 ], [ 140.002778, 36.3333336 ], [ 139.502778, 36.3333336 ], [ 139.502778, 36.0000001 ] ] ] } },
{ "type": "Feature", "properties": { "Id": 0, "Sheet_ID": "水戸-4", "label": "水戸-4", "call_short": null, "call_num": null, "recid": null, "websiteUrl": null, "title": null, "ckey": 0, "available": false, "iiifUrl": null }, "geometry": { "type": "Polygon", "coordinates": [ [ [ 140.002778, 36.0000001 ], [ 140.502778, 36.0000001 ], [ 140.502778, 36.3333336 ], [ 140.002778, 36.3333336 ], [ 140.002778, 36.0000001 ] ] ] } },
{ "type": "Feature", "properties": { "Id": 0, "Sheet_ID": "水戸-2", "label": "水戸-2", "call_short": null, "call_num": null, "recid": null, "websiteUrl": null, "title": null, "ckey": 0, "available": false, "iiifUrl": null }, "geometry": { "type": "Polygon", "coordinates": [ [ [ 140.502778, 36.0000001 ], [ 140.752778, 36.0000001 ], [ 140.752778, 36.3333336 ], [ 140.502778, 36.3333336 ], [ 140.502778, 36.0000001 ] ] ] } },
{ "type": "Feature", "properties": { "Id": 0, "Sheet_ID": "長野-1", "label": "長野-1", "call_short": "G7960 S50 .J31", "call_num": "G7960 S50 .J31 SHEET 20-1", "recid": "hc141qh7136", "websiteUrl": "https://purl.stanford.edu/hc141qh7136", "title": "集成五万分一地形圖", "ckey": 8103638, "available": true, "iiifUrl": "https://purl.stanford.edu/hc141qh7136/iiif/manifest" }, "geometry": { "type": "Polygon", "coordinates": [ [ [ 138.502778, 36.3333336 ], [ 139.002778, 36.3333336 ], [ 139.002778, 36.666667 ], [ 138.502778, 36.666667 ], [ 138.502778, 36.3333336 ] ] ] } },
{ "type": "Feature", "properties": { "Id": 0, "Sheet_ID": "宇都宮-3", "label": "宇都宮-3", "call_short": null, "call_num": null, "recid": null, "websiteUrl": null, "title": null, "ckey": 0, "available": false, "iiifUrl": null }, "geometry": { "type": "Polygon", "coordinates": [ [ [ 139.002778, 36.3333336 ], [ 139.502778, 36.3333336 ], [ 139.502778, 36.666667 ], [ 139.002778, 36.666667 ], [ 139.002778, 36.3333336 ] ] ] } },
{ "type": "Feature", "properties": { "Id": 0, "Sheet_ID": "宇都宮-1", "label": "宇都宮-1", "call_short": null, "call_num": null, "recid": null, "websiteUrl": null, "title": null, "ckey": 0, "available": false, "iiifUrl": null }, "geometry": { "type": "Polygon", "coordinates": [ [ [ 139.502778, 36.3333336 ], [ 140.002778, 36.3333336 ], [ 140.002778, 36.666667 ], [ 139.502778, 36.666667 ], [ 139.502778, 36.3333336 ] ] ] } },
{ "type": "Feature", "properties": { "Id": 0, "Sheet_ID": "水戸-3", "label": "水戸-3", "call_short": "G7960 S50 .J31", "call_num": "G7960 S50 .J31 SHEET 13-3", "recid": "qk525cg9219", "websiteUrl": "https://purl.stanford.edu/qk525cg9219", "title": "集成五万分一地形圖", "ckey": 8103638, "available": true, "iiifUrl": "https://purl.stanford.edu/qk525cg9219/iiif/manifest" }, "geometry": { "type": "Polygon", "coordinates": [ [ [ 140.002778, 36.3333336 ], [ 140.502778, 36.3333336 ], [ 140.502778, 36.666667 ], [ 140.002778, 36.666667 ], [ 140.002778, 36.3333336 ] ] ] } },
{ "type": "Feature", "properties": { "Id": 0, "Sheet_ID": "水戸-1", "label": "水戸-1", "call_short": null, "call_num": null, "recid": null, "websiteUrl": null, "title": null, "ckey": 0, "available": false, "iiifUrl": null }, "geometry": { "type": "Polygon", "coordinates": [ [ [ 140.502778, 36.3333336 ], [ 140.752778, 36.3333336 ], [ 140.752778, 36.666667 ], [ 140.502778, 36.666667 ], [ 140.502778, 36.3333336 ] ] ] } },
{ "type": "Feature", "properties": { "Id": 0, "Sheet_ID": "東京-1 ED.2", "label": "東京-1 ED.2", "call_short": "G7960 S50 .J31", "call_num": "G7960 S50 .J31 SHEET 18-1 ED.2", "recid": "tc887dr3445", "websiteUrl": "https://purl.stanford.edu/tc887dr3445", "title": "集成五万分一地形圖", "ckey": 8103638, "available": true, "iiifUrl": "https://purl.stanford.edu/tc887dr3445/iiif/manifest" }, "geometry": { "type": "Polygon", "coordinates": [ [ [ 139.502778, 35.6666667 ], [ 140.002778, 35.6666667 ], [ 140.002778, 36.0000001 ], [ 139.502778, 36.0000001 ], [ 139.502778, 35.6666667 ] ] ] } },
{ "type": "Feature", "properties": { "Id": 0, "Sheet_ID": "東京-3 ED.2", "label": "東京-3 ED.2", "call_short": "G7960 S50 .J31", "call_num": "G7960 S50 .J31 SHEET 18-3 ED.2", "recid": "nh342nw9280", "websiteUrl": "https://purl.stanford.edu/nh342nw9280", "title": "集成五万分一地形圖", "ckey": 8103638, "available": true, "iiifUrl": "https://purl.stanford.edu/nh342nw9280/iiif/manifest" }, "geometry": { "type": "Polygon", "coordinates": [ [ [ 139.002778, 35.6666667 ], [ 139.502778, 35.6666667 ], [ 139.502778, 36.0000001 ], [ 139.002778, 36.0000001 ], [ 139.002778, 35.6666667 ] ] ] } },
{ "type": "Feature", "properties": { "Id": 0, "Sheet_ID": "木本-3", "label": "木本-3", "call_short": "G7960 S50 .J31", "call_num": "G7960 S50 .J31 SHEET 30-3", "recid": "bn658ty0813", "websiteUrl": "https://purl.stanford.edu/bn658ty0813", "title": "集成五万分一地形圖", "ckey": 8103638, "available": true, "iiifUrl": "https://purl.stanford.edu/bn658ty0813/iiif/manifest" }, "geometry": { "type": "Polygon", "coordinates": [ [ [ 136.002778, 33.666667 ], [ 136.302778, 33.666667 ], [ 136.302778, 34.0000002 ], [ 136.002778, 34.0000002 ], [ 136.002778, 33.666667 ] ] ] } },
{ "type": "Feature", "properties": { "Id": 0, "Sheet_ID": "宇治山田-4", "label": "宇治山田-4", "call_short": "G7960 S50 .J31", "call_num": "G7960 S50 .J31 SHEET 29-4", "recid": "nd869ff0593", "websiteUrl": "https://purl.stanford.edu/nd869ff0593", "title": "集成五万分一地形圖", "ckey": 8103638, "available": true, "iiifUrl": "https://purl.stanford.edu/nd869ff0593/iiif/manifest" }, "geometry": { "type": "Polygon", "coordinates": [ [ [ 136.002778, 34.0000002 ], [ 136.502778, 34.0000002 ], [ 136.502778, 34.3333334 ], [ 136.002778, 34.3333334 ], [ 136.002778, 34.0000002 ] ] ] } },
{ "type": "Feature", "properties": { "Id": 0, "Sheet_ID": "宇治山田-2", "label": "宇治山田-2", "call_short": null, "call_num": null, "recid": null, "websiteUrl": null, "title": null, "ckey": 0, "available": false, "iiifUrl": null }, "geometry": { "type": "Polygon", "coordinates": [ [ [ 136.502778, 34.166667 ], [ 137.002778, 34.166667 ], [ 137.002778, 34.3333334 ], [ 136.502778, 34.3333334 ], [ 136.502778, 34.166667 ] ] ] } },
{ "type": "Feature", "properties": { "Id": 0, "Sheet_ID": "宇治山田-3", "label": "宇治山田-3", "call_short": "G7960 S50 .J31", "call_num": "G7960 S50 .J31 SHEET 29-3", "recid": "ry314hr0603", "websiteUrl": "https://purl.stanford.edu/ry314hr0603", "title": "集成五万分一地形圖", "ckey": 8103638, "available": true, "iiifUrl": "https://purl.stanford.edu/ry314hr0603/iiif/manifest" }, "geometry": { "type": "Polygon", "coordinates": [ [ [ 136.002778, 34.3333334 ], [ 136.502778, 34.3333334 ], [ 136.502778, 34.6666666 ], [ 136.002778, 34.6666666 ], [ 136.002778, 34.3333334 ] ] ] } },
{ "type": "Feature", "properties": { "Id": 0, "Sheet_ID": "宇治山田-1", "label": "宇治山田-1", "call_short": "G7960 S50 .J31", "call_num": "G7960 S50 .J31 SHEET 29-1", "recid": "ny447ps6406", "websiteUrl": "https://purl.stanford.edu/ny447ps6406", "title": "集成五万分一地形圖", "ckey": 8103638, "available": true, "iiifUrl": "https://purl.stanford.edu/ny447ps6406/iiif/manifest" }, "geometry": { "type": "Polygon", "coordinates": [ [ [ 136.502778, 34.3333334 ], [ 137.002778, 34.3333334 ], [ 137.002778, 34.6666666 ], [ 136.502778, 34.6666666 ], [ 136.502778, 34.3333334 ] ] ] } },
{ "type": "Feature", "properties": { "Id": 0, "Sheet_ID": "伊良湖岬-3", "label": "伊良湖岬-3", "call_short": "G7960 S50 .J31", "call_num": "G7960 S50 .J31 SHEET 25-3", "recid": "dt738hj4267", "websiteUrl": "https://purl.stanford.edu/dt738hj4267", "title": "集成五万分一地形圖", "ckey": 8103638, "available": true, "iiifUrl": "https://purl.stanford.edu/dt738hj4267/iiif/manifest" }, "geometry": { "type": "Polygon", "coordinates": [ [ [ 137.002778, 34.5 ], [ 137.502778, 34.5 ], [ 137.502778, 34.6666666 ], [ 137.002778, 34.6666666 ], [ 137.002778, 34.5 ] ] ] } },
{ "type": "Feature", "properties": { "Id": 0, "Sheet_ID": "伊良湖岬-1", "label": "伊良湖岬-1", "call_short": "G7960 S50 .J31", "call_num": "G7960 S50 .J31 SHEET 25-1", "recid": "fh660tg4934", "websiteUrl": "https://purl.stanford.edu/fh660tg4934", "title": "集成五万分一地形圖", "ckey": 8103638, "available": true, "iiifUrl": "https://purl.stanford.edu/fh660tg4934/iiif/manifest" }, "geometry": { "type": "Polygon", "coordinates": [ [ [ 137.669444, 34.5 ], [ 138.002778, 34.5 ], [ 138.002778, 34.6666666 ], [ 137.669444, 34.6666666 ], [ 137.669444, 34.5 ] ] ] } },
{ "type": "Feature", "properties": { "Id": 0, "Sheet_ID": "名古屋-4", "label": "名古屋-4", "call_short": "G7960 S50 .J31", "call_num": "G7960 S50 .J31 SHEET 28-4", "recid": "hj296dg4304", "websiteUrl": "https://purl.stanford.edu/hj296dg4304", "title": "集成五万分一地形圖", "ckey": 8103638, "available": true, "iiifUrl": "https://purl.stanford.edu/hj296dg4304/iiif/manifest" }, "geometry": { "type": "Polygon", "coordinates": [ [ [ 136.002778, 34.6666666 ], [ 136.502778, 34.6666666 ], [ 136.502778, 34.9999998 ], [ 136.002778, 34.9999998 ], [ 136.002778, 34.6666666 ] ] ] } },
{ "type": "Feature", "properties": { "Id": 0, "Sheet_ID": "名古屋-2", "label": "名古屋-2", "call_short": "G7960 S50 .J31", "call_num": "G7960 S50 .J31 SHEET 28-2", "recid": "nw487vn5764", "websiteUrl": "https://purl.stanford.edu/nw487vn5764", "title": "集成五万分一地形圖", "ckey": 8103638, "available": true, "iiifUrl": "https://purl.stanford.edu/nw487vn5764/iiif/manifest" }, "geometry": { "type": "Polygon", "coordinates": [ [ [ 136.502778, 34.6666666 ], [ 137.002778, 34.6666666 ], [ 137.002778, 34.9999998 ], [ 136.502778, 34.9999998 ], [ 136.502778, 34.6666666 ] ] ] } },
{ "type": "Feature", "properties": { "Id": 0, "Sheet_ID": "豊橋-4", "label": "豊橋-4", "call_short": "G7960 S50 .J31", "call_num": "G7960 S50 .J31 SHEET 24-4", "recid": "yg087sq7741", "websiteUrl": "https://purl.stanford.edu/yg087sq7741", "title": "集成五万分一地形圖", "ckey": 8103638, "available": true, "iiifUrl": "https://purl.stanford.edu/yg087sq7741/iiif/manifest" }, "geometry": { "type": "Polygon", "coordinates": [ [ [ 137.002778, 34.6666666 ], [ 137.502778, 34.6666666 ], [ 137.502778, 34.9999998 ], [ 137.002778, 34.9999998 ], [ 137.002778, 34.6666666 ] ] ] } },
{ "type": "Feature", "properties": { "Id": 0, "Sheet_ID": "豊橋-2", "label": "豊橋-2", "call_short": "G7960 S50 .J31", "call_num": "G7960 S50 .J31 SHEET 24-2", "recid": "bj820ky2235", "websiteUrl": "https://purl.stanford.edu/bj820ky2235", "title": "集成五万分一地形圖", "ckey": 8103638, "available": true, "iiifUrl": "https://purl.stanford.edu/bj820ky2235/iiif/manifest" }, "geometry": { "type": "Polygon", "coordinates": [ [ [ 137.502778, 34.6666666 ], [ 138.002778, 34.6666666 ], [ 138.002778, 34.9999998 ], [ 137.502778, 34.9999998 ], [ 137.502778, 34.6666666 ] ] ] } },
{ "type": "Feature", "properties": { "Id": 0, "Sheet_ID": "名古屋-3", "label": "名古屋-3", "call_short": "G7960 S50 .J31", "call_num": "G7960 S50 .J31 SHEET 28-3", "recid": "tj626hk0566", "websiteUrl": "https://purl.stanford.edu/tj626hk0566", "title": "集成五万分一地形圖", "ckey": 8103638, "available": true, "iiifUrl": "https://purl.stanford.edu/tj626hk0566/iiif/manifest" }, "geometry": { "type": "Polygon", "coordinates": [ [ [ 136.002778, 34.9999998 ], [ 136.502778, 34.9999998 ], [ 136.502778, 35.333333 ], [ 136.002778, 35.333333 ], [ 136.002778, 34.9999998 ] ] ] } },
{ "type": "Feature", "properties": { "Id": 0, "Sheet_ID": "名古屋-1", "label": "名古屋-1", "call_short": "G7960 S50 .J31", "call_num": "G7960 S50 .J31 SHEET 28-1", "recid": "dt269zb4682", "websiteUrl": "https://purl.stanford.edu/dt269zb4682", "title": "集成五万分一地形圖", "ckey": 8103638, "available": true, "iiifUrl": "https://purl.stanford.edu/dt269zb4682/iiif/manifest" }, "geometry": { "type": "Polygon", "coordinates": [ [ [ 136.502778, 34.9999998 ], [ 137.002778, 34.9999998 ], [ 137.002778, 35.333333 ], [ 136.502778, 35.333333 ], [ 136.502778, 34.9999998 ] ] ] } },
{ "type": "Feature", "properties": { "Id": 0, "Sheet_ID": "豊橋-3", "label": "豊橋-3", "call_short": "G7960 S50 .J31", "call_num": "G7960 S50 .J31 SHEET 24-3", "recid": "rs523zy9218", "websiteUrl": "https://purl.stanford.edu/rs523zy9218", "title": "集成五万分一地形圖", "ckey": 8103638, "available": true, "iiifUrl": "https://purl.stanford.edu/rs523zy9218/iiif/manifest" }, "geometry": { "type": "Polygon", "coordinates": [ [ [ 137.002778, 34.9999998 ], [ 137.502778, 34.9999998 ], [ 137.502778, 35.333333 ], [ 137.002778, 35.333333 ], [ 137.002778, 34.9999998 ] ] ] } },
{ "type": "Feature", "properties": { "Id": 0, "Sheet_ID": "豊橋-1", "label": "豊橋-1", "call_short": "G7960 S50 .J31", "call_num": "G7960 S50 .J31 SHEET 24-1", "recid": "ns824dd0078", "websiteUrl": "https://purl.stanford.edu/ns824dd0078", "title": "集成五万分一地形圖", "ckey": 8103638, "available": true, "iiifUrl": "https://purl.stanford.edu/ns824dd0078/iiif/manifest" }, "geometry": { "type": "Polygon", "coordinates": [ [ [ 137.502778, 34.9999998 ], [ 138.002778, 34.9999998 ], [ 138.002778, 35.333333 ], [ 137.502778, 35.333333 ], [ 137.502778, 34.9999998 ] ] ] } },
{ "type": "Feature", "properties": { "Id": 0, "Sheet_ID": "岐阜-3", "label": "岐阜-3", "call_short": null, "call_num": null, "recid": null, "websiteUrl": null, "title": null, "ckey": 0, "available": false, "iiifUrl": null }, "geometry": { "type": "Polygon", "coordinates": [ [ [ 135.936111, 35.666667 ], [ 136.502778, 35.666667 ], [ 136.502778, 36.0000003 ], [ 135.936111, 36.0000003 ], [ 135.936111, 35.666667 ] ] ] } },
{ "type": "Feature", "properties": { "Id": 0, "Sheet_ID": "金澤-4 西", "label": "金澤-4 西", "call_short": "G7960 S50 .J31", "call_num": "G7960 S50 .J31 SHEET 26-4W", "recid": "fs034bk1581", "websiteUrl": "https://purl.stanford.edu/fs034bk1581", "title": "集成五万分一地形圖", "ckey": 8103638, "available": true, "iiifUrl": "https://purl.stanford.edu/fs034bk1581/iiif/manifest" }, "geometry": { "type": "Polygon", "coordinates": [ [ [ 135.936111, 36.0000003 ], [ 136.252778, 36.0000003 ], [ 136.252778, 36.3333337 ], [ 135.936111, 36.3333337 ], [ 135.936111, 36.0000003 ] ] ] } },
{ "type": "Feature", "properties": { "Id": 0, "Sheet_ID": "金澤-2", "label": "金澤-2", "call_short": null, "call_num": null, "recid": null, "websiteUrl": null, "title": null, "ckey": 0, "available": false, "iiifUrl": null }, "geometry": { "type": "Polygon", "coordinates": [ [ [ 136.502778, 36.0000003 ], [ 137.002778, 36.0000003 ], [ 137.002778, 36.3333337 ], [ 136.502778, 36.3333337 ], [ 136.502778, 36.0000003 ] ] ] } },
{ "type": "Feature", "properties": { "Id": 0, "Sheet_ID": "金澤-3", "label": "金澤-3", "call_short": null, "call_num": null, "recid": null, "websiteUrl": null, "title": null, "ckey": 0, "available": false, "iiifUrl": null }, "geometry": { "type": "Polygon", "coordinates": [ [ [ 136.002778, 36.3333337 ], [ 136.502778, 36.3333337 ], [ 136.502778, 36.666667 ], [ 136.002778, 36.666667 ], [ 136.002778, 36.3333337 ] ] ] } },
{ "type": "Feature", "properties": { "Id": 0, "Sheet_ID": "剣山-4 南", "label": "剣山-4 南", "call_short": null, "call_num": null, "recid": null, "websiteUrl": null, "title": null, "ckey": 0, "available": false, "iiifUrl": null }, "geometry": { "type": "Polygon", "coordinates": [ [ [ 134.002778, 33.166667 ], [ 134.252778, 33.166667 ], [ 134.252778, 33.3333334 ], [ 134.002778, 33.3333334 ], [ 134.002778, 33.166667 ] ] ] } },
{ "type": "Feature", "properties": { "Id": 0, "Sheet_ID": "剣山-4", "label": "剣山-4", "call_short": "G7960 S50 .J31", "call_num": "G7960 S50 .J31 SHEET 41-4", "recid": "yz716ht5623", "websiteUrl": "https://purl.stanford.edu/yz716ht5623", "title": "集成五万分一地形圖", "ckey": 8103638, "available": true, "iiifUrl": "https://purl.stanford.edu/yz716ht5623/iiif/manifest" }, "geometry": { "type": "Polygon", "coordinates": [ [ [ 134.002778, 33.3333334 ], [ 134.502778, 33.3333334 ], [ 134.502778, 33.6666668 ], [ 134.002778, 33.6666668 ], [ 134.002778, 33.3333334 ] ] ] } },
{ "type": "Feature", "properties": { "Id": 0, "Sheet_ID": "田辺-4", "label": "田辺-4", "call_short": null, "call_num": null, "recid": null, "websiteUrl": null, "title": null, "ckey": 0, "available": false, "iiifUrl": null }, "geometry": { "type": "Polygon", "coordinates": [ [ [ 135.252778, 33.5 ], [ 135.502778, 33.5 ], [ 135.502778, 33.6666667 ], [ 135.252778, 33.6666667 ], [ 135.252778, 33.5 ] ] ] } },
{ "type": "Feature", "properties": { "Id": 0, "Sheet_ID": "田辺-2", "label": "田辺-2", "call_short": "G7960 S50 .J31", "call_num": "G7960 S50 .J31 SHEET 34-2", "recid": "xk420kn8387", "websiteUrl": "https://purl.stanford.edu/xk420kn8387", "title": "集成五万分一地形圖", "ckey": 8103638, "available": true, "iiifUrl": "https://purl.stanford.edu/xk420kn8387/iiif/manifest" }, "geometry": { "type": "Polygon", "coordinates": [ [ [ 135.502778, 33.3333334 ], [ 136.002778, 33.3333334 ], [ 136.002778, 33.6666668 ], [ 135.502778, 33.6666668 ], [ 135.502778, 33.3333334 ] ] ] } },
{ "type": "Feature", "properties": { "Id": 0, "Sheet_ID": "剣山-3", "label": "剣山-3", "call_short": "G7960 S50 .J31", "call_num": "G7960 S50 .J31 SHEET 41-3", "recid": "yb831hp3070", "websiteUrl": "https://purl.stanford.edu/yb831hp3070", "title": "集成五万分一地形圖", "ckey": 8103638, "available": true, "iiifUrl": "https://purl.stanford.edu/yb831hp3070/iiif/manifest" }, "geometry": { "type": "Polygon", "coordinates": [ [ [ 134.002778, 33.6666667 ], [ 134.502778, 33.6666667 ], [ 134.502778, 34.0000001 ], [ 134.002778, 34.0000001 ], [ 134.002778, 33.6666667 ] ] ] } },
{ "type": "Feature", "properties": { "Id": 0, "Sheet_ID": "剣山-1", "label": "剣山-1", "call_short": "G7960 S50 .J31", "call_num": "G7960 S50 .J31 SHEET 41-1", "recid": "tf968st9644", "websiteUrl": "https://purl.stanford.edu/tf968st9644", "title": "集成五万分一地形圖", "ckey": 8103638, "available": true, "iiifUrl": "https://purl.stanford.edu/tf968st9644/iiif/manifest" }, "geometry": { "type": "Polygon", "coordinates": [ [ [ 134.502778, 33.6666667 ], [ 135.002778, 33.6666667 ], [ 135.002778, 34.0000001 ], [ 134.502778, 34.0000001 ], [ 134.502778, 33.6666667 ] ] ] } },
{ "type": "Feature", "properties": { "Id": 0, "Sheet_ID": "田辺-3", "label": "田辺-3", "call_short": "G7960 S50 .J31", "call_num": "G7960 S50 .J31 SHEET 34-3", "recid": "dz769yj0121", "websiteUrl": "https://purl.stanford.edu/dz769yj0121", "title": "集成五万分一地形圖", "ckey": 8103638, "available": true, "iiifUrl": "https://purl.stanford.edu/dz769yj0121/iiif/manifest" }, "geometry": { "type": "Polygon", "coordinates": [ [ [ 135.002778, 33.6666667 ], [ 135.502778, 33.6666667 ], [ 135.502778, 34.0000001 ], [ 135.002778, 34.0000001 ], [ 135.002778, 33.6666667 ] ] ] } },
{ "type": "Feature", "properties": { "Id": 0, "Sheet_ID": "田辺-1", "label": "田辺-1", "call_short": "G7960 S50 .J31", "call_num": "G7960 S50 .J31 SHEET 34-1", "recid": "qc005xy4058", "websiteUrl": "https://purl.stanford.edu/qc005xy4058", "title": "集成五万分一地形圖", "ckey": 8103638, "available": true, "iiifUrl": "https://purl.stanford.edu/qc005xy4058/iiif/manifest" }, "geometry": { "type": "Polygon", "coordinates": [ [ [ 135.502778, 33.6666667 ], [ 136.002778, 33.6666667 ], [ 136.002778, 34.0000001 ], [ 135.502778, 34.0000001 ], [ 135.502778, 33.6666667 ] ] ] } },
{ "type": "Feature", "properties": { "Id": 0, "Sheet_ID": "徳島-2", "label": "徳島-2", "call_short": "G7960 S50 .J31", "call_num": "G7960 S50 .J31 SHEET 40-2", "recid": "qq181mr0738", "websiteUrl": "https://purl.stanford.edu/qq181mr0738", "title": "集成五万分一地形圖", "ckey": 8103638, "available": true, "iiifUrl": "https://purl.stanford.edu/qq181mr0738/iiif/manifest" }, "geometry": { "type": "Polygon", "coordinates": [ [ [ 134.502778, 34.0000001 ], [ 135.002778, 34.0000001 ], [ 135.002778, 34.3333335 ], [ 134.502778, 34.3333335 ], [ 134.502778, 34.0000001 ] ] ] } },
{ "type": "Feature", "properties": { "Id": 0, "Sheet_ID": "和歌山-4", "label": "和歌山-4", "call_short": "G7960 S50 .J31", "call_num": "G7960 S50 .J31 SHEET 33-4", "recid": "fq943tb9237", "websiteUrl": "https://purl.stanford.edu/fq943tb9237", "title": "集成五万分一地形圖", "ckey": 8103638, "available": true, "iiifUrl": "https://purl.stanford.edu/fq943tb9237/iiif/manifest" }, "geometry": { "type": "Polygon", "coordinates": [ [ [ 135.002778, 34.0000001 ], [ 135.502778, 34.0000001 ], [ 135.502778, 34.3333335 ], [ 135.002778, 34.3333335 ], [ 135.002778, 34.0000001 ] ] ] } },
{ "type": "Feature", "properties": { "Id": 0, "Sheet_ID": "和歌山-2", "label": "和歌山-2", "call_short": "G7960 S50 .J31", "call_num": "G7960 S50 .J31 SHEET 33-2", "recid": "dd357kz3581", "websiteUrl": "https://purl.stanford.edu/dd357kz3581", "title": "集成五万分一地形圖", "ckey": 8103638, "available": true, "iiifUrl": "https://purl.stanford.edu/dd357kz3581/iiif/manifest" }, "geometry": { "type": "Polygon", "coordinates": [ [ [ 135.502778, 34.0000001 ], [ 136.002778, 34.0000001 ], [ 136.002778, 34.3333335 ], [ 135.502778, 34.3333335 ], [ 135.502778, 34.0000001 ] ] ] } },
{ "type": "Feature", "properties": { "Id": 0, "Sheet_ID": "徳島-1", "label": "徳島-1", "call_short": "G7960 S50 .J31", "call_num": "G7960 S50 .J31 SHEET 40-1", "recid": "fp284mb4968", "websiteUrl": "https://purl.stanford.edu/fp284mb4968", "title": "集成五万分一地形圖", "ckey": 8103638, "available": true, "iiifUrl": "https://purl.stanford.edu/fp284mb4968/iiif/manifest" }, "geometry": { "type": "Polygon", "coordinates": [ [ [ 134.502778, 34.3333335 ], [ 135.002778, 34.3333335 ], [ 135.002778, 34.6666669 ], [ 134.502778, 34.6666669 ], [ 134.502778, 34.3333335 ] ] ] } },
{ "type": "Feature", "properties": { "Id": 0, "Sheet_ID": "和歌山-3", "label": "和歌山-3", "call_short": "G7960 S50 .J31", "call_num": "G7960 S50 .J31 SHEET 33-3", "recid": "tt794xc5145", "websiteUrl": "https://purl.stanford.edu/tt794xc5145", "title": "集成五万分一地形圖", "ckey": 8103638, "available": true, "iiifUrl": "https://purl.stanford.edu/tt794xc5145/iiif/manifest" }, "geometry": { "type": "Polygon", "coordinates": [ [ [ 135.002778, 34.3333335 ], [ 135.502778, 34.3333335 ], [ 135.502778, 34.6666669 ], [ 135.002778, 34.6666669 ], [ 135.002778, 34.3333335 ] ] ] } },
{ "type": "Feature", "properties": { "Id": 0, "Sheet_ID": "和歌山-1", "label": "和歌山-1", "call_short": "G7960 S50 .J31", "call_num": "G7960 S50 .J31 SHEET 33-1", "recid": "qq759fm8496", "websiteUrl": "https://purl.stanford.edu/qq759fm8496", "title": "集成五万分一地形圖", "ckey": 8103638, "available": true, "iiifUrl": "https://purl.stanford.edu/qq759fm8496/iiif/manifest" }, "geometry": { "type": "Polygon", "coordinates": [ [ [ 135.502778, 34.3333335 ], [ 136.002778, 34.3333335 ], [ 136.002778, 34.6666669 ], [ 135.502778, 34.6666669 ], [ 135.502778, 34.3333335 ] ] ] } },
{ "type": "Feature", "properties": { "Id": 0, "Sheet_ID": "姫路-4", "label": "姫路-4", "call_short": null, "call_num": null, "recid": null, "websiteUrl": null, "title": null, "ckey": 0, "available": false, "iiifUrl": null }, "geometry": { "type": "Polygon", "coordinates": [ [ [ 134.002778, 34.6666669 ], [ 134.502778, 34.6666669 ], [ 134.502778, 35.0000002 ], [ 134.002778, 35.0000002 ], [ 134.002778, 34.6666669 ] ] ] } },
{ "type": "Feature", "properties": { "Id": 0, "Sheet_ID": "姫路-2", "label": "姫路-2", "call_short": "G7960 S50 .J31", "call_num": "G7960 S50 .J31 SHEET 35-2", "recid": "kz652tt9675", "websiteUrl": "https://purl.stanford.edu/kz652tt9675", "title": "集成五万分一地形圖", "ckey": 8103638, "available": true, "iiifUrl": "https://purl.stanford.edu/kz652tt9675/iiif/manifest" }, "geometry": { "type": "Polygon", "coordinates": [ [ [ 134.502778, 34.6666669 ], [ 135.002778, 34.6666669 ], [ 135.002778, 35.0000002 ], [ 134.502778, 35.0000002 ], [ 134.502778, 34.6666669 ] ] ] } },
{ "type": "Feature", "properties": { "Id": 0, "Sheet_ID": "京都及大阪-4", "label": "京都及大阪-4", "call_short": "G7960 S50 .J31", "call_num": "G7960 S50 .J31 SHEET 32-4", "recid": "dg905sf4423", "websiteUrl": "https://purl.stanford.edu/dg905sf4423", "title": "集成五万分一地形圖", "ckey": 8103638, "available": true, "iiifUrl": "https://purl.stanford.edu/dg905sf4423/iiif/manifest" }, "geometry": { "type": "Polygon", "coordinates": [ [ [ 135.002778, 34.6666669 ], [ 135.502778, 34.6666669 ], [ 135.502778, 35.0000002 ], [ 135.002778, 35.0000002 ], [ 135.002778, 34.6666669 ] ] ] } },
{ "type": "Feature", "properties": { "Id": 0, "Sheet_ID": "京都及大阪-2", "label": "京都及大阪-2", "call_short": "G7960 S50 .J31", "call_num": "G7960 S50 .J31 SHEET 32-2", "recid": "zc345kj1889", "websiteUrl": "https://purl.stanford.edu/zc345kj1889", "title": "集成五万分一地形圖", "ckey": 8103638, "available": true, "iiifUrl": "https://purl.stanford.edu/zc345kj1889/iiif/manifest" }, "geometry": { "type": "Polygon", "coordinates": [ [ [ 135.502778, 34.6666669 ], [ 136.002778, 34.6666669 ], [ 136.002778, 35.0000002 ], [ 135.502778, 35.0000002 ], [ 135.502778, 34.6666669 ] ] ] } },
{ "type": "Feature", "properties": { "Id": 0, "Sheet_ID": "姫路-1", "label": "姫路-1", "call_short": null, "call_num": null, "recid": null, "websiteUrl": null, "title": null, "ckey": 0, "available": false, "iiifUrl": null }, "geometry": { "type": "Polygon", "coordinates": [ [ [ 134.502778, 35.0000002 ], [ 135.002778, 35.0000002 ], [ 135.002778, 35.3333336 ], [ 134.502778, 35.3333336 ], [ 134.502778, 35.0000002 ] ] ] } },
{ "type": "Feature", "properties": { "Id": 0, "Sheet_ID": "京都及大阪-3", "label": "京都及大阪-3", "call_short": null, "call_num": null, "recid": null, "websiteUrl": null, "title": null, "ckey": 0, "available": false, "iiifUrl": null }, "geometry": { "type": "Polygon", "coordinates": [ [ [ 135.002778, 35.0000002 ], [ 135.502778, 35.0000002 ], [ 135.502778, 35.3333336 ], [ 135.002778, 35.3333336 ], [ 135.002778, 35.0000002 ] ] ] } },
{ "type": "Feature", "properties": { "Id": 0, "Sheet_ID": "京都及大阪-1", "label": "京都及大阪-1", "call_short": "G7960 S50 .J31", "call_num": "G7960 S50 .J31 SHEET 32-1", "recid": "rz330vg2359", "websiteUrl": "https://purl.stanford.edu/rz330vg2359", "title": "集成五万分一地形圖", "ckey": 8103638, "available": true, "iiifUrl": "https://purl.stanford.edu/rz330vg2359/iiif/manifest" }, "geometry": { "type": "Polygon", "coordinates": [ [ [ 135.502778, 35.0000002 ], [ 136.002778, 35.0000002 ], [ 136.002778, 35.3333336 ], [ 135.502778, 35.3333336 ], [ 135.502778, 35.0000002 ] ] ] } },
{ "type": "Feature", "properties": { "Id": 0, "Sheet_ID": "宮津-4", "label": "宮津-4", "call_short": null, "call_num": null, "recid": null, "websiteUrl": null, "title": null, "ckey": 0, "available": false, "iiifUrl": null }, "geometry": { "type": "Polygon", "coordinates": [ [ [ 135.002778, 35.3333336 ], [ 135.502778, 35.3333336 ], [ 135.502778, 35.666667 ], [ 135.002778, 35.666667 ], [ 135.002778, 35.3333336 ] ] ] } },
{ "type": "Feature", "properties": { "Id": 0, "Sheet_ID": "宮津-2", "label": "宮津-2", "call_short": "G7960 S50 .J31", "call_num": "G7960 S50 .J31 SHEET 31-2", "recid": "sn244tq0161", "websiteUrl": "https://purl.stanford.edu/sn244tq0161", "title": "集成五万分一地形圖", "ckey": 8103638, "available": true, "iiifUrl": "https://purl.stanford.edu/sn244tq0161/iiif/manifest" }, "geometry": { "type": "Polygon", "coordinates": [ [ [ 135.502778, 35.3333336 ], [ 135.752778, 35.3333336 ], [ 135.752778, 35.666667 ], [ 135.502778, 35.666667 ], [ 135.502778, 35.3333336 ] ] ] } },
{ "type": "Feature", "properties": { "Id": 0, "Sheet_ID": "京都及大阪-1 西", "label": "京都及大阪-1 西", "call_short": "G7960 S50 .J31", "call_num": "G7960 S50 .J31 SHEET 32-1W", "recid": "xs439pb0869", "websiteUrl": "https://purl.stanford.edu/xs439pb0869", "title": "集成五万分一地形圖", "ckey": 8103638, "available": true, "iiifUrl": "https://purl.stanford.edu/xs439pb0869/iiif/manifest" }, "geometry": { "type": "Polygon", "coordinates": [ [ [ 135.502778, 35.0000003 ], [ 135.752778, 35.0000003 ], [ 135.752778, 35.3333336 ], [ 135.502778, 35.3333336 ], [ 135.502778, 35.0000003 ] ] ] } },
{ "type": "Feature", "properties": { "Id": 0, "Sheet_ID": "和歌山-1 西", "label": "和歌山-1 西", "call_short": "G7960 S50 .J31", "call_num": "G7960 S50 .J31 SHEET 33-1W", "recid": "rz230vx7164", "websiteUrl": "https://purl.stanford.edu/rz230vx7164", "title": "集成五万分一地形圖", "ckey": 8103638, "available": true, "iiifUrl": "https://purl.stanford.edu/rz230vx7164/iiif/manifest" }, "geometry": { "type": "Polygon", "coordinates": [ [ [ 135.502778, 34.3333335 ], [ 135.752778, 34.3333335 ], [ 135.752778, 34.6666669 ], [ 135.502778, 34.6666669 ], [ 135.502778, 34.3333335 ] ] ] } },
{ "type": "Feature", "properties": { "Id": 0, "Sheet_ID": "和歌山-2 東", "label": "和歌山-2 東", "call_short": "G7960 S50 .J31", "call_num": "G7960 S50 .J31 SHEET 33-2E", "recid": "dt402fq2611", "websiteUrl": "https://purl.stanford.edu/dt402fq2611", "title": "集成五万分一地形圖", "ckey": 8103638, "available": true, "iiifUrl": "https://purl.stanford.edu/dt402fq2611/iiif/manifest" }, "geometry": { "type": "Polygon", "coordinates": [ [ [ 135.752778, 34.0000001 ], [ 136.002778, 34.0000001 ], [ 136.002778, 34.3333335 ], [ 135.752778, 34.3333335 ], [ 135.752778, 34.0000001 ] ] ] } },
{ "type": "Feature", "properties": { "Id": 0, "Sheet_ID": "姫路-2 西", "label": "姫路-2 西", "call_short": "G7960 S50 .J31", "call_num": "G7960 S50 .J31 SHEET 35-2W", "recid": "zf367tm8257", "websiteUrl": "https://purl.stanford.edu/zf367tm8257", "title": "集成五万分一地形圖", "ckey": 8103638, "available": true, "iiifUrl": "https://purl.stanford.edu/zf367tm8257/iiif/manifest" }, "geometry": { "type": "Polygon", "coordinates": [ [ [ 134.502778, 34.6666669 ], [ 134.752778, 34.6666669 ], [ 134.752778, 35.0000003 ], [ 134.502778, 35.0000003 ], [ 134.502778, 34.6666669 ] ] ] } },
{ "type": "Feature", "properties": { "Id": 0, "Sheet_ID": "宇和島-4", "label": "宇和島-4", "call_short": "G7960 S50 .J31", "call_num": "G7960 S50 .J31 SHEET 45-4", "recid": "gf076ds9676", "websiteUrl": "https://purl.stanford.edu/gf076ds9676", "title": "集成五万分一地形圖", "ckey": 8103638, "available": true, "iiifUrl": "https://purl.stanford.edu/gf076ds9676/iiif/manifest" }, "geometry": { "type": "Polygon", "coordinates": [ [ [ 132.002778, 32.833333 ], [ 132.502778, 32.833333 ], [ 132.502778, 33.0000003 ], [ 132.002778, 33.0000003 ], [ 132.002778, 32.833333 ] ] ] } },
{ "type": "Feature", "properties": { "Id": 0, "Sheet_ID": "宇和島-2", "label": "宇和島-2", "call_short": "G7960 S50 .J31", "call_num": "G7960 S50 .J31 SHEET 45-2", "recid": "qs391pp8262", "websiteUrl": "https://purl.stanford.edu/qs391pp8262", "title": "集成五万分一地形圖", "ckey": 8103638, "available": true, "iiifUrl": "https://purl.stanford.edu/qs391pp8262/iiif/manifest" }, "geometry": { "type": "Polygon", "coordinates": [ [ [ 132.502778, 32.666667 ], [ 132.752778, 32.666667 ], [ 132.752778, 33.0000003 ], [ 132.502778, 33.0000003 ], [ 132.502778, 32.666667 ] ] ] } },
{ "type": "Feature", "properties": { "Id": 0, "Sheet_ID": "窪川-4", "label": "窪川-4", "call_short": null, "call_num": null, "recid": null, "websiteUrl": null, "title": null, "ckey": 0, "available": false, "iiifUrl": null }, "geometry": { "type": "Polygon", "coordinates": [ [ [ 133.002778, 32.666667 ], [ 133.252778, 32.666667 ], [ 133.252778, 32.833333 ], [ 133.002778, 32.833333 ], [ 133.002778, 32.666667 ] ] ] } },
{ "type": "Feature", "properties": { "Id": 0, "Sheet_ID": "宇和島-3", "label": "宇和島-3", "call_short": "G7960 S50 .J31", "call_num": "G7960 S50 .J31 SHEET 45-3", "recid": "bc436wr9412", "websiteUrl": "https://purl.stanford.edu/bc436wr9412", "title": "集成五万分一地形圖", "ckey": 8103638, "available": true, "iiifUrl": "https://purl.stanford.edu/bc436wr9412/iiif/manifest" }, "geometry": { "type": "Polygon", "coordinates": [ [ [ 132.002778, 33.0000003 ], [ 132.502778, 33.0000003 ], [ 132.502778, 33.3333337 ], [ 132.002778, 33.3333337 ], [ 132.002778, 33.0000003 ] ] ] } },
{ "type": "Feature", "properties": { "Id": 0, "Sheet_ID": "宇和島-1", "label": "宇和島-1", "call_short": "G7960 S50 .J31", "call_num": "G7960 S50 .J31 SHEET 45-1", "recid": "tc421nc2462", "websiteUrl": "https://purl.stanford.edu/tc421nc2462", "title": "集成五万分一地形圖", "ckey": 8103638, "available": true, "iiifUrl": "https://purl.stanford.edu/tc421nc2462/iiif/manifest" }, "geometry": { "type": "Polygon", "coordinates": [ [ [ 132.502778, 33.0000003 ], [ 133.002778, 33.0000003 ], [ 133.002778, 33.3333337 ], [ 132.502778, 33.3333337 ], [ 132.502778, 33.0000003 ] ] ] } },
{ "type": "Feature", "properties": { "Id": 0, "Sheet_ID": "窪川-3", "label": "窪川-3", "call_short": "G7960 S50 .J31", "call_num": "G7960 S50 .J31 SHEET 43-3", "recid": "sm769jz1610", "websiteUrl": "https://purl.stanford.edu/sm769jz1610", "title": "集成五万分一地形圖", "ckey": 8103638, "available": true, "iiifUrl": "https://purl.stanford.edu/sm769jz1610/iiif/manifest" }, "geometry": { "type": "Polygon", "coordinates": [ [ [ 133.002778, 33.0000003 ], [ 133.502778, 33.0000003 ], [ 133.502778, 33.3333337 ], [ 133.002778, 33.3333337 ], [ 133.002778, 33.0000003 ] ] ] } },
{ "type": "Feature", "properties": { "Id": 0, "Sheet_ID": "松山-4", "label": "松山-4", "call_short": "G7960 S50 .J31", "call_num": "G7960 S50 .J31 SHEET 44-4", "recid": "jj407rw6109", "websiteUrl": "https://purl.stanford.edu/jj407rw6109", "title": "集成五万分一地形圖", "ckey": 8103638, "available": true, "iiifUrl": "https://purl.stanford.edu/jj407rw6109/iiif/manifest" }, "geometry": { "type": "Polygon", "coordinates": [ [ [ 132.002778, 33.3333337 ], [ 132.502778, 33.3333337 ], [ 132.502778, 33.666667 ], [ 132.002778, 33.666667 ], [ 132.002778, 33.3333337 ] ] ] } },
{ "type": "Feature", "properties": { "Id": 0, "Sheet_ID": "松山-2", "label": "松山-2", "call_short": "G7960 S50 .J31", "call_num": "G7960 S50 .J31 SHEET 44-2", "recid": "cz216rv9049", "websiteUrl": "https://purl.stanford.edu/cz216rv9049", "title": "集成五万分一地形圖", "ckey": 8103638, "available": true, "iiifUrl": "https://purl.stanford.edu/cz216rv9049/iiif/manifest" }, "geometry": { "type": "Polygon", "coordinates": [ [ [ 132.502778, 33.3333337 ], [ 133.002778, 33.3333337 ], [ 133.002778, 33.666667 ], [ 132.502778, 33.666667 ], [ 132.502778, 33.3333337 ] ] ] } },
{ "type": "Feature", "properties": { "Id": 0, "Sheet_ID": "高知-4", "label": "高知-4", "call_short": "G7960 S50 .J31", "call_num": "G7960 S50 .J31 SHEET 42-4", "recid": "bw016dy4231", "websiteUrl": "https://purl.stanford.edu/bw016dy4231", "title": "集成五万分一地形圖", "ckey": 8103638, "available": true, "iiifUrl": "https://purl.stanford.edu/bw016dy4231/iiif/manifest" }, "geometry": { "type": "Polygon", "coordinates": [ [ [ 133.002778, 33.3333337 ], [ 133.502778, 33.3333337 ], [ 133.502778, 33.666667 ], [ 133.002778, 33.666667 ], [ 133.002778, 33.3333337 ] ] ] } },
{ "type": "Feature", "properties": { "Id": 0, "Sheet_ID": "高知-2", "label": "高知-2", "call_short": "G7960 S50 .J31", "call_num": "G7960 S50 .J31 SHEET 42-2", "recid": "pg655gx1346", "websiteUrl": "https://purl.stanford.edu/pg655gx1346", "title": "集成五万分一地形圖", "ckey": 8103638, "available": true, "iiifUrl": "https://purl.stanford.edu/pg655gx1346/iiif/manifest" }, "geometry": { "type": "Polygon", "coordinates": [ [ [ 133.502778, 33.3333337 ], [ 134.002778, 33.3333337 ], [ 134.002778, 33.666667 ], [ 133.502778, 33.666667 ], [ 133.502778, 33.3333337 ] ] ] } },
{ "type": "Feature", "properties": { "Id": 0, "Sheet_ID": "松山-3", "label": "松山-3", "call_short": "G7960 S50 .J31", "call_num": "G7960 S50 .J31 SHEET 44-3", "recid": "cr369bh8871", "websiteUrl": "https://purl.stanford.edu/cr369bh8871", "title": "集成五万分一地形圖", "ckey": 8103638, "available": true, "iiifUrl": "https://purl.stanford.edu/cr369bh8871/iiif/manifest" }, "geometry": { "type": "Polygon", "coordinates": [ [ [ 132.002778, 33.666667 ], [ 132.502778, 33.666667 ], [ 132.502778, 34.0000003 ], [ 132.002778, 34.0000003 ], [ 132.002778, 33.666667 ] ] ] } },
{ "type": "Feature", "properties": { "Id": 0, "Sheet_ID": "松山-1", "label": "松山-1", "call_short": "G7960 S50 .J31", "call_num": "G7960 S50 .J31 SHEET 44-1", "recid": "yn287fc1052", "websiteUrl": "https://purl.stanford.edu/yn287fc1052", "title": "集成五万分一地形圖", "ckey": 8103638, "available": true, "iiifUrl": "https://purl.stanford.edu/yn287fc1052/iiif/manifest" }, "geometry": { "type": "Polygon", "coordinates": [ [ [ 132.502778, 33.666667 ], [ 133.002778, 33.666667 ], [ 133.002778, 34.0000003 ], [ 132.502778, 34.0000003 ], [ 132.502778, 33.666667 ] ] ] } },
{ "type": "Feature", "properties": { "Id": 0, "Sheet_ID": "高知-3", "label": "高知-3", "call_short": "G7960 S50 .J31", "call_num": "G7960 S50 .J31 SHEET 42-3", "recid": "cd481mg1545", "websiteUrl": "https://purl.stanford.edu/cd481mg1545", "title": "集成五万分一地形圖", "ckey": 8103638, "available": true, "iiifUrl": "https://purl.stanford.edu/cd481mg1545/iiif/manifest" }, "geometry": { "type": "Polygon", "coordinates": [ [ [ 133.002778, 33.666667 ], [ 133.502778, 33.666667 ], [ 133.502778, 34.0000003 ], [ 133.002778, 34.0000003 ], [ 133.002778, 33.666667 ] ] ] } },
{ "type": "Feature", "properties": { "Id": 0, "Sheet_ID": "高知-1", "label": "高知-1", "call_short": "G7960 S50 .J31", "call_num": "G7960 S50 .J31 SHEET 42-1", "recid": "rb063mm1473", "websiteUrl": "https://purl.stanford.edu/rb063mm1473", "title": "集成五万分一地形圖", "ckey": 8103638, "available": true, "iiifUrl": "https://purl.stanford.edu/rb063mm1473/iiif/manifest" }, "geometry": { "type": "Polygon", "coordinates": [ [ [ 133.502778, 33.666667 ], [ 134.002778, 33.666667 ], [ 134.002778, 34.0000003 ], [ 133.502778, 34.0000003 ], [ 133.502778, 33.666667 ] ] ] } },
{ "type": "Feature", "properties": { "Id": 0, "Sheet_ID": "広島-4", "label": "広島-4", "call_short": null, "call_num": null, "recid": null, "websiteUrl": null, "title": null, "ckey": 0, "available": false, "iiifUrl": null }, "geometry": { "type": "Polygon", "coordinates": [ [ [ 132.002778, 34.0000003 ], [ 132.502778, 34.0000003 ], [ 132.502778, 34.3333337 ], [ 132.002778, 34.3333337 ], [ 132.002778, 34.0000003 ] ] ] } },
{ "type": "Feature", "properties": { "Id": 0, "Sheet_ID": "広島-2", "label": "広島-2", "call_short": "G7960 S50 .J31", "call_num": "G7960 S50 .J31 SHEET 37-2", "recid": "qf136rf5123", "websiteUrl": "https://purl.stanford.edu/qf136rf5123", "title": "集成五万分一地形圖", "ckey": 8103638, "available": true, "iiifUrl": "https://purl.stanford.edu/qf136rf5123/iiif/manifest" }, "geometry": { "type": "Polygon", "coordinates": [ [ [ 132.502778, 34.0000003 ], [ 133.002778, 34.0000003 ], [ 133.002778, 34.3333337 ], [ 132.502778, 34.3333337 ], [ 132.502778, 34.0000003 ] ] ] } },
{ "type": "Feature", "properties": { "Id": 0, "Sheet_ID": "岡山及丸亀-4", "label": "岡山及丸亀-4", "call_short": null, "call_num": null, "recid": null, "websiteUrl": null, "title": null, "ckey": 0, "available": false, "iiifUrl": null }, "geometry": { "type": "Polygon", "coordinates": [ [ [ 133.002778, 34.0000003 ], [ 133.502778, 34.0000003 ], [ 133.502778, 34.3333337 ], [ 133.002778, 34.3333337 ], [ 133.002778, 34.0000003 ] ] ] } },
{ "type": "Feature", "properties": { "Id": 0, "Sheet_ID": "広島-3", "label": "広島-3", "call_short": "G7960 S50 .J31", "call_num": "G7960 S50 .J31 SHEET 37-3", "recid": "qk870xr5069", "websiteUrl": "https://purl.stanford.edu/qk870xr5069", "title": "集成五万分一地形圖", "ckey": 8103638, "available": true, "iiifUrl": "https://purl.stanford.edu/qk870xr5069/iiif/manifest" }, "geometry": { "type": "Polygon", "coordinates": [ [ [ 132.002778, 34.3333337 ], [ 132.502778, 34.3333337 ], [ 132.502778, 34.666667 ], [ 132.002778, 34.666667 ], [ 132.002778, 34.3333337 ] ] ] } },
{ "type": "Feature", "properties": { "Id": 0, "Sheet_ID": "広島-1", "label": "広島-1", "call_short": null, "call_num": null, "recid": null, "websiteUrl": null, "title": null, "ckey": 0, "available": false, "iiifUrl": null }, "geometry": { "type": "Polygon", "coordinates": [ [ [ 132.502778, 34.3333337 ], [ 133.002778, 34.3333337 ], [ 133.002778, 34.666667 ], [ 132.502778, 34.666667 ], [ 132.502778, 34.3333337 ] ] ] } },
{ "type": "Feature", "properties": { "Id": 0, "Sheet_ID": "開聞嶽-3", "label": "開聞嶽-3", "call_short": "G7960 S50 .J31", "call_num": "G7960 S50 .J31 SHEET 54-3", "recid": "kz664cj4888", "websiteUrl": "https://purl.stanford.edu/kz664cj4888", "title": "集成五万分一地形圖", "ckey": 8103638, "available": true, "iiifUrl": "https://purl.stanford.edu/kz664cj4888/iiif/manifest" }, "geometry": { "type": "Polygon", "coordinates": [ [ [ 130.002778, 31.166667 ], [ 130.502778, 31.166667 ], [ 130.502778, 31.3333334 ], [ 130.002778, 31.3333334 ], [ 130.002778, 31.166667 ] ] ] } },
{ "type": "Feature", "properties": { "Id": 0, "Sheet_ID": "開聞嶽-1", "label": "開聞嶽-1", "call_short": null, "call_num": null, "recid": null, "websiteUrl": null, "title": null, "ckey": 0, "available": false, "iiifUrl": null }, "geometry": { "type": "Polygon", "coordinates": [ [ [ 130.502778, 31.0 ], [ 131.002778, 31.0 ], [ 131.002778, 31.3333334 ], [ 130.502778, 31.3333334 ], [ 130.502778, 31.0 ] ] ] } },
{ "type": "Feature", "properties": { "Id": 0, "Sheet_ID": "開聞嶽-1 東部", "label": "開聞嶽-1 東部", "call_short": "G7960 S50 .J31", "call_num": "G7960 S50 .J31 SHEET 54-1E", "recid": "pt419hy5473", "websiteUrl": "https://purl.stanford.edu/pt419hy5473", "title": "集成五万分一地形圖", "ckey": 8103638, "available": true, "iiifUrl": "https://purl.stanford.edu/pt419hy5473/iiif/manifest" }, "geometry": { "type": "Polygon", "coordinates": [ [ [ 131.002778, 31.166667 ], [ 131.252778, 31.166667 ], [ 131.252778, 31.3333334 ], [ 131.002778, 31.3333334 ], [ 131.002778, 31.166667 ] ] ] } },
{ "type": "Feature", "properties": { "Id": 0, "Sheet_ID": "鹿児島-4", "label": "鹿児島-4", "call_short": "G7960 S50 .J31", "call_num": "G7960 S50 .J31 SHEET 53-4", "recid": "td513hs6912", "websiteUrl": "https://purl.stanford.edu/td513hs6912", "title": "集成五万分一地形圖", "ckey": 8103638, "available": true, "iiifUrl": "https://purl.stanford.edu/td513hs6912/iiif/manifest" }, "geometry": { "type": "Polygon", "coordinates": [ [ [ 130.002778, 31.3333334 ], [ 130.502778, 31.3333334 ], [ 130.502778, 31.6666667 ], [ 130.002778, 31.6666667 ], [ 130.002778, 31.3333334 ] ] ] } },
{ "type": "Feature", "properties": { "Id": 0, "Sheet_ID": "鹿児島-2", "label": "鹿児島-2", "call_short": "G7960 S50 .J31", "call_num": "G7960 S50 .J31 SHEET 53-2", "recid": "bf217gq7210", "websiteUrl": "https://purl.stanford.edu/bf217gq7210", "title": "集成五万分一地形圖", "ckey": 8103638, "available": true, "iiifUrl": "https://purl.stanford.edu/bf217gq7210/iiif/manifest" }, "geometry": { "type": "Polygon", "coordinates": [ [ [ 130.502778, 31.3333334 ], [ 131.002778, 31.3333334 ], [ 131.002778, 31.6666667 ], [ 130.502778, 31.6666667 ], [ 130.502778, 31.3333334 ] ] ] } },
{ "type": "Feature", "properties": { "Id": 0, "Sheet_ID": "宮崎-4", "label": "宮崎-4", "call_short": "G7960 S50 .J31", "call_num": "G7960 S50 .J31 SHEET 49-4", "recid": "fr898jc2363", "websiteUrl": "https://purl.stanford.edu/fr898jc2363", "title": "集成五万分一地形圖", "ckey": 8103638, "available": true, "iiifUrl": "https://purl.stanford.edu/fr898jc2363/iiif/manifest" }, "geometry": { "type": "Polygon", "coordinates": [ [ [ 131.002778, 31.3333334 ], [ 131.502778, 31.3333334 ], [ 131.502778, 31.6666667 ], [ 131.002778, 31.6666667 ], [ 131.002778, 31.3333334 ] ] ] } },
{ "type": "Feature", "properties": { "Id": 0, "Sheet_ID": "鹿児島-3", "label": "鹿児島-3", "call_short": "G7960 S50 .J31", "call_num": "G7960 S50 .J31 SHEET 53-3", "recid": "tn495fv4227", "websiteUrl": "https://purl.stanford.edu/tn495fv4227", "title": "集成五万分一地形圖", "ckey": 8103638, "available": true, "iiifUrl": "https://purl.stanford.edu/tn495fv4227/iiif/manifest" }, "geometry": { "type": "Polygon", "coordinates": [ [ [ 130.002778, 31.6666667 ], [ 130.502778, 31.6666667 ], [ 130.502778, 32.0000001 ], [ 130.002778, 32.0000001 ], [ 130.002778, 31.6666667 ] ] ] } },
{ "type": "Feature", "properties": { "Id": 0, "Sheet_ID": "鹿児島-1", "label": "鹿児島-1", "call_short": "G7960 S50 .J31", "call_num": "G7960 S50 .J31 SHEET 53-1", "recid": "hn532bz8241", "websiteUrl": "https://purl.stanford.edu/hn532bz8241", "title": "集成五万分一地形圖", "ckey": 8103638, "available": true, "iiifUrl": "https://purl.stanford.edu/hn532bz8241/iiif/manifest" }, "geometry": { "type": "Polygon", "coordinates": [ [ [ 130.502778, 31.6666667 ], [ 131.002778, 31.6666667 ], [ 131.002778, 32.0000001 ], [ 130.502778, 32.0000001 ], [ 130.502778, 31.6666667 ] ] ] } },
{ "type": "Feature", "properties": { "Id": 0, "Sheet_ID": "宮崎-3", "label": "宮崎-3", "call_short": "G7960 S50 .J31", "call_num": "G7960 S50 .J31 SHEET 49-3", "recid": "rb580vs5082", "websiteUrl": "https://purl.stanford.edu/rb580vs5082", "title": "集成五万分一地形圖", "ckey": 8103638, "available": true, "iiifUrl": "https://purl.stanford.edu/rb580vs5082/iiif/manifest" }, "geometry": { "type": "Polygon", "coordinates": [ [ [ 131.002778, 31.6666667 ], [ 131.502778, 31.6666667 ], [ 131.502778, 32.0000001 ], [ 131.002778, 32.0000001 ], [ 131.002778, 31.6666667 ] ] ] } },
{ "type": "Feature", "properties": { "Id": 0, "Sheet_ID": "八代-4", "label": "八代-4", "call_short": "G7960 S50 .J31", "call_num": "G7960 S50 .J31 SHEET 52-4", "recid": "xg179sg6354", "websiteUrl": "https://purl.stanford.edu/xg179sg6354", "title": "集成五万分一地形圖", "ckey": 8103638, "available": true, "iiifUrl": "https://purl.stanford.edu/xg179sg6354/iiif/manifest" }, "geometry": { "type": "Polygon", "coordinates": [ [ [ 130.002778, 32.0000001 ], [ 130.502778, 32.0000001 ], [ 130.502778, 32.3333335 ], [ 130.002778, 32.3333335 ], [ 130.002778, 32.0000001 ] ] ] } },
{ "type": "Feature", "properties": { "Id": 0, "Sheet_ID": "八代-2", "label": "八代-2", "call_short": "G7960 S50 .J31", "call_num": "G7960 S50 .J31 SHEET 52-2", "recid": "bx654qy5116", "websiteUrl": "https://purl.stanford.edu/bx654qy5116", "title": "集成五万分一地形圖", "ckey": 8103638, "available": true, "iiifUrl": "https://purl.stanford.edu/bx654qy5116/iiif/manifest" }, "geometry": { "type": "Polygon", "coordinates": [ [ [ 130.502778, 32.0000001 ], [ 131.002778, 32.0000001 ], [ 131.002778, 32.3333335 ], [ 130.502778, 32.3333335 ], [ 130.502778, 32.0000001 ] ] ] } },
{ "type": "Feature", "properties": { "Id": 0, "Sheet_ID": "延岡-4", "label": "延岡-4", "call_short": "G7960 S50 .J31", "call_num": "G7960 S50 .J31 SHEET 48-4", "recid": "pf246gh2360", "websiteUrl": "https://purl.stanford.edu/pf246gh2360", "title": "集成五万分一地形圖", "ckey": 8103638, "available": true, "iiifUrl": "https://purl.stanford.edu/pf246gh2360/iiif/manifest" }, "geometry": { "type": "Polygon", "coordinates": [ [ [ 131.002778, 32.0000001 ], [ 131.502778, 32.0000001 ], [ 131.502778, 32.3333335 ], [ 131.002778, 32.3333335 ], [ 131.002778, 32.0000001 ] ] ] } },
{ "type": "Feature", "properties": { "Id": 0, "Sheet_ID": "延岡-2", "label": "延岡-2", "call_short": "G7960 S50 .J31", "call_num": "G7960 S50 .J31 SHEET 48-2", "recid": "nm271gq2100", "websiteUrl": "https://purl.stanford.edu/nm271gq2100", "title": "集成五万分一地形圖", "ckey": 8103638, "available": true, "iiifUrl": "https://purl.stanford.edu/nm271gq2100/iiif/manifest" }, "geometry": { "type": "Polygon", "coordinates": [ [ [ 131.502778, 32.0000001 ], [ 131.752778, 32.0000001 ], [ 131.752778, 32.3333335 ], [ 131.502778, 32.3333335 ], [ 131.502778, 32.0000001 ] ] ] } },
{ "type": "Feature", "properties": { "Id": 0, "Sheet_ID": "八代-3", "label": "八代-3", "call_short": "G7960 S50 .J31", "call_num": "G7960 S50 .J31 SHEET 52-3", "recid": "xc758bw6808", "websiteUrl": "https://purl.stanford.edu/xc758bw6808", "title": "集成五万分一地形圖", "ckey": 8103638, "available": true, "iiifUrl": "https://purl.stanford.edu/xc758bw6808/iiif/manifest" }, "geometry": { "type": "Polygon", "coordinates": [ [ [ 130.002778, 32.3333335 ], [ 130.502778, 32.3333335 ], [ 130.502778, 32.6666668 ], [ 130.002778, 32.6666668 ], [ 130.002778, 32.3333335 ] ] ] } },
{ "type": "Feature", "properties": { "Id": 0, "Sheet_ID": "八代-1", "label": "八代-1", "call_short": "G7960 S50 .J31", "call_num": "G7960 S50 .J31 SHEET 52-1", "recid": "fx872vv0633", "websiteUrl": "https://purl.stanford.edu/fx872vv0633", "title": "集成五万分一地形圖", "ckey": 8103638, "available": true, "iiifUrl": "https://purl.stanford.edu/fx872vv0633/iiif/manifest" }, "geometry": { "type": "Polygon", "coordinates": [ [ [ 130.502778, 32.3333335 ], [ 131.002778, 32.3333335 ], [ 131.002778, 32.6666668 ], [ 130.502778, 32.6666668 ], [ 130.502778, 32.3333335 ] ] ] } },
{ "type": "Feature", "properties": { "Id": 0, "Sheet_ID": "延岡-3", "label": "延岡-3", "call_short": "G7960 S50 .J31", "call_num": "G7960 S50 .J31 SHEET 48-3", "recid": "jc825gg4852", "websiteUrl": "https://purl.stanford.edu/jc825gg4852", "title": "集成五万分一地形圖", "ckey": 8103638, "available": true, "iiifUrl": "https://purl.stanford.edu/jc825gg4852/iiif/manifest" }, "geometry": { "type": "Polygon", "coordinates": [ [ [ 131.002778, 32.3333335 ], [ 131.502778, 32.3333335 ], [ 131.502778, 32.6666668 ], [ 131.002778, 32.6666668 ], [ 131.002778, 32.3333335 ] ] ] } },
{ "type": "Feature", "properties": { "Id": 0, "Sheet_ID": "延岡-1", "label": "延岡-1", "call_short": "G7960 S50 .J31", "call_num": "G7960 S50 .J31 SHEET 48-1", "recid": "qy345fj8617", "websiteUrl": "https://purl.stanford.edu/qy345fj8617", "title": "集成五万分一地形圖", "ckey": 8103638, "available": true, "iiifUrl": "https://purl.stanford.edu/qy345fj8617/iiif/manifest" }, "geometry": { "type": "Polygon", "coordinates": [ [ [ 131.502778, 32.3333335 ], [ 132.002778, 32.3333335 ], [ 132.002778, 32.6666668 ], [ 131.502778, 32.6666668 ], [ 131.502778, 32.3333335 ] ] ] } },
{ "type": "Feature", "properties": { "Id": 0, "Sheet_ID": "熊本-4", "label": "熊本-4", "call_short": "G7960 S50 .J31", "call_num": "G7960 S50 .J31 SHEET 51-4", "recid": "ry056qh0064", "websiteUrl": "https://purl.stanford.edu/ry056qh0064", "title": "集成五万分一地形圖", "ckey": 8103638, "available": true, "iiifUrl": "https://purl.stanford.edu/ry056qh0064/iiif/manifest" }, "geometry": { "type": "Polygon", "coordinates": [ [ [ 130.002778, 32.6666668 ], [ 130.502778, 32.6666668 ], [ 130.502778, 33.0000002 ], [ 130.002778, 33.0000002 ], [ 130.002778, 32.6666668 ] ] ] } },
{ "type": "Feature", "properties": { "Id": 0, "Sheet_ID": "熊本-2", "label": "熊本-2", "call_short": "G7960 S50 .J31", "call_num": "G7960 S50 .J31 SHEET 51-2", "recid": "zm107pm6278", "websiteUrl": "https://purl.stanford.edu/zm107pm6278", "title": "集成五万分一地形圖", "ckey": 8103638, "available": true, "iiifUrl": "https://purl.stanford.edu/zm107pm6278/iiif/manifest" }, "geometry": { "type": "Polygon", "coordinates": [ [ [ 130.502778, 32.6666668 ], [ 131.002778, 32.6666668 ], [ 131.002778, 33.0000002 ], [ 130.502778, 33.0000002 ], [ 130.502778, 32.6666668 ] ] ] } },
{ "type": "Feature", "properties": { "Id": 0, "Sheet_ID": "大分-4", "label": "大分-4", "call_short": null, "call_num": null, "recid": null, "websiteUrl": null, "title": null, "ckey": 0, "available": false, "iiifUrl": null }, "geometry": { "type": "Polygon", "coordinates": [ [ [ 131.002778, 32.6666668 ], [ 131.502778, 32.6666668 ], [ 131.502778, 33.0000002 ], [ 131.002778, 33.0000002 ], [ 131.002778, 32.6666668 ] ] ] } },
{ "type": "Feature", "properties": { "Id": 0, "Sheet_ID": "大分-2", "label": "大分-2", "call_short": "G7960 S50 .J31", "call_num": "G7960 S50 .J31 SHEET 47-2", "recid": "ws241xh4829", "websiteUrl": "https://purl.stanford.edu/ws241xh4829", "title": "集成五万分一地形圖", "ckey": 8103638, "available": true, "iiifUrl": "https://purl.stanford.edu/ws241xh4829/iiif/manifest" }, "geometry": { "type": "Polygon", "coordinates": [ [ [ 131.502778, 32.6666668 ], [ 132.002778, 32.6666668 ], [ 132.002778, 33.0000002 ], [ 131.502778, 33.0000002 ], [ 131.502778, 32.6666668 ] ] ] } },
{ "type": "Feature", "properties": { "Id": 0, "Sheet_ID": "熊本-3", "label": "熊本-3", "call_short": "G7960 S50 .J31", "call_num": "G7960 S50 .J31 SHEET 51-3", "recid": "kh287ct5847", "websiteUrl": "https://purl.stanford.edu/kh287ct5847", "title": "集成五万分一地形圖", "ckey": 8103638, "available": true, "iiifUrl": "https://purl.stanford.edu/kh287ct5847/iiif/manifest" }, "geometry": { "type": "Polygon", "coordinates": [ [ [ 130.002778, 33.0000002 ], [ 130.502778, 33.0000002 ], [ 130.502778, 33.3333335 ], [ 130.002778, 33.3333335 ], [ 130.002778, 33.0000002 ] ] ] } },
{ "type": "Feature", "properties": { "Id": 0, "Sheet_ID": "熊本-1", "label": "熊本-1", "call_short": "G7960 S50 .J31", "call_num": "G7960 S50 .J31 SHEET 51-1", "recid": "xz866wh9477", "websiteUrl": "https://purl.stanford.edu/xz866wh9477", "title": "集成五万分一地形圖", "ckey": 8103638, "available": true, "iiifUrl": "https://purl.stanford.edu/xz866wh9477/iiif/manifest" }, "geometry": { "type": "Polygon", "coordinates": [ [ [ 130.502778, 33.0000002 ], [ 131.002778, 33.0000002 ], [ 131.002778, 33.3333335 ], [ 130.502778, 33.3333335 ], [ 130.502778, 33.0000002 ] ] ] } },
{ "type": "Feature", "properties": { "Id": 0, "Sheet_ID": "大分-3", "label": "大分-3", "call_short": null, "call_num": null, "recid": null, "websiteUrl": null, "title": null, "ckey": 0, "available": false, "iiifUrl": null }, "geometry": { "type": "Polygon", "coordinates": [ [ [ 131.002778, 33.0000002 ], [ 131.502778, 33.0000002 ], [ 131.502778, 33.3333335 ], [ 131.002778, 33.3333335 ], [ 131.002778, 33.0000002 ] ] ] } },
{ "type": "Feature", "properties": { "Id": 0, "Sheet_ID": "大分-1", "label": "大分-1", "call_short": "G7960 S50 .J31", "call_num": "G7960 S50 .J31 SHEET 47-1", "recid": "rj781tn2910", "websiteUrl": "https://purl.stanford.edu/rj781tn2910", "title": "集成五万分一地形圖", "ckey": 8103638, "available": true, "iiifUrl": "https://purl.stanford.edu/rj781tn2910/iiif/manifest" }, "geometry": { "type": "Polygon", "coordinates": [ [ [ 131.502778, 33.0000002 ], [ 132.002778, 33.0000002 ], [ 132.002778, 33.3333335 ], [ 131.502778, 33.3333335 ], [ 131.502778, 33.0000002 ] ] ] } },
{ "type": "Feature", "properties": { "Id": 0, "Sheet_ID": "小倉-4", "label": "小倉-4", "call_short": "G7960 S50 .J31", "call_num": "G7960 S50 .J31 SHEET 50-4", "recid": "tw716rj4717", "websiteUrl": "https://purl.stanford.edu/tw716rj4717", "title": "集成五万分一地形圖", "ckey": 8103638, "available": true, "iiifUrl": "https://purl.stanford.edu/tw716rj4717/iiif/manifest" }, "geometry": { "type": "Polygon", "coordinates": [ [ [ 130.002778, 33.3333335 ], [ 130.502778, 33.3333335 ], [ 130.502778, 33.6666669 ], [ 130.002778, 33.6666669 ], [ 130.002778, 33.3333335 ] ] ] } },
{ "type": "Feature", "properties": { "Id": 0, "Sheet_ID": "小倉-2", "label": "小倉-2", "call_short": "G7960 S50 .J31", "call_num": "G7960 S50 .J31 SHEET 50-2", "recid": "jd976qc3657", "websiteUrl": "https://purl.stanford.edu/jd976qc3657", "title": "集成五万分一地形圖", "ckey": 8103638, "available": true, "iiifUrl": "https://purl.stanford.edu/jd976qc3657/iiif/manifest" }, "geometry": { "type": "Polygon", "coordinates": [ [ [ 130.502778, 33.3333335 ], [ 131.002778, 33.3333335 ], [ 131.002778, 33.6666669 ], [ 130.502778, 33.6666669 ], [ 130.502778, 33.3333335 ] ] ] } },
{ "type": "Feature", "properties": { "Id": 0, "Sheet_ID": "中津-4", "label": "中津-4", "call_short": "G7960 S50 .J31", "call_num": "G7960 S50 .J31 SHEET 46-4", "recid": "nr894sj1709", "websiteUrl": "https://purl.stanford.edu/nr894sj1709", "title": "集成五万分一地形圖", "ckey": 8103638, "available": true, "iiifUrl": "https://purl.stanford.edu/nr894sj1709/iiif/manifest" }, "geometry": { "type": "Polygon", "coordinates": [ [ [ 131.002778, 33.3333335 ], [ 131.502778, 33.3333335 ], [ 131.502778, 33.6666669 ], [ 131.002778, 33.6666669 ], [ 131.002778, 33.3333335 ] ] ] } },
{ "type": "Feature", "properties": { "Id": 0, "Sheet_ID": "中津-2", "label": "中津-2", "call_short": "G7960 S50 .J31", "call_num": "G7960 S50 .J31 SHEET 46-2", "recid": "cp492zy5570", "websiteUrl": "https://purl.stanford.edu/cp492zy5570", "title": "集成五万分一地形圖", "ckey": 8103638, "available": true, "iiifUrl": "https://purl.stanford.edu/cp492zy5570/iiif/manifest" }, "geometry": { "type": "Polygon", "coordinates": [ [ [ 131.502778, 33.3333335 ], [ 131.752778, 33.3333335 ], [ 131.752778, 33.6666669 ], [ 131.502778, 33.6666669 ], [ 131.502778, 33.3333335 ] ] ] } },
{ "type": "Feature", "properties": { "Id": 0, "Sheet_ID": "小倉-3", "label": "小倉-3", "call_short": "G7960 S50 .J31", "call_num": "G7960 S50 .J31 SHEET 50-3", "recid": "wk047bd4448", "websiteUrl": "https://purl.stanford.edu/wk047bd4448", "title": "集成五万分一地形圖", "ckey": 8103638, "available": true, "iiifUrl": "https://purl.stanford.edu/wk047bd4448/iiif/manifest" }, "geometry": { "type": "Polygon", "coordinates": [ [ [ 130.002778, 33.6666669 ], [ 130.502778, 33.6666669 ], [ 130.502778, 34.0000003 ], [ 130.002778, 34.0000003 ], [ 130.002778, 33.6666669 ] ] ] } },
{ "type": "Feature", "properties": { "Id": 0, "Sheet_ID": "小倉-1", "label": "小倉-1", "call_short": "G7960 S50 .J31", "call_num": "G7960 S50 .J31 SHEET 50-1", "recid": "jk287kz0292", "websiteUrl": "https://purl.stanford.edu/jk287kz0292", "title": "集成五万分一地形圖", "ckey": 8103638, "available": true, "iiifUrl": "https://purl.stanford.edu/jk287kz0292/iiif/manifest" }, "geometry": { "type": "Polygon", "coordinates": [ [ [ 130.502778, 33.6666669 ], [ 131.002778, 33.6666669 ], [ 131.002778, 34.0000003 ], [ 130.502778, 34.0000003 ], [ 130.502778, 33.6666669 ] ] ] } },
{ "type": "Feature", "properties": { "Id": 0, "Sheet_ID": "中津-3", "label": "中津-3", "call_short": "G7960 S50 .J31", "call_num": "G7960 S50 .J31 SHEET 46-3", "recid": "dt382hg4124", "websiteUrl": "https://purl.stanford.edu/dt382hg4124", "title": "集成五万分一地形圖", "ckey": 8103638, "available": true, "iiifUrl": "https://purl.stanford.edu/dt382hg4124/iiif/manifest" }, "geometry": { "type": "Polygon", "coordinates": [ [ [ 131.002778, 33.6666669 ], [ 131.502778, 33.6666669 ], [ 131.502778, 34.0000003 ], [ 131.002778, 34.0000003 ], [ 131.002778, 33.6666669 ] ] ] } },
{ "type": "Feature", "properties": { "Id": 0, "Sheet_ID": "中津-1", "label": "中津-1", "call_short": "G7960 S50 .J31", "call_num": "G7960 S50 .J31 SHEET 46-1", "recid": "xh720bz6598", "websiteUrl": "https://purl.stanford.edu/xh720bz6598", "title": "集成五万分一地形圖", "ckey": 8103638, "available": true, "iiifUrl": "https://purl.stanford.edu/xh720bz6598/iiif/manifest" }, "geometry": { "type": "Polygon", "coordinates": [ [ [ 131.502778, 33.6666669 ], [ 132.002778, 33.6666669 ], [ 132.002778, 34.0000003 ], [ 131.502778, 34.0000003 ], [ 131.502778, 33.6666669 ] ] ] } },
{ "type": "Feature", "properties": { "Id": 0, "Sheet_ID": "山口-4, 小串-2", "label": "山口-4, 小串-2", "call_short": "G7960 S50 .J31", "call_num": "G7960 S50 .J31 SHEET 38-4, 39-2", "recid": "bj419cp4802", "websiteUrl": "https://purl.stanford.edu/bj419cp4802", "title": "集成五万分一地形圖", "ckey": 8103638, "available": true, "iiifUrl": "https://purl.stanford.edu/bj419cp4802/iiif/manifest" }, "geometry": { "type": "Polygon", "coordinates": [ [ [ 130.752778, 34.0000003 ], [ 131.252778, 34.0000003 ], [ 131.252778, 34.3333336 ], [ 130.752778, 34.3333336 ], [ 130.752778, 34.0000003 ] ] ] } },
{ "type": "Feature", "properties": { "Id": 0, "Sheet_ID": "山口-3, 小串-1", "label": "山口-3, 小串-1", "call_short": "G7960 S50 .J31", "call_num": "G7960 S50 .J31 SHEET 38-3, 39-1", "recid": "xj848zx6094", "websiteUrl": "https://purl.stanford.edu/xj848zx6094", "title": "集成五万分一地形圖", "ckey": 8103638, "available": true, "iiifUrl": "https://purl.stanford.edu/xj848zx6094/iiif/manifest" }, "geometry": { "type": "Polygon", "coordinates": [ [ [ 130.752778, 34.3333336 ], [ 131.252778, 34.3333336 ], [ 131.252778, 34.5 ], [ 130.752778, 34.5 ], [ 130.752778, 34.3333336 ] ] ] } },
{ "type": "Feature", "properties": { "Id": 0, "Sheet_ID": "中津-3 西", "label": "中津-3 西", "call_short": "G7960 S50 .J31", "call_num": "G7960 S50 .J31 SHEET 46-3W", "recid": "qx320hm1566", "websiteUrl": "https://purl.stanford.edu/qx320hm1566", "title": "集成五万分一地形圖", "ckey": 8103638, "available": true, "iiifUrl": "https://purl.stanford.edu/qx320hm1566/iiif/manifest" }, "geometry": { "type": "Polygon", "coordinates": [ [ [ 131.002778, 33.6666669 ], [ 131.252778, 33.6666669 ], [ 131.252778, 34.0000003 ], [ 131.002778, 34.0000003 ], [ 131.002778, 33.6666669 ] ] ] } },
{ "type": "Feature", "properties": { "Id": 0, "Sheet_ID": "野母崎-1", "label": "野母崎-1", "call_short": "G7960 S50 .J31", "call_num": "G7960 S50 .J31 SHEET 58-1", "recid": "pk787fz6650", "websiteUrl": "https://purl.stanford.edu/pk787fz6650", "title": "集成五万分一地形圖", "ckey": 8103638, "available": true, "iiifUrl": "https://purl.stanford.edu/pk787fz6650/iiif/manifest" }, "geometry": { "type": "Polygon", "coordinates": [ [ [ 129.502778, 32.5 ], [ 130.002778, 32.5 ], [ 130.002778, 32.6666664 ], [ 129.502778, 32.6666664 ], [ 129.502778, 32.5 ] ] ] } },
{ "type": "Feature", "properties": { "Id": 0, "Sheet_ID": "長崎-2", "label": "長崎-2", "call_short": "G7960 S50 .J31", "call_num": "G7960 S50 .J31 SHEET 57-2", "recid": "ws653nt4658", "websiteUrl": "https://purl.stanford.edu/ws653nt4658", "title": "集成五万分一地形圖", "ckey": 8103638, "available": true, "iiifUrl": "https://purl.stanford.edu/ws653nt4658/iiif/manifest" }, "geometry": { "type": "Polygon", "coordinates": [ [ [ 129.502778, 32.6666664 ], [ 130.002778, 32.6666664 ], [ 130.002778, 32.9999999 ], [ 129.502778, 32.9999999 ], [ 129.502778, 32.6666664 ] ] ] } },
{ "type": "Feature", "properties": { "Id": 0, "Sheet_ID": "長崎-1", "label": "長崎-1", "call_short": "G7960 S50 .J31", "call_num": "G7960 S50 .J31 SHEET 57-1", "recid": "xd302vt6880", "websiteUrl": "https://purl.stanford.edu/xd302vt6880", "title": "集成五万分一地形圖", "ckey": 8103638, "available": true, "iiifUrl": "https://purl.stanford.edu/xd302vt6880/iiif/manifest" }, "geometry": { "type": "Polygon", "coordinates": [ [ [ 129.502778, 32.9999999 ], [ 130.002778, 32.9999999 ], [ 130.002778, 33.3333333 ], [ 129.502778, 33.3333333 ], [ 129.502778, 32.9999999 ] ] ] } },
{ "type": "Feature", "properties": { "Id": 0, "Sheet_ID": "唐津-2", "label": "唐津-2", "call_short": "G7960 S50 .J31", "call_num": "G7960 S50 .J31 SHEET 56-2", "recid": "db190tg2389", "websiteUrl": "https://purl.stanford.edu/db190tg2389", "title": "集成五万分一地形圖", "ckey": 8103638, "available": true, "iiifUrl": "https://purl.stanford.edu/db190tg2389/iiif/manifest" }, "geometry": { "type": "Polygon", "coordinates": [ [ [ 129.502778, 33.3333333 ], [ 130.002778, 33.3333333 ], [ 130.002778, 33.6666667 ], [ 129.502778, 33.6666667 ], [ 129.502778, 33.3333333 ] ] ] } },
{ "type": "Feature", "properties": { "Id": 0, "Sheet_ID": "唐津-1", "label": "唐津-1", "call_short": "G7960 S50 .J31", "call_num": "G7960 S50 .J31 SHEET 56-1", "recid": "jk745yg3751", "websiteUrl": "https://purl.stanford.edu/jk745yg3751", "title": "集成五万分一地形圖", "ckey": 8103638, "available": true, "iiifUrl": "https://purl.stanford.edu/jk745yg3751/iiif/manifest" }, "geometry": { "type": "Polygon", "coordinates": [ [ [ 129.502778, 33.6666667 ], [ 130.002778, 33.6666667 ], [ 130.002778, 34.0000001 ], [ 129.502778, 34.0000001 ], [ 129.502778, 33.6666667 ] ] ] } },
{ "type": "Feature", "properties": { "Id": 0, "Sheet_ID": "嚴原-4", "label": "嚴原-4", "call_short": null, "call_num": null, "recid": null, "websiteUrl": null, "title": null, "ckey": 0, "available": false, "iiifUrl": null }, "geometry": { "type": "Polygon", "coordinates": [ [ [ 129.002778, 34.0000001 ], [ 129.502778, 34.0000001 ], [ 129.502778, 34.3333336 ], [ 129.002778, 34.3333336 ], [ 129.002778, 34.0000001 ] ] ] } },
{ "type": "Feature", "properties": { "Id": 0, "Sheet_ID": "嚴原-3", "label": "嚴原-3", "call_short": "G7960 S50 .J31", "call_num": "G7960 S50 .J31 SHEET 55-3", "recid": "bp860fm6456", "websiteUrl": "https://purl.stanford.edu/bp860fm6456", "title": "集成五万分一地形圖", "ckey": 8103638, "available": true, "iiifUrl": "https://purl.stanford.edu/bp860fm6456/iiif/manifest" }, "geometry": { "type": "Polygon", "coordinates": [ [ [ 129.202778, 34.3333336 ], [ 129.502778, 34.3333336 ], [ 129.502778, 34.666667 ], [ 129.202778, 34.666667 ], [ 129.202778, 34.3333336 ] ] ] } },
{ "type": "Feature", "properties": { "Id": 0, "Sheet_ID": "長崎-4, 福江-2, 富江-1", "label": "長崎-4, 福江-2, 富江-1", "call_short": "G7960 S50 .J31", "call_num": "G7960 S50 .J31 SHEET 57-4, 59-2, 60-1", "recid": "yc997pp3039", "websiteUrl": "https://purl.stanford.edu/yc997pp3039", "title": "集成五万分一地形圖", "ckey": 8103638, "available": true, "iiifUrl": "https://purl.stanford.edu/yc997pp3039/iiif/manifest" }, "geometry": { "type": "Polygon", "coordinates": [ [ [ 129.002778, 32.5 ], [ 129.002778, 32.666667 ], [ 129.086111, 32.666667 ], [ 129.086111, 32.8333333 ], [ 129.002778, 32.8333333 ], [ 128.536111, 32.8333333 ], [ 128.536111, 32.5 ], [ 129.002778, 32.5 ] ] ] } },
{ "type": "Feature", "properties": { "Id": 0, "Sheet_ID": "福江-1, 福江-2", "label": "福江-1, 福江-2", "call_short": "G7960 S50 .J31", "call_num": "G7960 S50 .J31 SHEET 59-1, 59-2", "recid": "mr372mw4495", "websiteUrl": "https://purl.stanford.edu/mr372mw4495", "title": "集成五万分一地形圖", "ckey": 8103638, "available": true, "iiifUrl": "https://purl.stanford.edu/mr372mw4495/iiif/manifest" }, "geometry": { "type": "Polygon", "coordinates": [ [ [ 128.752778, 32.8333333 ], [ 129.002778, 32.8333333 ], [ 129.002778, 33.2 ], [ 128.752778, 33.2 ], [ 128.752778, 32.8333333 ] ] ] } },
{ "type": "Feature", "properties": { "Id": 0, "Sheet_ID": "長崎-3, 長崎-4", "label": "長崎-3, 長崎-4", "call_short": "G7960 S50 .J31", "call_num": "G7960 S50 .J31 SHEET 57-3, 57-4", "recid": "gk441vk9159", "websiteUrl": "https://purl.stanford.edu/gk441vk9159", "title": "集成五万分一地形圖", "ckey": 8103638, "available": true, "iiifUrl": "https://purl.stanford.edu/gk441vk9159/iiif/manifest" }, "geometry": { "type": "Polygon", "coordinates": [ [ [ 129.002778, 32.8333333 ], [ 129.502778, 32.8333333 ], [ 129.502778, 33.1666667 ], [ 129.002778, 33.1666667 ], [ 129.002778, 32.8333333 ] ] ] } },
{ "type": "Feature", "properties": { "Id": 0, "Sheet_ID": "唐津-4, 長崎-3", "label": "唐津-4, 長崎-3", "call_short": "G7960 S50 .J31", "call_num": "G7960 S50 .J31 SHEET 56-4, 57-3", "recid": "nn519zs2217", "websiteUrl": "https://purl.stanford.edu/nn519zs2217", "title": "集成五万分一地形圖", "ckey": 8103638, "available": true, "iiifUrl": "https://purl.stanford.edu/nn519zs2217/iiif/manifest" }, "geometry": { "type": "Polygon", "coordinates": [ [ [ 129.002778, 33.1666667 ], [ 129.502778, 33.1666667 ], [ 129.502778, 33.5 ], [ 129.002778, 33.5 ], [ 129.002778, 33.1666667 ] ] ] } },
{ "type": "Feature", "properties": { "Id": 0, "Sheet_ID": "青森-4", "label": "青森-4", "call_short": "G7960 S50 .J31", "call_num": "G7960 S50 .J31 SHEET 5-4", "recid": "yw670dg3255", "websiteUrl": "https://purl.stanford.edu/yw670dg3255", "title": "集成五万分一地形圖", "ckey": 8103638, "available": true, "iiifUrl": "https://purl.stanford.edu/yw670dg3255/iiif/manifest" }, "geometry": { "type": "Polygon", "coordinates": [ [ [ 140.252778, 40.666667 ], [ 140.502778, 40.666667 ], [ 140.502778, 41.0000003 ], [ 140.252778, 41.0000003 ], [ 140.252778, 40.666667 ] ] ] } },
{ "type": "Feature", "properties": { "Id": 0, "Sheet_ID": "青森-2", "label": "青森-2", "call_short": "G7960 S50 .J31", "call_num": "G7960 S50 .J31 SHEET 5-2", "recid": "jt054px3858", "websiteUrl": "https://purl.stanford.edu/jt054px3858", "title": "集成五万分一地形圖", "ckey": 8103638, "available": true, "iiifUrl": "https://purl.stanford.edu/jt054px3858/iiif/manifest" }, "geometry": { "type": "Polygon", "coordinates": [ [ [ 140.502778, 40.666667 ], [ 141.002778, 40.666667 ], [ 141.002778, 41.0000002 ], [ 140.502778, 41.0000002 ], [ 140.502778, 40.666667 ] ] ] } },
{ "type": "Feature", "properties": { "Id": 0, "Sheet_ID": "野邊地-4", "label": "野邊地-4", "call_short": "G7960 S50 .J31", "call_num": "G7960 S50 .J31 SHEET 4-4", "recid": "bg182hc6277", "websiteUrl": "https://purl.stanford.edu/bg182hc6277", "title": "集成五万分一地形圖", "ckey": 8103638, "available": true, "iiifUrl": "https://purl.stanford.edu/bg182hc6277/iiif/manifest" }, "geometry": { "type": "Polygon", "coordinates": [ [ [ 141.002778, 40.666667 ], [ 141.502778, 40.666667 ], [ 141.502778, 41.0000002 ], [ 141.002778, 41.0000002 ], [ 141.002778, 40.666667 ] ] ] } },
{ "type": "Feature", "properties": { "Id": 0, "Sheet_ID": "青森-3", "label": "青森-3", "call_short": null, "call_num": null, "recid": null, "websiteUrl": null, "title": null, "ckey": 0, "available": false, "iiifUrl": null }, "geometry": { "type": "Polygon", "coordinates": [ [ [ 140.252778, 41.0000003 ], [ 140.502778, 41.0000003 ], [ 140.502778, 41.3333335 ], [ 140.252778, 41.3333335 ], [ 140.252778, 41.0000003 ] ] ] } },
{ "type": "Feature", "properties": { "Id": 0, "Sheet_ID": "青森-1", "label": "青森-1", "call_short": null, "call_num": null, "recid": null, "websiteUrl": null, "title": null, "ckey": 0, "available": false, "iiifUrl": null }, "geometry": { "type": "Polygon", "coordinates": [ [ [ 140.502778, 41.0000002 ], [ 141.002778, 41.0000002 ], [ 141.002778, 41.3333335 ], [ 140.502778, 41.3333335 ], [ 140.502778, 41.0000002 ] ] ] } },
{ "type": "Feature", "properties": { "Id": 0, "Sheet_ID": "野邊地-3", "label": "野邊地-3", "call_short": "G7960 S50 .J31", "call_num": "G7960 S50 .J31 SHEET 4-3", "recid": "ft064jp4309", "websiteUrl": "https://purl.stanford.edu/ft064jp4309", "title": "集成五万分一地形圖", "ckey": 8103638, "available": true, "iiifUrl": "https://purl.stanford.edu/ft064jp4309/iiif/manifest" }, "geometry": { "type": "Polygon", "coordinates": [ [ [ 141.002778, 41.0000002 ], [ 141.502778, 41.0000002 ], [ 141.502778, 41.3333335 ], [ 141.002778, 41.3333335 ], [ 141.002778, 41.0000002 ] ] ] } },
{ "type": "Feature", "properties": { "Id": 0, "Sheet_ID": "函館-4, 渡島大島-2, 渡島大島-4", "label": "函館-4, 渡島大島-2, 渡島大島-4", "call_short": "G7960 S50 .J31", "call_num": "G7960 S50 .J31 SHEET 2-4, 3-2, 3-4", "recid": "wy565dm0648", "websiteUrl": "https://purl.stanford.edu/wy565dm0648", "title": "集成五万分一地形圖", "ckey": 8103638, "available": true, "iiifUrl": "https://purl.stanford.edu/wy565dm0648/iiif/manifest" }, "geometry": { "type": "MultiPolygon", "coordinates": [ [ [ [ 139.852778, 41.333333 ], [ 139.852778, 41.383333 ], [ 139.752778, 41.383333 ], [ 139.752778, 41.333333 ], [ 139.852778, 41.333333 ] ] ], [ [ [ 139.419444, 41.483333 ], [ 139.419444, 41.55 ], [ 139.302778, 41.55 ], [ 139.3027781, 41.483333 ], [ 139.419444, 41.483333 ] ] ], [ [ [ 140.502778, 41.3333335 ], [ 140.502778, 41.6666667 ], [ 139.969444, 41.6666667 ], [ 139.969444, 41.3333335 ], [ 140.502778, 41.3333335 ] ] ] ] } },
{ "type": "Feature", "properties": { "Id": 0, "Sheet_ID": "函館-2", "label": "函館-2", "call_short": "G7960 S50 .J31", "call_num": "G7960 S50 .J31 SHEET 2-2", "recid": "km358md7768", "websiteUrl": "https://purl.stanford.edu/km358md7768", "title": "集成五万分一地形圖", "ckey": 8103638, "available": true, "iiifUrl": "https://purl.stanford.edu/km358md7768/iiif/manifest" }, "geometry": { "type": "Polygon", "coordinates": [ [ [ 140.752778, 41.3333335 ], [ 141.002778, 41.3333335 ], [ 141.002778, 41.6666667 ], [ 140.752778, 41.6666667 ], [ 140.752778, 41.3333335 ] ] ] } },
{ "type": "Feature", "properties": { "Id": 0, "Sheet_ID": "尻尾崎-4", "label": "尻尾崎-4", "call_short": "G7960 S50 .J31", "call_num": "G7960 S50 .J31 SHEET 1-4", "recid": "fp932pn6599", "websiteUrl": "https://purl.stanford.edu/fp932pn6599", "title": "集成五万分一地形圖", "ckey": 8103638, "available": true, "iiifUrl": "https://purl.stanford.edu/fp932pn6599/iiif/manifest" }, "geometry": { "type": "Polygon", "coordinates": [ [ [ 141.002778, 41.3333335 ], [ 141.502778, 41.3333335 ], [ 141.502778, 41.5 ], [ 141.002778, 41.5 ], [ 141.002778, 41.3333335 ] ] ] } },
{ "type": "Feature", "properties": { "Id": 0, "Sheet_ID": "函館-1, 函館-3", "label": "函館-1, 函館-3", "call_short": null, "call_num": null, "recid": null, "websiteUrl": null, "title": null, "ckey": 0, "available": false, "iiifUrl": null }, "geometry": { "type": "Polygon", "coordinates": [ [ [ 140.252778, 41.6666667 ], [ 140.752778, 41.6666667 ], [ 140.752778, 42.0 ], [ 140.252778, 42.0 ], [ 140.252778, 41.6666667 ] ] ] } },
{ "type": "Feature", "properties": { "Id": 0, "Sheet_ID": "尻尾崎-3, 函館-1", "label": "尻尾崎-3, 函館-1", "call_short": "G7960 S50 .J31", "call_num": "G7960 S50 .J31 SHEET 1-3, 2-1", "recid": "bz357hy2056", "websiteUrl": "https://purl.stanford.edu/bz357hy2056", "title": "集成五万分一地形圖", "ckey": 8103638, "available": true, "iiifUrl": "https://purl.stanford.edu/bz357hy2056/iiif/manifest" }, "geometry": { "type": "Polygon", "coordinates": [ [ [ 140.752778, 41.6666667 ], [ 141.252778, 41.6666667 ], [ 141.252778, 42.0 ], [ 140.752778, 42.0 ], [ 140.752778, 41.6666667 ] ] ] } }
]
}
