{"type":"FeatureCollection","features":[{"type":"Feature","properties":{"Id":0,"Sheet_ID":"臺北府附近圖","label":"臺北府附近圖","call_short":"G7913 .T35 1894 .J3","call_num":"G7913 .T35 1894 .J3","recid":"hq090pr2850","websiteUrl":"https://purl.stanford.edu/hq090pr2850","title":"臺灣島 臺北府附近圖","ckey":9862577,"web_map":"","available":"true","iiifUrl":"https://purl.stanford.edu/hq090pr2850/iiif/manifest"},"geometry":{"bbox":[121,24.666667,122,25.333333],"type":"Polygon","coordinates":[[[121,24.666667],[121,25.333333],[122,25.333333],[122,24.666667],[121,24.666667]]]}}],"name":"index_9862577"}
