{"type":"FeatureCollection","features":[{"type":"Feature","properties":{"Id":0,"Sheet_ID":"25. ゴンジア","label":"25. ゴンジア","call_short":"G7270 S100 .J377","call_num":"G7270 S100 .J377 SHEET 25","recid":"th463zy3855","websiteUrl":"https://purl.stanford.edu/th463zy3855","title":"西伯利十万分一圖 ゼーヤ","ckey":12284154,"web_map":"","available":"true","iiifUrl":"https://purl.stanford.edu/th463zy3855/iiif/manifest"},"geometry":{"bbox":[125.00000000000001,53.333333,126,54],"type":"Polygon","coordinates":[[[125.00000000000001,53.333333],[125.00000000000001,54],[126,54],[126,53.333333],[125.00000000000001,53.333333]]]}},{"type":"Feature","properties":{"Id":0,"Sheet_ID":"20. オフシャンカ","label":"20. オフシャンカ","call_short":"G7270 S100 .J377","call_num":"G7270 S100 .J377 SHEET 20","recid":"zw604qj0561","websiteUrl":"https://purl.stanford.edu/zw604qj0561","title":"西伯利十万分一圖 ゼーヤ","ckey":12284154,"web_map":"","available":"true","iiifUrl":"https://purl.stanford.edu/zw604qj0561/iiif/manifest"},"geometry":{"bbox":[126,53.333333,127.00000000000001,54],"type":"Polygon","coordinates":[[[126,53.333333],[126,54],[127.00000000000001,54],[127.00000000000001,53.333333],[126,53.333333]]]}},{"type":"Feature","properties":{"Id":0,"Sheet_ID":"15. ゼーヤ","label":"15. ゼーヤ","call_short":"","call_num":"","recid":"","websiteUrl":"","title":"","ckey":0,"web_map":"","available":"false","iiifUrl":""},"geometry":{"bbox":[127.00000000000001,53.333333,128,54],"type":"Polygon","coordinates":[[[127.00000000000001,53.333333],[127.00000000000001,54],[128,54],[128,53.333333],[127.00000000000001,53.333333]]]}}],"name":"index_12284154"}
