{"type":"FeatureCollection","features":[{"type":"Feature","properties":{"Id":0,"Sheet_ID":"ナウル","label":"ナウル","call_short":"G9402 .N3 1943 .J3","call_num":"G9402 .N3 1943 .J3","recid":"zg408nf1361","websiteUrl":"https://purl.stanford.edu/zg408nf1361","title":"ナウル","ckey":10496676,"web_map":"","available":"true","iiifUrl":"https://purl.stanford.edu/zg408nf1361/iiif/manifest"},"geometry":{"bbox":[166.883333,-0.566667,166.966667,-0.483333],"type":"Polygon","coordinates":[[[166.883333,-0.566667],[166.883333,-0.483333],[166.966667,-0.483333],[166.966667,-0.566667],[166.883333,-0.566667]]]}}],"name":"index_10496676"}
