{"type":"FeatureCollection","features":[{"type":"Feature","properties":{"Id":0,"Sheet_ID":"ウラン・ウデ","label":"ウラン・ウデ","call_short":"G7064 .U36 1944 .J3","call_num":"G7064 .U36 1944 .J3","recid":"zh630gz7261","websiteUrl":"https://purl.stanford.edu/zh630gz7261","title":"ウラン・ウデ / 五十万分一地誌圖","ckey":10648201,"web_map":"","available":"true","iiiUrl":"https://purl.stanford.edu/zh630gz7261/iiif/manifest"},"geometry":{"bbox":[105.00000000000001,50,110,53.333333],"type":"Polygon","coordinates":[[[105.00000000000001,50],[105.00000000000001,53.333333],[110,53.333333],[110,50],[105.00000000000001,50]]]}}],"name":"index_10648201"}
