{
"type": "FeatureCollection",
"name": "index_map",
"features": [
{ "type": "Feature", "properties": { "Id": 0, "Sheet_ID": "オパスヌイ岬附近", "label": "オパスヌイ岬附近", "call_short": "G7322 .K3 1944 .J3", "call_num": "G7322 .K3 1944 .J3", "recid": "rb104jj5831", "websiteUrl": "https://purl.stanford.edu/rb104jj5831", "title": "オパスヌイ岬附近", "ckey": 12284227, "web_map": null, "available": true, "iiifUrl": "https://purl.stanford.edu/rb104jj5831/iiif/manifest" }, "geometry": { "type": "Polygon", "coordinates": [ [ [ 158.375, 52.35 ], [ 158.65, 52.35 ], [ 158.65, 52.958333 ], [ 158.375, 52.958333 ], [ 158.375, 52.35 ] ] ] } }
]
}
