{"type":"FeatureCollection","features":[{"type":"Feature","properties":{"Id":0,"Sheet_ID":"5. ブラウン島","label":"5. ブラウン島","call_short":"G9467 .R6 1944 .J3","call_num":"G9467 .R6 1944 .J3","recid":"vv468yy2496","websiteUrl":"https://purl.stanford.edu/vv468yy2496","title":"ロンゴラップ島附近 / 十万分一マーシャル諸島集成圖","ckey":10648238,"web_map":"","available":"true","iiifUrl":"https://purl.stanford.edu/vv468yy2496/iiif/manifest"},"geometry":{"bbox":[162.05000000000007,11.316667000000052,162.41666699999996,11.71666700000003],"type":"Polygon","coordinates":[[[162.05000000000007,11.71666700000003],[162.41666699999996,11.71666700000003],[162.41666699999996,11.316667000000052],[162.05000000000007,11.316667000000052],[162.05000000000007,11.71666700000003]]]}},{"type":"Feature","properties":{"Id":0,"Sheet_ID":"4. ピキンニ島","label":"4. ピキンニ島","call_short":"G9467 .R6 1944 .J3","call_num":"G9467 .R6 1944 .J3","recid":"vv468yy2496","websiteUrl":"https://purl.stanford.edu/vv468yy2496","title":"ロンゴラップ島附近 / 十万分一マーシャル諸島集成圖","ckey":10648238,"web_map":"","available":"true","iiifUrl":"https://purl.stanford.edu/vv468yy2496/iiif/manifest"},"geometry":{"bbox":[165.16666699999996,11.466667000000086,165.58333300000015,11.73333299999996],"type":"Polygon","coordinates":[[[165.16666699999996,11.466667000000086],[165.16666699999996,11.73333299999996],[165.58333300000015,11.73333299999996],[165.58333300000015,11.466667000000086],[165.16666699999996,11.466667000000086]]]}},{"type":"Feature","properties":{"Id":0,"Sheet_ID":"3. ウオット島","label":"3. ウオット島","call_short":"G9467 .R6 1944 .J3","call_num":"G9467 .R6 1944 .J3","recid":"vv468yy2496","websiteUrl":"https://purl.stanford.edu/vv468yy2496","title":"ロンゴラップ島附近 / 十万分一マーシャル諸島集成圖","ckey":10648238,"web_map":"","available":"true","iiifUrl":"https://purl.stanford.edu/vv468yy2496/iiif/manifest"},"geometry":{"bbox":[165.866667,10,166.04999999999995,10.25],"type":"Polygon","coordinates":[[[165.866667,10],[165.866667,10.25],[166.04999999999995,10.25],[166.04999999999995,10],[165.866667,10]]]}},{"type":"Feature","properties":{"Id":0,"Sheet_ID":"2. ロンゴラップ島及アイリギンアエ島","label":"2. ロンゴラップ島及アイリギンアエ島","call_short":"G9467 .R6 1944 .J3","call_num":"G9467 .R6 1944 .J3","recid":"vv468yy2496","websiteUrl":"https://purl.stanford.edu/vv468yy2496","title":"ロンゴラップ島附近 / 十万分一マーシャル諸島集成圖","ckey":10648238,"web_map":"","available":"true","iiifUrl":"https://purl.stanford.edu/vv468yy2496/iiif/manifest"},"geometry":{"bbox":[166.25000000000003,11.083333000000096,167.08333300000015,11.500000000000057],"type":"Polygon","coordinates":[[[166.25000000000003,11.083333000000096],[166.25000000000003,11.500000000000057],[167.08333300000015,11.500000000000057],[167.08333300000015,11.083333000000096],[166.25000000000003,11.083333000000096]]]}},{"type":"Feature","properties":{"Id":0,"Sheet_ID":"1. ロンギリック島","label":"1. ロンギリック島","call_short":"G9467 .R6 1944 .J3","call_num":"G9467 .R6 1944 .J3","recid":"vv468yy2496","websiteUrl":"https://purl.stanford.edu/vv468yy2496","title":"ロンゴラップ島附近 / 十万分一マーシャル諸島集成圖","ckey":10648238,"web_map":"","available":"true","iiifUrl":"https://purl.stanford.edu/vv468yy2496/iiif/manifest"},"geometry":{"bbox":[167.33333300000015,11.233333000000073,167.58333300000004,11.500000000000057],"type":"Polygon","coordinates":[[[167.33333300000015,11.233333000000073],[167.33333300000015,11.500000000000057],[167.58333300000004,11.500000000000057],[167.58333300000004,11.233333000000073],[167.33333300000015,11.233333000000073]]]}}],"name":"index_10648238"}
