{"type":"FeatureCollection","features":[{"type":"Feature","properties":{"Id":0,"Sheet_ID":"[3.] 佳木斯及ビロビッヂャン","label":"[3.] 佳木斯及ビロビッヂャン","call_short":"G7830 S500 .J3","call_num":"G7830 S500 .J3 SHEET 3","recid":"yv657xv7625","websiteUrl":"https://purl.stanford.edu/yv657xv7625","title":"蘇満方面五十万分一地誌圖","ckey":10553874,"web_map":"","available":"true","iiiUrl":"https://purl.stanford.edu/yv657xv7625/iiif/manifest"},"geometry":{"bbox":[130,46.666667,135,50.00000033333333],"type":"Polygon","coordinates":[[[130,46.666667],[130,50.00000033333333],[135,50.00000033333333],[135,46.666667],[130,46.666667]]]}},{"type":"Feature","properties":{"Id":0,"Sheet_ID":"ネルチンスク","label":"ネルチンスク","call_short":"","call_num":"","recid":"","websiteUrl":"","title":"","ckey":0,"web_map":"","available":"false","iiiUrl":""},"geometry":{"bbox":[115,50.00000033333333,119.99999999999999,53.33333366666667],"type":"Polygon","coordinates":[[[115,50.00000033333333],[115,53.33333366666667],[119.99999999999999,53.33333366666667],[119.99999999999999,50.00000033333333],[115,50.00000033333333]]]}},{"type":"Feature","properties":{"Id":0,"Sheet_ID":"北部大興安嶺","label":"北部大興安嶺","call_short":"","call_num":"","recid":"","websiteUrl":"","title":"","ckey":0,"web_map":"","available":"false","iiiUrl":""},"geometry":{"bbox":[119.99999999999999,50.00000033333333,125.00000000000001,53.33333366666667],"type":"Polygon","coordinates":[[[119.99999999999999,50.00000033333333],[119.99999999999999,53.33333366666667],[125.00000000000001,53.33333366666667],[125.00000000000001,50.00000033333333],[119.99999999999999,50.00000033333333]]]}},{"type":"Feature","properties":{"Id":0,"Sheet_ID":"黒河及ブラゴウエシチェンスク","label":"黒河及ブラゴウエシチェンスク","call_short":"","call_num":"","recid":"","websiteUrl":"","title":"","ckey":0,"web_map":"","available":"false","iiiUrl":""},"geometry":{"bbox":[125.00000000000001,50.00000033333333,130,53.33333366666667],"type":"Polygon","coordinates":[[[125.00000000000001,50.00000033333333],[125.00000000000001,53.33333366666667],[130,53.33333366666667],[130,50.00000033333333],[125.00000000000001,50.00000033333333]]]}},{"type":"Feature","properties":{"Id":0,"Sheet_ID":"ブレーヤ河","label":"ブレーヤ河","call_short":"","call_num":"","recid":"","websiteUrl":"","title":"","ckey":0,"web_map":"","available":"false","iiiUrl":""},"geometry":{"bbox":[130,50.00000033333333,135,53.33333366666667],"type":"Polygon","coordinates":[[[130,50.00000033333333],[130,53.33333366666667],[135,53.33333366666667],[135,50.00000033333333],[130,50.00000033333333]]]}},{"type":"Feature","properties":{"Id":0,"Sheet_ID":"モゴーチャ","label":"モゴーチャ","call_short":"","call_num":"","recid":"","websiteUrl":"","title":"","ckey":0,"web_map":"","available":"false","iiiUrl":""},"geometry":{"bbox":[115,53.33333366666666,119.99999999999999,56.666667000000004],"type":"Polygon","coordinates":[[[115,53.33333366666666],[115,56.666667000000004],[119.99999999999999,56.666667000000004],[119.99999999999999,53.33333366666666],[115,53.33333366666666]]]}},{"type":"Feature","properties":{"Id":0,"Sheet_ID":"[2.] ウルシア","label":"[2.] ウルシア","call_short":"G7830 S500 .J3","call_num":"G7830 S500 .J3 SHEET 2","recid":"qp958td0734","websiteUrl":"https://purl.stanford.edu/qp958td0734","title":"蘇満方面五十万分一地誌圖","ckey":10553874,"web_map":"","available":"true","iiiUrl":"https://purl.stanford.edu/qp958td0734/iiif/manifest"},"geometry":{"bbox":[119.99999999999999,53.33333366666666,125.00000000000001,56.666667000000004],"type":"Polygon","coordinates":[[[119.99999999999999,53.33333366666666],[119.99999999999999,56.666667000000004],[125.00000000000001,56.666667000000004],[125.00000000000001,53.33333366666666],[119.99999999999999,53.33333366666666]]]}},{"type":"Feature","properties":{"Id":0,"Sheet_ID":"[1.] ゼーヤ","label":"[1.] ゼーヤ","call_short":"G7830 S500 .J3","call_num":"G7830 S500 .J3 SHEET 1","recid":"cb682sp6362","websiteUrl":"https://purl.stanford.edu/cb682sp6362","title":"蘇満方面五十万分一地誌圖","ckey":10553874,"web_map":"","available":"true","iiiUrl":"https://purl.stanford.edu/cb682sp6362/iiif/manifest"},"geometry":{"bbox":[125.00000000000001,53.33333366666666,130,56.666667000000004],"type":"Polygon","coordinates":[[[125.00000000000001,53.33333366666666],[125.00000000000001,56.666667000000004],[130,56.666667000000004],[130,53.33333366666666],[125.00000000000001,53.33333366666666]]]}}],"name":"index_10553874"}
