{
"type": "FeatureCollection",
"name": "index_map",
"xy_coordinate_resolution": 1e-07,
"features": [
{ "type": "Feature", "properties": { "Id": 0, "Sheet_ID": "オーシャン島", "label": "オーシャン島", "call_short": "G9482.B3 1943 .J3", "call_num": "G9482.B3 1943 .J3", "recid": "zv166fv5955", "websiteUrl": "https://purl.stanford.edu/zv166fv5955", "title": "オーシャン島", "ckey": 10475260, "available": true, "iiifUrl": "https://purl.stanford.edu/zv166fv5955/iiif/manifest" }, "geometry": { "type": "Polygon", "coordinates": [ [ [ 169.518056, -0.875 ], [ 169.551389, -0.875 ], [ 169.551389, -0.841667 ], [ 169.518056, -0.841667 ], [ 169.518056, -0.875 ] ] ] } }
]
}
