{
"type": "FeatureCollection",
"name": "index_map",
"xy_coordinate_resolution": 1e-07,
"features": [
{ "type": "Feature", "properties": { "Id": 0, "Sheet_ID": "SHEET 2", "label": "SHEET 2", "call_short": "G7823 .S3 1939 .J3", "call_num": "G7823 .S3 1939 .J3 SHEET 2", "recid": "wm502tg3204", "websiteUrl": "https://purl.stanford.edu/wm502tg3204", "title": "陜西省五十万分一地誌圖", "ckey": 10221508, "available": true, "iiifUrl": "https://purl.stanford.edu/wm502tg3204/iiif/manifest" }, "geometry": { "type": "Polygon", "coordinates": [ [ [ 105.0, 31.666667 ], [ 110.0, 31.666667 ], [ 110.0, 35.0 ], [ 105.0, 35.0 ], [ 105.0, 31.666667 ] ] ] } },
{ "type": "Feature", "properties": { "Id": 0, "Sheet_ID": "SHEET 1", "label": "SHEET 1", "call_short": "3060 7191", "call_num": "3060 7191", "recid": "wx998jv6444", "websiteUrl": "https://purl.stanford.edu/wx998jv6444", "title": "陜西省五十万分一地誌圖", "ckey": 6536435, "available": true, "iiifUrl": "https://purl.stanford.edu/wx998jv6444/iiif/manifest" }, "geometry": { "type": "Polygon", "coordinates": [ [ [ 105.0, 35.0 ], [ 110.0, 35.0 ], [ 110.0, 38.333333 ], [ 105.0, 38.333333 ], [ 105.0, 35.0 ] ] ] } }
]
}
