{"type":"FeatureCollection","features":[{"type":"Feature","properties":{"Id":0,"Sheet_ID":"1. パガン島","label":"1. パガン島","call_short":"G9410 1944 .J3","call_num":"G9410 1944 .J3 SHEET 1","recid":"zr535hn8438","websiteUrl":"https://purl.stanford.edu/zr535hn8438","title":"二万五千分一圖 マリアナ諸島","ckey":12364210,"web_map":"","available":"true","iiifUrl":"https://purl.stanford.edu/zr535hn8438/iiif/manifest"},"geometry":{"bbox":[145.7,18,145.833333,18.2],"type":"Polygon","coordinates":[[[145.7,18],[145.7,18.2],[145.833333,18.2],[145.833333,18],[145.7,18]]]}},{"type":"Feature","properties":{"Id":0,"Sheet_ID":"2. アラマガン島及グーグワン島","label":"2. アラマガン島及グーグワン島","call_short":"G9410 1944 .J3","call_num":"G9410 1944 .J3 SHEET 2","recid":"bb288xx8196","websiteUrl":"https://purl.stanford.edu/bb288xx8196","title":"五万分一圖 マリアナ諸島","ckey":12364210,"web_map":"","available":"true","iiifUrl":"https://purl.stanford.edu/bb288xx8196/iiif/manifest"},"geometry":{"bbox":[145.70833300000004,17.283333000000027,145.96666700000017,17.649999999999977],"type":"Polygon","coordinates":[[[145.70833300000004,17.283333000000027],[145.70833300000004,17.649999999999977],[145.96666700000017,17.649999999999977],[145.96666700000017,17.283333000000027],[145.70833300000004,17.283333000000027]]]}},{"type":"Feature","properties":{"Id":0,"Sheet_ID":"3. アナタハン島及サリグワン島附メディニージャ島","label":"3. アナタハン島及サリグワン島附メディニージャ島","call_short":"G9410 1944 .J3","call_num":"G9410 1944 .J3 SHEET 3","recid":"nq048nn9387","websiteUrl":"https://purl.stanford.edu/nq048nn9387","title":"五万分一圖 マリアナ諸島","ckey":12364210,"web_map":"","available":"true","iiifUrl":"https://purl.stanford.edu/nq048nn9387/iiif/manifest"},"geometry":{"bbox":[145.59166700000014,15.983333000000016,146.11666700000004,16.750000000000114],"type":"Polygon","coordinates":[[[145.59166700000014,15.983333000000016],[145.59166700000014,16.750000000000114],[146.11666700000004,16.750000000000114],[146.11666700000004,15.983333000000016],[145.59166700000014,15.983333000000016]]]}}],"name":"index_12364210"}
