{
"type": "FeatureCollection",
"name": "index_map",
"features": [
{ "type": "Feature", "properties": { "Id": 0, "Sheet_ID": "SHEET 4", "label": "SHEET 4", "call_short": "G7821 .F2 S25 .J3", "call_num": "G7821 .F2 S25 .J3 SHEET 4", "recid": "xv464nh6987", "websiteUrl": "https://purl.stanford.edu/xv464nh6987", "title": "同江附近國境要圖", "ckey": 10496490, "available": true, "iiifUrl": "https://purl.stanford.edu/xv464nh6987/iiif/manifest" }, "geometry": { "type": "Polygon", "coordinates": [ [ [ 132.6, 47.666667 ], [ 132.8, 47.666667 ], [ 132.8, 47.875 ], [ 132.6, 47.875 ], [ 132.6, 47.666667 ] ] ] } },
{ "type": "Feature", "properties": { "Id": 0, "Sheet_ID": "SHEET 2", "label": "SHEET 2", "call_short": "G7821 .F2 S25 .J3", "call_num": "G7821 .F2 S25 .J3 SHEET 2", "recid": "nr347hv6588", "websiteUrl": "https://purl.stanford.edu/nr347hv6588", "title": "同江附近國境要圖", "ckey": 10496490, "available": true, "iiifUrl": "https://purl.stanford.edu/nr347hv6588/iiif/manifest" }, "geometry": { "type": "Polygon", "coordinates": [ [ [ 132.6, 47.875 ], [ 132.8, 47.875 ], [ 132.8, 48.083333 ], [ 132.6, 48.083333 ], [ 132.6, 47.875 ] ] ] } },
{ "type": "Feature", "properties": { "Id": 0, "Sheet_ID": "SHEET 1", "label": "SHEET 1", "call_short": "G7821 .F2 S25 .J3", "call_num": "G7821 .F2 S25 .J3 SHEET 1", "recid": "hj843kz4053", "websiteUrl": "https://purl.stanford.edu/hj843kz4053", "title": "同江附近國境要圖", "ckey": 10496490, "available": true, "iiifUrl": "https://purl.stanford.edu/hj843kz4053/iiif/manifest" }, "geometry": { "type": "Polygon", "coordinates": [ [ [ 132.8, 47.875 ], [ 133.0, 47.875 ], [ 133.0, 48.083333 ], [ 132.8, 48.083333 ], [ 132.8, 47.875 ] ] ] } },
{ "type": "Feature", "properties": { "Id": 0, "Sheet_ID": "SHEET 6", "label": "SHEET 6", "call_short": "G7821 .F2 S25 .J3", "call_num": "G7821 .F2 S25 .J3 SHEET 6", "recid": "cz996bw9401", "websiteUrl": "https://purl.stanford.edu/cz996bw9401", "title": "同江附近國境要圖", "ckey": 10496490, "available": true, "iiifUrl": "https://purl.stanford.edu/cz996bw9401/iiif/manifest" }, "geometry": { "type": "Polygon", "coordinates": [ [ [ 132.15, 47.666667 ], [ 132.375, 47.666667 ], [ 132.375, 47.875 ], [ 132.15, 47.875 ], [ 132.15, 47.666667 ] ] ] } },
{ "type": "Feature", "properties": { "Id": 0, "Sheet_ID": "SHEET 5", "label": "SHEET 5", "call_short": "G7821 .F2 S25 .J3", "call_num": "G7821 .F2 S25 .J3 SHEET 5", "recid": "vn217cr7469", "websiteUrl": "https://purl.stanford.edu/vn217cr7469", "title": "同江附近國境要圖", "ckey": 10496490, "available": true, "iiifUrl": "https://purl.stanford.edu/vn217cr7469/iiif/manifest" }, "geometry": { "type": "Polygon", "coordinates": [ [ [ 132.375, 47.666667 ], [ 132.6, 47.666667 ], [ 132.6, 47.875 ], [ 132.375, 47.875 ], [ 132.375, 47.666667 ] ] ] } },
{ "type": "Feature", "properties": { "Id": 0, "Sheet_ID": "SHEET 3", "label": "SHEET 3", "call_short": "G7821 .F2 S25 .J3", "call_num": "G7821 .F2 S25 .J3 SHEET 3", "recid": "fv672kh4917", "websiteUrl": "https://purl.stanford.edu/fv672kh4917", "title": "同江附近國境要圖", "ckey": 10496490, "available": true, "iiifUrl": "https://purl.stanford.edu/fv672kh4917/iiif/manifest" }, "geometry": { "type": "Polygon", "coordinates": [ [ [ 132.375, 47.875 ], [ 132.6, 47.875 ], [ 132.6, 48.083333 ], [ 132.375, 48.083333 ], [ 132.375, 47.875 ] ] ] } }
]
}
