{"type":"FeatureCollection","features":[{"type":"Feature","properties":{"Id":0,"Sheet_ID":"壹貳ニ123-51. オタベ","label":"壹貳ニ123-51. オタベ","call_short":"G8060 S50 .J3","call_num":"G8060 S50 .J3 SHEET 123-51","recid":"yp981sc3848","websiteUrl":"https://purl.stanford.edu/yp981sc3848","title":"比律賓五万分一圖","ckey":10760648,"web_map":"","available":"true","iiifUrl":"https://purl.stanford.edu/yp981sc3848/iiif/manifest"},"geometry":{"bbox":[123.75000000000001,12.5,124,12.666666666666666],"type":"Polygon","coordinates":[[[123.75000000000001,12.5],[123.75000000000001,12.666666666666666],[124,12.666666666666666],[124,12.5],[123.75000000000001,12.5]]]}},{"type":"Feature","properties":{"Id":0,"Sheet_ID":"壹貳ニ113-53. マトノグ","label":"壹貳ニ113-53. マトノグ","call_short":"G8060 S50 .J3","call_num":"G8060 S50 .J3 SHEET 113-53","recid":"np412hy9327","websiteUrl":"https://purl.stanford.edu/np412hy9327","title":"比律賓五万分一圖","ckey":10760648,"web_map":"","available":"true","iiifUrl":"https://purl.stanford.edu/np412hy9327/iiif/manifest"},"geometry":{"bbox":[124,12.5,124.25,12.666666666666666],"type":"Polygon","coordinates":[[[124,12.5],[124,12.666666666666666],[124.25,12.666666666666666],[124.25,12.5],[124,12.5]]]}},{"type":"Feature","properties":{"Id":0,"Sheet_ID":"壹貳ニ122-52. ブラン","label":"壹貳ニ122-52. ブラン","call_short":"G8060 S50 .J3","call_num":"G8060 S50 .J3 SHEET 122-52","recid":"qq620gz0452","websiteUrl":"https://purl.stanford.edu/qq620gz0452","title":"比律賓五万分一圖","ckey":10760648,"web_map":"","available":"true","iiifUrl":"https://purl.stanford.edu/qq620gz0452/iiif/manifest"},"geometry":{"bbox":[123.75000000000001,12.666666666666666,124,12.833333333333332],"type":"Polygon","coordinates":[[[123.75000000000001,12.666666666666666],[123.75000000000001,12.833333333333332],[124,12.833333333333332],[124,12.666666666666666],[123.75000000000001,12.666666666666666]]]}},{"type":"Feature","properties":{"Id":0,"Sheet_ID":"壹貳ニ112-54. イロシン","label":"壹貳ニ112-54. イロシン","call_short":"G8060 S50 .J3","call_num":"G8060 S50 .J3 SHEET 112-54","recid":"jt722sf0975","websiteUrl":"https://purl.stanford.edu/jt722sf0975","title":"比律賓五万分一圖","ckey":10760648,"web_map":"","available":"true","iiifUrl":"https://purl.stanford.edu/jt722sf0975/iiif/manifest"},"geometry":{"bbox":[124,12.666666666666666,124.25,12.833333333333332],"type":"Polygon","coordinates":[[[124,12.666666666666666],[124,12.833333333333332],[124.25,12.833333333333332],[124.25,12.666666666666666],[124,12.666666666666666]]]}},{"type":"Feature","properties":{"Id":0,"Sheet_ID":"壹貳ニ122-53.","label":"壹貳ニ122-53.","call_short":"","call_num":"","recid":"","websiteUrl":"","title":"","ckey":0,"web_map":"","available":"false","iiifUrl":""},"geometry":{"bbox":[123.5,12.833333333333334,123.75000000000001,13],"type":"Polygon","coordinates":[[[123.5,12.833333333333334],[123.5,13],[123.75000000000001,13],[123.75000000000001,12.833333333333334],[123.5,12.833333333333334]]]}},{"type":"Feature","properties":{"Id":0,"Sheet_ID":"壹貳ニ122-51. カスティリア","label":"壹貳ニ122-51. カスティリア","call_short":"G8060 S50 .J3","call_num":"G8060 S50 .J3 SHEET 122-51","recid":"fv862sv7410","websiteUrl":"https://purl.stanford.edu/fv862sv7410","title":"比律賓五万分一圖","ckey":10760648,"web_map":"","available":"true","iiifUrl":"https://purl.stanford.edu/fv862sv7410/iiif/manifest"},"geometry":{"bbox":[123.75000000000001,12.833333333333334,124,13],"type":"Polygon","coordinates":[[[123.75000000000001,12.833333333333334],[123.75000000000001,13],[124,13],[124,12.833333333333334],[123.75000000000001,12.833333333333334]]]}},{"type":"Feature","properties":{"Id":0,"Sheet_ID":"壹貳ニ112-53.","label":"壹貳ニ112-53.","call_short":"","call_num":"","recid":"","websiteUrl":"","title":"","ckey":0,"web_map":"","available":"false","iiifUrl":""},"geometry":{"bbox":[124,12.833333333333334,124.25,13],"type":"Polygon","coordinates":[[[124,12.833333333333334],[124,13],[124.25,13],[124.25,12.833333333333334],[124,12.833333333333334]]]}},{"type":"Feature","properties":{"Id":0,"Sheet_ID":"壹貳ニ131-52.","label":"壹貳ニ131-52.","call_short":"","call_num":"","recid":"","websiteUrl":"","title":"","ckey":0,"web_map":"","available":"false","iiifUrl":""},"geometry":{"bbox":[123.24999999999999,13,123.5,13.166666666666666],"type":"Polygon","coordinates":[[[123.24999999999999,13],[123.24999999999999,13.166666666666666],[123.5,13.166666666666666],[123.5,13],[123.24999999999999,13]]]}},{"type":"Feature","properties":{"Id":0,"Sheet_ID":"壹貳ニ121-54.","label":"壹貳ニ121-54.","call_short":"","call_num":"","recid":"","websiteUrl":"","title":"","ckey":0,"web_map":"","available":"false","iiifUrl":""},"geometry":{"bbox":[123.5,13,123.75000000000001,13.166666666666666],"type":"Polygon","coordinates":[[[123.5,13],[123.5,13.166666666666666],[123.75000000000001,13.166666666666666],[123.75000000000001,13],[123.5,13]]]}},{"type":"Feature","properties":{"Id":0,"Sheet_ID":"壹貳ニ121-52. マニト","label":"壹貳ニ121-52. マニト","call_short":"G8060 S50 .J3","call_num":"G8060 S50 .J3 SHEET 121-52","recid":"kp935kt0356","websiteUrl":"https://purl.stanford.edu/kp935kt0356","title":"比律賓五万分一圖","ckey":10760648,"web_map":"","available":"true","iiifUrl":"https://purl.stanford.edu/kp935kt0356/iiif/manifest"},"geometry":{"bbox":[123.75000000000001,13,124,13.166666666666666],"type":"Polygon","coordinates":[[[123.75000000000001,13],[123.75000000000001,13.166666666666666],[124,13.166666666666666],[124,13],[123.75000000000001,13]]]}},{"type":"Feature","properties":{"Id":0,"Sheet_ID":"壹貳ニ111-54. バコン","label":"壹貳ニ111-54. バコン","call_short":"G8060 S50 .J3","call_num":"G8060 S50 .J3 SHEET 111-54","recid":"qd129sh5561","websiteUrl":"https://purl.stanford.edu/qd129sh5561","title":"比律賓五万分一圖","ckey":10760648,"web_map":"","available":"true","iiifUrl":"https://purl.stanford.edu/qd129sh5561/iiif/manifest"},"geometry":{"bbox":[124,13,124.25,13.166666666666666],"type":"Polygon","coordinates":[[[124,13],[124,13.166666666666666],[124.25,13.166666666666666],[124.25,13],[124,13]]]}},{"type":"Feature","properties":{"Id":0,"Sheet_ID":"壹貳ニ141-53.","label":"壹貳ニ141-53.","call_short":"","call_num":"","recid":"","websiteUrl":"","title":"","ckey":0,"web_map":"","available":"false","iiifUrl":""},"geometry":{"bbox":[122.50000000000001,13.166666666666666,122.75,13.333333333333332],"type":"Polygon","coordinates":[[[122.50000000000001,13.166666666666666],[122.50000000000001,13.333333333333332],[122.75,13.333333333333332],[122.75,13.166666666666666],[122.50000000000001,13.166666666666666]]]}},{"type":"Feature","properties":{"Id":0,"Sheet_ID":"壹貳ニ131-51.","label":"壹貳ニ131-51.","call_short":"","call_num":"","recid":"","websiteUrl":"","title":"","ckey":0,"web_map":"","available":"false","iiifUrl":""},"geometry":{"bbox":[123.24999999999999,13.166666666666666,123.5,13.333333333333332],"type":"Polygon","coordinates":[[[123.24999999999999,13.166666666666666],[123.24999999999999,13.333333333333332],[123.5,13.333333333333332],[123.5,13.166666666666666],[123.24999999999999,13.166666666666666]]]}},{"type":"Feature","properties":{"Id":0,"Sheet_ID":"壹貳ニ121-53.","label":"壹貳ニ121-53.","call_short":"","call_num":"","recid":"","websiteUrl":"","title":"","ckey":0,"web_map":"","available":"false","iiifUrl":""},"geometry":{"bbox":[123.5,13.166666666666666,123.75000000000001,13.333333333333332],"type":"Polygon","coordinates":[[[123.5,13.166666666666666],[123.5,13.333333333333332],[123.75000000000001,13.333333333333332],[123.75000000000001,13.166666666666666],[123.5,13.166666666666666]]]}},{"type":"Feature","properties":{"Id":0,"Sheet_ID":"壹貳ニ121-51.","label":"壹貳ニ121-51.","call_short":"","call_num":"","recid":"","websiteUrl":"","title":"","ckey":0,"web_map":"","available":"false","iiifUrl":""},"geometry":{"bbox":[123.75000000000001,13.166666666666666,124,13.333333333333332],"type":"Polygon","coordinates":[[[123.75000000000001,13.166666666666666],[123.75000000000001,13.333333333333332],[124,13.333333333333332],[124,13.166666666666666],[123.75000000000001,13.166666666666666]]]}},{"type":"Feature","properties":{"Id":0,"Sheet_ID":"壹貳ニ111-53. ラプラプ島","label":"壹貳ニ111-53. ラプラプ島","call_short":"G8060 S50 .J3","call_num":"G8060 S50 .J3 SHEET 111-53","recid":"cv946cw0423","websiteUrl":"https://purl.stanford.edu/cv946cw0423","title":"比律賓五万分一圖","ckey":10760648,"web_map":"","available":"true","iiifUrl":"https://purl.stanford.edu/cv946cw0423/iiif/manifest"},"geometry":{"bbox":[124,13.166666666666666,124.25,13.333333333333332],"type":"Polygon","coordinates":[[[124,13.166666666666666],[124,13.333333333333332],[124.25,13.333333333333332],[124.25,13.166666666666666],[124,13.166666666666666]]]}},{"type":"Feature","properties":{"Id":0,"Sheet_ID":"壹貳ホ160-52.","label":"壹貳ホ160-52.","call_short":"","call_num":"","recid":"","websiteUrl":"","title":"","ckey":0,"web_map":"","available":"false","iiifUrl":""},"geometry":{"bbox":[122.25,13.333333333333334,122.50000000000001,13.5],"type":"Polygon","coordinates":[[[122.25,13.333333333333334],[122.25,13.5],[122.50000000000001,13.5],[122.50000000000001,13.333333333333334],[122.25,13.333333333333334]]]}},{"type":"Feature","properties":{"Id":0,"Sheet_ID":"壹貳ホ150-54.","label":"壹貳ホ150-54.","call_short":"","call_num":"","recid":"","websiteUrl":"","title":"","ckey":0,"web_map":"","available":"false","iiifUrl":""},"geometry":{"bbox":[122.50000000000001,13.333333333333334,122.75,13.5],"type":"Polygon","coordinates":[[[122.50000000000001,13.333333333333334],[122.50000000000001,13.5],[122.75,13.5],[122.75,13.333333333333334],[122.50000000000001,13.333333333333334]]]}},{"type":"Feature","properties":{"Id":0,"Sheet_ID":"壹貳ホ140-54.","label":"壹貳ホ140-54.","call_short":"","call_num":"","recid":"","websiteUrl":"","title":"","ckey":0,"web_map":"","available":"false","iiifUrl":""},"geometry":{"bbox":[123.00000000000001,13.333333333333334,123.24999999999999,13.5],"type":"Polygon","coordinates":[[[123.00000000000001,13.333333333333334],[123.00000000000001,13.5],[123.24999999999999,13.5],[123.24999999999999,13.333333333333334],[123.00000000000001,13.333333333333334]]]}},{"type":"Feature","properties":{"Id":0,"Sheet_ID":"壹貳ホ140-52. イリガ","label":"壹貳ホ140-52. イリガ","call_short":"G8060 S50 .J3","call_num":"G8060 S50 .J3 SHEET 140-52","recid":"gf814hk5247","websiteUrl":"https://purl.stanford.edu/gf814hk5247","title":"比律賓五万分一圖","ckey":10760648,"web_map":"","available":"true","iiifUrl":"https://purl.stanford.edu/gf814hk5247/iiif/manifest"},"geometry":{"bbox":[123.24999999999999,13.333333333333334,123.5,13.5],"type":"Polygon","coordinates":[[[123.24999999999999,13.333333333333334],[123.24999999999999,13.5],[123.5,13.5],[123.5,13.333333333333334],[123.24999999999999,13.333333333333334]]]}},{"type":"Feature","properties":{"Id":0,"Sheet_ID":"壹貳ホ130-54.","label":"壹貳ホ130-54.","call_short":"","call_num":"","recid":"","websiteUrl":"","title":"","ckey":0,"web_map":"","available":"false","iiifUrl":""},"geometry":{"bbox":[123.5,13.333333333333334,123.75000000000001,13.5],"type":"Polygon","coordinates":[[[123.5,13.333333333333334],[123.5,13.5],[123.75000000000001,13.5],[123.75000000000001,13.333333333333334],[123.5,13.333333333333334]]]}},{"type":"Feature","properties":{"Id":0,"Sheet_ID":"壹貳ホ160-53. トゥキアン","label":"壹貳ホ160-53. トゥキアン","call_short":"G8060 S50 .J3","call_num":"G8060 S50 .J3 SHEET 160-53","recid":"xb427ww5192","websiteUrl":"https://purl.stanford.edu/xb427ww5192","title":"比律賓五万分一圖","ckey":10760648,"web_map":"","available":"true","iiifUrl":"https://purl.stanford.edu/xb427ww5192/iiif/manifest"},"geometry":{"bbox":[122,13.5,122.25,13.666666666666666],"type":"Polygon","coordinates":[[[122,13.5],[122,13.666666666666666],[122.25,13.666666666666666],[122.25,13.5],[122,13.5]]]}},{"type":"Feature","properties":{"Id":0,"Sheet_ID":"壹貳ホ160-51. カタナウアン","label":"壹貳ホ160-51. カタナウアン","call_short":"G8060 S50 .J3","call_num":"G8060 S50 .J3 SHEET 160-51","recid":"cc259vv3084","websiteUrl":"https://purl.stanford.edu/cc259vv3084","title":"比律賓五万分一圖","ckey":10760648,"web_map":"","available":"true","iiifUrl":"https://purl.stanford.edu/cc259vv3084/iiif/manifest"},"geometry":{"bbox":[122.25,13.5,122.50000000000001,13.666666666666666],"type":"Polygon","coordinates":[[[122.25,13.5],[122.25,13.666666666666666],[122.50000000000001,13.666666666666666],[122.50000000000001,13.5],[122.25,13.5]]]}},{"type":"Feature","properties":{"Id":0,"Sheet_ID":"壹貳ホ150-53.","label":"壹貳ホ150-53.","call_short":"","call_num":"","recid":"","websiteUrl":"","title":"","ckey":0,"web_map":"","available":"false","iiifUrl":""},"geometry":{"bbox":[122.50000000000001,13.5,122.75,13.666666666666666],"type":"Polygon","coordinates":[[[122.50000000000001,13.5],[122.50000000000001,13.666666666666666],[122.75,13.666666666666666],[122.75,13.5],[122.50000000000001,13.5]]]}},{"type":"Feature","properties":{"Id":0,"Sheet_ID":"壹貳ホ150-51.","label":"壹貳ホ150-51.","call_short":"","call_num":"","recid":"","websiteUrl":"","title":"","ckey":0,"web_map":"","available":"false","iiifUrl":""},"geometry":{"bbox":[122.75,13.5,123.00000000000001,13.666666666666666],"type":"Polygon","coordinates":[[[122.75,13.5],[122.75,13.666666666666666],[123.00000000000001,13.666666666666666],[123.00000000000001,13.5],[122.75,13.5]]]}},{"type":"Feature","properties":{"Id":0,"Sheet_ID":"壹貳ホ140-53.","label":"壹貳ホ140-53.","call_short":"","call_num":"","recid":"","websiteUrl":"","title":"","ckey":0,"web_map":"","available":"false","iiifUrl":""},"geometry":{"bbox":[123.00000000000001,13.5,123.24999999999999,13.666666666666666],"type":"Polygon","coordinates":[[[123.00000000000001,13.5],[123.00000000000001,13.666666666666666],[123.24999999999999,13.666666666666666],[123.24999999999999,13.5],[123.00000000000001,13.5]]]}},{"type":"Feature","properties":{"Id":0,"Sheet_ID":"壹貳ホ140-51.","label":"壹貳ホ140-51.","call_short":"","call_num":"","recid":"","websiteUrl":"","title":"","ckey":0,"web_map":"","available":"false","iiifUrl":""},"geometry":{"bbox":[123.24999999999999,13.5,123.5,13.666666666666666],"type":"Polygon","coordinates":[[[123.24999999999999,13.5],[123.24999999999999,13.666666666666666],[123.5,13.666666666666666],[123.5,13.5],[123.24999999999999,13.5]]]}},{"type":"Feature","properties":{"Id":0,"Sheet_ID":"壹貳ホ130-53.","label":"壹貳ホ130-53.","call_short":"","call_num":"","recid":"","websiteUrl":"","title":"","ckey":0,"web_map":"","available":"false","iiifUrl":""},"geometry":{"bbox":[123.5,13.5,123.75000000000001,13.666666666666666],"type":"Polygon","coordinates":[[[123.5,13.5],[123.5,13.666666666666666],[123.75000000000001,13.666666666666666],[123.75000000000001,13.5],[123.5,13.5]]]}},{"type":"Feature","properties":{"Id":0,"Sheet_ID":"壹貳ホ120-53.","label":"壹貳ホ120-53.","call_short":"","call_num":"","recid":"","websiteUrl":"","title":"","ckey":0,"web_map":"","available":"false","iiifUrl":""},"geometry":{"bbox":[124,13.5,124.25,13.666666666666666],"type":"Polygon","coordinates":[[[124,13.5],[124,13.666666666666666],[124.25,13.666666666666666],[124.25,13.5],[124,13.5]]]}},{"type":"Feature","properties":{"Id":0,"Sheet_ID":"壹貳ホ120-51.","label":"壹貳ホ120-51.","call_short":"","call_num":"","recid":"","websiteUrl":"","title":"","ckey":0,"web_map":"","available":"false","iiifUrl":""},"geometry":{"bbox":[124.25,13.5,124.49999999999999,13.666666666666666],"type":"Polygon","coordinates":[[[124.25,13.5],[124.25,13.666666666666666],[124.49999999999999,13.666666666666666],[124.49999999999999,13.5],[124.25,13.5]]]}},{"type":"Feature","properties":{"Id":0,"Sheet_ID":"壹貳ホ159-54.","label":"壹貳ホ159-54.","call_short":"","call_num":"","recid":"","websiteUrl":"","title":"","ckey":0,"web_map":"","available":"false","iiifUrl":""},"geometry":{"bbox":[122,13.666666666666666,122.25,13.833333333333332],"type":"Polygon","coordinates":[[[122,13.666666666666666],[122,13.833333333333332],[122.25,13.833333333333332],[122.25,13.666666666666666],[122,13.666666666666666]]]}},{"type":"Feature","properties":{"Id":0,"Sheet_ID":"壹貳ホ159-52. ぺリス","label":"壹貳ホ159-52. ぺリス","call_short":"G8060 S50 .J3","call_num":"G8060 S50 .J3 SHEET 159-52","recid":"wn070xn1159","websiteUrl":"https://purl.stanford.edu/wn070xn1159","title":"比律賓五万分一圖","ckey":10760648,"web_map":"","available":"true","iiifUrl":"https://purl.stanford.edu/wn070xn1159/iiif/manifest"},"geometry":{"bbox":[122.25,13.666666666666666,122.50000000000001,13.833333333333332],"type":"Polygon","coordinates":[[[122.25,13.666666666666666],[122.25,13.833333333333332],[122.50000000000001,13.833333333333332],[122.50000000000001,13.666666666666666],[122.25,13.666666666666666]]]}},{"type":"Feature","properties":{"Id":0,"Sheet_ID":"壹貳ホ149-54.","label":"壹貳ホ149-54.","call_short":"","call_num":"","recid":"","websiteUrl":"","title":"","ckey":0,"web_map":"","available":"false","iiifUrl":""},"geometry":{"bbox":[122.50000000000001,13.666666666666666,122.75,13.833333333333332],"type":"Polygon","coordinates":[[[122.50000000000001,13.666666666666666],[122.50000000000001,13.833333333333332],[122.75,13.833333333333332],[122.75,13.666666666666666],[122.50000000000001,13.666666666666666]]]}},{"type":"Feature","properties":{"Id":0,"Sheet_ID":"壹貳ホ149-52.","label":"壹貳ホ149-52.","call_short":"","call_num":"","recid":"","websiteUrl":"","title":"","ckey":0,"web_map":"","available":"false","iiifUrl":""},"geometry":{"bbox":[122.75,13.666666666666666,123.00000000000001,13.833333333333332],"type":"Polygon","coordinates":[[[122.75,13.666666666666666],[122.75,13.833333333333332],[123.00000000000001,13.833333333333332],[123.00000000000001,13.666666666666666],[122.75,13.666666666666666]]]}},{"type":"Feature","properties":{"Id":0,"Sheet_ID":"壹貳ホ139-54.","label":"壹貳ホ139-54.","call_short":"","call_num":"","recid":"","websiteUrl":"","title":"","ckey":0,"web_map":"","available":"false","iiifUrl":""},"geometry":{"bbox":[123.00000000000001,13.666666666666666,123.24999999999999,13.833333333333332],"type":"Polygon","coordinates":[[[123.00000000000001,13.666666666666666],[123.00000000000001,13.833333333333332],[123.24999999999999,13.833333333333332],[123.24999999999999,13.666666666666666],[123.00000000000001,13.666666666666666]]]}},{"type":"Feature","properties":{"Id":0,"Sheet_ID":"壹貳ホ139-52.","label":"壹貳ホ139-52.","call_short":"","call_num":"","recid":"","websiteUrl":"","title":"","ckey":0,"web_map":"","available":"false","iiifUrl":""},"geometry":{"bbox":[123.24999999999999,13.666666666666666,123.5,13.833333333333332],"type":"Polygon","coordinates":[[[123.24999999999999,13.666666666666666],[123.24999999999999,13.833333333333332],[123.5,13.833333333333332],[123.5,13.666666666666666],[123.24999999999999,13.666666666666666]]]}},{"type":"Feature","properties":{"Id":0,"Sheet_ID":"壹貳ホ129-54.","label":"壹貳ホ129-54.","call_short":"","call_num":"","recid":"","websiteUrl":"","title":"","ckey":0,"web_map":"","available":"false","iiifUrl":""},"geometry":{"bbox":[123.5,13.666666666666666,123.75000000000001,13.833333333333332],"type":"Polygon","coordinates":[[[123.5,13.666666666666666],[123.5,13.833333333333332],[123.75000000000001,13.833333333333332],[123.75000000000001,13.666666666666666],[123.5,13.666666666666666]]]}},{"type":"Feature","properties":{"Id":0,"Sheet_ID":"壹貳ホ129-52.","label":"壹貳ホ129-52.","call_short":"","call_num":"","recid":"","websiteUrl":"","title":"","ckey":0,"web_map":"","available":"false","iiifUrl":""},"geometry":{"bbox":[123.75000000000001,13.666666666666666,124,13.833333333333332],"type":"Polygon","coordinates":[[[123.75000000000001,13.666666666666666],[123.75000000000001,13.833333333333332],[124,13.833333333333332],[124,13.666666666666666],[123.75000000000001,13.666666666666666]]]}},{"type":"Feature","properties":{"Id":0,"Sheet_ID":"壹貳ホ119-54. マナンラグ","label":"壹貳ホ119-54. マナンラグ","call_short":"G8060 S50 .J3","call_num":"G8060 S50 .J3 SHEET 119-54","recid":"mj971sr6054","websiteUrl":"https://purl.stanford.edu/mj971sr6054","title":"比律賓五万分一圖","ckey":10760648,"web_map":"","available":"true","iiifUrl":"https://purl.stanford.edu/mj971sr6054/iiif/manifest"},"geometry":{"bbox":[124,13.666666666666666,124.25,13.833333333333332],"type":"Polygon","coordinates":[[[124,13.666666666666666],[124,13.833333333333332],[124.25,13.833333333333332],[124.25,13.666666666666666],[124,13.666666666666666]]]}},{"type":"Feature","properties":{"Id":0,"Sheet_ID":"壹貳ホ119-52.","label":"壹貳ホ119-52.","call_short":"","call_num":"","recid":"","websiteUrl":"","title":"","ckey":0,"web_map":"","available":"false","iiifUrl":""},"geometry":{"bbox":[124.25,13.666666666666666,124.49999999999999,13.833333333333332],"type":"Polygon","coordinates":[[[124.25,13.666666666666666],[124.25,13.833333333333332],[124.49999999999999,13.833333333333332],[124.49999999999999,13.666666666666666],[124.25,13.666666666666666]]]}},{"type":"Feature","properties":{"Id":0,"Sheet_ID":"壹貳ホ159-53.","label":"壹貳ホ159-53.","call_short":"","call_num":"","recid":"","websiteUrl":"","title":"","ckey":0,"web_map":"","available":"false","iiifUrl":""},"geometry":{"bbox":[122,13.833333333333334,122.25,14],"type":"Polygon","coordinates":[[[122,13.833333333333334],[122,14],[122.25,14],[122.25,13.833333333333334],[122,13.833333333333334]]]}},{"type":"Feature","properties":{"Id":0,"Sheet_ID":"壹貳ホ159-51.","label":"壹貳ホ159-51.","call_short":"","call_num":"","recid":"","websiteUrl":"","title":"","ckey":0,"web_map":"","available":"false","iiifUrl":""},"geometry":{"bbox":[122.25,13.833333333333334,122.50000000000001,14],"type":"Polygon","coordinates":[[[122.25,13.833333333333334],[122.25,14],[122.50000000000001,14],[122.50000000000001,13.833333333333334],[122.25,13.833333333333334]]]}},{"type":"Feature","properties":{"Id":0,"Sheet_ID":"壹貳ホ149-53. デルガレゴ","label":"壹貳ホ149-53. デルガレゴ","call_short":"G8060 S50 .J3","call_num":"G8060 S50 .J3 SHEET 149-53","recid":"dd210sb2522","websiteUrl":"https://purl.stanford.edu/dd210sb2522","title":"比律賓五万分一圖","ckey":10760648,"web_map":"","available":"true","iiifUrl":"https://purl.stanford.edu/dd210sb2522/iiif/manifest"},"geometry":{"bbox":[122.50000000000001,13.833333333333334,122.75,14],"type":"Polygon","coordinates":[[[122.50000000000001,13.833333333333334],[122.50000000000001,14],[122.75,14],[122.75,13.833333333333334],[122.50000000000001,13.833333333333334]]]}},{"type":"Feature","properties":{"Id":0,"Sheet_ID":"壹貳ホ149-51.","label":"壹貳ホ149-51.","call_short":"","call_num":"","recid":"","websiteUrl":"","title":"","ckey":0,"web_map":"","available":"false","iiifUrl":""},"geometry":{"bbox":[122.75,13.833333333333334,123.00000000000001,14],"type":"Polygon","coordinates":[[[122.75,13.833333333333334],[122.75,14],[123.00000000000001,14],[123.00000000000001,13.833333333333334],[122.75,13.833333333333334]]]}},{"type":"Feature","properties":{"Id":0,"Sheet_ID":"壹貳ホ139-53.","label":"壹貳ホ139-53.","call_short":"","call_num":"","recid":"","websiteUrl":"","title":"","ckey":0,"web_map":"","available":"false","iiifUrl":""},"geometry":{"bbox":[123.00000000000001,13.833333333333334,123.24999999999999,14],"type":"Polygon","coordinates":[[[123.00000000000001,13.833333333333334],[123.00000000000001,14],[123.24999999999999,14],[123.24999999999999,13.833333333333334],[123.00000000000001,13.833333333333334]]]}},{"type":"Feature","properties":{"Id":0,"Sheet_ID":"壹貳ホ139-51.","label":"壹貳ホ139-51.","call_short":"","call_num":"","recid":"","websiteUrl":"","title":"","ckey":0,"web_map":"","available":"false","iiifUrl":""},"geometry":{"bbox":[123.24999999999999,13.833333333333334,123.5,14],"type":"Polygon","coordinates":[[[123.24999999999999,13.833333333333334],[123.24999999999999,14],[123.5,14],[123.5,13.833333333333334],[123.24999999999999,13.833333333333334]]]}},{"type":"Feature","properties":{"Id":0,"Sheet_ID":"壹貳ホ129-53.","label":"壹貳ホ129-53.","call_short":"","call_num":"","recid":"","websiteUrl":"","title":"","ckey":0,"web_map":"","available":"false","iiifUrl":""},"geometry":{"bbox":[123.5,13.833333333333334,123.75000000000001,14],"type":"Polygon","coordinates":[[[123.5,13.833333333333334],[123.5,14],[123.75000000000001,14],[123.75000000000001,13.833333333333334],[123.5,13.833333333333334]]]}},{"type":"Feature","properties":{"Id":0,"Sheet_ID":"壹貳ホ129-51. ラフイ島","label":"壹貳ホ129-51. ラフイ島","call_short":"G8060 S50 .J3","call_num":"G8060 S50 .J3 SHEET 129-51","recid":"wp546tc2484","websiteUrl":"https://purl.stanford.edu/wp546tc2484","title":"比律賓五万分一圖","ckey":10760648,"web_map":"","available":"true","iiifUrl":"https://purl.stanford.edu/wp546tc2484/iiif/manifest"},"geometry":{"bbox":[123.75000000000001,13.833333333333334,124,14],"type":"Polygon","coordinates":[[[123.75000000000001,13.833333333333334],[123.75000000000001,14],[124,14],[124,13.833333333333334],[123.75000000000001,13.833333333333334]]]}},{"type":"Feature","properties":{"Id":0,"Sheet_ID":"壹貳ホ119-53.","label":"壹貳ホ119-53.","call_short":"","call_num":"","recid":"","websiteUrl":"","title":"","ckey":0,"web_map":"","available":"false","iiifUrl":""},"geometry":{"bbox":[124,13.833333333333334,124.25,14],"type":"Polygon","coordinates":[[[124,13.833333333333334],[124,14],[124.25,14],[124.25,13.833333333333334],[124,13.833333333333334]]]}},{"type":"Feature","properties":{"Id":0,"Sheet_ID":"壹貳ホ119-51.","label":"壹貳ホ119-51.","call_short":"","call_num":"","recid":"","websiteUrl":"","title":"","ckey":0,"web_map":"","available":"false","iiifUrl":""},"geometry":{"bbox":[124.25,13.833333333333334,124.49999999999999,14],"type":"Polygon","coordinates":[[[124.25,13.833333333333334],[124.25,14],[124.49999999999999,14],[124.49999999999999,13.833333333333334],[124.25,13.833333333333334]]]}},{"type":"Feature","properties":{"Id":0,"Sheet_ID":"壹貳ホ158-54. アラバット","label":"壹貳ホ158-54. アラバット","call_short":"G8060 S50 .J3","call_num":"G8060 S50 .J3 SHEET 158-54","recid":"mz153tn3151","websiteUrl":"https://purl.stanford.edu/mz153tn3151","title":"比律賓五万分一圖","ckey":10760648,"web_map":"","available":"true","iiifUrl":"https://purl.stanford.edu/mz153tn3151/iiif/manifest"},"geometry":{"bbox":[122,14,122.25,14.166666666666668],"type":"Polygon","coordinates":[[[122,14],[122,14.166666666666668],[122.25,14.166666666666668],[122.25,14],[122,14]]]}},{"type":"Feature","properties":{"Id":0,"Sheet_ID":"壹貳ホ158-52.","label":"壹貳ホ158-52.","call_short":"","call_num":"","recid":"","websiteUrl":"","title":"","ckey":0,"web_map":"","available":"false","iiifUrl":""},"geometry":{"bbox":[122.25,14,122.50000000000001,14.166666666666668],"type":"Polygon","coordinates":[[[122.25,14],[122.25,14.166666666666668],[122.50000000000001,14.166666666666668],[122.50000000000001,14],[122.25,14]]]}},{"type":"Feature","properties":{"Id":0,"Sheet_ID":"壹貳ホ148-54.","label":"壹貳ホ148-54.","call_short":"","call_num":"","recid":"","websiteUrl":"","title":"","ckey":0,"web_map":"","available":"false","iiifUrl":""},"geometry":{"bbox":[122.50000000000001,14,122.75,14.166666666666668],"type":"Polygon","coordinates":[[[122.50000000000001,14],[122.50000000000001,14.166666666666668],[122.75,14.166666666666668],[122.75,14],[122.50000000000001,14]]]}},{"type":"Feature","properties":{"Id":0,"Sheet_ID":"壹貳ホ148-52.","label":"壹貳ホ148-52.","call_short":"","call_num":"","recid":"","websiteUrl":"","title":"","ckey":0,"web_map":"","available":"false","iiifUrl":""},"geometry":{"bbox":[122.75,14,123.00000000000001,14.166666666666668],"type":"Polygon","coordinates":[[[122.75,14],[122.75,14.166666666666668],[123.00000000000001,14.166666666666668],[123.00000000000001,14],[122.75,14]]]}},{"type":"Feature","properties":{"Id":0,"Sheet_ID":"壹貳ホ138-54. メルセデス","label":"壹貳ホ138-54. メルセデス","call_short":"G8060 S50 .J3","call_num":"G8060 S50 .J3 SHEET 138-54","recid":"nm069fx3458","websiteUrl":"https://purl.stanford.edu/nm069fx3458","title":"比律賓五万分一圖","ckey":10760648,"web_map":"","available":"true","iiifUrl":"https://purl.stanford.edu/nm069fx3458/iiif/manifest"},"geometry":{"bbox":[123.00000000000001,14,123.24999999999999,14.166666666666668],"type":"Polygon","coordinates":[[[123.00000000000001,14],[123.00000000000001,14.166666666666668],[123.24999999999999,14.166666666666668],[123.24999999999999,14],[123.00000000000001,14]]]}},{"type":"Feature","properties":{"Id":0,"Sheet_ID":"壹貳ホ138-52. タンドック","label":"壹貳ホ138-52. タンドック","call_short":"G8060 S50 .J3","call_num":"G8060 S50 .J3 SHEET 138-52","recid":"sk398xm9173","websiteUrl":"https://purl.stanford.edu/sk398xm9173","title":"比律賓五万分一圖","ckey":10760648,"web_map":"","available":"true","iiifUrl":"https://purl.stanford.edu/sk398xm9173/iiif/manifest"},"geometry":{"bbox":[123.24999999999999,14,123.5,14.166666666666668],"type":"Polygon","coordinates":[[[123.24999999999999,14],[123.24999999999999,14.166666666666668],[123.5,14.166666666666668],[123.5,14],[123.24999999999999,14]]]}},{"type":"Feature","properties":{"Id":0,"Sheet_ID":"壹貳ホ118-54. パンダン","label":"壹貳ホ118-54. パンダン","call_short":"G8060 S50 .J3","call_num":"G8060 S50 .J3 SHEET 118-54","recid":"fq598kn3708","websiteUrl":"https://purl.stanford.edu/fq598kn3708","title":"比律賓五万分一圖","ckey":10760648,"web_map":"","available":"true","iiifUrl":"https://purl.stanford.edu/fq598kn3708/iiif/manifest"},"geometry":{"bbox":[124,14,124.25,14.166666666666668],"type":"Polygon","coordinates":[[[124,14],[124,14.166666666666668],[124.25,14.166666666666668],[124.25,14],[124,14]]]}},{"type":"Feature","properties":{"Id":0,"Sheet_ID":"壹貳ホ118-52. ミナイレ","label":"壹貳ホ118-52. ミナイレ","call_short":"G8060 S50 .J3","call_num":"G8060 S50 .J3 SHEET 118-52","recid":"qp070fd8659","websiteUrl":"https://purl.stanford.edu/qp070fd8659","title":"比律賓五万分一圖","ckey":10760648,"web_map":"","available":"true","iiifUrl":"https://purl.stanford.edu/qp070fd8659/iiif/manifest"},"geometry":{"bbox":[124.25,14.000000000000114,124.33333300000015,14.1666666666668],"type":"Polygon","coordinates":[[[124.25,14.000000000000114],[124.25,14.1666666666668],[124.33333300000015,14.1666666666668],[124.33333300000015,14.000000000000114],[124.25,14.000000000000114]]]}},{"type":"Feature","properties":{"Id":0,"Sheet_ID":"壹貳ホ158-53. パラ岬","label":"壹貳ホ158-53. パラ岬","call_short":"G8060 S50 .J3","call_num":"G8060 S50 .J3 SHEET 158-53","recid":"tj296zk8995","websiteUrl":"https://purl.stanford.edu/tj296zk8995","title":"比律賓五万分一圖","ckey":10760648,"web_map":"","available":"true","iiifUrl":"https://purl.stanford.edu/tj296zk8995/iiif/manifest"},"geometry":{"bbox":[122,14.166666666666668,122.25,14.333333333333334],"type":"Polygon","coordinates":[[[122,14.166666666666668],[122,14.333333333333334],[122.25,14.333333333333334],[122.25,14.166666666666668],[122,14.166666666666668]]]}},{"type":"Feature","properties":{"Id":0,"Sheet_ID":"壹貳ホ158-51.","label":"壹貳ホ158-51.","call_short":"","call_num":"","recid":"","websiteUrl":"","title":"","ckey":0,"web_map":"","available":"false","iiifUrl":""},"geometry":{"bbox":[122.25,14.166666666666668,122.50000000000001,14.333333333333334],"type":"Polygon","coordinates":[[[122.25,14.166666666666668],[122.25,14.333333333333334],[122.50000000000001,14.333333333333334],[122.50000000000001,14.166666666666668],[122.25,14.166666666666668]]]}},{"type":"Feature","properties":{"Id":0,"Sheet_ID":"壹貳ホ148-53. マンブラオ","label":"壹貳ホ148-53. マンブラオ","call_short":"G8060 S50 .J3","call_num":"G8060 S50 .J3 SHEET 148-53","recid":"tv903zn8990","websiteUrl":"https://purl.stanford.edu/tv903zn8990","title":"比律賓五万分一圖","ckey":10760648,"web_map":"","available":"true","iiifUrl":"https://purl.stanford.edu/tv903zn8990/iiif/manifest"},"geometry":{"bbox":[122.50000000000001,14.166666666666668,122.75,14.333333333333334],"type":"Polygon","coordinates":[[[122.50000000000001,14.166666666666668],[122.50000000000001,14.333333333333334],[122.75,14.333333333333334],[122.75,14.166666666666668],[122.50000000000001,14.166666666666668]]]}},{"type":"Feature","properties":{"Id":0,"Sheet_ID":"壹貳ホ148-51.","label":"壹貳ホ148-51.","call_short":"","call_num":"","recid":"","websiteUrl":"","title":"","ckey":0,"web_map":"","available":"false","iiifUrl":""},"geometry":{"bbox":[122.75,14.166666666666668,123.00000000000001,14.333333333333334],"type":"Polygon","coordinates":[[[122.75,14.166666666666668],[122.75,14.333333333333334],[123.00000000000001,14.333333333333334],[123.00000000000001,14.166666666666668],[122.75,14.166666666666668]]]}},{"type":"Feature","properties":{"Id":0,"Sheet_ID":"壹貳ホ157-54. バレシン島","label":"壹貳ホ157-54. バレシン島","call_short":"G8060 S50 .J3","call_num":"G8060 S50 .J3 SHEET 157-54","recid":"cb902ks1682","websiteUrl":"https://purl.stanford.edu/cb902ks1682","title":"比律賓五万分一圖","ckey":10760648,"web_map":"","available":"true","iiifUrl":"https://purl.stanford.edu/cb902ks1682/iiif/manifest"},"geometry":{"bbox":[122,14.333333333333334,122.25,14.500000000000002],"type":"Polygon","coordinates":[[[122,14.333333333333334],[122,14.500000000000002],[122.25,14.500000000000002],[122.25,14.333333333333334],[122,14.333333333333334]]]}},{"type":"Feature","properties":{"Id":0,"Sheet_ID":"壹貳ホ147-54. タナオ諸島","label":"壹貳ホ147-54. タナオ諸島","call_short":"G8060 S50 .J3","call_num":"G8060 S50 .J3 SHEET 147-54","recid":"tr460wp6583","websiteUrl":"https://purl.stanford.edu/tr460wp6583","title":"比律賓五万分一圖","ckey":10760648,"web_map":"","available":"true","iiifUrl":"https://purl.stanford.edu/tr460wp6583/iiif/manifest"},"geometry":{"bbox":[122.50000000000001,14.333333333333334,122.75,14.500000000000002],"type":"Polygon","coordinates":[[[122.50000000000001,14.333333333333334],[122.50000000000001,14.500000000000002],[122.75,14.500000000000002],[122.75,14.333333333333334],[122.50000000000001,14.333333333333334]]]}},{"type":"Feature","properties":{"Id":0,"Sheet_ID":"壹貳ホ147-52. カラグァ諸島","label":"壹貳ホ147-52. カラグァ諸島","call_short":"G8060 S50 .J3","call_num":"G8060 S50 .J3 SHEET 147-52","recid":"kk292xq5086","websiteUrl":"https://purl.stanford.edu/kk292xq5086","title":"比律賓五万分一圖","ckey":10760648,"web_map":"","available":"true","iiifUrl":"https://purl.stanford.edu/kk292xq5086/iiif/manifest"},"geometry":{"bbox":[122.75,14.333333333333334,123.00000000000001,14.500000000000002],"type":"Polygon","coordinates":[[[122.75,14.333333333333334],[122.75,14.500000000000002],[123.00000000000001,14.500000000000002],[123.00000000000001,14.333333333333334],[122.75,14.333333333333334]]]}},{"type":"Feature","properties":{"Id":0,"Sheet_ID":"壹貳ホ167-51. ビスリアン","label":"壹貳ホ167-51. ビスリアン","call_short":"G8060 S50 .J3","call_num":"G8060 S50 .J3 SHEET 167-51","recid":"vp012fp2220","websiteUrl":"https://purl.stanford.edu/vp012fp2220","title":"比律賓五万分一圖","ckey":10760648,"web_map":"","available":"true","iiifUrl":"https://purl.stanford.edu/vp012fp2220/iiif/manifest"},"geometry":{"bbox":[121.75000000000001,14.500000000000002,122,14.666666666666666],"type":"Polygon","coordinates":[[[121.75000000000001,14.500000000000002],[121.75000000000001,14.666666666666666],[122,14.666666666666666],[122,14.500000000000002],[121.75000000000001,14.500000000000002]]]}},{"type":"Feature","properties":{"Id":0,"Sheet_ID":"壹貳ホ166-52. ポリリォ","label":"壹貳ホ166-52. ポリリォ","call_short":"G8060 S50 .J3","call_num":"G8060 S50 .J3 SHEET 166-52","recid":"pg968kt3090","websiteUrl":"https://purl.stanford.edu/pg968kt3090","title":"比律賓五万分一圖","ckey":10760648,"web_map":"","available":"true","iiifUrl":"https://purl.stanford.edu/pg968kt3090/iiif/manifest"},"geometry":{"bbox":[121.75000000000001,14.666666666666666,122,14.83333333333333],"type":"Polygon","coordinates":[[[121.75000000000001,14.666666666666666],[121.75000000000001,14.83333333333333],[122,14.83333333333333],[122,14.666666666666666],[121.75000000000001,14.666666666666666]]]}},{"type":"Feature","properties":{"Id":0,"Sheet_ID":"壹貳ホ156-54. パトナノンガン島","label":"壹貳ホ156-54. パトナノンガン島","call_short":"G8060 S50 .J3","call_num":"G8060 S50 .J3 SHEET 156-54","recid":"mn139hr6765","websiteUrl":"https://purl.stanford.edu/mn139hr6765","title":"比律賓五万分一圖","ckey":10760648,"web_map":"","available":"true","iiifUrl":"https://purl.stanford.edu/mn139hr6765/iiif/manifest"},"geometry":{"bbox":[122,14.666666666666666,122.25,14.83333333333333],"type":"Polygon","coordinates":[[[122,14.666666666666666],[122,14.83333333333333],[122.25,14.83333333333333],[122.25,14.666666666666666],[122,14.666666666666666]]]}},{"type":"Feature","properties":{"Id":0,"Sheet_ID":"壹貳ホ156-52. ホマリグ島","label":"壹貳ホ156-52. ホマリグ島","call_short":"G8060 S50 .J3","call_num":"G8060 S50 .J3 SHEET 156-52","recid":"yq855nd5253","websiteUrl":"https://purl.stanford.edu/yq855nd5253","title":"比律賓五万分一圖","ckey":10760648,"web_map":"","available":"true","iiifUrl":"https://purl.stanford.edu/yq855nd5253/iiif/manifest"},"geometry":{"bbox":[122.25,14.666666666666666,122.50000000000001,14.83333333333333],"type":"Polygon","coordinates":[[[122.25,14.666666666666666],[122.25,14.83333333333333],[122.50000000000001,14.83333333333333],[122.50000000000001,14.666666666666666],[122.25,14.666666666666666]]]}},{"type":"Feature","properties":{"Id":0,"Sheet_ID":"壹貳ホ166-51. ブルデォス","label":"壹貳ホ166-51. ブルデォス","call_short":"G8060 S50 .J3","call_num":"G8060 S50 .J3 SHEET 166-51","recid":"bn284rj6309","websiteUrl":"https://purl.stanford.edu/bn284rj6309","title":"比律賓五万分一圖","ckey":10760648,"web_map":"","available":"true","iiifUrl":"https://purl.stanford.edu/bn284rj6309/iiif/manifest"},"geometry":{"bbox":[121.75000000000001,14.83333333333333,122,14.999999999999998],"type":"Polygon","coordinates":[[[121.75000000000001,14.83333333333333],[121.75000000000001,14.999999999999998],[122,14.999999999999998],[122,14.83333333333333],[121.75000000000001,14.83333333333333]]]}},{"type":"Feature","properties":{"Id":0,"Sheet_ID":"壹貳ホ156-53.","label":"壹貳ホ156-53.","call_short":"","call_num":"","recid":"","websiteUrl":"","title":"","ckey":0,"web_map":"","available":"false","iiifUrl":""},"geometry":{"bbox":[122,14.83333333333333,122.25,14.999999999999998],"type":"Polygon","coordinates":[[[122,14.83333333333333],[122,14.999999999999998],[122.25,14.999999999999998],[122.25,14.83333333333333],[122,14.83333333333333]]]}},{"type":"Feature","properties":{"Id":0,"Sheet_ID":"壹貳ニ131-53.","label":"壹貳ニ131-53.","call_short":"","call_num":"","recid":"","websiteUrl":"","title":"","ckey":0,"web_map":"","available":"false","iiifUrl":""},"geometry":{"bbox":[123.00000000000011,13.166666666666629,123.25000000000011,13.333333333333371],"type":"Polygon","coordinates":[[[123.25000000000011,13.166666666666629],[123.00000000000011,13.166666666666629],[123.00000000000011,13.333333333333371],[123.25000000000011,13.333333333333371],[123.25000000000011,13.166666666666629]]]}},{"type":"Feature","properties":{"Id":0,"Sheet_ID":"壹貳ホ130-52.","label":"壹貳ホ130-52.","call_short":"","call_num":"","recid":"","websiteUrl":"","title":"","ckey":0,"web_map":"","available":"false","iiifUrl":""},"geometry":{"bbox":[123.75000000000001,13.333333333333371,124.00000000000013,13.500000000000057],"type":"Polygon","coordinates":[[[124.00000000000013,13.333333333333371],[123.75000000000001,13.333333333333371],[123.75000000000001,13.500000000000057],[124.00000000000013,13.500000000000057],[124.00000000000013,13.333333333333371]]]}},{"type":"Feature","properties":{"Id":0,"Sheet_ID":"壹貳ホ165-52.","label":"壹貳ホ165-52.","call_short":"","call_num":"","recid":"","websiteUrl":"","title":"","ckey":0,"web_map":"","available":"false","iiifUrl":""},"geometry":{"bbox":[121.75000000000001,15.000000000000114,122,15.166666999999961],"type":"Polygon","coordinates":[[[121.75000000000001,15.000000000000114],[121.75000000000001,15.166666999999961],[122,15.166666999999961],[122,15.000000000000114],[121.75000000000001,15.000000000000114]]]}}],"name":"index_10760648"}
