{"type":"FeatureCollection","features":[{"type":"Feature","properties":{"Id":0,"Sheet_ID":"SHEET 43","label":"SHEET 43","call_short":"","call_num":"","recid":"","websiteUrl":"","title":"","ckey":0,"web_map":"","available":"false","iiifUrl":""},"geometry":{"bbox":[119.833333,15.5,120.333333,15.833333333333336],"type":"Polygon","coordinates":[[[119.833333,15.5],[119.833333,15.833333333333336],[120.333333,15.833333333333336],[120.333333,15.5],[119.833333,15.5]]]}},{"type":"Feature","properties":{"Id":0,"Sheet_ID":"SHEET 44","label":"SHEET 44","call_short":"","call_num":"","recid":"","websiteUrl":"","title":"","ckey":0,"web_map":"","available":"false","iiifUrl":""},"geometry":{"bbox":[120.333333,15.5,120.83333299999998,15.833333333333336],"type":"Polygon","coordinates":[[[120.333333,15.5],[120.333333,15.833333333333336],[120.83333299999998,15.833333333333336],[120.83333299999998,15.5],[120.333333,15.5]]]}},{"type":"Feature","properties":{"Id":0,"Sheet_ID":"SHEET 45","label":"SHEET 45","call_short":"","call_num":"","recid":"","websiteUrl":"","title":"","ckey":0,"web_map":"","available":"false","iiifUrl":""},"geometry":{"bbox":[120.83333299999998,15.5,121.33333300000001,15.833333333333336],"type":"Polygon","coordinates":[[[120.83333299999998,15.5],[120.83333299999998,15.833333333333336],[121.33333300000001,15.833333333333336],[121.33333300000001,15.5],[120.83333299999998,15.5]]]}},{"type":"Feature","properties":{"Id":0,"Sheet_ID":"SHEET 46","label":"SHEET 46","call_short":"","call_num":"","recid":"","websiteUrl":"","title":"","ckey":0,"web_map":"","available":"false","iiifUrl":""},"geometry":{"bbox":[121.33333300000001,15.5,121.833333,15.833333333333336],"type":"Polygon","coordinates":[[[121.33333300000001,15.5],[121.33333300000001,15.833333333333336],[121.833333,15.833333333333336],[121.833333,15.5],[121.33333300000001,15.5]]]}},{"type":"Feature","properties":{"Id":0,"Sheet_ID":"SHEET 38","label":"SHEET 38","call_short":"","call_num":"","recid":"","websiteUrl":"","title":"","ckey":0,"web_map":"","available":"false","iiifUrl":""},"geometry":{"bbox":[119.833333,15.833333333333336,120.333333,16.166666666666668],"type":"Polygon","coordinates":[[[119.833333,15.833333333333336],[119.833333,16.166666666666668],[120.333333,16.166666666666668],[120.333333,15.833333333333336],[119.833333,15.833333333333336]]]}},{"type":"Feature","properties":{"Id":0,"Sheet_ID":"SHEET 39","label":"SHEET 39","call_short":"","call_num":"","recid":"","websiteUrl":"","title":"","ckey":0,"web_map":"","available":"false","iiifUrl":""},"geometry":{"bbox":[120.333333,15.833333333333336,120.83333299999998,16.166666666666668],"type":"Polygon","coordinates":[[[120.333333,15.833333333333336],[120.333333,16.166666666666668],[120.83333299999998,16.166666666666668],[120.83333299999998,15.833333333333336],[120.333333,15.833333333333336]]]}},{"type":"Feature","properties":{"Id":0,"Sheet_ID":"SHEET 40","label":"SHEET 40","call_short":"","call_num":"","recid":"","websiteUrl":"","title":"","ckey":0,"web_map":"","available":"false","iiifUrl":""},"geometry":{"bbox":[120.83333299999998,15.833333333333336,121.33333300000001,16.166666666666668],"type":"Polygon","coordinates":[[[120.83333299999998,15.833333333333336],[120.83333299999998,16.166666666666668],[121.33333300000001,16.166666666666668],[121.33333300000001,15.833333333333336],[120.83333299999998,15.833333333333336]]]}},{"type":"Feature","properties":{"Id":0,"Sheet_ID":"SHEET 41","label":"SHEET 41","call_short":"","call_num":"","recid":"","websiteUrl":"","title":"","ckey":0,"web_map":"","available":"false","iiifUrl":""},"geometry":{"bbox":[121.33333300000001,15.833333333333336,121.833333,16.166666666666668],"type":"Polygon","coordinates":[[[121.33333300000001,15.833333333333336],[121.33333300000001,16.166666666666668],[121.833333,16.166666666666668],[121.833333,15.833333333333336],[121.33333300000001,15.833333333333336]]]}},{"type":"Feature","properties":{"Id":0,"Sheet_ID":"SHEET 42","label":"SHEET 42","call_short":"","call_num":"","recid":"","websiteUrl":"","title":"","ckey":0,"web_map":"","available":"false","iiifUrl":""},"geometry":{"bbox":[121.83333300000002,16.000000000000057,122.16666700000009,16.166666666666742],"type":"Polygon","coordinates":[[[121.83333300000002,16.000000000000057],[121.83333300000002,16.166666666666742],[122.16666700000009,16.166666666666742],[122.16666700000009,16.000000000000057],[121.83333300000002,16.000000000000057]]]}},{"type":"Feature","properties":{"Id":0,"Sheet_ID":"SHEET 32","label":"SHEET 32","call_short":"","call_num":"","recid":"","websiteUrl":"","title":"","ckey":0,"web_map":"","available":"false","iiifUrl":""},"geometry":{"bbox":[119.833333,16.166666666666668,120.333333,16.5],"type":"Polygon","coordinates":[[[119.833333,16.166666666666668],[119.833333,16.5],[120.333333,16.5],[120.333333,16.166666666666668],[119.833333,16.166666666666668]]]}},{"type":"Feature","properties":{"Id":0,"Sheet_ID":"SHEET 33","label":"SHEET 33","call_short":"","call_num":"","recid":"","websiteUrl":"","title":"","ckey":0,"web_map":"","available":"false","iiifUrl":""},"geometry":{"bbox":[120.333333,16.166666666666668,120.83333299999998,16.5],"type":"Polygon","coordinates":[[[120.333333,16.166666666666668],[120.333333,16.5],[120.83333299999998,16.5],[120.83333299999998,16.166666666666668],[120.333333,16.166666666666668]]]}},{"type":"Feature","properties":{"Id":0,"Sheet_ID":"SHEET 34","label":"SHEET 34","call_short":"","call_num":"","recid":"","websiteUrl":"","title":"","ckey":0,"web_map":"","available":"false","iiifUrl":""},"geometry":{"bbox":[120.83333299999998,16.166666666666668,121.33333300000001,16.5],"type":"Polygon","coordinates":[[[120.83333299999998,16.166666666666668],[120.83333299999998,16.5],[121.33333300000001,16.5],[121.33333300000001,16.166666666666668],[120.83333299999998,16.166666666666668]]]}},{"type":"Feature","properties":{"Id":0,"Sheet_ID":"SHEET 35","label":"SHEET 35","call_short":"","call_num":"","recid":"","websiteUrl":"","title":"","ckey":0,"web_map":"","available":"false","iiifUrl":""},"geometry":{"bbox":[121.33333300000001,16.166666666666668,121.833333,16.5],"type":"Polygon","coordinates":[[[121.33333300000001,16.166666666666668],[121.33333300000001,16.5],[121.833333,16.5],[121.833333,16.166666666666668],[121.33333300000001,16.166666666666668]]]}},{"type":"Feature","properties":{"Id":0,"Sheet_ID":"SHEET 36","label":"SHEET 36","call_short":"","call_num":"","recid":"","websiteUrl":"","title":"","ckey":0,"web_map":"","available":"false","iiifUrl":""},"geometry":{"bbox":[121.833333,16.166666666666668,122.333333,16.5],"type":"Polygon","coordinates":[[[121.833333,16.166666666666668],[121.833333,16.5],[122.333333,16.5],[122.333333,16.166666666666668],[121.833333,16.166666666666668]]]}},{"type":"Feature","properties":{"Id":0,"Sheet_ID":"SHEET 26","label":"SHEET 26","call_short":"","call_num":"","recid":"","websiteUrl":"","title":"","ckey":0,"web_map":"","available":"false","iiifUrl":""},"geometry":{"bbox":[120.16666700000009,16.5,120.33333300000004,16.83333333333337],"type":"Polygon","coordinates":[[[120.16666700000009,16.5],[120.16666700000009,16.83333333333337],[120.33333300000004,16.83333333333337],[120.33333300000004,16.5],[120.16666700000009,16.5]]]}},{"type":"Feature","properties":{"Id":0,"Sheet_ID":"SHEET 27","label":"SHEET 27","call_short":"","call_num":"","recid":"","websiteUrl":"","title":"","ckey":0,"web_map":"","available":"false","iiifUrl":""},"geometry":{"bbox":[120.333333,16.5,120.83333299999998,16.833333333333332],"type":"Polygon","coordinates":[[[120.333333,16.5],[120.333333,16.833333333333332],[120.83333299999998,16.833333333333332],[120.83333299999998,16.5],[120.333333,16.5]]]}},{"type":"Feature","properties":{"Id":0,"Sheet_ID":"SHEET 28","label":"SHEET 28","call_short":"","call_num":"","recid":"","websiteUrl":"","title":"","ckey":0,"web_map":"","available":"false","iiifUrl":""},"geometry":{"bbox":[120.83333299999998,16.5,121.33333300000001,16.833333333333332],"type":"Polygon","coordinates":[[[120.83333299999998,16.5],[120.83333299999998,16.833333333333332],[121.33333300000001,16.833333333333332],[121.33333300000001,16.5],[120.83333299999998,16.5]]]}},{"type":"Feature","properties":{"Id":0,"Sheet_ID":"SHEET 29","label":"SHEET 29","call_short":"","call_num":"","recid":"","websiteUrl":"","title":"","ckey":0,"web_map":"","available":"false","iiifUrl":""},"geometry":{"bbox":[121.33333300000001,16.5,121.833333,16.833333333333332],"type":"Polygon","coordinates":[[[121.33333300000001,16.5],[121.33333300000001,16.833333333333332],[121.833333,16.833333333333332],[121.833333,16.5],[121.33333300000001,16.5]]]}},{"type":"Feature","properties":{"Id":0,"Sheet_ID":"SHEET 30","label":"SHEET 30","call_short":"","call_num":"","recid":"","websiteUrl":"","title":"","ckey":0,"web_map":"","available":"false","iiifUrl":""},"geometry":{"bbox":[121.833333,16.5,122.333333,16.833333333333332],"type":"Polygon","coordinates":[[[121.833333,16.5],[121.833333,16.833333333333332],[122.333333,16.833333333333332],[122.333333,16.5],[121.833333,16.5]]]}},{"type":"Feature","properties":{"Id":0,"Sheet_ID":"SHEET 21","label":"SHEET 21","call_short":"","call_num":"","recid":"","websiteUrl":"","title":"","ckey":0,"web_map":"","available":"false","iiifUrl":""},"geometry":{"bbox":[120.333333,16.833333333333332,120.83333299999998,17.166666666666664],"type":"Polygon","coordinates":[[[120.333333,16.833333333333332],[120.333333,17.166666666666664],[120.83333299999998,17.166666666666664],[120.83333299999998,16.833333333333332],[120.333333,16.833333333333332]]]}},{"type":"Feature","properties":{"Id":0,"Sheet_ID":"SHEET 22","label":"SHEET 22","call_short":"","call_num":"","recid":"","websiteUrl":"","title":"","ckey":0,"web_map":"","available":"false","iiifUrl":""},"geometry":{"bbox":[120.83333299999998,16.833333333333332,121.33333300000001,17.166666666666664],"type":"Polygon","coordinates":[[[120.83333299999998,16.833333333333332],[120.83333299999998,17.166666666666664],[121.33333300000001,17.166666666666664],[121.33333300000001,16.833333333333332],[120.83333299999998,16.833333333333332]]]}},{"type":"Feature","properties":{"Id":0,"Sheet_ID":"SHEET 23","label":"SHEET 23","call_short":"","call_num":"","recid":"","websiteUrl":"","title":"","ckey":0,"web_map":"","available":"false","iiifUrl":""},"geometry":{"bbox":[121.33333300000001,16.833333333333332,121.833333,17.166666666666664],"type":"Polygon","coordinates":[[[121.33333300000001,16.833333333333332],[121.33333300000001,17.166666666666664],[121.833333,17.166666666666664],[121.833333,16.833333333333332],[121.33333300000001,16.833333333333332]]]}},{"type":"Feature","properties":{"Id":0,"Sheet_ID":"SHEET 24","label":"SHEET 24","call_short":"","call_num":"","recid":"","websiteUrl":"","title":"","ckey":0,"web_map":"","available":"false","iiifUrl":""},"geometry":{"bbox":[121.833333,16.833333333333332,122.333333,17.166666666666664],"type":"Polygon","coordinates":[[[121.833333,16.833333333333332],[121.833333,17.166666666666664],[122.333333,17.166666666666664],[122.333333,16.833333333333332],[121.833333,16.833333333333332]]]}},{"type":"Feature","properties":{"Id":0,"Sheet_ID":"SHEET 16","label":"SHEET 16","call_short":"","call_num":"","recid":"","websiteUrl":"","title":"","ckey":0,"web_map":"","available":"false","iiifUrl":""},"geometry":{"bbox":[120.333333,17.16666666666667,120.83333299999998,17.5],"type":"Polygon","coordinates":[[[120.333333,17.16666666666667],[120.333333,17.5],[120.83333299999998,17.5],[120.83333299999998,17.16666666666667],[120.333333,17.16666666666667]]]}},{"type":"Feature","properties":{"Id":0,"Sheet_ID":"SHEET 17","label":"SHEET 17","call_short":"","call_num":"","recid":"","websiteUrl":"","title":"","ckey":0,"web_map":"","available":"false","iiifUrl":""},"geometry":{"bbox":[120.83333299999998,17.16666666666667,121.33333300000001,17.5],"type":"Polygon","coordinates":[[[120.83333299999998,17.16666666666667],[120.83333299999998,17.5],[121.33333300000001,17.5],[121.33333300000001,17.16666666666667],[120.83333299999998,17.16666666666667]]]}},{"type":"Feature","properties":{"Id":0,"Sheet_ID":"SHEET 18","label":"SHEET 18","call_short":"","call_num":"","recid":"","websiteUrl":"","title":"","ckey":0,"web_map":"","available":"false","iiifUrl":""},"geometry":{"bbox":[121.33333300000001,17.16666666666667,121.833333,17.5],"type":"Polygon","coordinates":[[[121.33333300000001,17.16666666666667],[121.33333300000001,17.5],[121.833333,17.5],[121.833333,17.16666666666667],[121.33333300000001,17.16666666666667]]]}},{"type":"Feature","properties":{"Id":0,"Sheet_ID":"SHEET 19","label":"SHEET 19","call_short":"","call_num":"","recid":"","websiteUrl":"","title":"","ckey":0,"web_map":"","available":"false","iiifUrl":""},"geometry":{"bbox":[121.833333,17.16666666666667,122.333333,17.5],"type":"Polygon","coordinates":[[[121.833333,17.16666666666667],[121.833333,17.5],[122.333333,17.5],[122.333333,17.16666666666667],[121.833333,17.16666666666667]]]}},{"type":"Feature","properties":{"Id":0,"Sheet_ID":"SHEET 12","label":"SHEET 12","call_short":"","call_num":"","recid":"","websiteUrl":"","title":"","ckey":0,"web_map":"","available":"false","iiifUrl":""},"geometry":{"bbox":[120.333333,17.5,120.83333299999998,17.833333333333332],"type":"Polygon","coordinates":[[[120.333333,17.5],[120.333333,17.833333333333332],[120.83333299999998,17.833333333333332],[120.83333299999998,17.5],[120.333333,17.5]]]}},{"type":"Feature","properties":{"Id":0,"Sheet_ID":"SHEET 13","label":"SHEET 13","call_short":"","call_num":"","recid":"","websiteUrl":"","title":"","ckey":0,"web_map":"","available":"false","iiifUrl":""},"geometry":{"bbox":[120.83333299999998,17.5,121.33333300000001,17.833333333333332],"type":"Polygon","coordinates":[[[120.83333299999998,17.5],[120.83333299999998,17.833333333333332],[121.33333300000001,17.833333333333332],[121.33333300000001,17.5],[120.83333299999998,17.5]]]}},{"type":"Feature","properties":{"Id":0,"Sheet_ID":"SHEET 14","label":"SHEET 14","call_short":"","call_num":"","recid":"","websiteUrl":"","title":"","ckey":0,"web_map":"","available":"false","iiifUrl":""},"geometry":{"bbox":[121.33333300000001,17.5,121.833333,17.833333333333332],"type":"Polygon","coordinates":[[[121.33333300000001,17.5],[121.33333300000001,17.833333333333332],[121.833333,17.833333333333332],[121.833333,17.5],[121.33333300000001,17.5]]]}},{"type":"Feature","properties":{"Id":0,"Sheet_ID":"SHEET 15","label":"SHEET 15","call_short":"","call_num":"","recid":"","websiteUrl":"","title":"","ckey":0,"web_map":"","available":"false","iiifUrl":""},"geometry":{"bbox":[121.833333,17.5,122.333333,17.833333333333332],"type":"Polygon","coordinates":[[[121.833333,17.5],[121.833333,17.833333333333332],[122.333333,17.833333333333332],[122.333333,17.5],[121.833333,17.5]]]}},{"type":"Feature","properties":{"Id":0,"Sheet_ID":"SHEET 8","label":"SHEET 8","call_short":"","call_num":"","recid":"","websiteUrl":"","title":"","ckey":0,"web_map":"","available":"false","iiifUrl":""},"geometry":{"bbox":[120.333333,17.833333333333332,120.83333299999998,18.166666666666664],"type":"Polygon","coordinates":[[[120.333333,17.833333333333332],[120.333333,18.166666666666664],[120.83333299999998,18.166666666666664],[120.83333299999998,17.833333333333332],[120.333333,17.833333333333332]]]}},{"type":"Feature","properties":{"Id":0,"Sheet_ID":"SHEET 9","label":"SHEET 9","call_short":"","call_num":"","recid":"","websiteUrl":"","title":"","ckey":0,"web_map":"","available":"false","iiifUrl":""},"geometry":{"bbox":[120.83333299999998,17.833333333333332,121.33333300000001,18.166666666666664],"type":"Polygon","coordinates":[[[120.83333299999998,17.833333333333332],[120.83333299999998,18.166666666666664],[121.33333300000001,18.166666666666664],[121.33333300000001,17.833333333333332],[120.83333299999998,17.833333333333332]]]}},{"type":"Feature","properties":{"Id":0,"Sheet_ID":"SHEET 10","label":"SHEET 10","call_short":"","call_num":"","recid":"","websiteUrl":"","title":"","ckey":0,"web_map":"","available":"false","iiifUrl":""},"geometry":{"bbox":[121.33333300000001,17.833333333333332,121.833333,18.166666666666664],"type":"Polygon","coordinates":[[[121.33333300000001,17.833333333333332],[121.33333300000001,18.166666666666664],[121.833333,18.166666666666664],[121.833333,17.833333333333332],[121.33333300000001,17.833333333333332]]]}},{"type":"Feature","properties":{"Id":0,"Sheet_ID":"SHEET 11","label":"SHEET 11","call_short":"","call_num":"","recid":"","websiteUrl":"","title":"","ckey":0,"web_map":"","available":"false","iiifUrl":""},"geometry":{"bbox":[121.833333,17.833333333333332,122.333333,18.166666666666664],"type":"Polygon","coordinates":[[[121.833333,17.833333333333332],[121.833333,18.166666666666664],[122.333333,18.166666666666664],[122.333333,17.833333333333332],[121.833333,17.833333333333332]]]}},{"type":"Feature","properties":{"Id":0,"Sheet_ID":"SHEET 4","label":"SHEET 4","call_short":"","call_num":"","recid":"","websiteUrl":"","title":"","ckey":0,"web_map":"","available":"false","iiifUrl":""},"geometry":{"bbox":[120.41666699999996,18.166666666666742,120.83333300000017,18.500000000000114],"type":"Polygon","coordinates":[[[120.41666699999996,18.166666666666742],[120.41666699999996,18.500000000000114],[120.83333300000017,18.500000000000114],[120.83333300000017,18.166666666666742],[120.41666699999996,18.166666666666742]]]}},{"type":"Feature","properties":{"Id":0,"Sheet_ID":"SHEET 2","label":"SHEET 2","call_short":"","call_num":"","recid":"","websiteUrl":"","title":"","ckey":0,"web_map":"","available":"false","iiifUrl":""},"geometry":{"bbox":[120.83333300000017,18.500000000000114,121.33333300000004,18.66666699999996],"type":"Polygon","coordinates":[[[120.83333300000017,18.66666699999996],[121.33333300000004,18.66666699999996],[121.33333300000004,18.500000000000114],[120.83333300000017,18.500000000000114],[120.83333300000017,18.66666699999996]]]}},{"type":"Feature","properties":{"Id":0,"Sheet_ID":"SHEET 6","label":"SHEET 6","call_short":"","call_num":"","recid":"","websiteUrl":"","title":"","ckey":0,"web_map":"","available":"false","iiifUrl":""},"geometry":{"bbox":[121.33333300000001,18.166666666666668,121.833333,18.5],"type":"Polygon","coordinates":[[[121.33333300000001,18.166666666666668],[121.33333300000001,18.5],[121.833333,18.5],[121.833333,18.166666666666668],[121.33333300000001,18.166666666666668]]]}},{"type":"Feature","properties":{"Id":0,"Sheet_ID":"SHEET 7","label":"SHEET 7","call_short":"","call_num":"","recid":"","websiteUrl":"","title":"","ckey":0,"web_map":"","available":"false","iiifUrl":""},"geometry":{"bbox":[121.833333,18.166666666666668,122.333333,18.5],"type":"Polygon","coordinates":[[[121.833333,18.166666666666668],[121.833333,18.5],[122.333333,18.5],[122.333333,18.166666666666668],[121.833333,18.166666666666668]]]}},{"type":"Feature","properties":{"Id":0,"Sheet_ID":"SHEET 37","label":"SHEET 37","call_short":"","call_num":"","recid":"","websiteUrl":"","title":"","ckey":0,"web_map":"","available":"false","iiifUrl":""},"geometry":{"bbox":[119.66666699999996,15.833333333333371,119.83333300000015,16.166666666666742],"type":"Polygon","coordinates":[[[119.83333300000015,15.833333333333371],[119.66666699999996,15.833333333333371],[119.66666699999996,16.166666666666742],[119.83333300000015,16.166666666666742],[119.83333300000015,15.833333333333371]]]}},{"type":"Feature","properties":{"Id":0,"Sheet_ID":"SHEET 31","label":"SHEET 31","call_short":"","call_num":"","recid":"","websiteUrl":"","title":"","ckey":0,"web_map":"","available":"false","iiifUrl":""},"geometry":{"bbox":[119.66666699999996,16.166666666666742,119.83333300000015,16.5],"type":"Polygon","coordinates":[[[119.83333300000015,16.166666666666742],[119.66666699999996,16.166666666666742],[119.66666699999996,16.5],[119.83333300000015,16.5],[119.83333300000015,16.166666666666742]]]}},{"type":"Feature","properties":{"Id":0,"Sheet_ID":"SHEET 5","label":"SHEET 5","call_short":"","call_num":"","recid":"","websiteUrl":"","title":"","ckey":0,"web_map":"","available":"false","iiifUrl":""},"geometry":{"bbox":[120.83333300000017,18.166666666666742,121.33333300000004,18.500000000000114],"type":"Polygon","coordinates":[[[120.83333300000017,18.166666666666742],[120.83333300000017,18.500000000000114],[121.33333300000004,18.500000000000114],[121.33333300000004,18.166666666666742],[120.83333300000017,18.166666666666742]]]}},{"type":"Feature","properties":{"Id":0,"Sheet_ID":"SHEET 1","label":"SHEET 1","call_short":"","call_num":"","recid":"","websiteUrl":"","title":"","ckey":0,"web_map":"","available":"false","iiifUrl":""},"geometry":{"bbox":[120.54999999999995,18.500000000000114,120.83333300000017,18.66666699999996],"type":"Polygon","coordinates":[[[120.54999999999995,18.66666699999996],[120.83333300000017,18.66666699999996],[120.83333300000017,18.500000000000114],[120.54999999999995,18.500000000000114],[120.54999999999995,18.66666699999996]]]}},{"type":"Feature","properties":{"Id":0,"Sheet_ID":"SHEET 3","label":"SHEET 3","call_short":"","call_num":"","recid":"","websiteUrl":"","title":"","ckey":0,"web_map":"","available":"false","iiifUrl":""},"geometry":{"bbox":[122,18.500000000000114,122.33333300000015,18.66666699999996],"type":"Polygon","coordinates":[[[122,18.66666699999996],[122.33333300000015,18.66666699999996],[122.33333300000015,18.500000000000114],[122,18.500000000000114],[122,18.66666699999996]]]}},{"type":"Feature","properties":{"Id":0,"Sheet_ID":"SHEET 20","label":"SHEET 20","call_short":"","call_num":"","recid":"","websiteUrl":"","title":"","ckey":0,"web_map":"","available":"false","iiifUrl":""},"geometry":{"bbox":[122.33333300000015,17.000000000000057,122.54166700000009,17.375000000000057],"type":"Polygon","coordinates":[[[122.54166700000009,17.000000000000057],[122.33333300000015,17.000000000000057],[122.33333300000015,17.375000000000057],[122.54166700000009,17.375000000000057],[122.54166700000009,17.000000000000057]]]}},{"type":"Feature","properties":{"Id":0,"Sheet_ID":"SHEET 25","label":"SHEET 25","call_short":"","call_num":"","recid":"","websiteUrl":"","title":"","ckey":0,"web_map":"","available":"false","iiifUrl":""},"geometry":{"bbox":[122.33333300000015,16.625000000000057,122.54166700000009,17.000000000000057],"type":"Polygon","coordinates":[[[122.54166700000009,17.000000000000057],[122.54166700000009,16.625000000000057],[122.33333300000015,16.625000000000057],[122.33333300000015,17.000000000000057],[122.54166700000009,17.000000000000057]]]}},{"type":"Feature","properties":{"Id":0,"Sheet_ID":"SHEET 71","label":"SHEET 71","call_short":"G8062 .L8 S50 .J31","call_num":"G8062 .L8 S50 .J31 SHEET 71","recid":"nv458pf6036","websiteUrl":"https://purl.stanford.edu/nv458pf6036","title":"假製呂宋島五万分一圖","ckey":10553717,"web_map":"","available":"true","iiifUrl":"https://purl.stanford.edu/nv458pf6036/iiif/manifest"},"geometry":{"bbox":[120.08333366666669,13.5,120.50000033333333,13.833333333333334],"type":"Polygon","coordinates":[[[120.08333366666669,13.5],[120.08333366666669,13.833333333333334],[120.50000033333333,13.833333333333334],[120.50000033333333,13.5],[120.08333366666669,13.5]]]}},{"type":"Feature","properties":{"Id":0,"Sheet_ID":"SHEET 72","label":"SHEET 72","call_short":"G8062 .L8 S50 .J31","call_num":"G8062 .L8 S50 .J31 SHEET 72","recid":"pw896wg5789","websiteUrl":"https://purl.stanford.edu/pw896wg5789","title":"假製呂宋島五万分一圖","ckey":10553717,"web_map":"","available":"true","iiifUrl":"https://purl.stanford.edu/pw896wg5789/iiif/manifest"},"geometry":{"bbox":[120.50000033333333,13.5,120.91666700000002,13.833333333333334],"type":"Polygon","coordinates":[[[120.50000033333333,13.5],[120.50000033333333,13.833333333333334],[120.91666700000002,13.833333333333334],[120.91666700000002,13.5],[120.50000033333333,13.5]]]}},{"type":"Feature","properties":{"Id":0,"Sheet_ID":"SHEET 73","label":"SHEET 73","call_short":"G8062 .L8 S50 .J31","call_num":"G8062 .L8 S50 .J31 SHEET 73","recid":"ss764jd5548","websiteUrl":"https://purl.stanford.edu/ss764jd5548","title":"假製呂宋島五万分一圖","ckey":10553717,"web_map":"","available":"true","iiifUrl":"https://purl.stanford.edu/ss764jd5548/iiif/manifest"},"geometry":{"bbox":[120.91666700000002,13.5,121.33333366666669,13.833333333333334],"type":"Polygon","coordinates":[[[120.91666700000002,13.5],[120.91666700000002,13.833333333333334],[121.33333366666669,13.833333333333334],[121.33333366666669,13.5],[120.91666700000002,13.5]]]}},{"type":"Feature","properties":{"Id":0,"Sheet_ID":"SHEET 74","label":"SHEET 74","call_short":"","call_num":"","recid":"","websiteUrl":"","title":"","ckey":0,"web_map":"","available":"false","iiifUrl":""},"geometry":{"bbox":[121.33333366666672,13.500000000000057,121.54166700000007,13.833333333333428],"type":"Polygon","coordinates":[[[121.33333366666672,13.500000000000057],[121.33333366666672,13.833333333333428],[121.54166700000007,13.833333333333428],[121.54166700000007,13.500000000000057],[121.33333366666672,13.500000000000057]]]}},{"type":"Feature","properties":{"Id":0,"Sheet_ID":"SHEET 66","label":"SHEET 66","call_short":"","call_num":"","recid":"","websiteUrl":"","title":"","ckey":0,"web_map":"","available":"false","iiifUrl":""},"geometry":{"bbox":[120.08333366666682,13.833333333333428,120.50000033333343,14.000000000000114],"type":"Polygon","coordinates":[[[120.08333366666682,13.833333333333428],[120.08333366666682,14.000000000000114],[120.50000033333343,14.000000000000114],[120.50000033333343,13.833333333333428],[120.08333366666682,13.833333333333428]]]}},{"type":"Feature","properties":{"Id":0,"Sheet_ID":"SHEET 67","label":"SHEET 67","call_short":"G8062 .L8 S50 .J31","call_num":"G8062 .L8 S50 .J31 SHEET 67","recid":"jz121zq7991","websiteUrl":"https://purl.stanford.edu/jz121zq7991","title":"假製呂宋島五万分一圖","ckey":10553717,"web_map":"","available":"true","iiifUrl":"https://purl.stanford.edu/jz121zq7991/iiif/manifest"},"geometry":{"bbox":[120.50000033333333,13.833333333333334,120.91666700000002,14.166666666666668],"type":"Polygon","coordinates":[[[120.50000033333333,13.833333333333334],[120.50000033333333,14.166666666666668],[120.91666700000002,14.166666666666668],[120.91666700000002,13.833333333333334],[120.50000033333333,13.833333333333334]]]}},{"type":"Feature","properties":{"Id":0,"Sheet_ID":"SHEET 68","label":"SHEET 68","call_short":"G8062 .L8 S50 .J31","call_num":"G8062 .L8 S50 .J31 SHEET 68","recid":"hm237hx3114","websiteUrl":"https://purl.stanford.edu/hm237hx3114","title":"假製呂宋島五万分一圖","ckey":10553717,"web_map":"","available":"true","iiifUrl":"https://purl.stanford.edu/hm237hx3114/iiif/manifest"},"geometry":{"bbox":[120.91666700000002,13.833333333333334,121.33333366666669,14.166666666666668],"type":"Polygon","coordinates":[[[120.91666700000002,13.833333333333334],[120.91666700000002,14.166666666666668],[121.33333366666669,14.166666666666668],[121.33333366666669,13.833333333333334],[120.91666700000002,13.833333333333334]]]}},{"type":"Feature","properties":{"Id":0,"Sheet_ID":"SHEET 69","label":"SHEET 69","call_short":"","call_num":"","recid":"","websiteUrl":"","title":"","ckey":0,"web_map":"","available":"false","iiifUrl":""},"geometry":{"bbox":[121.33333366666669,13.833333333333334,121.75000033333336,14.166666666666668],"type":"Polygon","coordinates":[[[121.33333366666669,13.833333333333334],[121.33333366666669,14.166666666666668],[121.75000033333336,14.166666666666668],[121.75000033333336,13.833333333333334],[121.33333366666669,13.833333333333334]]]}},{"type":"Feature","properties":{"Id":0,"Sheet_ID":"SHEET 70","label":"SHEET 70","call_short":"","call_num":"","recid":"","websiteUrl":"","title":"","ckey":0,"web_map":"","available":"false","iiifUrl":""},"geometry":{"bbox":[121.75000033333333,13.833333333333334,122.166667,14.166666666666668],"type":"Polygon","coordinates":[[[121.75000033333333,13.833333333333334],[121.75000033333333,14.166666666666668],[122.166667,14.166666666666668],[122.166667,13.833333333333334],[121.75000033333333,13.833333333333334]]]}},{"type":"Feature","properties":{"Id":0,"Sheet_ID":"SHEET 61","label":"SHEET 61","call_short":"","call_num":"","recid":"","websiteUrl":"","title":"","ckey":0,"web_map":"","available":"false","iiifUrl":""},"geometry":{"bbox":[120.08333366666669,14.166666666666668,120.50000033333333,14.500000000000002],"type":"Polygon","coordinates":[[[120.08333366666669,14.166666666666668],[120.08333366666669,14.500000000000002],[120.50000033333333,14.500000000000002],[120.50000033333333,14.166666666666668],[120.08333366666669,14.166666666666668]]]}},{"type":"Feature","properties":{"Id":0,"Sheet_ID":"SHEET 62","label":"SHEET 62","call_short":"","call_num":"","recid":"","websiteUrl":"","title":"","ckey":0,"web_map":"","available":"false","iiifUrl":""},"geometry":{"bbox":[120.50000033333333,14.166666666666668,120.91666700000002,14.500000000000002],"type":"Polygon","coordinates":[[[120.50000033333333,14.166666666666668],[120.50000033333333,14.500000000000002],[120.91666700000002,14.500000000000002],[120.91666700000002,14.166666666666668],[120.50000033333333,14.166666666666668]]]}},{"type":"Feature","properties":{"Id":0,"Sheet_ID":"SHEET 63","label":"SHEET 63","call_short":"","call_num":"","recid":"","websiteUrl":"","title":"","ckey":0,"web_map":"","available":"false","iiifUrl":""},"geometry":{"bbox":[120.91666700000002,14.166666666666668,121.33333366666669,14.500000000000002],"type":"Polygon","coordinates":[[[120.91666700000002,14.166666666666668],[120.91666700000002,14.500000000000002],[121.33333366666669,14.500000000000002],[121.33333366666669,14.166666666666668],[120.91666700000002,14.166666666666668]]]}},{"type":"Feature","properties":{"Id":0,"Sheet_ID":"SHEET 64","label":"SHEET 64","call_short":"","call_num":"","recid":"","websiteUrl":"","title":"","ckey":0,"web_map":"","available":"false","iiifUrl":""},"geometry":{"bbox":[121.33333366666669,14.166666666666668,121.75000033333336,14.500000000000002],"type":"Polygon","coordinates":[[[121.33333366666669,14.166666666666668],[121.33333366666669,14.500000000000002],[121.75000033333336,14.500000000000002],[121.75000033333336,14.166666666666668],[121.33333366666669,14.166666666666668]]]}},{"type":"Feature","properties":{"Id":0,"Sheet_ID":"SHEET 65","label":"SHEET 65","call_short":"","call_num":"","recid":"","websiteUrl":"","title":"","ckey":0,"web_map":"","available":"false","iiifUrl":""},"geometry":{"bbox":[121.75000033333333,14.1666666666668,122.08333300000004,14.500000000000002],"type":"Polygon","coordinates":[[[121.75000033333333,14.1666666666668],[121.75000033333333,14.500000000000002],[122.08333300000004,14.500000000000002],[122.08333300000004,14.1666666666668],[121.75000033333333,14.1666666666668]]]}},{"type":"Feature","properties":{"Id":0,"Sheet_ID":"SHEET 57","label":"SHEET 57","call_short":"","call_num":"","recid":"","websiteUrl":"","title":"","ckey":0,"web_map":"","available":"false","iiifUrl":""},"geometry":{"bbox":[120.08333366666669,14.500000000000002,120.50000033333333,14.833333333333334],"type":"Polygon","coordinates":[[[120.08333366666669,14.500000000000002],[120.08333366666669,14.833333333333334],[120.50000033333333,14.833333333333334],[120.50000033333333,14.500000000000002],[120.08333366666669,14.500000000000002]]]}},{"type":"Feature","properties":{"Id":0,"Sheet_ID":"SHEET 58","label":"SHEET 58","call_short":"","call_num":"","recid":"","websiteUrl":"","title":"","ckey":0,"web_map":"","available":"false","iiifUrl":""},"geometry":{"bbox":[120.50000033333333,14.500000000000002,120.91666700000002,14.833333333333334],"type":"Polygon","coordinates":[[[120.50000033333333,14.500000000000002],[120.50000033333333,14.833333333333334],[120.91666700000002,14.833333333333334],[120.91666700000002,14.500000000000002],[120.50000033333333,14.500000000000002]]]}},{"type":"Feature","properties":{"Id":0,"Sheet_ID":"SHEET 59","label":"SHEET 59","call_short":"","call_num":"","recid":"","websiteUrl":"","title":"","ckey":0,"web_map":"","available":"false","iiifUrl":""},"geometry":{"bbox":[120.91666700000002,14.500000000000002,121.33333366666669,14.833333333333334],"type":"Polygon","coordinates":[[[120.91666700000002,14.500000000000002],[120.91666700000002,14.833333333333334],[121.33333366666669,14.833333333333334],[121.33333366666669,14.500000000000002],[120.91666700000002,14.500000000000002]]]}},{"type":"Feature","properties":{"Id":0,"Sheet_ID":"SHEET 60","label":"SHEET 60","call_short":"","call_num":"","recid":"","websiteUrl":"","title":"","ckey":0,"web_map":"","available":"false","iiifUrl":""},"geometry":{"bbox":[121.33333366666669,14.500000000000002,121.75000033333336,14.833333333333334],"type":"Polygon","coordinates":[[[121.33333366666669,14.500000000000002],[121.33333366666669,14.833333333333334],[121.75000033333336,14.833333333333334],[121.75000033333336,14.500000000000002],[121.33333366666669,14.500000000000002]]]}},{"type":"Feature","properties":{"Id":0,"Sheet_ID":"SHEET 52","label":"SHEET 52","call_short":"","call_num":"","recid":"","websiteUrl":"","title":"","ckey":0,"web_map":"","available":"false","iiifUrl":""},"geometry":{"bbox":[119.83333300000015,14.83333333333343,120.08333366666682,15.166666666666801],"type":"Polygon","coordinates":[[[119.83333300000015,14.83333333333343],[119.83333300000015,15.166666666666801],[120.08333366666682,15.166666666666801],[120.08333366666682,14.83333333333343],[119.83333300000015,14.83333333333343]]]}},{"type":"Feature","properties":{"Id":0,"Sheet_ID":"SHEET 53","label":"SHEET 53","call_short":"","call_num":"","recid":"","websiteUrl":"","title":"","ckey":0,"web_map":"","available":"false","iiifUrl":""},"geometry":{"bbox":[120.08333366666669,14.833333333333334,120.50000033333333,15.166666666666666],"type":"Polygon","coordinates":[[[120.08333366666669,14.833333333333334],[120.08333366666669,15.166666666666666],[120.50000033333333,15.166666666666666],[120.50000033333333,14.833333333333334],[120.08333366666669,14.833333333333334]]]}},{"type":"Feature","properties":{"Id":0,"Sheet_ID":"SHEET 54","label":"SHEET 54","call_short":"","call_num":"","recid":"","websiteUrl":"","title":"","ckey":0,"web_map":"","available":"false","iiifUrl":""},"geometry":{"bbox":[120.50000033333333,14.833333333333334,120.91666700000002,15.166666666666666],"type":"Polygon","coordinates":[[[120.50000033333333,14.833333333333334],[120.50000033333333,15.166666666666666],[120.91666700000002,15.166666666666666],[120.91666700000002,14.833333333333334],[120.50000033333333,14.833333333333334]]]}},{"type":"Feature","properties":{"Id":0,"Sheet_ID":"SHEET 55","label":"SHEET 55","call_short":"","call_num":"","recid":"","websiteUrl":"","title":"","ckey":0,"web_map":"","available":"false","iiifUrl":""},"geometry":{"bbox":[120.91666700000002,14.833333333333334,121.33333366666669,15.166666666666666],"type":"Polygon","coordinates":[[[120.91666700000002,14.833333333333334],[120.91666700000002,15.166666666666666],[121.33333366666669,15.166666666666666],[121.33333366666669,14.833333333333334],[120.91666700000002,14.833333333333334]]]}},{"type":"Feature","properties":{"Id":0,"Sheet_ID":"SHEET 56","label":"SHEET 56","call_short":"","call_num":"","recid":"","websiteUrl":"","title":"","ckey":0,"web_map":"","available":"false","iiifUrl":""},"geometry":{"bbox":[121.33333366666669,14.833333333333334,121.75000033333336,15.166666666666666],"type":"Polygon","coordinates":[[[121.33333366666669,14.833333333333334],[121.33333366666669,15.166666666666666],[121.75000033333336,15.166666666666666],[121.75000033333336,14.833333333333334],[121.33333366666669,14.833333333333334]]]}},{"type":"Feature","properties":{"Id":0,"Sheet_ID":"SHEET 47","label":"SHEET 47","call_short":"","call_num":"","recid":"","websiteUrl":"","title":"","ckey":0,"web_map":"","available":"false","iiifUrl":""},"geometry":{"bbox":[119.66666700000002,15.166666666666666,120.08333366666669,15.5],"type":"Polygon","coordinates":[[[119.66666700000002,15.166666666666666],[119.66666700000002,15.5],[120.08333366666669,15.5],[120.08333366666669,15.166666666666666],[119.66666700000002,15.166666666666666]]]}},{"type":"Feature","properties":{"Id":0,"Sheet_ID":"SHEET 48","label":"SHEET 48","call_short":"","call_num":"","recid":"","websiteUrl":"","title":"","ckey":0,"web_map":"","available":"false","iiifUrl":""},"geometry":{"bbox":[120.08333366666669,15.166666666666666,120.50000033333333,15.5],"type":"Polygon","coordinates":[[[120.08333366666669,15.166666666666666],[120.08333366666669,15.5],[120.50000033333333,15.5],[120.50000033333333,15.166666666666666],[120.08333366666669,15.166666666666666]]]}},{"type":"Feature","properties":{"Id":0,"Sheet_ID":"SHEET 49","label":"SHEET 49","call_short":"","call_num":"","recid":"","websiteUrl":"","title":"","ckey":0,"web_map":"","available":"false","iiifUrl":""},"geometry":{"bbox":[120.50000033333333,15.166666666666666,120.91666700000002,15.5],"type":"Polygon","coordinates":[[[120.50000033333333,15.166666666666666],[120.50000033333333,15.5],[120.91666700000002,15.5],[120.91666700000002,15.166666666666666],[120.50000033333333,15.166666666666666]]]}},{"type":"Feature","properties":{"Id":0,"Sheet_ID":"SHEET 50","label":"SHEET 50","call_short":"","call_num":"","recid":"","websiteUrl":"","title":"","ckey":0,"web_map":"","available":"false","iiifUrl":""},"geometry":{"bbox":[120.91666700000002,15.166666666666666,121.33333366666669,15.5],"type":"Polygon","coordinates":[[[120.91666700000002,15.166666666666666],[120.91666700000002,15.5],[121.33333366666669,15.5],[121.33333366666669,15.166666666666666],[120.91666700000002,15.166666666666666]]]}},{"type":"Feature","properties":{"Id":0,"Sheet_ID":"SHEET 51","label":"SHEET 51","call_short":"","call_num":"","recid":"","websiteUrl":"","title":"","ckey":0,"web_map":"","available":"false","iiifUrl":""},"geometry":{"bbox":[121.33333366666669,15.166666666666666,121.75000033333336,15.5],"type":"Polygon","coordinates":[[[121.33333366666669,15.166666666666666],[121.33333366666669,15.5],[121.75000033333336,15.5],[121.75000033333336,15.166666666666666],[121.33333366666669,15.166666666666666]]]}}],"name":"index_10553717"}
