{
"type": "FeatureCollection",
"name": "index_map",
"xy_coordinate_resolution": 1e-07,
"features": [
{ "type": "Feature", "properties": { "Id": 0, "Sheet_ID": "3. ハバロフスク - 浦潮斯徳 - 哈爾濱", "label": "3. ハバロフスク - 浦潮斯徳 - 哈爾濱", "call_short": "G7822 .F2 1944 .J3", "call_num": "G7822 .F2 1944 .J3 SHEET 3", "recid": "jp555mg5687", "websiteUrl": "https://purl.stanford.edu/jp555mg5687", "title": "百万分一満「ソ」国境方面航空圖", "ckey": 10109116, "available": true, "iiifUrl": "https://purl.stanford.edu/jp555mg5687/iiif/manifest" }, "geometry": { "type": "Polygon", "coordinates": [ [ [ 126.666667, 41.916667 ], [ 138.5, 41.916667 ], [ 139.166667, 48.333333 ], [ 126.0, 48.333333 ], [ 126.666667, 41.916667 ] ] ] } },
{ "type": "Feature", "properties": { "Id": 0, "Sheet_ID": "2. ハバロフスク - 黒河 - 齊齊哈爾", "label": "2. ハバロフスク - 黒河 - 齊齊哈爾", "call_short": "G7822 .F2 1944 .J3", "call_num": "G7822 .F2 1944 .J3 SHEET 2", "recid": "br910mb6290", "websiteUrl": "https://purl.stanford.edu/br910mb6290", "title": "百万分一満「ソ」国境方面航空圖", "ckey": 10109116, "available": true, "iiifUrl": "https://purl.stanford.edu/br910mb6290/iiif/manifest" }, "geometry": { "type": "Polygon", "coordinates": [ [ [ 123.416667, 47.25 ], [ 136.333333, 47.25 ], [ 137.333333, 53.75 ], [ 122.416667, 53.75 ], [ 123.416667, 47.25 ] ] ] } },
{ "type": "Feature", "properties": { "Id": 0, "Sheet_ID": "1. アレクサンドロフスク - ハバロスク - 佳木斯", "label": "1. アレクサンドロフスク - ハバロスク - 佳木斯", "call_short": "G7822 .F2 1944 .J3", "call_num": "G7822 .F2 1944 .J3 SHEET 1", "recid": "gt836nv8332", "websiteUrl": "https://purl.stanford.edu/gt836nv8332", "title": "百万分一満「ソ」国境方面航空圖", "ckey": 10109116, "available": true, "iiifUrl": "https://purl.stanford.edu/gt836nv8332/iiif/manifest" }, "geometry": { "type": "Polygon", "coordinates": [ [ [ 129.5, 45.666667 ], [ 142.25, 45.916667 ], [ 142.75, 52.416667 ], [ 128.333333, 52.083333 ], [ 129.5, 45.666667 ] ] ] } }
]
}
