{
"type": "FeatureCollection",
"name": "index_map",
"xy_coordinate_resolution": 1e-07,
"features": [
{ "type": "Feature", "properties": { "Id": 0, "Sheet_ID": "漢口 - 成都", "label": "漢口 - 成都", "call_short": "G7823 .S55 1942 .J3", "call_num": "G7823 .S55 1942 .J3", "recid": "xg090fg4903", "websiteUrl": "https://purl.stanford.edu/xg090fg4903", "title": "百万分一 航空圖 漢口 - 成都", "ckey": 10660598, "available": true, "iiifUrl": "https://purl.stanford.edu/xg090fg4903/iiif/manifest" }, "geometry": { "type": "Polygon", "coordinates": [ [ [ 104.083333, 28.8 ], [ 114.333333, 28.8 ], [ 114.7, 35.1 ], [ 103.716667, 35.1 ], [ 104.083333, 28.8 ] ] ] } }
]
}
