{
"type": "FeatureCollection",
"name": "index_map",
"xy_coordinate_resolution": 1e-07,
"features": [
{ "type": "Feature", "properties": { "Id": 0, "Sheet_ID": "泰・緬甸五十万分一圖", "label": "泰・緬甸五十万分一圖", "call_short": "0", "call_num": "0", "recid": "0", "websiteUrl": "0", "title": "0", "ckey": 0, "available": false, "iiifUrl": "0" }, "geometry": { "type": "Polygon", "coordinates": [ [ [ 100.0, 10.0 ], [ 100.0, 11.6666666 ], [ 100.0, 13.3333333 ], [ 100.0, 14.9999999 ], [ 100.0, 16.6666665 ], [ 100.0, 18.3333332 ], [ 100.0, 19.9999998 ], [ 97.5, 19.9999998 ], [ 97.5, 18.3333332 ], [ 97.5, 16.6666665 ], [ 97.5, 14.9999999 ], [ 97.5, 13.3333333 ], [ 97.5, 11.6666666 ], [ 97.5, 10.0 ], [ 100.0, 10.0 ] ] ] } },
{ "type": "Feature", "properties": { "Id": 0, "Sheet_ID": "緬甸五十万分一圖", "label": "緬甸五十万分一圖", "call_short": "0", "call_num": "0", "recid": "0", "websiteUrl": "0", "title": "0", "ckey": 0, "available": false, "iiifUrl": "0" }, "geometry": { "type": "Polygon", "coordinates": [ [ [ 97.5, 23.3333331 ], [ 97.5, 24.9999997 ], [ 95.0, 24.9999997 ], [ 95.0, 23.3333331 ], [ 95.0, 21.6666665 ], [ 95.0, 19.9999998 ], [ 92.5, 19.9999998 ], [ 92.5, 18.3333332 ], [ 92.5, 16.6666665 ], [ 92.5, 14.9999999 ], [ 95.0, 14.9999999 ], [ 97.5, 14.9999999 ], [ 97.5, 16.6666665 ], [ 97.5, 18.3333332 ], [ 97.5, 19.9999998 ], [ 100.0, 19.9999998 ], [ 100.0, 21.6666665 ], [ 97.5, 21.6666665 ], [ 97.5, 23.3333331 ] ] ] } },
{ "type": "Feature", "properties": { "Id": 0, "Sheet_ID": "印度五十万分一圖", "label": "印度五十万分一圖", "call_short": "0", "call_num": "0", "recid": "0", "websiteUrl": "0", "title": "0", "ckey": 0, "available": false, "iiifUrl": "0" }, "geometry": { "type": "MultiPolygon", "coordinates": [ [ [ [ 92.5, 26.6666664 ], [ 90.0, 26.6666664 ], [ 87.5, 26.6666664 ], [ 87.5, 24.9999997 ], [ 87.5, 23.3333331 ], [ 87.5, 21.6666665 ], [ 87.5, 19.9999998 ], [ 90.0, 19.9999998 ], [ 90.0, 21.6666665 ], [ 92.5, 21.6666665 ], [ 92.5, 23.3333331 ], [ 92.5, 24.9999997 ], [ 92.5, 26.6666664 ] ] ], [ [ [ 92.5, 26.6666664 ], [ 95.0, 26.6666664 ], [ 95.0, 28.333333 ], [ 92.5, 28.333333 ], [ 92.5, 26.6666664 ] ] ] ] } },
{ "type": "Feature", "properties": { "Id": 0, "Sheet_ID": "印度・緬甸五十万分一圖", "label": "印度・緬甸五十万分一圖", "call_short": "0", "call_num": "0", "recid": "0", "websiteUrl": "0", "title": "0", "ckey": 0, "available": false, "iiifUrl": "0" }, "geometry": { "type": "Polygon", "coordinates": [ [ [ 92.5, 19.9999998 ], [ 95.0, 19.9999998 ], [ 95.0, 21.6666665 ], [ 95.0, 23.3333331 ], [ 95.0, 24.9999997 ], [ 97.5, 24.9999997 ], [ 97.5, 26.6666664 ], [ 95.0, 26.6666664 ], [ 92.5, 26.6666664 ], [ 92.5, 24.9999997 ], [ 92.5, 23.3333331 ], [ 92.5, 21.6666665 ], [ 90.0, 21.6666665 ], [ 90.0, 19.9999998 ], [ 92.5, 19.9999998 ] ] ] } },
{ "type": "Feature", "properties": { "Id": 0, "Sheet_ID": "佛印・緬甸五十万分一圖", "label": "佛印・緬甸五十万分一圖", "call_short": "0", "call_num": "0", "recid": "0", "websiteUrl": "0", "title": "0", "ckey": 0, "available": false, "iiifUrl": "0" }, "geometry": { "type": "Polygon", "coordinates": [ [ [ 100.0, 19.9999998 ], [ 102.5, 19.9999998 ], [ 102.5, 21.6666665 ], [ 100.0, 21.6666665 ], [ 100.0, 19.9999998 ] ] ] } },
{ "type": "Feature", "properties": { "Id": 0, "Sheet_ID": "支那・緬甸五十万分一圖", "label": "支那・緬甸五十万分一圖", "call_short": "0", "call_num": "0", "recid": "0", "websiteUrl": "0", "title": "0", "ckey": 0, "available": false, "iiifUrl": "0" }, "geometry": { "type": "Polygon", "coordinates": [ [ [ 100.0, 21.6666665 ], [ 100.0, 23.3333331 ], [ 100.0, 24.9999997 ], [ 100.0, 26.6666664 ], [ 100.0, 28.333333 ], [ 97.5, 28.333333 ], [ 97.5, 26.6666664 ], [ 97.5, 24.9999997 ], [ 97.5, 23.3333331 ], [ 97.5, 21.6666665 ], [ 100.0, 21.6666665 ] ] ] } },
{ "type": "Feature", "properties": { "Id": 0, "Sheet_ID": "壹六ト503. 思茅", "label": "壹六ト503. 思茅", "call_short": "G7820 S500 .J3", "call_num": "G7820 S500 .J3 SHEET 16TO503", "recid": "kg631sg0568", "websiteUrl": "https://purl.stanford.edu/kg631sg0568", "title": "假製支那五十万分一圖", "ckey": 10755228, "available": true, "iiifUrl": "https://purl.stanford.edu/kg631sg0568/iiif/manifest" }, "geometry": { "type": "Polygon", "coordinates": [ [ [ 100.0, 21.6666665 ], [ 102.5, 21.6666665 ], [ 102.5, 23.3333331 ], [ 100.0, 23.3333331 ], [ 100.0, 21.6666665 ] ] ] } },
{ "type": "Feature", "properties": { "Id": 0, "Sheet_ID": "壹六ト501. 蒙自", "label": "壹六ト501. 蒙自", "call_short": "G7820 S500 .J3", "call_num": "G7820 S500 .J3 SHEET 16TO501", "recid": "ff235ks9301", "websiteUrl": "https://purl.stanford.edu/ff235ks9301", "title": "假製支那五十万分一圖", "ckey": 10755228, "available": true, "iiifUrl": "https://purl.stanford.edu/ff235ks9301/iiif/manifest" }, "geometry": { "type": "Polygon", "coordinates": [ [ [ 102.5, 21.6666665 ], [ 105.0, 21.6666665 ], [ 105.0, 23.3333331 ], [ 102.5, 23.3333331 ], [ 102.5, 21.6666665 ] ] ] } },
{ "type": "Feature", "properties": { "Id": 0, "Sheet_ID": "壹五ト503. 龍州", "label": "壹五ト503. 龍州", "call_short": "0", "call_num": "0", "recid": "0", "websiteUrl": "0", "title": "0", "ckey": 0, "available": false, "iiifUrl": "0" }, "geometry": { "type": "Polygon", "coordinates": [ [ [ 105.0, 21.6666665 ], [ 107.5, 21.6666665 ], [ 107.5, 23.3333331 ], [ 105.0, 23.3333331 ], [ 105.0, 21.6666665 ] ] ] } },
{ "type": "Feature", "properties": { "Id": 0, "Sheet_ID": "壹五ト501. 南寧", "label": "壹五ト501. 南寧", "call_short": "0", "call_num": "0", "recid": "0", "websiteUrl": "0", "title": "0", "ckey": 0, "available": false, "iiifUrl": "0" }, "geometry": { "type": "Polygon", "coordinates": [ [ [ 107.5, 21.6666665 ], [ 110.0, 21.6666665 ], [ 110.0, 23.3333331 ], [ 107.5, 23.3333331 ], [ 107.5, 21.6666665 ] ] ] } },
{ "type": "Feature", "properties": { "Id": 0, "Sheet_ID": "壹六チ504. 元江", "label": "壹六チ504. 元江", "call_short": "G7820 S500 .J3", "call_num": "G7820 S500 .J3 SHEET 16CHI504", "recid": "bg608td6074", "websiteUrl": "https://purl.stanford.edu/bg608td6074", "title": "假製支那五十万分一圖", "ckey": 10755228, "available": true, "iiifUrl": "https://purl.stanford.edu/bg608td6074/iiif/manifest" }, "geometry": { "type": "Polygon", "coordinates": [ [ [ 100.0, 23.3333331 ], [ 102.5, 23.3333331 ], [ 102.5, 24.9999997 ], [ 100.0, 24.9999997 ], [ 100.0, 23.3333331 ] ] ] } },
{ "type": "Feature", "properties": { "Id": 0, "Sheet_ID": "壹六チ502. 臨安", "label": "壹六チ502. 臨安", "call_short": "G7820 S500 .J3", "call_num": "G7820 S500 .J3 SHEET 16CHI502", "recid": "df881sw3131", "websiteUrl": "https://purl.stanford.edu/df881sw3131", "title": "假製支那五十万分一圖", "ckey": 10755228, "available": true, "iiifUrl": "https://purl.stanford.edu/df881sw3131/iiif/manifest" }, "geometry": { "type": "Polygon", "coordinates": [ [ [ 102.5, 23.3333331 ], [ 105.0, 23.3333331 ], [ 105.0, 24.9999997 ], [ 102.5, 24.9999997 ], [ 102.5, 23.3333331 ] ] ] } },
{ "type": "Feature", "properties": { "Id": 0, "Sheet_ID": "壹六チ503. 大理", "label": "壹六チ503. 大理", "call_short": "G7820 S500 .J3", "call_num": "G7820 S500 .J3 SHEET 16CHI503", "recid": "xc400qz5040", "websiteUrl": "https://purl.stanford.edu/xc400qz5040", "title": "假製支那五十万分一圖", "ckey": 10755228, "available": true, "iiifUrl": "https://purl.stanford.edu/xc400qz5040/iiif/manifest" }, "geometry": { "type": "Polygon", "coordinates": [ [ [ 100.0, 24.9999997 ], [ 102.5, 24.9999997 ], [ 102.5, 26.6666664 ], [ 100.0, 26.6666664 ], [ 100.0, 24.9999997 ] ] ] } },
{ "type": "Feature", "properties": { "Id": 0, "Sheet_ID": "壹六チ501. 雲南", "label": "壹六チ501. 雲南", "call_short": "G7820 S500 .J3", "call_num": "G7820 S500 .J3 SHEET 16CHI501", "recid": "sz146yw9149", "websiteUrl": "https://purl.stanford.edu/sz146yw9149", "title": "假製支那五十万分一圖", "ckey": 10755228, "available": true, "iiifUrl": "https://purl.stanford.edu/sz146yw9149/iiif/manifest" }, "geometry": { "type": "Polygon", "coordinates": [ [ [ 102.5, 24.9999997 ], [ 105.0, 24.9999997 ], [ 105.0, 26.6666664 ], [ 102.5, 26.6666664 ], [ 102.5, 24.9999997 ] ] ] } },
{ "type": "Feature", "properties": { "Id": 0, "Sheet_ID": "印度・緬甸・支那五十万分一圖", "label": "印度・緬甸・支那五十万分一圖", "call_short": "0", "call_num": "0", "recid": "0", "websiteUrl": "0", "title": "0", "ckey": 0, "available": false, "iiifUrl": "0" }, "geometry": { "type": "Polygon", "coordinates": [ [ [ 95.0, 26.6666664 ], [ 97.5, 26.6666664 ], [ 97.5, 28.333333 ], [ 95.0, 28.333333 ], [ 95.0, 26.6666664 ] ] ] } }
]
}
