{
"type": "FeatureCollection",
"name": "index_map",
"xy_coordinate_resolution": 1e-07,
"features": [
{ "type": "Feature", "properties": { "Id": 0, "Sheet_ID": "15左. Vinh-Long_West", "label": "15左. Vinh-Long_West", "call_short": "G8006 .P2 S400 .I6", "call_num": "G8006 .P2 S400 .I6 SHEET 15-W", "recid": "xc657qj3851", "websiteUrl": "https://purl.stanford.edu/xc657qj3851", "title": "佛領印度支那四十万分一圖", "ckey": 5689243, "available": true, "iiifUrl": "https://purl.stanford.edu/xc657qj3851/iiif/manifest" }, "geometry": { "type": "Polygon", "coordinates": [ [ [ 103.6666668, 8.0666667 ], [ 105.8333335, 8.0666667 ], [ 105.8333335, 10.3166667 ], [ 103.6666668, 10.3166667 ], [ 103.6666668, 8.0666667 ] ] ] } },
{ "type": "Feature", "properties": { "Id": 0, "Sheet_ID": "15右. Vinh-Long_East", "label": "15右. Vinh-Long_East", "call_short": "G8006 .P2 S400 .I6", "call_num": "G8006 .P2 S400 .I6 SHEET 15-E", "recid": "gj900js8647", "websiteUrl": "https://purl.stanford.edu/gj900js8647", "title": "佛領印度支那四十万分一圖", "ckey": 5689243, "available": true, "iiifUrl": "https://purl.stanford.edu/gj900js8647/iiif/manifest" }, "geometry": { "type": "Polygon", "coordinates": [ [ [ 105.8333335, 8.0666667 ], [ 108.0, 8.0666667 ], [ 108.0, 10.3166667 ], [ 105.8333335, 10.3166667 ], [ 105.8333335, 8.0666667 ] ] ] } },
{ "type": "Feature", "properties": { "Id": 0, "Sheet_ID": "12. n/a", "label": "12. n/a", "call_short": "0", "call_num": "0", "recid": "0", "websiteUrl": "0", "title": "0", "ckey": 0, "available": false, "iiifUrl": "0" }, "geometry": { "type": "Polygon", "coordinates": [ [ [ 101.5, 10.3166667 ], [ 103.6666668, 10.3166667 ], [ 103.6666668, 12.5666667 ], [ 101.5, 12.5666667 ], [ 101.5, 10.3166667 ] ] ] } },
{ "type": "Feature", "properties": { "Id": 0, "Sheet_ID": "13左. Saigon_West", "label": "13左. Saigon_West", "call_short": "G8006 .P2 S400 .I6", "call_num": "G8006 .P2 S400 .I6 SHEET 13-W", "recid": "sn117zw3066", "websiteUrl": "https://purl.stanford.edu/sn117zw3066", "title": "佛領印度支那四十万分一圖", "ckey": 5689243, "available": true, "iiifUrl": "https://purl.stanford.edu/sn117zw3066/iiif/manifest" }, "geometry": { "type": "Polygon", "coordinates": [ [ [ 103.6666668, 10.3166667 ], [ 105.8333335, 10.3166667 ], [ 105.8333335, 12.5666667 ], [ 103.6666668, 12.5666667 ], [ 103.6666668, 10.3166667 ] ] ] } },
{ "type": "Feature", "properties": { "Id": 0, "Sheet_ID": "13右. Saigon_East", "label": "13右. Saigon_East", "call_short": "G8006 .P2 S400 .I6", "call_num": "G8006 .P2 S400 .I6 SHEET 13-E", "recid": "hq993sd8735", "websiteUrl": "https://purl.stanford.edu/hq993sd8735", "title": "佛領印度支那四十万分一圖", "ckey": 5689243, "available": true, "iiifUrl": "https://purl.stanford.edu/hq993sd8735/iiif/manifest" }, "geometry": { "type": "Polygon", "coordinates": [ [ [ 105.8333335, 10.3166667 ], [ 108.0, 10.3166667 ], [ 108.0, 12.5666667 ], [ 105.8333335, 12.5666667 ], [ 105.8333335, 10.3166667 ] ] ] } },
{ "type": "Feature", "properties": { "Id": 0, "Sheet_ID": "14. Nha-Trang", "label": "14. Nha-Trang", "call_short": "G8006 .P2 S400 .I6", "call_num": "G8006 .P2 S400 .I6 SHEET 14", "recid": "sj889tb8505", "websiteUrl": "https://purl.stanford.edu/sj889tb8505", "title": "佛領印度支那四十万分一圖", "ckey": 5689243, "available": true, "iiifUrl": "https://purl.stanford.edu/sj889tb8505/iiif/manifest" }, "geometry": { "type": "Polygon", "coordinates": [ [ [ 108.0, 10.3166667 ], [ 110.166667, 10.3166667 ], [ 110.166667, 12.5666667 ], [ 108.0, 12.5666667 ], [ 108.0, 10.3166667 ] ] ] } },
{ "type": "Feature", "properties": { "Id": 0, "Sheet_ID": "9. n/a", "label": "9. n/a", "call_short": "0", "call_num": "0", "recid": "0", "websiteUrl": "0", "title": "0", "ckey": 0, "available": false, "iiifUrl": "0" }, "geometry": { "type": "Polygon", "coordinates": [ [ [ 101.5, 12.5666667 ], [ 103.6666668, 12.5666667 ], [ 103.6666668, 14.8166667 ], [ 101.5, 14.8166667 ], [ 101.5, 12.5666667 ] ] ] } },
{ "type": "Feature", "properties": { "Id": 0, "Sheet_ID": "10左. Khong_West", "label": "10左. Khong_West", "call_short": "G8006 .P2 S400 .I6", "call_num": "G8006 .P2 S400 .I6 SHEET 10-W", "recid": "zs441bf2731", "websiteUrl": "https://purl.stanford.edu/zs441bf2731", "title": "佛領印度支那四十万分一圖", "ckey": 5689243, "available": true, "iiifUrl": "https://purl.stanford.edu/zs441bf2731/iiif/manifest" }, "geometry": { "type": "Polygon", "coordinates": [ [ [ 103.6666668, 12.5666667 ], [ 105.8333335, 12.5666667 ], [ 105.8333335, 14.8166667 ], [ 103.6666668, 14.8166667 ], [ 103.6666668, 12.5666667 ] ] ] } },
{ "type": "Feature", "properties": { "Id": 0, "Sheet_ID": "10右. Khong_East", "label": "10右. Khong_East", "call_short": "G8006 .P2 S400 .I6", "call_num": "G8006 .P2 S400 .I6 SHEET 10-E", "recid": "tg442xn8782", "websiteUrl": "https://purl.stanford.edu/tg442xn8782", "title": "佛領印度支那四十万分一圖", "ckey": 5689243, "available": true, "iiifUrl": "https://purl.stanford.edu/tg442xn8782/iiif/manifest" }, "geometry": { "type": "Polygon", "coordinates": [ [ [ 105.8333335, 12.5666667 ], [ 108.0, 12.5666667 ], [ 108.0, 14.8166667 ], [ 105.8333335, 14.8166667 ], [ 105.8333335, 12.5666667 ] ] ] } },
{ "type": "Feature", "properties": { "Id": 0, "Sheet_ID": "11. Qui-Nhon", "label": "11. Qui-Nhon", "call_short": "G8006 .P2 S400 .I6", "call_num": "G8006 .P2 S400 .I6 SHEET 11", "recid": "bp352sg3470", "websiteUrl": "https://purl.stanford.edu/bp352sg3470", "title": "佛領印度支那四十万分一圖", "ckey": 5689243, "available": true, "iiifUrl": "https://purl.stanford.edu/bp352sg3470/iiif/manifest" }, "geometry": { "type": "Polygon", "coordinates": [ [ [ 108.0, 12.5666667 ], [ 110.166667, 12.5666667 ], [ 110.166667, 14.8166667 ], [ 108.0, 14.8166667 ], [ 108.0, 12.5666667 ] ] ] } },
{ "type": "Feature", "properties": { "Id": 0, "Sheet_ID": "7左. Huê_West", "label": "7左. Huê_West", "call_short": "G8006 .P2 S400 .I6", "call_num": "G8006 .P2 S400 .I6 SHEET 7-W", "recid": "jr269wj8448", "websiteUrl": "https://purl.stanford.edu/jr269wj8448", "title": "佛領印度支那四十万分一圖", "ckey": 5689243, "available": true, "iiifUrl": "https://purl.stanford.edu/jr269wj8448/iiif/manifest" }, "geometry": { "type": "Polygon", "coordinates": [ [ [ 103.6666668, 14.8166667 ], [ 105.8333335, 14.8166667 ], [ 105.8333335, 17.0666667 ], [ 103.6666668, 17.0666667 ], [ 103.6666668, 14.8166667 ] ] ] } },
{ "type": "Feature", "properties": { "Id": 0, "Sheet_ID": "7右. Huê_East", "label": "7右. Huê_East", "call_short": "G8006 .P2 S400 .I6", "call_num": "G8006 .P2 S400 .I6 SHEET 7-E", "recid": "dv284cx2767", "websiteUrl": "https://purl.stanford.edu/dv284cx2767", "title": "佛領印度支那四十万分一圖", "ckey": 5689243, "available": true, "iiifUrl": "https://purl.stanford.edu/dv284cx2767/iiif/manifest" }, "geometry": { "type": "Polygon", "coordinates": [ [ [ 105.8333335, 14.8166667 ], [ 108.0, 14.8166667 ], [ 108.0, 17.0666667 ], [ 105.8333335, 17.0666667 ], [ 105.8333335, 14.8166667 ] ] ] } },
{ "type": "Feature", "properties": { "Id": 0, "Sheet_ID": "8. Tourane", "label": "8. Tourane", "call_short": "G8006 .P2 S400 .I6", "call_num": "G8006 .P2 S400 .I6 SHEET 8", "recid": "zx316sp6983", "websiteUrl": "https://purl.stanford.edu/zx316sp6983", "title": "佛領印度支那四十万分一圖", "ckey": 5689243, "available": true, "iiifUrl": "https://purl.stanford.edu/zx316sp6983/iiif/manifest" }, "geometry": { "type": "Polygon", "coordinates": [ [ [ 108.0, 14.8166667 ], [ 110.166667, 14.8166667 ], [ 110.166667, 17.0666667 ], [ 108.0, 17.0666667 ], [ 108.0, 14.8166667 ] ] ] } },
{ "type": "Feature", "properties": { "Id": 0, "Sheet_ID": "5. n/a", "label": "5. n/a", "call_short": "0", "call_num": "0", "recid": "0", "websiteUrl": "0", "title": "0", "ckey": 0, "available": false, "iiifUrl": "0" }, "geometry": { "type": "Polygon", "coordinates": [ [ [ 101.5, 17.0666667 ], [ 103.6666668, 17.0666667 ], [ 103.6666668, 19.3166667 ], [ 101.5, 19.3166667 ], [ 101.5, 17.0666667 ] ] ] } },
{ "type": "Feature", "properties": { "Id": 0, "Sheet_ID": "6左. Vinh_West", "label": "6左. Vinh_West", "call_short": "G8006 .P2 S400 .I6", "call_num": "G8006 .P2 S400 .I6 SHEET 6-W", "recid": "mb770ns5531", "websiteUrl": "https://purl.stanford.edu/mb770ns5531", "title": "佛領印度支那四十万分一圖", "ckey": 5689243, "available": true, "iiifUrl": "https://purl.stanford.edu/mb770ns5531/iiif/manifest" }, "geometry": { "type": "Polygon", "coordinates": [ [ [ 103.6666668, 17.0666667 ], [ 105.8333335, 17.0666667 ], [ 105.8333335, 19.3166667 ], [ 103.6666668, 19.3166667 ], [ 103.6666668, 17.0666667 ] ] ] } },
{ "type": "Feature", "properties": { "Id": 0, "Sheet_ID": "6右. Vinh_East", "label": "6右. Vinh_East", "call_short": "G8006 .P2 S400 .I6", "call_num": "G8006 .P2 S400 .I6 SHEET 6-E", "recid": "ds870zk8781", "websiteUrl": "https://purl.stanford.edu/ds870zk8781", "title": "佛領印度支那四十万分一圖", "ckey": 5689243, "available": true, "iiifUrl": "https://purl.stanford.edu/ds870zk8781/iiif/manifest" }, "geometry": { "type": "Polygon", "coordinates": [ [ [ 105.8333335, 17.0666667 ], [ 108.0, 17.0666667 ], [ 108.0, 19.3166667 ], [ 105.8333335, 19.3166667 ], [ 105.8333335, 17.0666667 ] ] ] } },
{ "type": "Feature", "properties": { "Id": 0, "Sheet_ID": "3. Luang-Prabang", "label": "3. Luang-Prabang", "call_short": "0", "call_num": "0", "recid": "0", "websiteUrl": "0", "title": "0", "ckey": 0, "available": false, "iiifUrl": "0" }, "geometry": { "type": "Polygon", "coordinates": [ [ [ 101.5, 19.3166667 ], [ 103.6666668, 19.3166667 ], [ 103.6666668, 21.5666667 ], [ 101.5, 21.5666667 ], [ 101.5, 19.3166667 ] ] ] } },
{ "type": "Feature", "properties": { "Id": 0, "Sheet_ID": "四十万分一佛領印度支那北部", "label": "四十万分一佛領印度支那北部", "call_short": "0", "call_num": "0", "recid": "0", "websiteUrl": "0", "title": "0", "ckey": 0, "available": false, "iiifUrl": "0" }, "geometry": { "type": "Polygon", "coordinates": [ [ [ 105.8333335, 19.3166667 ], [ 108.0, 19.3166667 ], [ 108.0, 21.5666667 ], [ 108.0, 23.8166667 ], [ 105.8333335, 23.8166667 ], [ 103.6666667, 23.8166667 ], [ 103.6666667, 21.5666667 ], [ 103.6666667, 19.3166667 ], [ 105.8333335, 19.3166667 ] ] ] } },
{ "type": "Feature", "properties": { "Id": 0, "Sheet_ID": "1. Mong-Tzeu", "label": "1. Mong-Tzeu", "call_short": "G8006 .P2 S400 .I6", "call_num": "G8006 .P2 S400 .I6 SHEET 1", "recid": "sz475mn4935", "websiteUrl": "https://purl.stanford.edu/sz475mn4935", "title": "佛領印度支那四十万分一圖", "ckey": 5689243, "available": true, "iiifUrl": "https://purl.stanford.edu/sz475mn4935/iiif/manifest" }, "geometry": { "type": "Polygon", "coordinates": [ [ [ 101.5, 21.5666667 ], [ 103.6666668, 21.5666667 ], [ 103.6666668, 23.8166667 ], [ 101.5, 23.8166667 ], [ 101.5, 21.5666667 ] ] ] } }
]
}
