{
"type": "FeatureCollection",
"name": "index_map",
"features": [
{ "type": "Feature", "properties": { "Id": 0, "Sheet_ID": "4. SOUTHWEST", "label": "4. SOUTHWEST", "call_short": "G7909 .R3 1933 .J3", "call_num": "G7909 .R3 1933 .J3 SHEET 4", "recid": "qz542vg2567", "websiteUrl": "https://purl.stanford.edu/qz542vg2567", "title": "羅津", "ckey": 9927939, "available": true, "iiifUrl": "https://purl.stanford.edu/qz542vg2567/iiif/manifest" }, "geometry": { "type": "Polygon", "coordinates": [ [ [ 130.234444, 42.169722 ], [ 130.2838885, 42.169722 ], [ 130.2838885, 42.228333 ], [ 130.234444, 42.228333 ], [ 130.234444, 42.169722 ] ] ] } },
{ "type": "Feature", "properties": { "Id": 0, "Sheet_ID": "2. SOUTHEAST", "label": "2. SOUTHEAST", "call_short": "G7909 .R3 1933 .J3", "call_num": "G7909 .R3 1933 .J3 SHEET 2", "recid": "yb504nm5082", "websiteUrl": "https://purl.stanford.edu/yb504nm5082", "title": "羅津", "ckey": 9927939, "available": true, "iiifUrl": "https://purl.stanford.edu/yb504nm5082/iiif/manifest" }, "geometry": { "type": "Polygon", "coordinates": [ [ [ 130.2838885, 42.169722 ], [ 130.333333, 42.169722 ], [ 130.333333, 42.228333 ], [ 130.2838885, 42.228333 ], [ 130.2838885, 42.169722 ] ] ] } },
{ "type": "Feature", "properties": { "Id": 0, "Sheet_ID": "3. NORTHWEST", "label": "3. NORTHWEST", "call_short": "G7909 .R3 1933 .J3", "call_num": "G7909 .R3 1933 .J3 SHEET 3", "recid": "xr412fd9043", "websiteUrl": "https://purl.stanford.edu/xr412fd9043", "title": "羅津", "ckey": 9927939, "available": true, "iiifUrl": "https://purl.stanford.edu/xr412fd9043/iiif/manifest" }, "geometry": { "type": "Polygon", "coordinates": [ [ [ 130.234444, 42.228333 ], [ 130.2838885, 42.228333 ], [ 130.2838885, 42.286944 ], [ 130.234444, 42.286944 ], [ 130.234444, 42.228333 ] ] ] } },
{ "type": "Feature", "properties": { "Id": 0, "Sheet_ID": "1. NORTHEAST", "label": "1. NORTHEAST", "call_short": "G7909 .R3 1933 .J3", "call_num": "G7909 .R3 1933 .J3 SHEET 1", "recid": "sx902jk0428", "websiteUrl": "https://purl.stanford.edu/sx902jk0428", "title": "羅津", "ckey": 9927939, "available": true, "iiifUrl": "https://purl.stanford.edu/sx902jk0428/iiif/manifest" }, "geometry": { "type": "Polygon", "coordinates": [ [ [ 130.2838885, 42.228333 ], [ 130.333333, 42.228333 ], [ 130.333333, 42.286944 ], [ 130.2838885, 42.286944 ], [ 130.2838885, 42.228333 ] ] ] } }
]
}
