{
"type": "FeatureCollection",
"name": "index_map",
"xy_coordinate_resolution": 1e-07,
"features": [
{ "type": "Feature", "properties": { "Id": 0, "Sheet_ID": "25. 桃花堡", "label": "25. 桃花堡", "call_short": "0", "call_num": "0", "recid": "0", "websiteUrl": "0", "title": "0", "ckey": 0, "available": false, "iiifUrl": "0" }, "geometry": { "type": "Polygon", "coordinates": [ [ [ 115.0, 40.0 ], [ 115.5, 40.0 ], [ 115.5, 40.3333334 ], [ 115.0, 40.3333334 ], [ 115.0, 40.0 ] ] ] } },
{ "type": "Feature", "properties": { "Id": 0, "Sheet_ID": "20. 礬山堡", "label": "20. 礬山堡", "call_short": "0", "call_num": "0", "recid": "0", "websiteUrl": "0", "title": "0", "ckey": 0, "available": false, "iiifUrl": "0" }, "geometry": { "type": "Polygon", "coordinates": [ [ [ 115.5, 40.0 ], [ 116.0, 40.0 ], [ 116.0, 40.3333334 ], [ 115.5, 40.3333334 ], [ 115.5, 40.0 ] ] ] } },
{ "type": "Feature", "properties": { "Id": 0, "Sheet_ID": "15. 圓明園", "label": "15. 圓明園", "call_short": "0", "call_num": "0", "recid": "0", "websiteUrl": "0", "title": "0", "ckey": 0, "available": false, "iiifUrl": "0" }, "geometry": { "type": "Polygon", "coordinates": [ [ [ 116.0, 40.0 ], [ 116.5, 40.0 ], [ 116.5, 40.3333334 ], [ 116.0, 40.3333334 ], [ 116.0, 40.0 ] ] ] } },
{ "type": "Feature", "properties": { "Id": 0, "Sheet_ID": "10. 順義", "label": "10. 順義", "call_short": "G7823 .X75 1912 .J3", "call_num": "G7823 .X75 1912 .J3 SHEET 10", "recid": "nc863jg7888", "websiteUrl": "https://purl.stanford.edu/nc863jg7888", "title": "北支那十万分一圖 宣化", "ckey": 10645368, "available": true, "iiifUrl": "https://purl.stanford.edu/nc863jg7888/iiif/manifest" }, "geometry": { "type": "Polygon", "coordinates": [ [ [ 116.5, 40.0 ], [ 117.0, 40.0 ], [ 117.0, 40.3333334 ], [ 116.5, 40.3333334 ], [ 116.5, 40.0 ] ] ] } },
{ "type": "Feature", "properties": { "Id": 0, "Sheet_ID": "5. 蘇州", "label": "5. 蘇州", "call_short": "0", "call_num": "0", "recid": "0", "websiteUrl": "0", "title": "0", "ckey": 0, "available": false, "iiifUrl": "0" }, "geometry": { "type": "Polygon", "coordinates": [ [ [ 117.0, 40.0 ], [ 117.5, 40.0 ], [ 117.5, 40.3333334 ], [ 117.0, 40.3333334 ], [ 117.0, 40.0 ] ] ] } },
{ "type": "Feature", "properties": { "Id": 0, "Sheet_ID": "24. 保安", "label": "24. 保安", "call_short": "0", "call_num": "0", "recid": "0", "websiteUrl": "0", "title": "0", "ckey": 0, "available": false, "iiifUrl": "0" }, "geometry": { "type": "Polygon", "coordinates": [ [ [ 115.0, 40.3333334 ], [ 115.5, 40.3333334 ], [ 115.5, 40.6666668 ], [ 115.0, 40.6666668 ], [ 115.0, 40.3333334 ] ] ] } },
{ "type": "Feature", "properties": { "Id": 0, "Sheet_ID": "19. 懐來", "label": "19. 懐來", "call_short": "0", "call_num": "0", "recid": "0", "websiteUrl": "0", "title": "0", "ckey": 0, "available": false, "iiifUrl": "0" }, "geometry": { "type": "Polygon", "coordinates": [ [ [ 115.5, 40.3333334 ], [ 116.0, 40.3333334 ], [ 116.0, 40.6666668 ], [ 115.5, 40.6666668 ], [ 115.5, 40.3333334 ] ] ] } },
{ "type": "Feature", "properties": { "Id": 0, "Sheet_ID": "14. 延慶", "label": "14. 延慶", "call_short": "0", "call_num": "0", "recid": "0", "websiteUrl": "0", "title": "0", "ckey": 0, "available": false, "iiifUrl": "0" }, "geometry": { "type": "Polygon", "coordinates": [ [ [ 116.0, 40.3333334 ], [ 116.5, 40.3333334 ], [ 116.5, 40.6666668 ], [ 116.0, 40.6666668 ], [ 116.0, 40.3333334 ] ] ] } },
{ "type": "Feature", "properties": { "Id": 0, "Sheet_ID": "9. 密雲", "label": "9. 密雲", "call_short": "0", "call_num": "0", "recid": "0", "websiteUrl": "0", "title": "0", "ckey": 0, "available": false, "iiifUrl": "0" }, "geometry": { "type": "Polygon", "coordinates": [ [ [ 116.5, 40.3333334 ], [ 117.0, 40.3333334 ], [ 117.0, 40.6666668 ], [ 116.5, 40.6666668 ], [ 116.5, 40.3333334 ] ] ] } },
{ "type": "Feature", "properties": { "Id": 0, "Sheet_ID": "4. 南營寨", "label": "4. 南營寨", "call_short": "0", "call_num": "0", "recid": "0", "websiteUrl": "0", "title": "0", "ckey": 0, "available": false, "iiifUrl": "0" }, "geometry": { "type": "Polygon", "coordinates": [ [ [ 117.0, 40.3333334 ], [ 117.5, 40.3333334 ], [ 117.5, 40.6666668 ], [ 117.0, 40.6666668 ], [ 117.0, 40.3333334 ] ] ] } },
{ "type": "Feature", "properties": { "Id": 0, "Sheet_ID": "23. 宣化", "label": "23. 宣化", "call_short": "0", "call_num": "0", "recid": "0", "websiteUrl": "0", "title": "0", "ckey": 0, "available": false, "iiifUrl": "0" }, "geometry": { "type": "Polygon", "coordinates": [ [ [ 115.0, 40.6666668 ], [ 115.5, 40.6666668 ], [ 115.5, 41.0000002 ], [ 115.0, 41.0000002 ], [ 115.0, 40.6666668 ] ] ] } },
{ "type": "Feature", "properties": { "Id": 0, "Sheet_ID": "18. 龍門", "label": "18. 龍門", "call_short": "0", "call_num": "0", "recid": "0", "websiteUrl": "0", "title": "0", "ckey": 0, "available": false, "iiifUrl": "0" }, "geometry": { "type": "Polygon", "coordinates": [ [ [ 115.5, 40.6666668 ], [ 116.0, 40.6666668 ], [ 116.0, 41.0000002 ], [ 115.5, 41.0000002 ], [ 115.5, 40.6666668 ] ] ] } },
{ "type": "Feature", "properties": { "Id": 0, "Sheet_ID": "13. 赤城", "label": "13. 赤城", "call_short": "G7823 .X75 1912 .J3", "call_num": "G7823 .X75 1912 .J3 SHEET 13", "recid": "rr958js2929", "websiteUrl": "https://purl.stanford.edu/rr958js2929", "title": "北支那十万分一圖 宣化", "ckey": 10645368, "available": true, "iiifUrl": "https://purl.stanford.edu/rr958js2929/iiif/manifest" }, "geometry": { "type": "Polygon", "coordinates": [ [ [ 116.0, 40.6666668 ], [ 116.5, 40.6666668 ], [ 116.5, 41.0000002 ], [ 116.0, 41.0000002 ], [ 116.0, 40.6666668 ] ] ] } },
{ "type": "Feature", "properties": { "Id": 0, "Sheet_ID": "8. 湯河溝", "label": "8. 湯河溝", "call_short": "G7823 .X75 1912 .J3", "call_num": "G7823 .X75 1912 .J3 SHEET 8", "recid": "pn099sj3835", "websiteUrl": "https://purl.stanford.edu/pn099sj3835", "title": "北支那十万分一圖 宣化", "ckey": 10645368, "available": true, "iiifUrl": "https://purl.stanford.edu/pn099sj3835/iiif/manifest" }, "geometry": { "type": "Polygon", "coordinates": [ [ [ 116.5, 40.6666668 ], [ 117.0, 40.6666668 ], [ 117.0, 41.0000002 ], [ 116.5, 41.0000002 ], [ 116.5, 40.6666668 ] ] ] } },
{ "type": "Feature", "properties": { "Id": 0, "Sheet_ID": "3. 古北口", "label": "3. 古北口", "call_short": "0", "call_num": "0", "recid": "0", "websiteUrl": "0", "title": "0", "ckey": 0, "available": false, "iiifUrl": "0" }, "geometry": { "type": "Polygon", "coordinates": [ [ [ 117.0, 40.6666668 ], [ 117.5, 40.6666668 ], [ 117.5, 41.0000002 ], [ 117.0, 41.0000002 ], [ 117.0, 40.6666668 ] ] ] } },
{ "type": "Feature", "properties": { "Id": 0, "Sheet_ID": "22. 白廟子灘", "label": "22. 白廟子灘", "call_short": "0", "call_num": "0", "recid": "0", "websiteUrl": "0", "title": "0", "ckey": 0, "available": false, "iiifUrl": "0" }, "geometry": { "type": "Polygon", "coordinates": [ [ [ 115.0, 41.0000002 ], [ 115.5, 41.0000002 ], [ 115.5, 41.3333336 ], [ 115.0, 41.3333336 ], [ 115.0, 41.0000002 ] ] ] } },
{ "type": "Feature", "properties": { "Id": 0, "Sheet_ID": "17. 獨石口", "label": "17. 獨石口", "call_short": "0", "call_num": "0", "recid": "0", "websiteUrl": "0", "title": "0", "ckey": 0, "available": false, "iiifUrl": "0" }, "geometry": { "type": "Polygon", "coordinates": [ [ [ 115.5, 41.0000002 ], [ 116.0, 41.0000002 ], [ 116.0, 41.3333336 ], [ 115.5, 41.3333336 ], [ 115.5, 41.0000002 ] ] ] } },
{ "type": "Feature", "properties": { "Id": 0, "Sheet_ID": "12. 鎮安堡", "label": "12. 鎮安堡", "call_short": "G7823 .X75 1912 .J3", "call_num": "G7823 .X75 1912 .J3 SHEET 12", "recid": "rn214mc4745", "websiteUrl": "https://purl.stanford.edu/rn214mc4745", "title": "北支那十万分一圖 宣化", "ckey": 10645368, "available": true, "iiifUrl": "https://purl.stanford.edu/rn214mc4745/iiif/manifest" }, "geometry": { "type": "Polygon", "coordinates": [ [ [ 116.0, 41.0000002 ], [ 116.5, 41.0000002 ], [ 116.5, 41.3333336 ], [ 116.0, 41.3333336 ], [ 116.0, 41.0000002 ] ] ] } },
{ "type": "Feature", "properties": { "Id": 0, "Sheet_ID": "7. 大閣鎮", "label": "7. 大閣鎮", "call_short": "0", "call_num": "0", "recid": "0", "websiteUrl": "0", "title": "0", "ckey": 0, "available": false, "iiifUrl": "0" }, "geometry": { "type": "Polygon", "coordinates": [ [ [ 116.5, 41.0000002 ], [ 117.0, 41.0000002 ], [ 117.0, 41.3333336 ], [ 116.5, 41.3333336 ], [ 116.5, 41.0000002 ] ] ] } },
{ "type": "Feature", "properties": { "Id": 0, "Sheet_ID": "2. 豊甯", "label": "2. 豊甯", "call_short": "G7823 .X75 1912 .J3", "call_num": "G7823 .X75 1912 .J3 SHEET 2", "recid": "jv273fd5234", "websiteUrl": "https://purl.stanford.edu/jv273fd5234", "title": "北支那十万分一圖 宣化", "ckey": 10645368, "available": true, "iiifUrl": "https://purl.stanford.edu/jv273fd5234/iiif/manifest" }, "geometry": { "type": "Polygon", "coordinates": [ [ [ 117.0, 41.0000002 ], [ 117.5, 41.0000002 ], [ 117.5, 41.3333336 ], [ 117.0, 41.3333336 ], [ 117.0, 41.0000002 ] ] ] } },
{ "type": "Feature", "properties": { "Id": 0, "Sheet_ID": "21. 打馬諾爾", "label": "21. 打馬諾爾", "call_short": "0", "call_num": "0", "recid": "0", "websiteUrl": "0", "title": "0", "ckey": 0, "available": false, "iiifUrl": "0" }, "geometry": { "type": "Polygon", "coordinates": [ [ [ 115.0, 41.3333336 ], [ 115.5, 41.3333336 ], [ 115.5, 41.666667 ], [ 115.0, 41.666667 ], [ 115.0, 41.3333336 ] ] ] } },
{ "type": "Feature", "properties": { "Id": 0, "Sheet_ID": "16. 張蠻子井", "label": "16. 張蠻子井", "call_short": "0", "call_num": "0", "recid": "0", "websiteUrl": "0", "title": "0", "ckey": 0, "available": false, "iiifUrl": "0" }, "geometry": { "type": "Polygon", "coordinates": [ [ [ 115.5, 41.3333336 ], [ 116.0, 41.3333336 ], [ 116.0, 41.666667 ], [ 115.5, 41.666667 ], [ 115.5, 41.3333336 ] ] ] } },
{ "type": "Feature", "properties": { "Id": 0, "Sheet_ID": "11. 大灘", "label": "11. 大灘", "call_short": "0", "call_num": "0", "recid": "0", "websiteUrl": "0", "title": "0", "ckey": 0, "available": false, "iiifUrl": "0" }, "geometry": { "type": "Polygon", "coordinates": [ [ [ 116.0, 41.3333336 ], [ 116.5, 41.3333336 ], [ 116.5, 41.666667 ], [ 116.0, 41.666667 ], [ 116.0, 41.3333336 ] ] ] } },
{ "type": "Feature", "properties": { "Id": 0, "Sheet_ID": "6. 上黄旗", "label": "6. 上黄旗", "call_short": "0", "call_num": "0", "recid": "0", "websiteUrl": "0", "title": "0", "ckey": 0, "available": false, "iiifUrl": "0" }, "geometry": { "type": "Polygon", "coordinates": [ [ [ 116.5, 41.3333336 ], [ 117.0, 41.3333336 ], [ 117.0, 41.666667 ], [ 116.5, 41.666667 ], [ 116.5, 41.3333336 ] ] ] } },
{ "type": "Feature", "properties": { "Id": 0, "Sheet_ID": "1. 郭家屯", "label": "1. 郭家屯", "call_short": "0", "call_num": "0", "recid": "0", "websiteUrl": "0", "title": "0", "ckey": 0, "available": false, "iiifUrl": "0" }, "geometry": { "type": "Polygon", "coordinates": [ [ [ 117.0, 41.3333336 ], [ 117.5, 41.3333336 ], [ 117.5, 41.666667 ], [ 117.0, 41.666667 ], [ 117.0, 41.3333336 ] ] ] } }
]
}
