{
"type": "FeatureCollection",
"name": "index_map",
"xy_coordinate_resolution": 1e-07,
"features": [
{ "type": "Feature", "properties": { "Id": 0, "Sheet_ID": "[1.] 千島北部 - 勘察加南部", "label": "[1.] 千島北部 - 勘察加南部", "call_short": "G7341 .P6 S1000 .J3", "call_num": "G7341 .P6 S1000 .J3 SHEET 1", "recid": "jx418rz0875", "websiteUrl": "https://purl.stanford.edu/jx418rz0875", "title": "百万分一圖 [千島列島]", "ckey": 10563447, "available": true, "iiifUrl": "https://purl.stanford.edu/jx418rz0875/iiif/manifest" }, "geometry": { "type": "Polygon", "coordinates": [ [ [ 148.1629993, 50.510531 ], [ 152.8648297, 45.324705 ], [ 161.0139848, 52.7132956 ], [ 156.3121545, 57.8991216 ], [ 148.1629993, 50.510531 ] ] ] } },
{ "type": "Feature", "properties": { "Id": 0, "Sheet_ID": "[2.] 千島南部 - 北海道東部", "label": "[2.] 千島南部 - 北海道東部", "call_short": "G7341 .P6 S1000 .J3", "call_num": "G7341 .P6 S1000 .J3 SHEET 2", "recid": "pw482sp4622", "websiteUrl": "https://purl.stanford.edu/pw482sp4622", "title": "百万分一圖 [千島列島]", "ckey": 10563447, "available": true, "iiifUrl": "https://purl.stanford.edu/pw482sp4622/iiif/manifest" }, "geometry": { "type": "Polygon", "coordinates": [ [ [ 143.8483521, 45.3229221 ], [ 145.6972009, 41.7758446 ], [ 154.5648945, 46.3979665 ], [ 152.7160457, 49.9450439 ], [ 143.8483521, 45.3229221 ] ] ] } }
]
}
