{"type":"FeatureCollection","features":[{"type":"Feature","properties":{"Id":0,"Sheet_ID":"20. パートムチー","label":"20. パートムチー","call_short":"G7822 .M2P2 S100 .J19","call_num":"G7822 .M2P2 S100 .J3 SHEET 20","recid":"nr452tj9147","websiteUrl":"https://purl.stanford.edu/nr452tj9147","title":"蒙古十万分一圖 呼倫貝爾","ckey":12372319,"web_map":"","available":"true","iiifUrl":"https://purl.stanford.edu/nr452tj9147/iiif/manifest"},"geometry":{"bbox":[116.00000000000001,46.666667,117,47.333333599999996],"type":"Polygon","coordinates":[[[116.00000000000001,46.666667],[116.00000000000001,47.333333599999996],[117,47.333333599999996],[117,46.666667],[116.00000000000001,46.666667]]]}},{"type":"Feature","properties":{"Id":0,"Sheet_ID":"15. チュン王府","label":"15. チュン王府","call_short":"G7822 .M2P2 S100 .J14","call_num":"G7822 .M2P2 S100 .J3 SHEET 15","recid":"pc328fg5454","websiteUrl":"https://purl.stanford.edu/pc328fg5454","title":"蒙古十万分一圖 呼倫貝爾","ckey":12372319,"web_map":"","available":"true","iiifUrl":"https://purl.stanford.edu/pc328fg5454/iiif/manifest"},"geometry":{"bbox":[117,46.666667,118.00000000000001,47.333333599999996],"type":"Polygon","coordinates":[[[117,46.666667],[117,47.333333599999996],[118.00000000000001,47.333333599999996],[118.00000000000001,46.666667],[117,46.666667]]]}},{"type":"Feature","properties":{"Id":0,"Sheet_ID":"10. サッパ貝子府","label":"10. サッパ貝子府","call_short":"G7822 .M2P2 S100 .J10","call_num":"G7822 .M2P2 S100 .J3 SHEET 10","recid":"gw559sp4869","websiteUrl":"https://purl.stanford.edu/gw559sp4869","title":"蒙古十万分一圖 呼倫貝爾","ckey":12372319,"web_map":"","available":"true","iiifUrl":"https://purl.stanford.edu/gw559sp4869/iiif/manifest"},"geometry":{"bbox":[118.00000000000001,46.666667,119,47.333333599999996],"type":"Polygon","coordinates":[[[118.00000000000001,46.666667],[118.00000000000001,47.333333599999996],[119,47.333333599999996],[119,46.666667],[118.00000000000001,46.666667]]]}},{"type":"Feature","properties":{"Id":0,"Sheet_ID":"5. ハロンアルシャン","label":"5. ハロンアルシャン","call_short":"G7822 .M2P2 S100 .J6","call_num":"G7822 .M2P2 S100 .J3 SHEET 5","recid":"cd214rs1356","websiteUrl":"https://purl.stanford.edu/cd214rs1356","title":"満州及蒙古十万分一圖 呼倫貝爾","ckey":12372319,"web_map":"","available":"true","iiifUrl":"https://purl.stanford.edu/cd214rs1356/iiif/manifest"},"geometry":{"bbox":[119,46.666667,119.99999999999999,47.333333599999996],"type":"Polygon","coordinates":[[[119,46.666667],[119,47.333333599999996],[119.99999999999999,47.333333599999996],[119.99999999999999,46.666667],[119,46.666667]]]}},{"type":"Feature","properties":{"Id":0,"Sheet_ID":"24. 伊哈克列伊凹地","label":"24. 伊哈克列伊凹地","call_short":"","call_num":"","recid":"","websiteUrl":"","title":"","ckey":0,"web_map":"","available":"false","iiifUrl":""},"geometry":{"bbox":[115,47.333333599999996,116.00000000000001,48.000000199999995],"type":"Polygon","coordinates":[[[115,47.333333599999996],[115,48.000000199999995],[116.00000000000001,48.000000199999995],[116.00000000000001,47.333333599999996],[115,47.333333599999996]]]}},{"type":"Feature","properties":{"Id":0,"Sheet_ID":"19. ハンベンスーム","label":"19. ハンベンスーム","call_short":"G7822 .M2P2 S100 .J18","call_num":"G7822 .M2P2 S100 .J3 SHEET 19","recid":"rr666fm8240","websiteUrl":"https://purl.stanford.edu/rr666fm8240","title":"満州十万分一圖 呼倫貝爾","ckey":12372319,"web_map":"","available":"true","iiifUrl":"https://purl.stanford.edu/rr666fm8240/iiif/manifest"},"geometry":{"bbox":[116.00000000000001,47.333333599999996,117,48.000000199999995],"type":"Polygon","coordinates":[[[116.00000000000001,47.333333599999996],[116.00000000000001,48.000000199999995],[117,48.000000199999995],[117,47.333333599999996],[116.00000000000001,47.333333599999996]]]}},{"type":"Feature","properties":{"Id":0,"Sheet_ID":"14. 貝爾湖","label":"14. 貝爾湖","call_short":"G7822 .M2P2 S100 .J13","call_num":"G7822 .M2P2 S100 .J3 SHEET 14","recid":"vw477tc4518","websiteUrl":"https://purl.stanford.edu/vw477tc4518","title":"満州及蒙古十万分一圖 呼倫貝爾","ckey":12372319,"web_map":"","available":"true","iiifUrl":"https://purl.stanford.edu/vw477tc4518/iiif/manifest"},"geometry":{"bbox":[117,47.333333599999996,118.00000000000001,48.000000199999995],"type":"Polygon","coordinates":[[[117,47.333333599999996],[117,48.000000199999995],[118.00000000000001,48.000000199999995],[118.00000000000001,47.333333599999996],[117,47.333333599999996]]]}},{"type":"Feature","properties":{"Id":0,"Sheet_ID":"9. 将軍廟","label":"9. 将軍廟","call_short":"","call_num":"","recid":"","websiteUrl":"","title":"","ckey":0,"web_map":"","available":"false","iiifUrl":""},"geometry":{"bbox":[118.00000000000001,47.333333599999996,119,48.000000199999995],"type":"Polygon","coordinates":[[[118.00000000000001,47.333333599999996],[118.00000000000001,48.000000199999995],[119,48.000000199999995],[119,47.333333599999996],[118.00000000000001,47.333333599999996]]]}},{"type":"Feature","properties":{"Id":0,"Sheet_ID":"4. ハンダガイ","label":"4. ハンダガイ","call_short":"","call_num":"","recid":"","websiteUrl":"","title":"","ckey":0,"web_map":"","available":"false","iiifUrl":""},"geometry":{"bbox":[119,47.333333599999996,119.99999999999999,48.000000199999995],"type":"Polygon","coordinates":[[[119,47.333333599999996],[119,48.000000199999995],[119.99999999999999,48.000000199999995],[119.99999999999999,47.333333599999996],[119,47.333333599999996]]]}},{"type":"Feature","properties":{"Id":0,"Sheet_ID":"23. メリケンハマルスーム","label":"23. メリケンハマルスーム","call_short":"G7822 .M2P2 S100 .J20","call_num":"G7822 .M2P2 S100 .J3 SHEET 23","recid":"fg519fv7393","websiteUrl":"https://purl.stanford.edu/fg519fv7393","title":"満州及蒙古十万分一圖 呼倫貝爾","ckey":12372319,"web_map":"","available":"true","iiifUrl":"https://purl.stanford.edu/fg519fv7393/iiif/manifest"},"geometry":{"bbox":[115,48.000000199999995,116.00000000000001,48.666666799999994],"type":"Polygon","coordinates":[[[115,48.000000199999995],[115,48.666666799999994],[116.00000000000001,48.666666799999994],[116.00000000000001,48.000000199999995],[115,48.000000199999995]]]}},{"type":"Feature","properties":{"Id":0,"Sheet_ID":"18. アルタイメン","label":"18. アルタイメン","call_short":"G7822 .M2P2 S100 .J17","call_num":"G7822 .M2P2 S100 .J3 SHEET 18","recid":"xx686vz6813","websiteUrl":"https://purl.stanford.edu/xx686vz6813","title":"満州十万分一圖 呼倫貝爾","ckey":12372319,"web_map":"","available":"true","iiifUrl":"https://purl.stanford.edu/xx686vz6813/iiif/manifest"},"geometry":{"bbox":[116.00000000000001,48.000000199999995,117,48.666666799999994],"type":"Polygon","coordinates":[[[116.00000000000001,48.000000199999995],[116.00000000000001,48.666666799999994],[117,48.666666799999994],[117,48.000000199999995],[116.00000000000001,48.000000199999995]]]}},{"type":"Feature","properties":{"Id":0,"Sheet_ID":"13. 達木博廟","label":"13. 達木博廟","call_short":"G7822 .M2P2 S100 .J12","call_num":"G7822 .M2P2 S100 .J3 SHEET 13","recid":"tk006xz4217","websiteUrl":"https://purl.stanford.edu/tk006xz4217","title":"満州十万分一圖 呼倫貝爾","ckey":12372319,"web_map":"","available":"true","iiifUrl":"https://purl.stanford.edu/tk006xz4217/iiif/manifest"},"geometry":{"bbox":[117,48.000000199999995,118.00000000000001,48.666666799999994],"type":"Polygon","coordinates":[[[117,48.000000199999995],[117,48.666666799999994],[118.00000000000001,48.666666799999994],[118.00000000000001,48.000000199999995],[117,48.000000199999995]]]}},{"type":"Feature","properties":{"Id":0,"Sheet_ID":"8. 甘珠爾廟","label":"8. 甘珠爾廟","call_short":"G7822 .M2P2 S100 .J9","call_num":"G7822 .M2P2 S100 .J3 SHEET 8","recid":"nq903qk0852","websiteUrl":"https://purl.stanford.edu/nq903qk0852","title":"満州及蒙古十万分一圖 呼倫貝爾","ckey":12372319,"web_map":"","available":"true","iiifUrl":"https://purl.stanford.edu/nq903qk0852/iiif/manifest"},"geometry":{"bbox":[118.00000000000001,48.000000199999995,119,48.666666799999994],"type":"Polygon","coordinates":[[[118.00000000000001,48.000000199999995],[118.00000000000001,48.666666799999994],[119,48.666666799999994],[119,48.000000199999995],[118.00000000000001,48.000000199999995]]]}},{"type":"Feature","properties":{"Id":0,"Sheet_ID":"3. 巴銀査干廟","label":"3. 巴銀査干廟","call_short":"G7822 .M2P2 S100 .J5","call_num":"G7822 .M2P2 S100 .J3 SHEET 3","recid":"rh926zh4864","websiteUrl":"https://purl.stanford.edu/rh926zh4864","title":"満州十万分一圖 呼倫貝爾","ckey":12372319,"web_map":"","available":"true","iiifUrl":"https://purl.stanford.edu/rh926zh4864/iiif/manifest"},"geometry":{"bbox":[119,48.000000199999995,119.99999999999999,48.666666799999994],"type":"Polygon","coordinates":[[[119,48.000000199999995],[119,48.666666799999994],[119.99999999999999,48.666666799999994],[119.99999999999999,48.000000199999995],[119,48.000000199999995]]]}},{"type":"Feature","properties":{"Id":0,"Sheet_ID":"17. モゴイツー山","label":"17. モゴイツー山","call_short":"G7822 .M2P2 S100 .J16","call_num":"G7822 .M2P2 S100 .J3 SHEET 17","recid":"wp424vs6588","websiteUrl":"https://purl.stanford.edu/wp424vs6588","title":"満州及蒙古十万分一圖 呼倫貝爾","ckey":12372319,"web_map":"","available":"true","iiifUrl":"https://purl.stanford.edu/wp424vs6588/iiif/manifest"},"geometry":{"bbox":[116.00000000000001,48.6666668,117,49.3333334],"type":"Polygon","coordinates":[[[116.00000000000001,48.6666668],[116.00000000000001,49.3333334],[117,49.3333334],[117,48.6666668],[116.00000000000001,48.6666668]]]}},{"type":"Feature","properties":{"Id":0,"Sheet_ID":"12. 達賴湖","label":"12. 達賴湖","call_short":"G7822 .M2P2 S100 .J11","call_num":"G7822 .M2P2 S100 .J3 SHEET 12","recid":"zs664nt0078","websiteUrl":"https://purl.stanford.edu/zs664nt0078","title":"満州十万分一圖 呼倫貝爾","ckey":12372319,"web_map":"","available":"true","iiifUrl":"https://purl.stanford.edu/zs664nt0078/iiif/manifest"},"geometry":{"bbox":[117,48.6666668,118.00000000000001,49.3333334],"type":"Polygon","coordinates":[[[117,48.6666668],[117,49.3333334],[118.00000000000001,49.3333334],[118.00000000000001,48.6666668],[117,48.6666668]]]}},{"type":"Feature","properties":{"Id":0,"Sheet_ID":"7. 望工","label":"7. 望工","call_short":"G7822 .M2P2 S100 .J8","call_num":"G7822 .M2P2 S100 .J3 SHEET 7","recid":"fk746qf1694","websiteUrl":"https://purl.stanford.edu/fk746qf1694","title":"満州十万分一圖 呼倫貝爾","ckey":12372319,"web_map":"","available":"true","iiifUrl":"https://purl.stanford.edu/fk746qf1694/iiif/manifest"},"geometry":{"bbox":[118.00000000000001,48.6666668,119,49.3333334],"type":"Polygon","coordinates":[[[118.00000000000001,48.6666668],[118.00000000000001,49.3333334],[119,49.3333334],[119,48.6666668],[118.00000000000001,48.6666668]]]}},{"type":"Feature","properties":{"Id":0,"Sheet_ID":"2. 海拉爾","label":"2. 海拉爾","call_short":"G7822 .M2P2 S100 .J4","call_num":"G7822 .M2P2 S100 .J3 SHEET 2","recid":"hy072fn8232","websiteUrl":"https://purl.stanford.edu/hy072fn8232","title":"満州十万分一圖 呼倫貝爾","ckey":12372319,"web_map":"","available":"true","iiifUrl":"https://purl.stanford.edu/hy072fn8232/iiif/manifest"},"geometry":{"bbox":[119,48.6666668,119.99999999999999,49.3333334],"type":"Polygon","coordinates":[[[119,48.6666668],[119,49.3333334],[119.99999999999999,49.3333334],[119.99999999999999,48.6666668],[119,48.6666668]]]}},{"type":"Feature","properties":{"Id":0,"Sheet_ID":"16. ダウリヤ","label":"16. ダウリヤ","call_short":"G7822 .M2P2 S100 .J15","call_num":"G7822 .M2P2 S100 .J3 SHEET 16","recid":"rq311fh2476","websiteUrl":"https://purl.stanford.edu/rq311fh2476","title":"満州蒙古及西伯利十万分一圖 呼倫貝爾","ckey":12372319,"web_map":"","available":"true","iiifUrl":"https://purl.stanford.edu/rq311fh2476/iiif/manifest"},"geometry":{"bbox":[116.00000000000001,49.3333334,117,50],"type":"Polygon","coordinates":[[[116.00000000000001,49.3333334],[116.00000000000001,50],[117,50],[117,49.3333334],[116.00000000000001,49.3333334]]]}},{"type":"Feature","properties":{"Id":0,"Sheet_ID":"11. 満州里","label":"11. 満州里","call_short":"","call_num":"","recid":"","websiteUrl":"","title":"","ckey":0,"web_map":"","available":"false","iiifUrl":""},"geometry":{"bbox":[117,49.3333334,118.00000000000001,50],"type":"Polygon","coordinates":[[[117,49.3333334],[117,50],[118.00000000000001,50],[118.00000000000001,49.3333334],[117,49.3333334]]]}},{"type":"Feature","properties":{"Id":0,"Sheet_ID":"6. 呼其爾圖山","label":"6. 呼其爾圖山","call_short":"G7822 .M2P2 S100 .J7","call_num":"G7822 .M2P2 S100 .J3 SHEET 6","recid":"wc774zw1697","websiteUrl":"https://purl.stanford.edu/wc774zw1697","title":"満州及西伯利十万分一圖 呼倫貝爾","ckey":12372319,"web_map":"","available":"true","iiifUrl":"https://purl.stanford.edu/wc774zw1697/iiif/manifest"},"geometry":{"bbox":[118.00000000000001,49.3333334,119,50],"type":"Polygon","coordinates":[[[118.00000000000001,49.3333334],[118.00000000000001,50],[119,50],[119,49.3333334],[118.00000000000001,49.3333334]]]}},{"type":"Feature","properties":{"Id":0,"Sheet_ID":"1. 頭站","label":"1. 頭站","call_short":"G7822 .M2P2 S100 .J3","call_num":"G7822 .M2P2 S100 .J3 SHEET 1","recid":"xk844tz5412","websiteUrl":"https://purl.stanford.edu/xk844tz5412","title":"満州十万分一圖 呼倫貝爾","ckey":12372319,"web_map":"","available":"true","iiifUrl":"https://purl.stanford.edu/xk844tz5412/iiif/manifest"},"geometry":{"bbox":[119,49.3333334,119.99999999999999,50],"type":"Polygon","coordinates":[[[119,49.3333334],[119,50],[119.99999999999999,50],[119.99999999999999,49.3333334],[119,49.3333334]]]}}],"name":"index_12372319"}
