{
"type": "FeatureCollection",
"name": "index_map",
"xy_coordinate_resolution": 1e-07,
"features": [
{ "type": "Feature", "properties": { "Id": 0, "Sheet_ID": "[1.] 九州及沖縄", "label": "[1.] 九州及沖縄", "call_short": "G7962 .O6 P93 1935 .J3", "call_num": "G7962 .O6 P93 1935 .J3 SHEET 1", "recid": "wh703dw8944", "websiteUrl": "https://purl.stanford.edu/wh703dw8944", "title": "百万分一航空圖 九州及沖縄 - 沖繩及臺灣", "ckey": 12122837, "available": true, "iiifUrl": "https://purl.stanford.edu/wh703dw8944/iiif/manifest" }, "geometry": { "type": "Polygon", "coordinates": [ [ [ 126.7171636, 26.1862325 ], [ 129.8011818, 25.1608879 ], [ 132.6405978, 33.701246 ], [ 129.5565796, 34.7265906 ], [ 126.7171636, 26.1862325 ] ] ] } },
{ "type": "Feature", "properties": { "Id": 0, "Sheet_ID": "[2.] 沖繩及臺灣", "label": "[2.] 沖繩及臺灣", "call_short": "G7962 .O6 P93 1935 .J3", "call_num": "G7962 .O6 P93 1935 .J3 SHEET 2", "recid": "xd088zh5454", "websiteUrl": "https://purl.stanford.edu/xd088zh5454", "title": "百万分一航空圖 九州及沖縄 - 沖繩及臺灣", "ckey": 12122837, "available": true, "iiifUrl": "https://purl.stanford.edu/xd088zh5454/iiif/manifest" }, "geometry": { "type": "Polygon", "coordinates": [ [ [ 118.9695555, 24.1928032 ], [ 120.8205326, 21.3408067 ], [ 128.6215817, 26.4037735 ], [ 126.7706046, 29.2557699 ], [ 118.9695555, 24.1928032 ] ] ] } }
]
}
