{
"type": "FeatureCollection",
"name": "index_map",
"features": [
{ "type": "Feature", "properties": { "Id": 0, "Sheet_ID": "25號. 拉樹山", "label": "25號. 拉樹山", "call_short": null, "call_num": null, "recid": null, "websiteUrl": null, "title": null, "ckey": 0, "available": false, "iiifUrl": null }, "geometry": { "type": "Polygon", "coordinates": [ [ [ 121.5, 39.25 ], [ 121.625, 39.25 ], [ 121.625, 39.3333333 ], [ 121.5, 39.3333333 ], [ 121.5, 39.25 ] ] ] } },
{ "type": "Feature", "properties": { "Id": 0, "Sheet_ID": "24號. 七頂山", "label": "24號. 七頂山", "call_short": null, "call_num": null, "recid": null, "websiteUrl": null, "title": null, "ckey": 0, "available": false, "iiifUrl": null }, "geometry": { "type": "Polygon", "coordinates": [ [ [ 121.625, 39.25 ], [ 121.75, 39.25 ], [ 121.75, 39.3333333 ], [ 121.625, 39.3333333 ], [ 121.625, 39.25 ] ] ] } },
{ "type": "Feature", "properties": { "Id": 0, "Sheet_ID": "22號. 三十里堡", "label": "22號. 三十里堡", "call_short": null, "call_num": null, "recid": null, "websiteUrl": null, "title": null, "ckey": 0, "available": false, "iiifUrl": null }, "geometry": { "type": "Polygon", "coordinates": [ [ [ 121.75, 39.25 ], [ 121.875, 39.25 ], [ 121.875, 39.3333333 ], [ 121.75, 39.3333333 ], [ 121.75, 39.25 ] ] ] } },
{ "type": "Feature", "properties": { "Id": 0, "Sheet_ID": "20號. 土城子", "label": "20號. 土城子", "call_short": null, "call_num": null, "recid": null, "websiteUrl": null, "title": null, "ckey": 0, "available": false, "iiifUrl": null }, "geometry": { "type": "Polygon", "coordinates": [ [ [ 121.875, 39.25 ], [ 122.0, 39.25 ], [ 122.0, 39.3333333 ], [ 121.875, 39.3333333 ], [ 121.875, 39.25 ] ] ] } },
{ "type": "Feature", "properties": { "Id": 0, "Sheet_ID": "16號. 華家屯", "label": "16號. 華家屯", "call_short": "G7824 .D3 S25 .J37", "call_num": "G7824 .D3 S25 .J37 SHEET 16", "recid": "yy679fr9989", "websiteUrl": "https://purl.stanford.edu/yy679fr9989", "title": "二万五千分一地形圖 貔子窝及普蘭店近傍", "ckey": 13901784, "available": true, "iiifUrl": "https://purl.stanford.edu/yy679fr9989/iiif/manifest" }, "geometry": { "type": "Polygon", "coordinates": [ [ [ 122.0, 39.25 ], [ 122.125, 39.25 ], [ 122.125, 39.3333333 ], [ 122.0, 39.3333333 ], [ 122.0, 39.25 ] ] ] } },
{ "type": "Feature", "properties": { "Id": 0, "Sheet_ID": "12號. 臥龍屯", "label": "12號. 臥龍屯", "call_short": "G7824 .D3 S25 .J37", "call_num": "G7824 .D3 S25 .J37 SHEET 12", "recid": "vx703vq6927", "websiteUrl": "https://purl.stanford.edu/vx703vq6927", "title": "二万五千分一地形圖 貔子窝及普蘭店近傍", "ckey": 13901784, "available": true, "iiifUrl": "https://purl.stanford.edu/vx703vq6927/iiif/manifest" }, "geometry": { "type": "Polygon", "coordinates": [ [ [ 122.125, 39.25 ], [ 122.25, 39.25 ], [ 122.25, 39.3333333 ], [ 122.125, 39.3333333 ], [ 122.125, 39.25 ] ] ] } },
{ "type": "Feature", "properties": { "Id": 0, "Sheet_ID": "9號. 黒嶋", "label": "9號. 黒嶋", "call_short": "G7824 .D3 S25 .J37", "call_num": "G7824 .D3 S25 .J37 SHEET 9", "recid": "jp845rb7204", "websiteUrl": "https://purl.stanford.edu/jp845rb7204", "title": "二万五千分一地形圖 貔子窝及普蘭店近傍", "ckey": 13901784, "available": true, "iiifUrl": "https://purl.stanford.edu/jp845rb7204/iiif/manifest" }, "geometry": { "type": "Polygon", "coordinates": [ [ [ 122.25, 39.25 ], [ 122.375, 39.25 ], [ 122.375, 39.3333333 ], [ 122.25, 39.3333333 ], [ 122.25, 39.25 ] ] ] } },
{ "type": "Feature", "properties": { "Id": 0, "Sheet_ID": "29號. 西中嶋南部", "label": "29號. 西中嶋南部", "call_short": null, "call_num": null, "recid": null, "websiteUrl": null, "title": null, "ckey": 0, "available": false, "iiifUrl": null }, "geometry": { "type": "Polygon", "coordinates": [ [ [ 121.25, 39.3333333 ], [ 121.375, 39.3333333 ], [ 121.375, 39.4166665 ], [ 121.25, 39.4166665 ], [ 121.25, 39.3333333 ] ] ] } },
{ "type": "Feature", "properties": { "Id": 0, "Sheet_ID": "27號. 鳳鳴嶋", "label": "27號. 鳳鳴嶋", "call_short": null, "call_num": null, "recid": null, "websiteUrl": null, "title": null, "ckey": 0, "available": false, "iiifUrl": null }, "geometry": { "type": "Polygon", "coordinates": [ [ [ 121.375, 39.3333333 ], [ 121.5, 39.3333333 ], [ 121.5, 39.4166665 ], [ 121.375, 39.4166665 ], [ 121.375, 39.3333333 ] ] ] } },
{ "type": "Feature", "properties": { "Id": 0, "Sheet_ID": "23號. 後三道灣", "label": "23號. 後三道灣", "call_short": null, "call_num": null, "recid": null, "websiteUrl": null, "title": null, "ckey": 0, "available": false, "iiifUrl": null }, "geometry": { "type": "Polygon", "coordinates": [ [ [ 121.625, 39.3333333 ], [ 121.75, 39.3333333 ], [ 121.75, 39.4166665 ], [ 121.625, 39.4166665 ], [ 121.625, 39.3333333 ] ] ] } },
{ "type": "Feature", "properties": { "Id": 0, "Sheet_ID": "21號. 石河馹", "label": "21號. 石河馹", "call_short": null, "call_num": null, "recid": null, "websiteUrl": null, "title": null, "ckey": 0, "available": false, "iiifUrl": null }, "geometry": { "type": "Polygon", "coordinates": [ [ [ 121.75, 39.3333333 ], [ 121.875, 39.3333333 ], [ 121.875, 39.4166665 ], [ 121.75, 39.4166665 ], [ 121.75, 39.3333333 ] ] ] } },
{ "type": "Feature", "properties": { "Id": 0, "Sheet_ID": "19號. 普蘭店", "label": "19號. 普蘭店", "call_short": null, "call_num": null, "recid": null, "websiteUrl": null, "title": null, "ckey": 0, "available": false, "iiifUrl": null }, "geometry": { "type": "Polygon", "coordinates": [ [ [ 121.875, 39.3333333 ], [ 122.0, 39.3333333 ], [ 122.0, 39.4166665 ], [ 121.875, 39.4166665 ], [ 121.875, 39.3333333 ] ] ] } },
{ "type": "Feature", "properties": { "Id": 0, "Sheet_ID": "15號. 鍋頂山", "label": "15號. 鍋頂山", "call_short": "G7824 .D3 S25 .J37", "call_num": "G7824 .D3 S25 .J37 SHEET 15", "recid": "cy624hw7405", "websiteUrl": "https://purl.stanford.edu/cy624hw7405", "title": "二万五千分一地形圖 貔子窝及普蘭店近傍", "ckey": 13901784, "available": true, "iiifUrl": "https://purl.stanford.edu/cy624hw7405/iiif/manifest" }, "geometry": { "type": "Polygon", "coordinates": [ [ [ 122.0, 39.3333333 ], [ 122.125, 39.3333333 ], [ 122.125, 39.4166665 ], [ 122.0, 39.4166665 ], [ 122.0, 39.3333333 ] ] ] } },
{ "type": "Feature", "properties": { "Id": 0, "Sheet_ID": "11號. 唐家房", "label": "11號. 唐家房", "call_short": "G7824 .D3 S25 .J37", "call_num": "G7824 .D3 S25 .J37 SHEET 11", "recid": "vb411xj1291", "websiteUrl": "https://purl.stanford.edu/vb411xj1291", "title": "二万五千分一地形圖 貔子窝及普蘭店近傍", "ckey": 13901784, "available": true, "iiifUrl": "https://purl.stanford.edu/vb411xj1291/iiif/manifest" }, "geometry": { "type": "Polygon", "coordinates": [ [ [ 122.125, 39.3333333 ], [ 122.25, 39.3333333 ], [ 122.25, 39.4166665 ], [ 122.125, 39.4166665 ], [ 122.125, 39.3333333 ] ] ] } },
{ "type": "Feature", "properties": { "Id": 0, "Sheet_ID": "8號. 貔子窩", "label": "8號. 貔子窩", "call_short": "G7824 .D3 S25 .J37", "call_num": "G7824 .D3 S25 .J37 SHEET 8", "recid": "my620fq6676", "websiteUrl": "https://purl.stanford.edu/my620fq6676", "title": "二万五千分一地形圖 貔子窝及普蘭店近傍", "ckey": 13901784, "available": true, "iiifUrl": "https://purl.stanford.edu/my620fq6676/iiif/manifest" }, "geometry": { "type": "Polygon", "coordinates": [ [ [ 122.25, 39.3333333 ], [ 122.375, 39.3333333 ], [ 122.375, 39.4166665 ], [ 122.25, 39.4166665 ], [ 122.25, 39.3333333 ] ] ] } },
{ "type": "Feature", "properties": { "Id": 0, "Sheet_ID": "5號. 螞蟻嶋", "label": "5號. 螞蟻嶋", "call_short": null, "call_num": null, "recid": null, "websiteUrl": null, "title": null, "ckey": 0, "available": false, "iiifUrl": null }, "geometry": { "type": "Polygon", "coordinates": [ [ [ 122.375, 39.3333333 ], [ 122.5, 39.3333333 ], [ 122.5, 39.4166665 ], [ 122.375, 39.4166665 ], [ 122.375, 39.3333333 ] ] ] } },
{ "type": "Feature", "properties": { "Id": 0, "Sheet_ID": "28號. 西中嶋", "label": "28號. 西中嶋", "call_short": null, "call_num": null, "recid": null, "websiteUrl": null, "title": null, "ckey": 0, "available": false, "iiifUrl": null }, "geometry": { "type": "Polygon", "coordinates": [ [ [ 121.25, 39.4166665 ], [ 121.375, 39.4166665 ], [ 121.375, 39.4999998 ], [ 121.25, 39.4999998 ], [ 121.25, 39.4166665 ] ] ] } },
{ "type": "Feature", "properties": { "Id": 0, "Sheet_ID": "26號. 交流嶋", "label": "26號. 交流嶋", "call_short": null, "call_num": null, "recid": null, "websiteUrl": null, "title": null, "ckey": 0, "available": false, "iiifUrl": null }, "geometry": { "type": "Polygon", "coordinates": [ [ [ 121.375, 39.4166665 ], [ 121.5, 39.4166665 ], [ 121.5, 39.4999998 ], [ 121.375, 39.4999998 ], [ 121.375, 39.4166665 ] ] ] } },
{ "type": "Feature", "properties": { "Id": 0, "Sheet_ID": "18號. 快馬厰", "label": "18號. 快馬厰", "call_short": null, "call_num": null, "recid": null, "websiteUrl": null, "title": null, "ckey": 0, "available": false, "iiifUrl": null }, "geometry": { "type": "Polygon", "coordinates": [ [ [ 121.875, 39.4166665 ], [ 122.0, 39.4166665 ], [ 122.0, 39.4999998 ], [ 121.875, 39.4999998 ], [ 121.875, 39.4166665 ] ] ] } },
{ "type": "Feature", "properties": { "Id": 0, "Sheet_ID": "14號. 長山寺", "label": "14號. 長山寺", "call_short": null, "call_num": null, "recid": null, "websiteUrl": null, "title": null, "ckey": 0, "available": false, "iiifUrl": null }, "geometry": { "type": "Polygon", "coordinates": [ [ [ 122.0, 39.4166665 ], [ 122.125, 39.4166665 ], [ 122.125, 39.4999998 ], [ 122.0, 39.4999998 ], [ 122.0, 39.4166665 ] ] ] } },
{ "type": "Feature", "properties": { "Id": 0, "Sheet_ID": "10號. 夾河廟", "label": "10號. 夾河廟", "call_short": null, "call_num": null, "recid": null, "websiteUrl": null, "title": null, "ckey": 0, "available": false, "iiifUrl": null }, "geometry": { "type": "Polygon", "coordinates": [ [ [ 122.125, 39.4166665 ], [ 122.25, 39.4166665 ], [ 122.25, 39.4999998 ], [ 122.125, 39.4999998 ], [ 122.125, 39.4166665 ] ] ] } },
{ "type": "Feature", "properties": { "Id": 0, "Sheet_ID": "7號. 賛子河", "label": "7號. 賛子河", "call_short": null, "call_num": null, "recid": null, "websiteUrl": null, "title": null, "ckey": 0, "available": false, "iiifUrl": null }, "geometry": { "type": "Polygon", "coordinates": [ [ [ 122.25, 39.4166665 ], [ 122.375, 39.4166665 ], [ 122.375, 39.4999998 ], [ 122.25, 39.4999998 ], [ 122.25, 39.4166665 ] ] ] } },
{ "type": "Feature", "properties": { "Id": 0, "Sheet_ID": "4號. 東老灘", "label": "4號. 東老灘", "call_short": null, "call_num": null, "recid": null, "websiteUrl": null, "title": null, "ckey": 0, "available": false, "iiifUrl": null }, "geometry": { "type": "Polygon", "coordinates": [ [ [ 122.375, 39.4166665 ], [ 122.5, 39.4166665 ], [ 122.5, 39.4999998 ], [ 122.375, 39.4999998 ], [ 122.375, 39.4166665 ] ] ] } },
{ "type": "Feature", "properties": { "Id": 0, "Sheet_ID": "2號. 碧流河", "label": "2號. 碧流河", "call_short": null, "call_num": null, "recid": null, "websiteUrl": null, "title": null, "ckey": 0, "available": false, "iiifUrl": null }, "geometry": { "type": "Polygon", "coordinates": [ [ [ 122.5, 39.4166665 ], [ 122.625, 39.4166665 ], [ 122.625, 39.4999998 ], [ 122.5, 39.4999998 ], [ 122.5, 39.4166665 ] ] ] } },
{ "type": "Feature", "properties": { "Id": 0, "Sheet_ID": "17號. 呉家屯", "label": "17號. 呉家屯", "call_short": null, "call_num": null, "recid": null, "websiteUrl": null, "title": null, "ckey": 0, "available": false, "iiifUrl": null }, "geometry": { "type": "Polygon", "coordinates": [ [ [ 121.875, 39.4999998 ], [ 122.0, 39.4999998 ], [ 122.0, 39.583333 ], [ 121.875, 39.583333 ], [ 121.875, 39.4999998 ] ] ] } },
{ "type": "Feature", "properties": { "Id": 0, "Sheet_ID": "13號. 朝陽寺", "label": "13號. 朝陽寺", "call_short": null, "call_num": null, "recid": null, "websiteUrl": null, "title": null, "ckey": 0, "available": false, "iiifUrl": null }, "geometry": { "type": "Polygon", "coordinates": [ [ [ 122.0, 39.4999998 ], [ 122.125, 39.4999998 ], [ 122.125, 39.583333 ], [ 122.0, 39.583333 ], [ 122.0, 39.4999998 ] ] ] } },
{ "type": "Feature", "properties": { "Id": 0, "Sheet_ID": "6號. 後趙家屯", "label": "6號. 後趙家屯", "call_short": null, "call_num": null, "recid": null, "websiteUrl": null, "title": null, "ckey": 0, "available": false, "iiifUrl": null }, "geometry": { "type": "Polygon", "coordinates": [ [ [ 122.25, 39.4999998 ], [ 122.375, 39.4999998 ], [ 122.375, 39.583333 ], [ 122.25, 39.583333 ], [ 122.25, 39.4999998 ] ] ] } },
{ "type": "Feature", "properties": { "Id": 0, "Sheet_ID": "3號. 城子疃", "label": "3號. 城子疃", "call_short": null, "call_num": null, "recid": null, "websiteUrl": null, "title": null, "ckey": 0, "available": false, "iiifUrl": null }, "geometry": { "type": "Polygon", "coordinates": [ [ [ 122.375, 39.4999998 ], [ 122.5, 39.4999998 ], [ 122.5, 39.583333 ], [ 122.375, 39.583333 ], [ 122.375, 39.4999998 ] ] ] } },
{ "type": "Feature", "properties": { "Id": 0, "Sheet_ID": "1號. 小花山屯", "label": "1號. 小花山屯", "call_short": null, "call_num": null, "recid": null, "websiteUrl": null, "title": null, "ckey": 0, "available": false, "iiifUrl": null }, "geometry": { "type": "Polygon", "coordinates": [ [ [ 122.5, 39.4999998 ], [ 122.625, 39.4999998 ], [ 122.625, 39.583333 ], [ 122.5, 39.583333 ], [ 122.5, 39.4999998 ] ] ] } }
]
}
