{"type":"FeatureCollection","features":[{"type":"Feature","properties":{"Id":0,"Sheet_ID":"ダウビヘ河谷 8","label":"ダウビヘ河谷 8","call_short":"G7270 S25 .J3","call_num":"G7270 S25 .J3 D-8","recid":"vy498jg7699","websiteUrl":"https://purl.stanford.edu/vy498jg7699","title":"西伯利二万五千分一圖","ckey":8799914,"web_map":"","available":"true","iiifUrl":"https://purl.stanford.edu/vy498jg7699/iiif/manifest"},"geometry":{"bbox":[132.85000000000025,43.800000000000125,133.12500000000003,43.93333300000006],"type":"Polygon","coordinates":[[[132.85000000000025,43.800000000000125],[132.85000000000025,43.93333300000006],[133.12500000000003,43.93333300000006],[133.12500000000003,43.800000000000125],[132.85000000000025,43.800000000000125]]]}},{"type":"Feature","properties":{"Id":0,"Sheet_ID":"ダウビヘ河谷 7","label":"ダウビヘ河谷 7","call_short":"G7270 S25 .J3","call_num":"G7270 S25 .J3 D-7","recid":"nz997vw9801","websiteUrl":"https://purl.stanford.edu/nz997vw9801","title":"西伯利二万五千分一圖","ckey":8799914,"web_map":"","available":"true","iiifUrl":"https://purl.stanford.edu/nz997vw9801/iiif/manifest"},"geometry":{"bbox":[132.95000000000005,43.93333300000006,133.22500000000014,44.06666700000011],"type":"Polygon","coordinates":[[[132.95000000000005,43.93333300000006],[132.95000000000005,44.06666700000011],[133.22500000000014,44.06666700000011],[133.22500000000014,43.93333300000006],[132.95000000000005,43.93333300000006]]]}},{"type":"Feature","properties":{"Id":0,"Sheet_ID":"ダウビヘ河谷 6","label":"ダウビヘ河谷 6","call_short":"G7270 S25 .J3","call_num":"G7270 S25 .J3 D-6","recid":"xb090mg8076","websiteUrl":"https://purl.stanford.edu/xb090mg8076","title":"西伯利二万五千分一圖","ckey":8799914,"web_map":"","available":"true","iiifUrl":"https://purl.stanford.edu/xb090mg8076/iiif/manifest"},"geometry":{"bbox":[133.10000000000002,44.06666700000011,133.3750000000001,44.2000000000001],"type":"Polygon","coordinates":[[[133.10000000000002,44.06666700000011],[133.10000000000002,44.2000000000001],[133.3750000000001,44.2000000000001],[133.3750000000001,44.06666700000011],[133.10000000000002,44.06666700000011]]]}},{"type":"Feature","properties":{"Id":0,"Sheet_ID":"ダウビヘ河谷 5","label":"ダウビヘ河谷 5","call_short":"G7270 S25 .J3","call_num":"G7270 S25 .J3 D-5","recid":"br455qp7186","websiteUrl":"https://purl.stanford.edu/br455qp7186","title":"西伯利二万五千分一圖","ckey":8799914,"web_map":"","available":"true","iiifUrl":"https://purl.stanford.edu/br455qp7186/iiif/manifest"},"geometry":{"bbox":[133.22500000000014,44.2000000000001,133.5,44.33333300000004],"type":"Polygon","coordinates":[[[133.22500000000014,44.2000000000001],[133.22500000000014,44.33333300000004],[133.5,44.33333300000004],[133.5,44.2000000000001],[133.22500000000014,44.2000000000001]]]}},{"type":"Feature","properties":{"Id":0,"Sheet_ID":"ダウビヘ河谷 4","label":"ダウビヘ河谷 4","call_short":"G7270 S25 .J3","call_num":"G7270 S25 .J3 D-4","recid":"yb833db2514","websiteUrl":"https://purl.stanford.edu/yb833db2514","title":"西伯利二万五千分一圖","ckey":8799914,"web_map":"","available":"true","iiifUrl":"https://purl.stanford.edu/yb833db2514/iiif/manifest"},"geometry":{"bbox":[133.35000000000002,44.33333300000004,133.53333299999997,44.533332999999914],"type":"Polygon","coordinates":[[[133.35000000000002,44.33333300000004],[133.35000000000002,44.533332999999914],[133.53333299999997,44.533332999999914],[133.53333299999997,44.33333300000004],[133.35000000000002,44.33333300000004]]]}},{"type":"Feature","properties":{"Id":0,"Sheet_ID":"ダウビヘ河谷 3","label":"ダウビヘ河谷 3","call_short":"G7270 S25 .J3","call_num":"G7270 S25 .J3 D-3","recid":"yf592rv8502","websiteUrl":"https://purl.stanford.edu/yf592rv8502","title":"西伯利二万五千分一圖","ckey":8799914,"web_map":"","available":"true","iiifUrl":"https://purl.stanford.edu/yf592rv8502/iiif/manifest"},"geometry":{"bbox":[133.4000000000001,44.533332999999914,133.67499999999995,44.66666700000013],"type":"Polygon","coordinates":[[[133.4000000000001,44.533332999999914],[133.4000000000001,44.66666700000013],[133.67499999999995,44.66666700000013],[133.67499999999995,44.533332999999914],[133.4000000000001,44.533332999999914]]]}},{"type":"Feature","properties":{"Id":0,"Sheet_ID":"ダウビヘ河谷 2","label":"ダウビヘ河谷 2","call_short":"G7270 S25 .J3","call_num":"G7270 S25 .J3 D-2","recid":"vh482gt4525","websiteUrl":"https://purl.stanford.edu/vh482gt4525","title":"西伯利二万五千分一圖","ckey":8799914,"web_map":"","available":"true","iiifUrl":"https://purl.stanford.edu/vh482gt4525/iiif/manifest"},"geometry":{"bbox":[133.5,44.66666700000013,133.7750000000001,44.800000000000125],"type":"Polygon","coordinates":[[[133.5,44.66666700000013],[133.5,44.800000000000125],[133.7750000000001,44.800000000000125],[133.7750000000001,44.66666700000013],[133.5,44.66666700000013]]]}},{"type":"Feature","properties":{"Id":0,"Sheet_ID":"ダウビヘ河谷 1","label":"ダウビヘ河谷 1","call_short":"G7270 S25 .J3","call_num":"G7270 S25 .J3 D-1","recid":"tq060gm2662","websiteUrl":"https://purl.stanford.edu/tq060gm2662","title":"西伯利二万五千分一圖","ckey":8799914,"web_map":"","available":"true","iiifUrl":"https://purl.stanford.edu/tq060gm2662/iiif/manifest"},"geometry":{"bbox":[133.5,44.800000000000125,133.7750000000001,44.93333300000006],"type":"Polygon","coordinates":[[[133.5,44.800000000000125],[133.5,44.93333300000006],[133.7750000000001,44.93333300000006],[133.7750000000001,44.800000000000125],[133.5,44.800000000000125]]]}},{"type":"Feature","properties":{"Id":0,"Sheet_ID":"ダウビヘ河谷 9","label":"ダウビヘ河谷 9","call_short":"G7270 S25 .J3","call_num":"G7270 S25 .J3 D-9","recid":"qv342tp9130","websiteUrl":"https://purl.stanford.edu/qv342tp9130","title":"西伯利二万五千分一圖","ckey":8799914,"web_map":"","available":"true","iiifUrl":"https://purl.stanford.edu/qv342tp9130/iiif/manifest"},"geometry":{"bbox":[132.89999999999998,43.60000000000008,133.07500000000005,43.800000000000125],"type":"Polygon","coordinates":[[[132.89999999999998,43.60000000000008],[132.89999999999998,43.800000000000125],[133.07500000000005,43.800000000000125],[133.07500000000005,43.60000000000008],[132.89999999999998,43.60000000000008]]]}},{"type":"Feature","properties":{"Id":0,"Sheet_ID":"ダウビヘ河谷 10","label":"ダウビヘ河谷 10","call_short":"G7270 S25 .J3","call_num":"G7270 S25 .J3 D-10","recid":"nx660hc5758","websiteUrl":"https://purl.stanford.edu/nx660hc5758","title":"西伯利二万五千分一圖","ckey":8799914,"web_map":"","available":"true","iiifUrl":"https://purl.stanford.edu/nx660hc5758/iiif/manifest"},"geometry":{"bbox":[133.07500000000005,43.516666999999984,133.25,43.71666700000003],"type":"Polygon","coordinates":[[[133.25,43.516666999999984],[133.07500000000005,43.516666999999984],[133.07500000000005,43.71666700000003],[133.25,43.71666700000003],[133.25,43.516666999999984]]]}},{"type":"Feature","properties":{"Id":0,"Sheet_ID":"ダウビヘ河谷 11","label":"ダウビヘ河谷 11","call_short":"","call_num":"","recid":"","websiteUrl":"","title":"","ckey":0,"web_map":"","available":"false","iiifUrl":""},"geometry":{"bbox":[132.72500000000002,43.69999999999999,132.89999999999998,43.800000000000125],"type":"Polygon","coordinates":[[[132.72500000000002,43.69999999999999],[132.72500000000002,43.800000000000125],[132.89999999999998,43.800000000000125],[132.89999999999998,43.69999999999999],[132.72500000000002,43.69999999999999]]]}},{"type":"Feature","properties":{"Id":0,"Sheet_ID":"スーチャン河谷 6","label":"スーチャン河谷 6","call_short":"G7270 S25 .J3","call_num":"G7270 S25 .J3 S-6","recid":"ct653mn0917","websiteUrl":"https://purl.stanford.edu/ct653mn0917","title":"西伯利二万五千分一圖","ckey":8799914,"web_map":"","available":"true","iiifUrl":"https://purl.stanford.edu/ct653mn0917/iiif/manifest"},"geometry":{"bbox":[132.95000000000005,42.799999999999955,133.20000000000016,42.93333333333345],"type":"Polygon","coordinates":[[[132.95000000000005,42.799999999999955],[132.95000000000005,42.93333333333345],[133.20000000000016,42.93333333333345],[133.20000000000016,42.799999999999955],[132.95000000000005,42.799999999999955]]]}},{"type":"Feature","properties":{"Id":0,"Sheet_ID":"スーチャン河谷 5","label":"スーチャン河谷 5","call_short":"G7270 S25 .J3","call_num":"G7270 S25 .J3 S-5","recid":"vm950gt6501","websiteUrl":"https://purl.stanford.edu/vm950gt6501","title":"西伯利二万五千分一圖","ckey":8799914,"web_map":"","available":"true","iiifUrl":"https://purl.stanford.edu/vm950gt6501/iiif/manifest"},"geometry":{"bbox":[133.04999999999995,42.93333333333345,133.29999999999995,43.06666666666678],"type":"Polygon","coordinates":[[[133.04999999999995,42.93333333333345],[133.04999999999995,43.06666666666678],[133.29999999999995,43.06666666666678],[133.29999999999995,42.93333333333345],[133.04999999999995,42.93333333333345]]]}},{"type":"Feature","properties":{"Id":0,"Sheet_ID":"スーチャン河谷 4","label":"スーチャン河谷 4","call_short":"G7270 S25 .J3","call_num":"G7270 S25 .J3 S-4","recid":"nm117mz2314","websiteUrl":"https://purl.stanford.edu/nm117mz2314","title":"西伯利二万五千分一圖","ckey":8799914,"web_map":"","available":"true","iiifUrl":"https://purl.stanford.edu/nm117mz2314/iiif/manifest"},"geometry":{"bbox":[133.10000000000002,43.06666666666678,133.35000000000002,43.2000000000001],"type":"Polygon","coordinates":[[[133.10000000000002,43.06666666666678],[133.10000000000002,43.2000000000001],[133.35000000000002,43.2000000000001],[133.35000000000002,43.06666666666678],[133.10000000000002,43.06666666666678]]]}},{"type":"Feature","properties":{"Id":0,"Sheet_ID":"スーチャン河谷 3","label":"スーチャン河谷 3","call_short":"G7270 S25 .J3","call_num":"G7270 S25 .J3 S-3","recid":"sb398gc8711","websiteUrl":"https://purl.stanford.edu/sb398gc8711","title":"西伯利二万五千分一圖","ckey":8799914,"web_map":"","available":"true","iiifUrl":"https://purl.stanford.edu/sb398gc8711/iiif/manifest"},"geometry":{"bbox":[133.1500000000001,43.2000000000001,133.4000000000001,43.33333333333343],"type":"Polygon","coordinates":[[[133.1500000000001,43.2000000000001],[133.1500000000001,43.33333333333343],[133.4000000000001,43.33333333333343],[133.4000000000001,43.2000000000001],[133.1500000000001,43.2000000000001]]]}},{"type":"Feature","properties":{"Id":0,"Sheet_ID":"スーチャン河谷 2","label":"スーチャン河谷 2","call_short":"G7270 S25 .J3","call_num":"G7270 S25 .J3 S-2","recid":"pz134nm5189","websiteUrl":"https://purl.stanford.edu/pz134nm5189","title":"西伯利二万五千分一圖","ckey":8799914,"web_map":"","available":"true","iiifUrl":"https://purl.stanford.edu/pz134nm5189/iiif/manifest"},"geometry":{"bbox":[133.25,43.33333333333334,133.5,43.46666666666667],"type":"Polygon","coordinates":[[[133.25,43.33333333333334],[133.25,43.46666666666667],[133.5,43.46666666666667],[133.5,43.33333333333334],[133.25,43.33333333333334]]]}},{"type":"Feature","properties":{"Id":0,"Sheet_ID":"スーチャン河谷 1","label":"スーチャン河谷 1","call_short":"G7270 S25 .J3","call_num":"G7270 S25 .J3 S-1","recid":"rn240pq4502","websiteUrl":"https://purl.stanford.edu/rn240pq4502","title":"西伯利二万五千分一圖","ckey":8799914,"web_map":"","available":"true","iiifUrl":"https://purl.stanford.edu/rn240pq4502/iiif/manifest"},"geometry":{"bbox":[133.25,43.46666666666667,133.5,43.6],"type":"Polygon","coordinates":[[[133.25,43.46666666666667],[133.25,43.6],[133.5,43.6],[133.5,43.46666666666667],[133.25,43.46666666666667]]]}},{"type":"Feature","properties":{"Id":0,"Sheet_ID":"スーチャン河谷 7","label":"スーチャン河谷 7","call_short":"","call_num":"","recid":"","websiteUrl":"","title":"","ckey":0,"web_map":"","available":"false","iiifUrl":""},"geometry":{"bbox":[132.991667,42.66666700000002,133.158333,42.799999999999955],"type":"Polygon","coordinates":[[[132.991667,42.66666700000002],[132.991667,42.799999999999955],[133.158333,42.799999999999955],[133.158333,42.66666700000002],[132.991667,42.66666700000002]]]}},{"type":"Feature","properties":{"Id":0,"Sheet_ID":"極東鉄道沿線 (ウォロシーロフ - ロマノーフカ間) 2","label":"極東鉄道沿線 (ウォロシーロフ - ロマノーフカ間) 2","call_short":"G7270 S25 .J3","call_num":"G7270 S25 .J3 W-2","recid":"dy903vp1833","websiteUrl":"https://purl.stanford.edu/dy903vp1833","title":"西伯利二万五千分一圖","ckey":8799914,"web_map":"","available":"true","iiifUrl":"https://purl.stanford.edu/dy903vp1833/iiif/manifest"},"geometry":{"bbox":[131.875,43.26666700000004,132.04999999999995,43.46666700000009],"type":"Polygon","coordinates":[[[131.875,43.26666700000004],[131.875,43.46666700000009],[132.04999999999995,43.46666700000009],[132.04999999999995,43.26666700000004],[131.875,43.26666700000004]]]}},{"type":"Feature","properties":{"Id":0,"Sheet_ID":"極東鉄道沿線 (ウォロシーロフ - ロマノーフカ間) 1","label":"極東鉄道沿線 (ウォロシーロフ - ロマノーフカ間) 1","call_short":"G7270 S25 .J3","call_num":"G7270 S25 .J3 W-1","recid":"wh250sx7957","websiteUrl":"https://purl.stanford.edu/wh250sx7957","title":"西伯利二万五千分一圖","ckey":8799914,"web_map":"","available":"true","iiifUrl":"https://purl.stanford.edu/wh250sx7957/iiif/manifest"},"geometry":{"bbox":[131.875,43.46666700000009,132.04999999999995,43.66666700000002],"type":"Polygon","coordinates":[[[131.875,43.46666700000009],[131.875,43.66666700000002],[132.04999999999995,43.66666700000002],[132.04999999999995,43.46666700000009],[131.875,43.46666700000009]]]}},{"type":"Feature","properties":{"Id":0,"Sheet_ID":"極東鉄道沿線 (ウォロシーロフ - ロマノーフカ間) 6","label":"極東鉄道沿線 (ウォロシーロフ - ロマノーフカ間) 6","call_short":"G7270 S25 .J3","call_num":"G7270 S25 .J3 W-6","recid":"kf848bp4190","websiteUrl":"https://purl.stanford.edu/kf848bp4190","title":"西伯利二万五千分一圖","ckey":8799914,"web_map":"","available":"true","iiifUrl":"https://purl.stanford.edu/kf848bp4190/iiif/manifest"},"geometry":{"bbox":[132.3,43.066667,132.47500000000002,43.266667],"type":"Polygon","coordinates":[[[132.3,43.066667],[132.3,43.266667],[132.47500000000002,43.266667],[132.47500000000002,43.066667],[132.3,43.066667]]]}},{"type":"Feature","properties":{"Id":0,"Sheet_ID":"極東鉄道沿線 (ウォロシーロフ - ロマノーフカ間) 7","label":"極東鉄道沿線 (ウォロシーロフ - ロマノーフカ間) 7","call_short":"G7270 S25 .J3","call_num":"G7270 S25 .J3 W-7","recid":"zj758jw8872","websiteUrl":"https://purl.stanford.edu/zj758jw8872","title":"西伯利二万五千分一圖","ckey":8799914,"web_map":"","available":"true","iiifUrl":"https://purl.stanford.edu/zj758jw8872/iiif/manifest"},"geometry":{"bbox":[132.47500000000002,43.066667,132.65000000000003,43.266667],"type":"Polygon","coordinates":[[[132.47500000000002,43.066667],[132.47500000000002,43.266667],[132.65000000000003,43.266667],[132.65000000000003,43.066667],[132.47500000000002,43.066667]]]}},{"type":"Feature","properties":{"Id":0,"Sheet_ID":"極東鉄道沿線 (ウォロシーロフ - ロマノーフカ間) 5","label":"極東鉄道沿線 (ウォロシーロフ - ロマノーフカ間) 5","call_short":"G7270 S25 .J3","call_num":"G7270 S25 .J3 W-5","recid":"jr582qw4663","websiteUrl":"https://purl.stanford.edu/jr582qw4663","title":"西伯利二万五千分一圖","ckey":8799914,"web_map":"","available":"true","iiifUrl":"https://purl.stanford.edu/jr582qw4663/iiif/manifest"},"geometry":{"bbox":[132.3,43.266667,132.47500000000002,43.466667],"type":"Polygon","coordinates":[[[132.3,43.266667],[132.3,43.466667],[132.47500000000002,43.466667],[132.47500000000002,43.266667],[132.3,43.266667]]]}},{"type":"Feature","properties":{"Id":0,"Sheet_ID":"極東鉄道沿線 (ウォロシーロフ - ロマノーフカ間) 4","label":"極東鉄道沿線 (ウォロシーロフ - ロマノーフカ間) 4","call_short":"G7270 S25 .J3","call_num":"G7270 S25 .J3 W-4","recid":"ff262nj9942","websiteUrl":"https://purl.stanford.edu/ff262nj9942","title":"西伯利二万五千分一圖","ckey":8799914,"web_map":"","available":"true","iiifUrl":"https://purl.stanford.edu/ff262nj9942/iiif/manifest"},"geometry":{"bbox":[132.05,43.2,132.3,43.3333335],"type":"Polygon","coordinates":[[[132.05,43.2],[132.05,43.3333335],[132.3,43.3333335],[132.3,43.2],[132.05,43.2]]]}},{"type":"Feature","properties":{"Id":0,"Sheet_ID":"極東鉄道沿線 (ウォロシーロフ - ロマノーフカ間) 3","label":"極東鉄道沿線 (ウォロシーロフ - ロマノーフカ間) 3","call_short":"G7270 S25 .J3","call_num":"G7270 S25 .J3 W-3","recid":"qq260cq6065","websiteUrl":"https://purl.stanford.edu/qq260cq6065","title":"西伯利二万五千分一圖","ckey":8799914,"web_map":"","available":"true","iiifUrl":"https://purl.stanford.edu/qq260cq6065/iiif/manifest"},"geometry":{"bbox":[132.05,43.3333335,132.3,43.466667],"type":"Polygon","coordinates":[[[132.05,43.3333335],[132.05,43.466667],[132.3,43.466667],[132.3,43.3333335],[132.05,43.3333335]]]}},{"type":"Feature","properties":{"Id":0,"Sheet_ID":"浦潮近傍 2","label":"浦潮近傍 2","call_short":"G7270 S25 .J3","call_num":"G7270 S25 .J3 U-2","recid":"sf577md8916","websiteUrl":"https://purl.stanford.edu/sf577md8916","title":"西伯利二万五千分一圖","ckey":8799914,"web_map":"","available":"true","iiifUrl":"https://purl.stanford.edu/sf577md8916/iiif/manifest"},"geometry":{"bbox":[131.825,43.066667,132,43.266667],"type":"Polygon","coordinates":[[[131.825,43.066667],[131.825,43.266667],[132,43.266667],[132,43.066667],[131.825,43.066667]]]}},{"type":"Feature","properties":{"Id":0,"Sheet_ID":"浦潮近傍 1","label":"浦潮近傍 1","call_short":"G7270 S25 .J3","call_num":"G7270 S25 .J3 U-1","recid":"xc060xt0622","websiteUrl":"https://purl.stanford.edu/xc060xt0622","title":"西伯利二万五千分一圖","ckey":8799914,"web_map":"","available":"true","iiifUrl":"https://purl.stanford.edu/xc060xt0622/iiif/manifest"},"geometry":{"bbox":[132,43.066667,132.175,43.266667],"type":"Polygon","coordinates":[[[132,43.066667],[132,43.266667],[132.175,43.266667],[132.175,43.066667],[132,43.066667]]]}},{"type":"Feature","properties":{"Id":0,"Sheet_ID":"浦潮近傍 3","label":"浦潮近傍 3","call_short":"G7270 S25 .J3","call_num":"G7270 S25 .J3 U-3","recid":"gs103bn1666","websiteUrl":"https://purl.stanford.edu/gs103bn1666","title":"西伯利二万五千分一圖","ckey":8799914,"web_map":"","available":"true","iiifUrl":"https://purl.stanford.edu/gs103bn1666/iiif/manifest"},"geometry":{"bbox":[131.55,43.066667,131.825,43.2],"type":"Polygon","coordinates":[[[131.55,43.066667],[131.55,43.2],[131.825,43.2],[131.825,43.066667],[131.55,43.066667]]]}},{"type":"Feature","properties":{"Id":0,"Sheet_ID":"浦潮近傍 4","label":"浦潮近傍 4","call_short":"G7270 S25 .J3","call_num":"G7270 S25 .J3 U-4","recid":"xd328zs1712","websiteUrl":"https://purl.stanford.edu/xd328zs1712","title":"西伯利二万五千分一圖","ckey":8799914,"web_map":"","available":"true","iiifUrl":"https://purl.stanford.edu/xd328zs1712/iiif/manifest"},"geometry":{"bbox":[131.5,43.2000000000001,131.7750000000001,43.33333300000004],"type":"Polygon","coordinates":[[[131.5,43.2000000000001],[131.5,43.33333300000004],[131.7750000000001,43.33333300000004],[131.7750000000001,43.2000000000001],[131.5,43.2000000000001]]]}},{"type":"Feature","properties":{"Id":0,"Sheet_ID":"極東鐡道沿線 (プロハスコ - ウォロシーロフ間) 4","label":"極東鐡道沿線 (プロハスコ - ウォロシーロフ間) 4","call_short":"G7270 S25 .J3","call_num":"G7270 S25 .J3 P-4","recid":"yp137gg0953","websiteUrl":"https://purl.stanford.edu/yp137gg0953","title":"東「ソ」二万五千分一圖","ckey":8799914,"web_map":"","available":"true","iiifUrl":"https://purl.stanford.edu/yp137gg0953/iiif/manifest"},"geometry":{"bbox":[133.20000000000016,45.133332999999936,133.47500000000002,45.26666649999993],"type":"Polygon","coordinates":[[[133.20000000000016,45.133332999999936],[133.20000000000016,45.26666649999993],[133.47500000000002,45.26666649999993],[133.47500000000002,45.133332999999936],[133.20000000000016,45.133332999999936]]]}},{"type":"Feature","properties":{"Id":0,"Sheet_ID":"極東鐡道沿線 (プロハスコ - ウォロシーロフ間) 3","label":"極東鐡道沿線 (プロハスコ - ウォロシーロフ間) 3","call_short":"G7270 S25 .J3","call_num":"G7270 S25 .J3 P-3","recid":"nz836xf6939","websiteUrl":"https://purl.stanford.edu/nz836xf6939","title":"東「ソ」二万五千分一圖","ckey":8799914,"web_map":"","available":"true","iiifUrl":"https://purl.stanford.edu/nz836xf6939/iiif/manifest"},"geometry":{"bbox":[133.28333300000008,45.26666649999993,133.55833299999995,45.39999999999998],"type":"Polygon","coordinates":[[[133.28333300000008,45.26666649999993],[133.28333300000008,45.39999999999998],[133.55833299999995,45.39999999999998],[133.55833299999995,45.26666649999993],[133.28333300000008,45.26666649999993]]]}},{"type":"Feature","properties":{"Id":0,"Sheet_ID":"極東鐡道沿線 (プロハスコ - ウォロシーロフ間) 2","label":"極東鐡道沿線 (プロハスコ - ウォロシーロフ間) 2","call_short":"G7270 S25 .J3","call_num":"G7270 S25 .J3 P-2","recid":"xp798kv7501","websiteUrl":"https://purl.stanford.edu/xp798kv7501","title":"東「ソ」二万五千分一圖","ckey":8799914,"web_map":"","available":"true","iiifUrl":"https://purl.stanford.edu/xp798kv7501/iiif/manifest"},"geometry":{"bbox":[133.366667,45.39999999999998,133.6416670000001,45.53333350000014],"type":"Polygon","coordinates":[[[133.366667,45.39999999999998],[133.366667,45.53333350000014],[133.6416670000001,45.53333350000014],[133.6416670000001,45.39999999999998],[133.366667,45.39999999999998]]]}},{"type":"Feature","properties":{"Id":0,"Sheet_ID":"極東鐡道沿線 (プロハスコ - ウォロシーロフ間) 1","label":"極東鐡道沿線 (プロハスコ - ウォロシーロフ間) 1","call_short":"G7270 S25 .J3","call_num":"G7270 S25 .J3 P-1","recid":"hy354wf4732","websiteUrl":"https://purl.stanford.edu/hy354wf4732","title":"西伯利二万五千分一圖","ckey":8799914,"web_map":"","available":"true","iiifUrl":"https://purl.stanford.edu/hy354wf4732/iiif/manifest"},"geometry":{"bbox":[133.45,45.5333335,133.725,45.666667],"type":"Polygon","coordinates":[[[133.45,45.5333335],[133.45,45.666667],[133.725,45.666667],[133.725,45.5333335],[133.45,45.5333335]]]}},{"type":"Feature","properties":{"Id":0,"Sheet_ID":"極東鐡道沿線 (プロハスコ - ウォロシーロフ間) 14","label":"極東鐡道沿線 (プロハスコ - ウォロシーロフ間) 14","call_short":"G7270 S25 .J3","call_num":"G7270 S25 .J3 P-14","recid":"jm887wc4895","websiteUrl":"https://purl.stanford.edu/jm887wc4895","title":"西伯利二万五千分一圖","ckey":8799914,"web_map":"","available":"true","iiifUrl":"https://purl.stanford.edu/jm887wc4895/iiif/manifest"},"geometry":{"bbox":[132.17500000000007,44,132.43333300000006,44.13333328571434],"type":"Polygon","coordinates":[[[132.17500000000007,44],[132.17500000000007,44.13333328571434],[132.43333300000006,44.13333328571434],[132.43333300000006,44],[132.17500000000007,44]]]}},{"type":"Feature","properties":{"Id":0,"Sheet_ID":"極東鐡道沿線 (プロハスコ - ウォロシーロフ間) 13","label":"極東鐡道沿線 (プロハスコ - ウォロシーロフ間) 13","call_short":"G7270 S25 .J3","call_num":"G7270 S25 .J3 P-13","recid":"sc833nj7254","websiteUrl":"https://purl.stanford.edu/sc833nj7254","title":"西伯利二万五千分一圖","ckey":8799914,"web_map":"","available":"true","iiifUrl":"https://purl.stanford.edu/sc833nj7254/iiif/manifest"},"geometry":{"bbox":[132.27499999999998,44.13333328571434,132.55000000000007,44.266666571428686],"type":"Polygon","coordinates":[[[132.27499999999998,44.13333328571434],[132.27499999999998,44.266666571428686],[132.55000000000007,44.266666571428686],[132.55000000000007,44.13333328571434],[132.27499999999998,44.13333328571434]]]}},{"type":"Feature","properties":{"Id":0,"Sheet_ID":"極東鐡道沿線 (プロハスコ - ウォロシーロフ間) 12","label":"極東鐡道沿線 (プロハスコ - ウォロシーロフ間) 12","call_short":"G7270 S25 .J3","call_num":"G7270 S25 .J3 P-12","recid":"hq861px4476","websiteUrl":"https://purl.stanford.edu/hq861px4476","title":"西伯利二万五千分一圖","ckey":8799914,"web_map":"","available":"true","iiifUrl":"https://purl.stanford.edu/hq861px4476/iiif/manifest"},"geometry":{"bbox":[132.4000000000001,44.266666571428686,132.67499999999995,44.39999985714286],"type":"Polygon","coordinates":[[[132.4000000000001,44.266666571428686],[132.4000000000001,44.39999985714286],[132.67499999999995,44.39999985714286],[132.67499999999995,44.266666571428686],[132.4000000000001,44.266666571428686]]]}},{"type":"Feature","properties":{"Id":0,"Sheet_ID":"極東鐡道沿線 (プロハスコ - ウォロシーロフ間) 11","label":"極東鐡道沿線 (プロハスコ - ウォロシーロフ間) 11","call_short":"G7270 S25 .J3","call_num":"G7270 S25 .J3 P-11","recid":"wk620bg7806","websiteUrl":"https://purl.stanford.edu/wk620bg7806","title":"西伯利二万五千分一圖","ckey":8799914,"web_map":"","available":"true","iiifUrl":"https://purl.stanford.edu/wk620bg7806/iiif/manifest"},"geometry":{"bbox":[132.57500000000005,44.39999985714286,132.85000000000014,44.5333331428572],"type":"Polygon","coordinates":[[[132.57500000000005,44.39999985714286],[132.57500000000005,44.5333331428572],[132.85000000000014,44.5333331428572],[132.85000000000014,44.39999985714286],[132.57500000000005,44.39999985714286]]]}},{"type":"Feature","properties":{"Id":0,"Sheet_ID":"極東鐡道沿線 (プロハスコ - ウォロシーロフ間) 10","label":"極東鐡道沿線 (プロハスコ - ウォロシーロフ間) 10","call_short":"G7270 S25 .J3","call_num":"G7270 S25 .J3 P-10","recid":"yb549fr4471","websiteUrl":"https://purl.stanford.edu/yb549fr4471","title":"西伯利二万五千分一圖","ckey":8799914,"web_map":"","available":"true","iiifUrl":"https://purl.stanford.edu/yb549fr4471/iiif/manifest"},"geometry":{"bbox":[132.70000000000005,44.5333331428572,132.97500000000016,44.666666428571546],"type":"Polygon","coordinates":[[[132.70000000000005,44.5333331428572],[132.70000000000005,44.666666428571546],[132.97500000000016,44.666666428571546],[132.97500000000016,44.5333331428572],[132.70000000000005,44.5333331428572]]]}},{"type":"Feature","properties":{"Id":0,"Sheet_ID":"極東鐡道沿線 (プロハスコ - ウォロシーロフ間) 9","label":"極東鐡道沿線 (プロハスコ - ウォロシーロフ間) 9","call_short":"G7270 S25 .J3","call_num":"G7270 S25 .J3 P-9","recid":"bw636fc6504","websiteUrl":"https://purl.stanford.edu/bw636fc6504","title":"西伯利二万五千分一圖","ckey":8799914,"web_map":"","available":"true","iiifUrl":"https://purl.stanford.edu/bw636fc6504/iiif/manifest"},"geometry":{"bbox":[132.875,44.666666428571546,133.1500000000001,44.79999971428572],"type":"Polygon","coordinates":[[[132.875,44.666666428571546],[132.875,44.79999971428572],[133.1500000000001,44.79999971428572],[133.1500000000001,44.666666428571546],[132.875,44.666666428571546]]]}},{"type":"Feature","properties":{"Id":0,"Sheet_ID":"極東鐡道沿線 (プロハスコ - ウォロシーロフ間) 8","label":"極東鐡道沿線 (プロハスコ - ウォロシーロフ間) 8","call_short":"G7270 S25 .J3","call_num":"G7270 S25 .J3 P-8","recid":"vp621ms9698","websiteUrl":"https://purl.stanford.edu/vp621ms9698","title":"西伯利二万五千分一圖","ckey":8799914,"web_map":"","available":"true","iiifUrl":"https://purl.stanford.edu/vp621ms9698/iiif/manifest"},"geometry":{"bbox":[132.95,44.79999971428571,133.225,44.933333],"type":"Polygon","coordinates":[[[132.95,44.79999971428571],[132.95,44.933333],[133.225,44.933333],[133.225,44.79999971428571],[132.95,44.79999971428571]]]}},{"type":"Feature","properties":{"Id":0,"Sheet_ID":"極東鐡道沿線 (プロハスコ - ウォロシーロフ間) 7","label":"極東鐡道沿線 (プロハスコ - ウォロシーロフ間) 7","call_short":"G7270 S25 .J3","call_num":"G7270 S25 .J3 P-7","recid":"sg027ty4140","websiteUrl":"https://purl.stanford.edu/sg027ty4140","title":"西伯利二万五千分一圖","ckey":8799914,"web_map":"","available":"true","iiifUrl":"https://purl.stanford.edu/sg027ty4140/iiif/manifest"},"geometry":{"bbox":[133.22500000000014,44.79999971428572,133.5,44.93333300000006],"type":"Polygon","coordinates":[[[133.22500000000014,44.79999971428572],[133.22500000000014,44.93333300000006],[133.5,44.93333300000006],[133.5,44.79999971428572],[133.22500000000014,44.79999971428572]]]}},{"type":"Feature","properties":{"Id":0,"Sheet_ID":"極東鐡道沿線 (プロハスコ - ウォロシーロフ間) 15","label":"極東鐡道沿線 (プロハスコ - ウォロシーロフ間) 15","call_short":"G7270 S25 .J3","call_num":"G7270 S25 .J3 P-15","recid":"vm224nc5158","websiteUrl":"https://purl.stanford.edu/vm224nc5158","title":"西伯利二万五千分一圖","ckey":8799914,"web_map":"","available":"true","iiifUrl":"https://purl.stanford.edu/vm224nc5158/iiif/manifest"},"geometry":{"bbox":[132.125,43.866667000000064,132.29999999999995,44.06666700000011],"type":"Polygon","coordinates":[[[132.125,43.866667000000064],[132.125,44.06666700000011],[132.29999999999995,44.06666700000011],[132.29999999999995,43.866667000000064],[132.125,43.866667000000064]]]}},{"type":"Feature","properties":{"Id":0,"Sheet_ID":"極東鐡道沿線 (プロハスコ - ウォロシーロフ間) 6","label":"極東鐡道沿線 (プロハスコ - ウォロシーロフ間) 6","call_short":"G7270 S25 .J3","call_num":"G7270 S25 .J3 P-6","recid":"fp220rg9670","websiteUrl":"https://purl.stanford.edu/fp220rg9670","title":"西伯利二万五千分一圖","ckey":8799914,"web_map":"","available":"true","iiifUrl":"https://purl.stanford.edu/fp220rg9670/iiif/manifest"},"geometry":{"bbox":[133.05,44.933333,133.22500000000002,45.133333],"type":"Polygon","coordinates":[[[133.05,44.933333],[133.05,45.133333],[133.22500000000002,45.133333],[133.22500000000002,44.933333],[133.05,44.933333]]]}},{"type":"Feature","properties":{"Id":0,"Sheet_ID":"極東鐡道沿線 (プロハスコ - ウォロシーロフ間) 5","label":"極東鐡道沿線 (プロハスコ - ウォロシーロフ間) 5","call_short":"G7270 S25 .J3","call_num":"G7270 S25 .J3 P-5","recid":"cd673rq3538","websiteUrl":"https://purl.stanford.edu/cd673rq3538","title":"西伯利二万五千分一圖","ckey":8799914,"web_map":"","available":"true","iiifUrl":"https://purl.stanford.edu/cd673rq3538/iiif/manifest"},"geometry":{"bbox":[133.22500000000002,44.933333,133.40000000000003,45.133333],"type":"Polygon","coordinates":[[[133.22500000000002,44.933333],[133.22500000000002,45.133333],[133.40000000000003,45.133333],[133.40000000000003,44.933333],[133.22500000000002,44.933333]]]}}],"name":"index_8799914"}
