{"type":"FeatureCollection","features":[{"type":"Feature","properties":{"Id":0,"Sheet_ID":"35-41. 與那國嶋","label":"35-41. 與那國嶋","call_short":"","call_num":"","recid":"","websiteUrl":"","title":"","ckey":0,"web_map":"","available":"false","iiifUrl":""},"geometry":{"bbox":[122,24.000000000000004,123.00000000000001,24.666666666666668],"type":"Polygon","coordinates":[[[122,24.000000000000004],[122,24.666666666666668],[123.00000000000001,24.666666666666668],[123.00000000000001,24.000000000000004],[122,24.000000000000004]]]}},{"type":"Feature","properties":{"Id":0,"Sheet_ID":"34-41. 西表嶋","label":"34-41. 西表嶋","call_short":"","call_num":"","recid":"","websiteUrl":"","title":"","ckey":0,"web_map":"","available":"false","iiifUrl":""},"geometry":{"bbox":[123.00000000000001,24.000000000000004,124,24.666666666666668],"type":"Polygon","coordinates":[[[123.00000000000001,24.000000000000004],[123.00000000000001,24.666666666666668],[124,24.666666666666668],[124,24.000000000000004],[123.00000000000001,24.000000000000004]]]}},{"type":"Feature","properties":{"Id":0,"Sheet_ID":"33-41. 石垣島","label":"33-41. 石垣島","call_short":"G7960 S200 .J35","call_num":"G7960 S200 .J35 33-41","recid":"mc392mz3120","websiteUrl":"https://purl.stanford.edu/mc392mz3120","title":"[輯製 二十万分一圖]","ckey":10651291,"web_map":"","available":"true","iiifUrl":"https://purl.stanford.edu/mc392mz3120/iiif/manifest"},"geometry":{"bbox":[124,24.000000000000004,125.00000000000001,24.666666666666668],"type":"Polygon","coordinates":[[[124,24.000000000000004],[124,24.666666666666668],[125.00000000000001,24.666666666666668],[125.00000000000001,24.000000000000004],[124,24.000000000000004]]]}},{"type":"Feature","properties":{"Id":0,"Sheet_ID":"16-41. 南硫黄嶋","label":"16-41. 南硫黄嶋","call_short":"","call_num":"","recid":"","websiteUrl":"","title":"","ckey":0,"web_map":"","available":"false","iiifUrl":""},"geometry":{"bbox":[141,24.000000000000004,142,24.666666666666668],"type":"Polygon","coordinates":[[[141,24.000000000000004],[141,24.666666666666668],[142,24.666666666666668],[142,24.000000000000004],[141,24.000000000000004]]]}},{"type":"Feature","properties":{"Id":0,"Sheet_ID":"33-40. 多良間嶋","label":"33-40. 多良間嶋","call_short":"G7960 S200 .J35","call_num":"G7960 S200 .J35 33-40","recid":"vk204yd3933","websiteUrl":"https://purl.stanford.edu/vk204yd3933","title":"[輯製 二十万分一圖]","ckey":10651291,"web_map":"","available":"true","iiifUrl":"https://purl.stanford.edu/vk204yd3933/iiif/manifest"},"geometry":{"bbox":[124,24.666666666666668,125.00000000000001,25.333333333333336],"type":"Polygon","coordinates":[[[124,24.666666666666668],[124,25.333333333333336],[125.00000000000001,25.333333333333336],[125.00000000000001,24.666666666666668],[124,24.666666666666668]]]}},{"type":"Feature","properties":{"Id":0,"Sheet_ID":"32-40. 宮古嶋","label":"32-40. 宮古嶋","call_short":"G7960 S200 .J35","call_num":"G7960 S200 .J35 32-40","recid":"my760wg1349","websiteUrl":"https://purl.stanford.edu/my760wg1349","title":"[輯製 二十万分一圖]","ckey":10651291,"web_map":"","available":"true","iiifUrl":"https://purl.stanford.edu/my760wg1349/iiif/manifest"},"geometry":{"bbox":[125.00000000000001,24.666666666666668,126,25.333333333333336],"type":"Polygon","coordinates":[[[125.00000000000001,24.666666666666668],[125.00000000000001,25.333333333333336],[126,25.333333333333336],[126,24.666666666666668],[125.00000000000001,24.666666666666668]]]}},{"type":"Feature","properties":{"Id":0,"Sheet_ID":"16-40. 硫黄嶋","label":"16-40. 硫黄嶋","call_short":"","call_num":"","recid":"","websiteUrl":"","title":"","ckey":0,"web_map":"","available":"false","iiifUrl":""},"geometry":{"bbox":[141,24.666666666666668,142,25.333333333333336],"type":"Polygon","coordinates":[[[141,24.666666666666668],[141,25.333333333333336],[142,25.333333333333336],[142,24.666666666666668],[141,24.666666666666668]]]}},{"type":"Feature","properties":{"Id":0,"Sheet_ID":"16-39. 北硫黄嶋","label":"16-39. 北硫黄嶋","call_short":"","call_num":"","recid":"","websiteUrl":"","title":"","ckey":0,"web_map":"","available":"false","iiifUrl":""},"geometry":{"bbox":[141,25.333333333333332,142,26],"type":"Polygon","coordinates":[[[141,25.333333333333332],[141,26],[142,26],[142,25.333333333333332],[141,25.333333333333332]]]}},{"type":"Feature","properties":{"Id":0,"Sheet_ID":"31-38. 久米嶋","label":"31-38. 久米嶋","call_short":"","call_num":"","recid":"","websiteUrl":"","title":"","ckey":0,"web_map":"","available":"false","iiifUrl":""},"geometry":{"bbox":[126,26,127.00000000000001,26.666666666666668],"type":"Polygon","coordinates":[[[126,26],[126,26.666666666666668],[127.00000000000001,26.666666666666668],[127.00000000000001,26],[126,26]]]}},{"type":"Feature","properties":{"Id":0,"Sheet_ID":"30-38. 那覇","label":"30-38. 那覇","call_short":"G7960 S200 .J35","call_num":"G7960 S200 .J35 30-38","recid":"zj588xt9213","websiteUrl":"https://purl.stanford.edu/zj588xt9213","title":"[輯製 二十万分一圖]","ckey":10651291,"web_map":"","available":"true","iiifUrl":"https://purl.stanford.edu/zj588xt9213/iiif/manifest"},"geometry":{"bbox":[127.00000000000001,26,128,26.666666666666668],"type":"Polygon","coordinates":[[[127.00000000000001,26],[127.00000000000001,26.666666666666668],[128,26.666666666666668],[128,26],[127.00000000000001,26]]]}},{"type":"Feature","properties":{"Id":0,"Sheet_ID":"29-38. 大浦湊","label":"29-38. 大浦湊","call_short":"","call_num":"","recid":"","websiteUrl":"","title":"","ckey":0,"web_map":"","available":"false","iiifUrl":""},"geometry":{"bbox":[128,26,129,26.666666666666668],"type":"Polygon","coordinates":[[[128,26],[128,26.666666666666668],[129,26.666666666666668],[129,26],[128,26]]]}},{"type":"Feature","properties":{"Id":0,"Sheet_ID":"15-38. 母嶋","label":"15-38. 母嶋","call_short":"","call_num":"","recid":"","websiteUrl":"","title":"","ckey":0,"web_map":"","available":"false","iiifUrl":""},"geometry":{"bbox":[142,26,143,26.666666666666668],"type":"Polygon","coordinates":[[[142,26],[142,26.666666666666668],[143,26.666666666666668],[143,26],[142,26]]]}},{"type":"Feature","properties":{"Id":0,"Sheet_ID":"30-37. 伊平屋嶋","label":"30-37. 伊平屋嶋","call_short":"G7960 S200 .J35","call_num":"G7960 S200 .J35 30-37","recid":"vs966mp9207","websiteUrl":"https://purl.stanford.edu/vs966mp9207","title":"[輯製 二十万分一圖]","ckey":10651291,"web_map":"","available":"true","iiifUrl":"https://purl.stanford.edu/vs966mp9207/iiif/manifest"},"geometry":{"bbox":[127.00000000000001,26.666666666666668,128,27.333333333333336],"type":"Polygon","coordinates":[[[127.00000000000001,26.666666666666668],[127.00000000000001,27.333333333333336],[128,27.333333333333336],[128,26.666666666666668],[127.00000000000001,26.666666666666668]]]}},{"type":"Feature","properties":{"Id":0,"Sheet_ID":"29-37. 與論嶋","label":"29-37. 與論嶋","call_short":"","call_num":"","recid":"","websiteUrl":"","title":"","ckey":0,"web_map":"","available":"false","iiifUrl":""},"geometry":{"bbox":[128,26.666666666666668,129,27.333333333333336],"type":"Polygon","coordinates":[[[128,26.666666666666668],[128,27.333333333333336],[129,27.333333333333336],[129,26.666666666666668],[128,26.666666666666668]]]}},{"type":"Feature","properties":{"Id":0,"Sheet_ID":"15-37. 父嶋","label":"15-37. 父嶋","call_short":"","call_num":"","recid":"","websiteUrl":"","title":"","ckey":0,"web_map":"","available":"false","iiifUrl":""},"geometry":{"bbox":[142,26.666666666666668,143,27.333333333333336],"type":"Polygon","coordinates":[[[142,26.666666666666668],[142,27.333333333333336],[143,27.333333333333336],[143,26.666666666666668],[142,26.666666666666668]]]}},{"type":"Feature","properties":{"Id":0,"Sheet_ID":"29-36. 徳之島","label":"29-36. 徳之島","call_short":"G7960 S200 .J35","call_num":"G7960 S200 .J35 29-36","recid":"xs792vh6490","websiteUrl":"https://purl.stanford.edu/xs792vh6490","title":"[輯製 二十万分一圖]","ckey":10651291,"web_map":"","available":"true","iiifUrl":"https://purl.stanford.edu/xs792vh6490/iiif/manifest"},"geometry":{"bbox":[128,27.333333333333332,129,28],"type":"Polygon","coordinates":[[[128,27.333333333333332],[128,28],[129,28],[129,27.333333333333332],[128,27.333333333333332]]]}},{"type":"Feature","properties":{"Id":0,"Sheet_ID":"15-36. 聟嶋","label":"15-36. 聟嶋","call_short":"","call_num":"","recid":"","websiteUrl":"","title":"","ckey":0,"web_map":"","available":"false","iiifUrl":""},"geometry":{"bbox":[142,27.333333333333332,143,28],"type":"Polygon","coordinates":[[[142,27.333333333333332],[142,28],[143,28],[143,27.333333333333332],[142,27.333333333333332]]]}},{"type":"Feature","properties":{"Id":0,"Sheet_ID":"28-35. 奄美大島","label":"28-35. 奄美大島","call_short":"G7960 S200 .J35","call_num":"G7960 S200 .J35 28-35","recid":"fr508tp2516","websiteUrl":"https://purl.stanford.edu/fr508tp2516","title":"[輯製 二十万分一圖]","ckey":10651291,"web_map":"","available":"true","iiifUrl":"https://purl.stanford.edu/fr508tp2516/iiif/manifest"},"geometry":{"bbox":[129,28,130,28.666666666666668],"type":"Polygon","coordinates":[[[129,28],[129,28.666666666666668],[130,28.666666666666668],[130,28],[129,28]]]}},{"type":"Feature","properties":{"Id":0,"Sheet_ID":"28-34. 寳島","label":"28-34. 寳島","call_short":"G7960 S200 .J35","call_num":"G7960 S200 .J35 28-34","recid":"yh839zg1382","websiteUrl":"https://purl.stanford.edu/yh839zg1382","title":"[輯製 二十万分一圖]","ckey":10651291,"web_map":"","available":"true","iiifUrl":"https://purl.stanford.edu/yh839zg1382/iiif/manifest"},"geometry":{"bbox":[129,28.666666666666668,130,29.333333333333332],"type":"Polygon","coordinates":[[[129,28.666666666666668],[129,29.333333333333332],[130,29.333333333333332],[130,28.666666666666668],[129,28.666666666666668]]]}},{"type":"Feature","properties":{"Id":0,"Sheet_ID":"28-33. 中之島","label":"28-33. 中之島","call_short":"","call_num":"","recid":"","websiteUrl":"","title":"","ckey":0,"web_map":"","available":"false","iiifUrl":""},"geometry":{"bbox":[129,29.333333333333332,130,29.999999999999996],"type":"Polygon","coordinates":[[[129,29.333333333333332],[129,29.999999999999996],[130,29.999999999999996],[130,29.333333333333332],[129,29.333333333333332]]]}},{"type":"Feature","properties":{"Id":0,"Sheet_ID":"27-32. 屋久島","label":"27-32. 屋久島","call_short":"G7960 S200 .J35","call_num":"G7960 S200 .J35 27-32","recid":"sf403pv4113","websiteUrl":"https://purl.stanford.edu/sf403pv4113","title":"[輯製 二十万分一圖]","ckey":10651291,"web_map":"","available":"true","iiifUrl":"https://purl.stanford.edu/sf403pv4113/iiif/manifest"},"geometry":{"bbox":[130,29.999999999999996,131,30.666666666666668],"type":"Polygon","coordinates":[[[130,29.999999999999996],[130,30.666666666666668],[131,30.666666666666668],[131,29.999999999999996],[130,29.999999999999996]]]}},{"type":"Feature","properties":{"Id":0,"Sheet_ID":"28-31. 黒島","label":"28-31. 黒島","call_short":"G7960 S200 .J35","call_num":"G7960 S200 .J35 28-31","recid":"kw745bx4548","websiteUrl":"https://purl.stanford.edu/kw745bx4548","title":"[輯製 二十万分一圖]","ckey":10651291,"web_map":"","available":"true","iiifUrl":"https://purl.stanford.edu/kw745bx4548/iiif/manifest"},"geometry":{"bbox":[129,30.666666666666664,130,31.333333333333336],"type":"Polygon","coordinates":[[[129,30.666666666666664],[129,31.333333333333336],[130,31.333333333333336],[130,30.666666666666664],[129,30.666666666666664]]]}},{"type":"Feature","properties":{"Id":0,"Sheet_ID":"27-31. 開聞嶽","label":"27-31. 開聞嶽","call_short":"","call_num":"","recid":"","websiteUrl":"","title":"","ckey":0,"web_map":"","available":"false","iiifUrl":""},"geometry":{"bbox":[130,30.666666666666664,131,31.333333333333336],"type":"Polygon","coordinates":[[[130,30.666666666666664],[130,31.333333333333336],[131,31.333333333333336],[131,30.666666666666664],[130,30.666666666666664]]]}},{"type":"Feature","properties":{"Id":0,"Sheet_ID":"28-30. 甑嶋","label":"28-30. 甑嶋","call_short":"G7960 S200 .J35","call_num":"G7960 S200 .J35 28-30","recid":"fq098bn5361","websiteUrl":"https://purl.stanford.edu/fq098bn5361","title":"[輯製 二十万分一圖]","ckey":10651291,"web_map":"","available":"true","iiifUrl":"https://purl.stanford.edu/fq098bn5361/iiif/manifest"},"geometry":{"bbox":[129,31.333333333333336,130,32],"type":"Polygon","coordinates":[[[129,31.333333333333336],[129,32],[130,32],[130,31.333333333333336],[129,31.333333333333336]]]}},{"type":"Feature","properties":{"Id":0,"Sheet_ID":"27-30. 鹿兒嶋","label":"27-30. 鹿兒嶋","call_short":"","call_num":"","recid":"","websiteUrl":"","title":"","ckey":0,"web_map":"","available":"false","iiifUrl":""},"geometry":{"bbox":[130,31.333333333333336,131,32],"type":"Polygon","coordinates":[[[130,31.333333333333336],[130,32],[131,32],[131,31.333333333333336],[130,31.333333333333336]]]}},{"type":"Feature","properties":{"Id":0,"Sheet_ID":"26-30. 宮崎","label":"26-30. 宮崎","call_short":"","call_num":"","recid":"","websiteUrl":"","title":"","ckey":0,"web_map":"","available":"false","iiifUrl":""},"geometry":{"bbox":[131,31.333333333333336,132,32],"type":"Polygon","coordinates":[[[131,31.333333333333336],[131,32],[132,32],[132,31.333333333333336],[131,31.333333333333336]]]}},{"type":"Feature","properties":{"Id":0,"Sheet_ID":"29-29. 富江","label":"29-29. 富江","call_short":"","call_num":"","recid":"","websiteUrl":"","title":"","ckey":0,"web_map":"","available":"false","iiifUrl":""},"geometry":{"bbox":[128,32,129,32.666666666666664],"type":"Polygon","coordinates":[[[128,32],[128,32.666666666666664],[129,32.666666666666664],[129,32],[128,32]]]}},{"type":"Feature","properties":{"Id":0,"Sheet_ID":"28-29. 野母崎","label":"28-29. 野母崎","call_short":"","call_num":"","recid":"","websiteUrl":"","title":"","ckey":0,"web_map":"","available":"false","iiifUrl":""},"geometry":{"bbox":[129,32,130,32.666666666666664],"type":"Polygon","coordinates":[[[129,32],[129,32.666666666666664],[130,32.666666666666664],[130,32],[129,32]]]}},{"type":"Feature","properties":{"Id":0,"Sheet_ID":"27-29. 八代","label":"27-29. 八代","call_short":"","call_num":"","recid":"","websiteUrl":"","title":"","ckey":0,"web_map":"","available":"false","iiifUrl":""},"geometry":{"bbox":[130,32,131,32.666666666666664],"type":"Polygon","coordinates":[[[130,32],[130,32.666666666666664],[131,32.666666666666664],[131,32],[130,32]]]}},{"type":"Feature","properties":{"Id":0,"Sheet_ID":"26-29. 延岡","label":"26-29. 延岡","call_short":"","call_num":"","recid":"","websiteUrl":"","title":"","ckey":0,"web_map":"","available":"false","iiifUrl":""},"geometry":{"bbox":[131,32,132,32.666666666666664],"type":"Polygon","coordinates":[[[131,32],[131,32.666666666666664],[132,32.666666666666664],[132,32],[131,32]]]}},{"type":"Feature","properties":{"Id":0,"Sheet_ID":"18-29. 青箇嶋","label":"18-29. 青箇嶋","call_short":"","call_num":"","recid":"","websiteUrl":"","title":"","ckey":0,"web_map":"","available":"false","iiifUrl":""},"geometry":{"bbox":[139,32,140,32.666666666666664],"type":"Polygon","coordinates":[[[139,32],[139,32.666666666666664],[140,32.666666666666664],[140,32],[139,32]]]}},{"type":"Feature","properties":{"Id":0,"Sheet_ID":"29-28. 福江","label":"29-28. 福江","call_short":"","call_num":"","recid":"","websiteUrl":"","title":"","ckey":0,"web_map":"","available":"false","iiifUrl":""},"geometry":{"bbox":[128,32.666666666666664,129,33.33333333333333],"type":"Polygon","coordinates":[[[128,32.666666666666664],[128,33.33333333333333],[129,33.33333333333333],[129,32.666666666666664],[128,32.666666666666664]]]}},{"type":"Feature","properties":{"Id":0,"Sheet_ID":"28-28. 長崎","label":"28-28. 長崎","call_short":"","call_num":"","recid":"","websiteUrl":"","title":"","ckey":0,"web_map":"","available":"false","iiifUrl":""},"geometry":{"bbox":[129,32.666666666666664,130,33.33333333333333],"type":"Polygon","coordinates":[[[129,32.666666666666664],[129,33.33333333333333],[130,33.33333333333333],[130,32.666666666666664],[129,32.666666666666664]]]}},{"type":"Feature","properties":{"Id":0,"Sheet_ID":"27-28. 熊本","label":"27-28. 熊本","call_short":"","call_num":"","recid":"","websiteUrl":"","title":"","ckey":0,"web_map":"","available":"false","iiifUrl":""},"geometry":{"bbox":[130,32.666666666666664,131,33.33333333333333],"type":"Polygon","coordinates":[[[130,32.666666666666664],[130,33.33333333333333],[131,33.33333333333333],[131,32.666666666666664],[130,32.666666666666664]]]}},{"type":"Feature","properties":{"Id":0,"Sheet_ID":"26-28. 大分","label":"26-28. 大分","call_short":"","call_num":"","recid":"","websiteUrl":"","title":"","ckey":0,"web_map":"","available":"false","iiifUrl":""},"geometry":{"bbox":[131,32.666666666666664,132,33.33333333333333],"type":"Polygon","coordinates":[[[131,32.666666666666664],[131,33.33333333333333],[132,33.33333333333333],[132,32.666666666666664],[131,32.666666666666664]]]}},{"type":"Feature","properties":{"Id":0,"Sheet_ID":"25-28. 宇和嶋","label":"25-28. 宇和嶋","call_short":"","call_num":"","recid":"","websiteUrl":"","title":"","ckey":0,"web_map":"","available":"false","iiifUrl":""},"geometry":{"bbox":[132,32.666666666666664,133,33.33333333333333],"type":"Polygon","coordinates":[[[132,32.666666666666664],[132,33.33333333333333],[133,33.33333333333333],[133,32.666666666666664],[132,32.666666666666664]]]}},{"type":"Feature","properties":{"Id":0,"Sheet_ID":"24-28. 與津岬","label":"24-28. 與津岬","call_short":"","call_num":"","recid":"","websiteUrl":"","title":"","ckey":0,"web_map":"","available":"false","iiifUrl":""},"geometry":{"bbox":[133,32.666666666666664,134,33.33333333333333],"type":"Polygon","coordinates":[[[133,32.666666666666664],[133,33.33333333333333],[134,33.33333333333333],[134,32.666666666666664],[133,32.666666666666664]]]}},{"type":"Feature","properties":{"Id":0,"Sheet_ID":"18-28. 八丈島","label":"18-28. 八丈島","call_short":"","call_num":"","recid":"","websiteUrl":"","title":"","ckey":0,"web_map":"","available":"false","iiifUrl":""},"geometry":{"bbox":[139,32.666666666666664,140,33.33333333333333],"type":"Polygon","coordinates":[[[139,32.666666666666664],[139,33.33333333333333],[140,33.33333333333333],[140,32.666666666666664],[139,32.666666666666664]]]}},{"type":"Feature","properties":{"Id":0,"Sheet_ID":"28-27. 唐津","label":"28-27. 唐津","call_short":"","call_num":"","recid":"","websiteUrl":"","title":"","ckey":0,"web_map":"","available":"false","iiifUrl":""},"geometry":{"bbox":[129,33.33333333333333,130,33.99999999999999],"type":"Polygon","coordinates":[[[129,33.33333333333333],[129,33.99999999999999],[130,33.99999999999999],[130,33.33333333333333],[129,33.33333333333333]]]}},{"type":"Feature","properties":{"Id":0,"Sheet_ID":"27-27. 小倉","label":"27-27. 小倉","call_short":"","call_num":"","recid":"","websiteUrl":"","title":"","ckey":0,"web_map":"","available":"false","iiifUrl":""},"geometry":{"bbox":[130,33.33333333333333,131,33.99999999999999],"type":"Polygon","coordinates":[[[130,33.33333333333333],[130,33.99999999999999],[131,33.99999999999999],[131,33.33333333333333],[130,33.33333333333333]]]}},{"type":"Feature","properties":{"Id":0,"Sheet_ID":"26-27. 中津","label":"26-27. 中津","call_short":"","call_num":"","recid":"","websiteUrl":"","title":"","ckey":0,"web_map":"","available":"false","iiifUrl":""},"geometry":{"bbox":[131,33.33333333333333,132,33.99999999999999],"type":"Polygon","coordinates":[[[131,33.33333333333333],[131,33.99999999999999],[132,33.99999999999999],[132,33.33333333333333],[131,33.33333333333333]]]}},{"type":"Feature","properties":{"Id":0,"Sheet_ID":"25-27. 松山","label":"25-27. 松山","call_short":"","call_num":"","recid":"","websiteUrl":"","title":"","ckey":0,"web_map":"","available":"false","iiifUrl":""},"geometry":{"bbox":[132,33.33333333333333,133,33.99999999999999],"type":"Polygon","coordinates":[[[132,33.33333333333333],[132,33.99999999999999],[133,33.99999999999999],[133,33.33333333333333],[132,33.33333333333333]]]}},{"type":"Feature","properties":{"Id":0,"Sheet_ID":"24-27. 高知","label":"24-27. 高知","call_short":"","call_num":"","recid":"","websiteUrl":"","title":"","ckey":0,"web_map":"","available":"false","iiifUrl":""},"geometry":{"bbox":[133,33.33333333333333,134,33.99999999999999],"type":"Polygon","coordinates":[[[133,33.33333333333333],[133,33.99999999999999],[134,33.99999999999999],[134,33.33333333333333],[133,33.33333333333333]]]}},{"type":"Feature","properties":{"Id":0,"Sheet_ID":"23-27. 劍山","label":"23-27. 劍山","call_short":"","call_num":"","recid":"","websiteUrl":"","title":"","ckey":0,"web_map":"","available":"false","iiifUrl":""},"geometry":{"bbox":[134,33.33333333333333,135,33.99999999999999],"type":"Polygon","coordinates":[[[134,33.33333333333333],[134,33.99999999999999],[135,33.99999999999999],[135,33.33333333333333],[134,33.33333333333333]]]}},{"type":"Feature","properties":{"Id":0,"Sheet_ID":"22-27. 田邊","label":"22-27. 田邊","call_short":"","call_num":"","recid":"","websiteUrl":"","title":"","ckey":0,"web_map":"","available":"false","iiifUrl":""},"geometry":{"bbox":[135,33.33333333333333,136,33.99999999999999],"type":"Polygon","coordinates":[[[135,33.33333333333333],[135,33.99999999999999],[136,33.99999999999999],[136,33.33333333333333],[135,33.33333333333333]]]}},{"type":"Feature","properties":{"Id":0,"Sheet_ID":"21-27. 木本","label":"21-27. 木本","call_short":"","call_num":"","recid":"","websiteUrl":"","title":"","ckey":0,"web_map":"","available":"false","iiifUrl":""},"geometry":{"bbox":[136,33.33333333333333,137,33.99999999999999],"type":"Polygon","coordinates":[[[136,33.33333333333333],[136,33.99999999999999],[137,33.99999999999999],[137,33.33333333333333],[136,33.33333333333333]]]}},{"type":"Feature","properties":{"Id":0,"Sheet_ID":"18-27. 御倉島","label":"18-27. 御倉島","call_short":"","call_num":"","recid":"","websiteUrl":"","title":"","ckey":0,"web_map":"","available":"false","iiifUrl":""},"geometry":{"bbox":[139,33.33333333333333,140,33.99999999999999],"type":"Polygon","coordinates":[[[139,33.33333333333333],[139,33.99999999999999],[140,33.99999999999999],[140,33.33333333333333],[139,33.33333333333333]]]}},{"type":"Feature","properties":{"Id":0,"Sheet_ID":"28-26. 嚴原","label":"28-26. 嚴原","call_short":"","call_num":"","recid":"","websiteUrl":"","title":"","ckey":0,"web_map":"","available":"false","iiifUrl":""},"geometry":{"bbox":[129,34,130,34.666666666666664],"type":"Polygon","coordinates":[[[129,34],[129,34.666666666666664],[130,34.666666666666664],[130,34],[129,34]]]}},{"type":"Feature","properties":{"Id":0,"Sheet_ID":"27-26. 豊浦","label":"27-26. 豊浦","call_short":"","call_num":"","recid":"","websiteUrl":"","title":"","ckey":0,"web_map":"","available":"false","iiifUrl":""},"geometry":{"bbox":[130,34,131,34.666666666666664],"type":"Polygon","coordinates":[[[130,34],[130,34.666666666666664],[131,34.666666666666664],[131,34],[130,34]]]}},{"type":"Feature","properties":{"Id":0,"Sheet_ID":"26-26. 山口","label":"26-26. 山口","call_short":"","call_num":"","recid":"","websiteUrl":"","title":"","ckey":0,"web_map":"","available":"false","iiifUrl":""},"geometry":{"bbox":[131,34,132,34.666666666666664],"type":"Polygon","coordinates":[[[131,34],[131,34.666666666666664],[132,34.666666666666664],[132,34],[131,34]]]}},{"type":"Feature","properties":{"Id":0,"Sheet_ID":"25-26. 廣嶋","label":"25-26. 廣嶋","call_short":"","call_num":"","recid":"","websiteUrl":"","title":"","ckey":0,"web_map":"","available":"false","iiifUrl":""},"geometry":{"bbox":[132,34,133,34.666666666666664],"type":"Polygon","coordinates":[[[132,34],[132,34.666666666666664],[133,34.666666666666664],[133,34],[132,34]]]}},{"type":"Feature","properties":{"Id":0,"Sheet_ID":"24-26. 丸龜","label":"24-26. 丸龜","call_short":"","call_num":"","recid":"","websiteUrl":"","title":"","ckey":0,"web_map":"","available":"false","iiifUrl":""},"geometry":{"bbox":[133,34,134,34.666666666666664],"type":"Polygon","coordinates":[[[133,34],[133,34.666666666666664],[134,34.666666666666664],[134,34],[133,34]]]}},{"type":"Feature","properties":{"Id":0,"Sheet_ID":"23-26. 徳嶋","label":"23-26. 徳嶋","call_short":"","call_num":"","recid":"","websiteUrl":"","title":"","ckey":0,"web_map":"","available":"false","iiifUrl":""},"geometry":{"bbox":[134,34,135,34.666666666666664],"type":"Polygon","coordinates":[[[134,34],[134,34.666666666666664],[135,34.666666666666664],[135,34],[134,34]]]}},{"type":"Feature","properties":{"Id":0,"Sheet_ID":"22-26. 和歌山","label":"22-26. 和歌山","call_short":"","call_num":"","recid":"","websiteUrl":"","title":"","ckey":0,"web_map":"","available":"false","iiifUrl":""},"geometry":{"bbox":[135,34,136,34.666666666666664],"type":"Polygon","coordinates":[[[135,34],[135,34.666666666666664],[136,34.666666666666664],[136,34],[135,34]]]}},{"type":"Feature","properties":{"Id":0,"Sheet_ID":"21-26. 山田","label":"21-26. 山田","call_short":"","call_num":"","recid":"","websiteUrl":"","title":"","ckey":0,"web_map":"","available":"false","iiifUrl":""},"geometry":{"bbox":[136,34,137,34.666666666666664],"type":"Polygon","coordinates":[[[136,34],[136,34.666666666666664],[137,34.666666666666664],[137,34],[136,34]]]}},{"type":"Feature","properties":{"Id":0,"Sheet_ID":"20-26. 伊良湖岬","label":"20-26. 伊良湖岬","call_short":"","call_num":"","recid":"","websiteUrl":"","title":"","ckey":0,"web_map":"","available":"false","iiifUrl":""},"geometry":{"bbox":[137,34,138,34.666666666666664],"type":"Polygon","coordinates":[[[137,34],[137,34.666666666666664],[138,34.666666666666664],[138,34],[137,34]]]}},{"type":"Feature","properties":{"Id":0,"Sheet_ID":"19-26. 神子元嶋","label":"19-26. 神子元嶋","call_short":"","call_num":"","recid":"","websiteUrl":"","title":"","ckey":0,"web_map":"","available":"false","iiifUrl":""},"geometry":{"bbox":[138,34,139,34.666666666666664],"type":"Polygon","coordinates":[[[138,34],[138,34.666666666666664],[139,34.666666666666664],[139,34],[138,34]]]}},{"type":"Feature","properties":{"Id":0,"Sheet_ID":"18-26. 三宅嶋","label":"18-26. 三宅嶋","call_short":"","call_num":"","recid":"","websiteUrl":"","title":"","ckey":0,"web_map":"","available":"false","iiifUrl":""},"geometry":{"bbox":[139,34,140,34.666666666666664],"type":"Polygon","coordinates":[[[139,34],[139,34.666666666666664],[140,34.666666666666664],[140,34],[139,34]]]}},{"type":"Feature","properties":{"Id":0,"Sheet_ID":"26-25. 見嶋","label":"26-25. 見嶋","call_short":"","call_num":"","recid":"","websiteUrl":"","title":"","ckey":0,"web_map":"","available":"false","iiifUrl":""},"geometry":{"bbox":[131,34.666666666666664,132,35.33333333333333],"type":"Polygon","coordinates":[[[131,34.666666666666664],[131,35.33333333333333],[132,35.33333333333333],[132,34.666666666666664],[131,34.666666666666664]]]}},{"type":"Feature","properties":{"Id":0,"Sheet_ID":"25-25. 濱田","label":"25-25. 濱田","call_short":"","call_num":"","recid":"","websiteUrl":"","title":"","ckey":0,"web_map":"","available":"false","iiifUrl":""},"geometry":{"bbox":[132,34.666666666666664,133,35.33333333333333],"type":"Polygon","coordinates":[[[132,34.666666666666664],[132,35.33333333333333],[133,35.33333333333333],[133,34.666666666666664],[132,34.666666666666664]]]}},{"type":"Feature","properties":{"Id":0,"Sheet_ID":"24-25. 岡山","label":"24-25. 岡山","call_short":"","call_num":"","recid":"","websiteUrl":"","title":"","ckey":0,"web_map":"","available":"false","iiifUrl":""},"geometry":{"bbox":[133,34.666666666666664,134,35.33333333333333],"type":"Polygon","coordinates":[[[133,34.666666666666664],[133,35.33333333333333],[134,35.33333333333333],[134,34.666666666666664],[133,34.666666666666664]]]}},{"type":"Feature","properties":{"Id":0,"Sheet_ID":"23-25. 姬路","label":"23-25. 姬路","call_short":"","call_num":"","recid":"","websiteUrl":"","title":"","ckey":0,"web_map":"","available":"false","iiifUrl":""},"geometry":{"bbox":[134,34.666666666666664,135,35.33333333333333],"type":"Polygon","coordinates":[[[134,34.666666666666664],[134,35.33333333333333],[135,35.33333333333333],[135,34.666666666666664],[134,34.666666666666664]]]}},{"type":"Feature","properties":{"Id":0,"Sheet_ID":"22-25. 京都及大阪","label":"22-25. 京都及大阪","call_short":"","call_num":"","recid":"","websiteUrl":"","title":"","ckey":0,"web_map":"","available":"false","iiifUrl":""},"geometry":{"bbox":[135,34.666666666666664,136,35.33333333333333],"type":"Polygon","coordinates":[[[135,34.666666666666664],[135,35.33333333333333],[136,35.33333333333333],[136,34.666666666666664],[135,34.666666666666664]]]}},{"type":"Feature","properties":{"Id":0,"Sheet_ID":"21-25. 名古屋","label":"21-25. 名古屋","call_short":"","call_num":"","recid":"","websiteUrl":"","title":"","ckey":0,"web_map":"","available":"false","iiifUrl":""},"geometry":{"bbox":[136,34.666666666666664,137,35.33333333333333],"type":"Polygon","coordinates":[[[136,34.666666666666664],[136,35.33333333333333],[137,35.33333333333333],[137,34.666666666666664],[136,34.666666666666664]]]}},{"type":"Feature","properties":{"Id":0,"Sheet_ID":"20-25. 豐橋","label":"20-25. 豐橋","call_short":"","call_num":"","recid":"","websiteUrl":"","title":"","ckey":0,"web_map":"","available":"false","iiifUrl":""},"geometry":{"bbox":[137,34.666666666666664,138,35.33333333333333],"type":"Polygon","coordinates":[[[137,34.666666666666664],[137,35.33333333333333],[138,35.33333333333333],[138,34.666666666666664],[137,34.666666666666664]]]}},{"type":"Feature","properties":{"Id":0,"Sheet_ID":"19-25. 靜岡","label":"19-25. 靜岡","call_short":"","call_num":"","recid":"","websiteUrl":"","title":"","ckey":0,"web_map":"","available":"false","iiifUrl":""},"geometry":{"bbox":[138,34.666666666666664,139,35.33333333333333],"type":"Polygon","coordinates":[[[138,34.666666666666664],[138,35.33333333333333],[139,35.33333333333333],[139,34.666666666666664],[138,34.666666666666664]]]}},{"type":"Feature","properties":{"Id":0,"Sheet_ID":"18-25. 横須賀","label":"18-25. 横須賀","call_short":"G7960 S200 .J35","call_num":"G7960 S200 .J35 18-25","recid":"kb789dw5275","websiteUrl":"https://purl.stanford.edu/kb789dw5275","title":"[輯製 二十万分一圖]","ckey":10651291,"web_map":"","available":"true","iiifUrl":"https://purl.stanford.edu/kb789dw5275/iiif/manifest"},"geometry":{"bbox":[139,34.666666666666664,140,35.33333333333333],"type":"Polygon","coordinates":[[[139,34.666666666666664],[139,35.33333333333333],[140,35.33333333333333],[140,34.666666666666664],[139,34.666666666666664]]]}},{"type":"Feature","properties":{"Id":0,"Sheet_ID":"17-25. 大多喜","label":"17-25. 大多喜","call_short":"","call_num":"","recid":"","websiteUrl":"","title":"","ckey":0,"web_map":"","available":"false","iiifUrl":""},"geometry":{"bbox":[140,34.666666666666664,141,35.33333333333333],"type":"Polygon","coordinates":[[[140,34.666666666666664],[140,35.33333333333333],[141,35.33333333333333],[141,34.666666666666664],[140,34.666666666666664]]]}},{"type":"Feature","properties":{"Id":0,"Sheet_ID":"25-24. 杵築","label":"25-24. 杵築","call_short":"","call_num":"","recid":"","websiteUrl":"","title":"","ckey":0,"web_map":"","available":"false","iiifUrl":""},"geometry":{"bbox":[132,35.33333333333333,133,35.99999999999999],"type":"Polygon","coordinates":[[[132,35.33333333333333],[132,35.99999999999999],[133,35.99999999999999],[133,35.33333333333333],[132,35.33333333333333]]]}},{"type":"Feature","properties":{"Id":0,"Sheet_ID":"24-24. 松江","label":"24-24. 松江","call_short":"","call_num":"","recid":"","websiteUrl":"","title":"","ckey":0,"web_map":"","available":"false","iiifUrl":""},"geometry":{"bbox":[133,35.33333333333333,134,35.99999999999999],"type":"Polygon","coordinates":[[[133,35.33333333333333],[133,35.99999999999999],[134,35.99999999999999],[134,35.33333333333333],[133,35.33333333333333]]]}},{"type":"Feature","properties":{"Id":0,"Sheet_ID":"23-24. 鳥取","label":"23-24. 鳥取","call_short":"","call_num":"","recid":"","websiteUrl":"","title":"","ckey":0,"web_map":"","available":"false","iiifUrl":""},"geometry":{"bbox":[134,35.33333333333333,135,35.99999999999999],"type":"Polygon","coordinates":[[[134,35.33333333333333],[134,35.99999999999999],[135,35.99999999999999],[135,35.33333333333333],[134,35.33333333333333]]]}},{"type":"Feature","properties":{"Id":0,"Sheet_ID":"22-24. 宮津","label":"22-24. 宮津","call_short":"","call_num":"","recid":"","websiteUrl":"","title":"","ckey":0,"web_map":"","available":"false","iiifUrl":""},"geometry":{"bbox":[135,35.33333333333333,136,35.99999999999999],"type":"Polygon","coordinates":[[[135,35.33333333333333],[135,35.99999999999999],[136,35.99999999999999],[136,35.33333333333333],[135,35.33333333333333]]]}},{"type":"Feature","properties":{"Id":0,"Sheet_ID":"21-24. 岐阜","label":"21-24. 岐阜","call_short":"","call_num":"","recid":"","websiteUrl":"","title":"","ckey":0,"web_map":"","available":"false","iiifUrl":""},"geometry":{"bbox":[136,35.33333333333333,137,35.99999999999999],"type":"Polygon","coordinates":[[[136,35.33333333333333],[136,35.99999999999999],[137,35.99999999999999],[137,35.33333333333333],[136,35.33333333333333]]]}},{"type":"Feature","properties":{"Id":0,"Sheet_ID":"20-24. 飯田","label":"20-24. 飯田","call_short":"","call_num":"","recid":"","websiteUrl":"","title":"","ckey":0,"web_map":"","available":"false","iiifUrl":""},"geometry":{"bbox":[137,35.33333333333333,138,35.99999999999999],"type":"Polygon","coordinates":[[[137,35.33333333333333],[137,35.99999999999999],[138,35.99999999999999],[138,35.33333333333333],[137,35.33333333333333]]]}},{"type":"Feature","properties":{"Id":0,"Sheet_ID":"19-24. 甲府","label":"19-24. 甲府","call_short":"","call_num":"","recid":"","websiteUrl":"","title":"","ckey":0,"web_map":"","available":"false","iiifUrl":""},"geometry":{"bbox":[138,35.33333333333333,139,35.99999999999999],"type":"Polygon","coordinates":[[[138,35.33333333333333],[138,35.99999999999999],[139,35.99999999999999],[139,35.33333333333333],[138,35.33333333333333]]]}},{"type":"Feature","properties":{"Id":0,"Sheet_ID":"18-24. 東京","label":"18-24. 東京","call_short":"","call_num":"","recid":"","websiteUrl":"","title":"","ckey":0,"web_map":"","available":"false","iiifUrl":""},"geometry":{"bbox":[139,35.33333333333333,140,35.99999999999999],"type":"Polygon","coordinates":[[[139,35.33333333333333],[139,35.99999999999999],[140,35.99999999999999],[140,35.33333333333333],[139,35.33333333333333]]]}},{"type":"Feature","properties":{"Id":0,"Sheet_ID":"17-24. 佐倉","label":"17-24. 佐倉","call_short":"","call_num":"","recid":"","websiteUrl":"","title":"","ckey":0,"web_map":"","available":"false","iiifUrl":""},"geometry":{"bbox":[140,35.33333333333333,141,35.99999999999999],"type":"Polygon","coordinates":[[[140,35.33333333333333],[140,35.99999999999999],[141,35.99999999999999],[141,35.33333333333333],[140,35.33333333333333]]]}},{"type":"Feature","properties":{"Id":0,"Sheet_ID":"24-23. 西鄉","label":"24-23. 西鄉","call_short":"","call_num":"","recid":"","websiteUrl":"","title":"","ckey":0,"web_map":"","available":"false","iiifUrl":""},"geometry":{"bbox":[133,36,134,36.666666666666664],"type":"Polygon","coordinates":[[[133,36],[133,36.666666666666664],[134,36.666666666666664],[134,36],[133,36]]]}},{"type":"Feature","properties":{"Id":0,"Sheet_ID":"21-23. 金澤","label":"21-23. 金澤","call_short":"","call_num":"","recid":"","websiteUrl":"","title":"","ckey":0,"web_map":"","available":"false","iiifUrl":""},"geometry":{"bbox":[136,36,137,36.666666666666664],"type":"Polygon","coordinates":[[[136,36],[136,36.666666666666664],[137,36.666666666666664],[137,36],[136,36]]]}},{"type":"Feature","properties":{"Id":0,"Sheet_ID":"20-23. 高山","label":"20-23. 高山","call_short":"","call_num":"","recid":"","websiteUrl":"","title":"","ckey":0,"web_map":"","available":"false","iiifUrl":""},"geometry":{"bbox":[137,36,138,36.666666666666664],"type":"Polygon","coordinates":[[[137,36],[137,36.666666666666664],[138,36.666666666666664],[138,36],[137,36]]]}},{"type":"Feature","properties":{"Id":0,"Sheet_ID":"19-23. 長野","label":"19-23. 長野","call_short":"","call_num":"","recid":"","websiteUrl":"","title":"","ckey":0,"web_map":"","available":"false","iiifUrl":""},"geometry":{"bbox":[138,36,139,36.666666666666664],"type":"Polygon","coordinates":[[[138,36],[138,36.666666666666664],[139,36.666666666666664],[139,36],[138,36]]]}},{"type":"Feature","properties":{"Id":0,"Sheet_ID":"18-23. 宇都宮","label":"18-23. 宇都宮","call_short":"","call_num":"","recid":"","websiteUrl":"","title":"","ckey":0,"web_map":"","available":"false","iiifUrl":""},"geometry":{"bbox":[139,36,140,36.666666666666664],"type":"Polygon","coordinates":[[[139,36],[139,36.666666666666664],[140,36.666666666666664],[140,36],[139,36]]]}},{"type":"Feature","properties":{"Id":0,"Sheet_ID":"17-23. 水戶","label":"17-23. 水戶","call_short":"","call_num":"","recid":"","websiteUrl":"","title":"","ckey":0,"web_map":"","available":"false","iiifUrl":""},"geometry":{"bbox":[140,36,141,36.666666666666664],"type":"Polygon","coordinates":[[[140,36],[140,36.666666666666664],[141,36.666666666666664],[141,36],[140,36]]]}},{"type":"Feature","properties":{"Id":0,"Sheet_ID":"21-22. 七尾","label":"21-22. 七尾","call_short":"","call_num":"","recid":"","websiteUrl":"","title":"","ckey":0,"web_map":"","available":"false","iiifUrl":""},"geometry":{"bbox":[136,36.666666666666664,137,37.33333333333333],"type":"Polygon","coordinates":[[[136,36.666666666666664],[136,37.33333333333333],[137,37.33333333333333],[137,36.666666666666664],[136,36.666666666666664]]]}},{"type":"Feature","properties":{"Id":0,"Sheet_ID":"20-22. 富山","label":"20-22. 富山","call_short":"","call_num":"","recid":"","websiteUrl":"","title":"","ckey":0,"web_map":"","available":"false","iiifUrl":""},"geometry":{"bbox":[137,36.666666666666664,138,37.33333333333333],"type":"Polygon","coordinates":[[[137,36.666666666666664],[137,37.33333333333333],[138,37.33333333333333],[138,36.666666666666664],[137,36.666666666666664]]]}},{"type":"Feature","properties":{"Id":0,"Sheet_ID":"19-22. 高田","label":"19-22. 高田","call_short":"","call_num":"","recid":"","websiteUrl":"","title":"","ckey":0,"web_map":"","available":"false","iiifUrl":""},"geometry":{"bbox":[138,36.666666666666664,139,37.33333333333333],"type":"Polygon","coordinates":[[[138,36.666666666666664],[138,37.33333333333333],[139,37.33333333333333],[139,36.666666666666664],[138,36.666666666666664]]]}},{"type":"Feature","properties":{"Id":0,"Sheet_ID":"18-22. 日光","label":"18-22. 日光","call_short":"","call_num":"","recid":"","websiteUrl":"","title":"","ckey":0,"web_map":"","available":"false","iiifUrl":""},"geometry":{"bbox":[139,36.666666666666664,140,37.33333333333333],"type":"Polygon","coordinates":[[[139,36.666666666666664],[139,37.33333333333333],[140,37.33333333333333],[140,36.666666666666664],[139,36.666666666666664]]]}},{"type":"Feature","properties":{"Id":0,"Sheet_ID":"17-22. 白河","label":"17-22. 白河","call_short":"","call_num":"","recid":"","websiteUrl":"","title":"","ckey":0,"web_map":"","available":"false","iiifUrl":""},"geometry":{"bbox":[140,36.666666666666664,141,37.33333333333333],"type":"Polygon","coordinates":[[[140,36.666666666666664],[140,37.33333333333333],[141,37.33333333333333],[141,36.666666666666664],[140,36.666666666666664]]]}},{"type":"Feature","properties":{"Id":0,"Sheet_ID":"21-21. 輪嶋","label":"21-21. 輪嶋","call_short":"","call_num":"","recid":"","websiteUrl":"","title":"","ckey":0,"web_map":"","available":"false","iiifUrl":""},"geometry":{"bbox":[136,37.33333333333333,137,37.99999999999999],"type":"Polygon","coordinates":[[[136,37.33333333333333],[136,37.99999999999999],[137,37.99999999999999],[137,37.33333333333333],[136,37.33333333333333]]]}},{"type":"Feature","properties":{"Id":0,"Sheet_ID":"20-21. 珠洲岬","label":"20-21. 珠洲岬","call_short":"","call_num":"","recid":"","websiteUrl":"","title":"","ckey":0,"web_map":"","available":"false","iiifUrl":""},"geometry":{"bbox":[137,37.33333333333333,138,37.99999999999999],"type":"Polygon","coordinates":[[[137,37.33333333333333],[137,37.99999999999999],[138,37.99999999999999],[138,37.33333333333333],[137,37.33333333333333]]]}},{"type":"Feature","properties":{"Id":0,"Sheet_ID":"19-21. 長岡","label":"19-21. 長岡","call_short":"","call_num":"","recid":"","websiteUrl":"","title":"","ckey":0,"web_map":"","available":"false","iiifUrl":""},"geometry":{"bbox":[138,37.33333333333333,139,37.99999999999999],"type":"Polygon","coordinates":[[[138,37.33333333333333],[138,37.99999999999999],[139,37.99999999999999],[139,37.33333333333333],[138,37.33333333333333]]]}},{"type":"Feature","properties":{"Id":0,"Sheet_ID":"18-21. 新潟","label":"18-21. 新潟","call_short":"","call_num":"","recid":"","websiteUrl":"","title":"","ckey":0,"web_map":"","available":"false","iiifUrl":""},"geometry":{"bbox":[139,37.33333333333333,140,37.99999999999999],"type":"Polygon","coordinates":[[[139,37.33333333333333],[139,37.99999999999999],[140,37.99999999999999],[140,37.33333333333333],[139,37.33333333333333]]]}},{"type":"Feature","properties":{"Id":0,"Sheet_ID":"17-21. 福嶋","label":"17-21. 福嶋","call_short":"","call_num":"","recid":"","websiteUrl":"","title":"","ckey":0,"web_map":"","available":"false","iiifUrl":""},"geometry":{"bbox":[140,37.33333333333333,141,37.99999999999999],"type":"Polygon","coordinates":[[[140,37.33333333333333],[140,37.99999999999999],[141,37.99999999999999],[141,37.33333333333333],[140,37.33333333333333]]]}},{"type":"Feature","properties":{"Id":0,"Sheet_ID":"19-20. 相川","label":"19-20. 相川","call_short":"","call_num":"","recid":"","websiteUrl":"","title":"","ckey":0,"web_map":"","available":"false","iiifUrl":""},"geometry":{"bbox":[138,38,139,38.66666666666667],"type":"Polygon","coordinates":[[[138,38],[138,38.66666666666667],[139,38.66666666666667],[139,38],[138,38]]]}},{"type":"Feature","properties":{"Id":0,"Sheet_ID":"18-20. 村上","label":"18-20. 村上","call_short":"","call_num":"","recid":"","websiteUrl":"","title":"","ckey":0,"web_map":"","available":"false","iiifUrl":""},"geometry":{"bbox":[139,38,140,38.66666666666667],"type":"Polygon","coordinates":[[[139,38],[139,38.66666666666667],[140,38.66666666666667],[140,38],[139,38]]]}},{"type":"Feature","properties":{"Id":0,"Sheet_ID":"17-20. 仙臺","label":"17-20. 仙臺","call_short":"","call_num":"","recid":"","websiteUrl":"","title":"","ckey":0,"web_map":"","available":"false","iiifUrl":""},"geometry":{"bbox":[140,38,141,38.66666666666667],"type":"Polygon","coordinates":[[[140,38],[140,38.66666666666667],[141,38.66666666666667],[141,38],[140,38]]]}},{"type":"Feature","properties":{"Id":0,"Sheet_ID":"16-20. 石卷","label":"16-20. 石卷","call_short":"","call_num":"","recid":"","websiteUrl":"","title":"","ckey":0,"web_map":"","available":"false","iiifUrl":""},"geometry":{"bbox":[141,38,142,38.66666666666667],"type":"Polygon","coordinates":[[[141,38],[141,38.66666666666667],[142,38.66666666666667],[142,38],[141,38]]]}},{"type":"Feature","properties":{"Id":0,"Sheet_ID":"18-19. 酒田","label":"18-19. 酒田","call_short":"","call_num":"","recid":"","websiteUrl":"","title":"","ckey":0,"web_map":"","available":"false","iiifUrl":""},"geometry":{"bbox":[139,38.66666666666667,140,39.33333333333333],"type":"Polygon","coordinates":[[[139,38.66666666666667],[139,39.33333333333333],[140,39.33333333333333],[140,38.66666666666667],[139,38.66666666666667]]]}},{"type":"Feature","properties":{"Id":0,"Sheet_ID":"17-19. 新庄","label":"17-19. 新庄","call_short":"","call_num":"","recid":"","websiteUrl":"","title":"","ckey":0,"web_map":"","available":"false","iiifUrl":""},"geometry":{"bbox":[140,38.66666666666667,141,39.33333333333333],"type":"Polygon","coordinates":[[[140,38.66666666666667],[140,39.33333333333333],[141,39.33333333333333],[141,38.66666666666667],[140,38.66666666666667]]]}},{"type":"Feature","properties":{"Id":0,"Sheet_ID":"16-19. 磐井","label":"16-19. 磐井","call_short":"","call_num":"","recid":"","websiteUrl":"","title":"","ckey":0,"web_map":"","available":"false","iiifUrl":""},"geometry":{"bbox":[141,38.66666666666667,142,39.33333333333333],"type":"Polygon","coordinates":[[[141,38.66666666666667],[141,39.33333333333333],[142,39.33333333333333],[142,38.66666666666667],[141,38.66666666666667]]]}},{"type":"Feature","properties":{"Id":0,"Sheet_ID":"18-18. 男鹿嶋","label":"18-18. 男鹿嶋","call_short":"","call_num":"","recid":"","websiteUrl":"","title":"","ckey":0,"web_map":"","available":"false","iiifUrl":""},"geometry":{"bbox":[139,39.33333333333333,140,39.99999999999999],"type":"Polygon","coordinates":[[[139,39.33333333333333],[139,39.99999999999999],[140,39.99999999999999],[140,39.33333333333333],[139,39.33333333333333]]]}},{"type":"Feature","properties":{"Id":0,"Sheet_ID":"17-18. 秋田","label":"17-18. 秋田","call_short":"","call_num":"","recid":"","websiteUrl":"","title":"","ckey":0,"web_map":"","available":"false","iiifUrl":""},"geometry":{"bbox":[140,39.33333333333333,141,39.99999999999999],"type":"Polygon","coordinates":[[[140,39.33333333333333],[140,39.99999999999999],[141,39.99999999999999],[141,39.33333333333333],[140,39.33333333333333]]]}},{"type":"Feature","properties":{"Id":0,"Sheet_ID":"16-18. 盛岡","label":"16-18. 盛岡","call_short":"","call_num":"","recid":"","websiteUrl":"","title":"","ckey":0,"web_map":"","available":"false","iiifUrl":""},"geometry":{"bbox":[141,39.33333333333333,142,39.99999999999999],"type":"Polygon","coordinates":[[[141,39.33333333333333],[141,39.99999999999999],[142,39.99999999999999],[142,39.33333333333333],[141,39.33333333333333]]]}},{"type":"Feature","properties":{"Id":0,"Sheet_ID":"17-17. 弘前","label":"17-17. 弘前","call_short":"","call_num":"","recid":"","websiteUrl":"","title":"","ckey":0,"web_map":"","available":"false","iiifUrl":""},"geometry":{"bbox":[140,40,141,40.666666666666664],"type":"Polygon","coordinates":[[[140,40],[140,40.666666666666664],[141,40.666666666666664],[141,40],[140,40]]]}},{"type":"Feature","properties":{"Id":0,"Sheet_ID":"16-17. 八戶","label":"16-17. 八戶","call_short":"","call_num":"","recid":"","websiteUrl":"","title":"","ckey":0,"web_map":"","available":"false","iiifUrl":""},"geometry":{"bbox":[141,40,142,40.666666666666664],"type":"Polygon","coordinates":[[[141,40],[141,40.666666666666664],[142,40.666666666666664],[142,40],[141,40]]]}},{"type":"Feature","properties":{"Id":0,"Sheet_ID":"17-16. 青森","label":"17-16. 青森","call_short":"","call_num":"","recid":"","websiteUrl":"","title":"","ckey":0,"web_map":"","available":"false","iiifUrl":""},"geometry":{"bbox":[140,40.666666666666664,141,41.33333333333333],"type":"Polygon","coordinates":[[[140,40.666666666666664],[140,41.33333333333333],[141,41.33333333333333],[141,40.666666666666664],[140,40.666666666666664]]]}},{"type":"Feature","properties":{"Id":0,"Sheet_ID":"16-16. 野邊地","label":"16-16. 野邊地","call_short":"","call_num":"","recid":"","websiteUrl":"","title":"","ckey":0,"web_map":"","available":"false","iiifUrl":""},"geometry":{"bbox":[141,40.666666666666664,142,41.33333333333333],"type":"Polygon","coordinates":[[[141,40.666666666666664],[141,41.33333333333333],[142,41.33333333333333],[142,40.666666666666664],[141,40.666666666666664]]]}},{"type":"Feature","properties":{"Id":0,"Sheet_ID":"18-15. 渡島大島","label":"18-15. 渡島大島","call_short":"","call_num":"","recid":"","websiteUrl":"","title":"","ckey":0,"web_map":"","available":"false","iiifUrl":""},"geometry":{"bbox":[139,41.33333333333333,140,41.99999999999999],"type":"Polygon","coordinates":[[[139,41.33333333333333],[139,41.99999999999999],[140,41.99999999999999],[140,41.33333333333333],[139,41.33333333333333]]]}},{"type":"Feature","properties":{"Id":0,"Sheet_ID":"17-15. 函館","label":"17-15. 函館","call_short":"","call_num":"","recid":"","websiteUrl":"","title":"","ckey":0,"web_map":"","available":"false","iiifUrl":""},"geometry":{"bbox":[140,41.33333333333333,141,41.99999999999999],"type":"Polygon","coordinates":[[[140,41.33333333333333],[140,41.99999999999999],[141,41.99999999999999],[141,41.33333333333333],[140,41.33333333333333]]]}},{"type":"Feature","properties":{"Id":0,"Sheet_ID":"16-15. 尻屋崎","label":"16-15. 尻屋崎","call_short":"","call_num":"","recid":"","websiteUrl":"","title":"","ckey":0,"web_map":"","available":"false","iiifUrl":""},"geometry":{"bbox":[141,41.33333333333333,142,41.99999999999999],"type":"Polygon","coordinates":[[[141,41.33333333333333],[141,41.99999999999999],[142,41.99999999999999],[142,41.33333333333333],[141,41.33333333333333]]]}},{"type":"Feature","properties":{"Id":0,"Sheet_ID":"14-15. 襟裳岬","label":"14-15. 襟裳岬","call_short":"","call_num":"","recid":"","websiteUrl":"","title":"","ckey":0,"web_map":"","available":"false","iiifUrl":""},"geometry":{"bbox":[143,41.33333333333333,144,41.99999999999999],"type":"Polygon","coordinates":[[[143,41.33333333333333],[143,41.99999999999999],[144,41.99999999999999],[144,41.33333333333333],[143,41.33333333333333]]]}},{"type":"Feature","properties":{"Id":0,"Sheet_ID":"18-14. 久遠","label":"18-14. 久遠","call_short":"","call_num":"","recid":"","websiteUrl":"","title":"","ckey":0,"web_map":"","available":"false","iiifUrl":""},"geometry":{"bbox":[139,42,140,42.666666666666664],"type":"Polygon","coordinates":[[[139,42],[139,42.666666666666664],[140,42.666666666666664],[140,42],[139,42]]]}},{"type":"Feature","properties":{"Id":0,"Sheet_ID":"17-14. 室蘭","label":"17-14. 室蘭","call_short":"","call_num":"","recid":"","websiteUrl":"","title":"","ckey":0,"web_map":"","available":"false","iiifUrl":""},"geometry":{"bbox":[140,42,141,42.666666666666664],"type":"Polygon","coordinates":[[[140,42],[140,42.666666666666664],[141,42.666666666666664],[141,42],[140,42]]]}},{"type":"Feature","properties":{"Id":0,"Sheet_ID":"16-14. 苫小牧","label":"16-14. 苫小牧","call_short":"","call_num":"","recid":"","websiteUrl":"","title":"","ckey":0,"web_map":"","available":"false","iiifUrl":""},"geometry":{"bbox":[141,42,142,42.666666666666664],"type":"Polygon","coordinates":[[[141,42],[141,42.666666666666664],[142,42.666666666666664],[142,42],[141,42]]]}},{"type":"Feature","properties":{"Id":0,"Sheet_ID":"15-14. 浦河","label":"15-14. 浦河","call_short":"","call_num":"","recid":"","websiteUrl":"","title":"","ckey":0,"web_map":"","available":"false","iiifUrl":""},"geometry":{"bbox":[142,42,143,42.666666666666664],"type":"Polygon","coordinates":[[[142,42],[142,42.666666666666664],[143,42.666666666666664],[143,42],[142,42]]]}},{"type":"Feature","properties":{"Id":0,"Sheet_ID":"14-14. 茂寄","label":"14-14. 茂寄","call_short":"","call_num":"","recid":"","websiteUrl":"","title":"","ckey":0,"web_map":"","available":"false","iiifUrl":""},"geometry":{"bbox":[143,42,144,42.666666666666664],"type":"Polygon","coordinates":[[[143,42],[143,42.666666666666664],[144,42.666666666666664],[144,42],[143,42]]]}},{"type":"Feature","properties":{"Id":0,"Sheet_ID":"17-13. 岩内","label":"17-13. 岩内","call_short":"","call_num":"","recid":"","websiteUrl":"","title":"","ckey":0,"web_map":"","available":"false","iiifUrl":""},"geometry":{"bbox":[140,42.666666666666664,141,43.33333333333333],"type":"Polygon","coordinates":[[[140,42.666666666666664],[140,43.33333333333333],[141,43.33333333333333],[141,42.666666666666664],[140,42.666666666666664]]]}},{"type":"Feature","properties":{"Id":0,"Sheet_ID":"16-13. 札幌","label":"16-13. 札幌","call_short":"","call_num":"","recid":"","websiteUrl":"","title":"","ckey":0,"web_map":"","available":"false","iiifUrl":""},"geometry":{"bbox":[141,42.666666666666664,142,43.33333333333333],"type":"Polygon","coordinates":[[[141,42.666666666666664],[141,43.33333333333333],[142,43.33333333333333],[142,42.666666666666664],[141,42.666666666666664]]]}},{"type":"Feature","properties":{"Id":0,"Sheet_ID":"15-13. 夕張嶽","label":"15-13. 夕張嶽","call_short":"","call_num":"","recid":"","websiteUrl":"","title":"","ckey":0,"web_map":"","available":"false","iiifUrl":""},"geometry":{"bbox":[142,42.666666666666664,143,43.33333333333333],"type":"Polygon","coordinates":[[[142,42.666666666666664],[142,43.33333333333333],[143,43.33333333333333],[143,42.666666666666664],[142,42.666666666666664]]]}},{"type":"Feature","properties":{"Id":0,"Sheet_ID":"14-13.","label":"","call_short":"","call_num":"","recid":"","websiteUrl":"","title":"","ckey":0,"web_map":"","available":"false","iiifUrl":""},"geometry":{"bbox":[143,42.666666666666664,144,43.33333333333333],"type":"Polygon","coordinates":[[[143,42.666666666666664],[143,43.33333333333333],[144,43.33333333333333],[144,42.666666666666664],[143,42.666666666666664]]]}},{"type":"Feature","properties":{"Id":0,"Sheet_ID":"13-13. 厚岸","label":"13-13. 厚岸","call_short":"","call_num":"","recid":"","websiteUrl":"","title":"","ckey":0,"web_map":"","available":"false","iiifUrl":""},"geometry":{"bbox":[144,42.666666666666664,145,43.33333333333333],"type":"Polygon","coordinates":[[[144,42.666666666666664],[144,43.33333333333333],[145,43.33333333333333],[145,42.666666666666664],[144,42.666666666666664]]]}},{"type":"Feature","properties":{"Id":0,"Sheet_ID":"12-13. 濱中","label":"12-13. 濱中","call_short":"","call_num":"","recid":"","websiteUrl":"","title":"","ckey":0,"web_map":"","available":"false","iiifUrl":""},"geometry":{"bbox":[145,42.666666666666664,146,43.33333333333333],"type":"Polygon","coordinates":[[[145,42.666666666666664],[145,43.33333333333333],[146,43.33333333333333],[146,42.666666666666664],[145,42.666666666666664]]]}},{"type":"Feature","properties":{"Id":0,"Sheet_ID":"16-12. 増毛","label":"16-12. 増毛","call_short":"","call_num":"","recid":"","websiteUrl":"","title":"","ckey":0,"web_map":"","available":"false","iiifUrl":""},"geometry":{"bbox":[141,43.33333333333333,142,43.99999999999999],"type":"Polygon","coordinates":[[[141,43.33333333333333],[141,43.99999999999999],[142,43.99999999999999],[142,43.33333333333333],[141,43.33333333333333]]]}},{"type":"Feature","properties":{"Id":0,"Sheet_ID":"15-12. 神居古潭","label":"15-12. 神居古潭","call_short":"","call_num":"","recid":"","websiteUrl":"","title":"","ckey":0,"web_map":"","available":"false","iiifUrl":""},"geometry":{"bbox":[142,43.33333333333333,143,43.99999999999999],"type":"Polygon","coordinates":[[[142,43.33333333333333],[142,43.99999999999999],[143,43.99999999999999],[143,43.33333333333333],[142,43.33333333333333]]]}},{"type":"Feature","properties":{"Id":0,"Sheet_ID":"14-12. 淕別","label":"14-12. 淕別","call_short":"","call_num":"","recid":"","websiteUrl":"","title":"","ckey":0,"web_map":"","available":"false","iiifUrl":""},"geometry":{"bbox":[143,43.33333333333333,144,43.99999999999999],"type":"Polygon","coordinates":[[[143,43.33333333333333],[143,43.99999999999999],[144,43.99999999999999],[144,43.33333333333333],[143,43.33333333333333]]]}},{"type":"Feature","properties":{"Id":0,"Sheet_ID":"13-12. 斜里","label":"13-12. 斜里","call_short":"","call_num":"","recid":"","websiteUrl":"","title":"","ckey":0,"web_map":"","available":"false","iiifUrl":""},"geometry":{"bbox":[144,43.33333333333333,145,43.99999999999999],"type":"Polygon","coordinates":[[[144,43.33333333333333],[144,43.99999999999999],[145,43.99999999999999],[145,43.33333333333333],[144,43.33333333333333]]]}},{"type":"Feature","properties":{"Id":0,"Sheet_ID":"12-12. 根室","label":"12-12. 根室","call_short":"","call_num":"","recid":"","websiteUrl":"","title":"","ckey":0,"web_map":"","available":"false","iiifUrl":""},"geometry":{"bbox":[145,43.33333333333333,146,43.99999999999999],"type":"Polygon","coordinates":[[[145,43.33333333333333],[145,43.99999999999999],[146,43.99999999999999],[146,43.33333333333333],[145,43.33333333333333]]]}},{"type":"Feature","properties":{"Id":0,"Sheet_ID":"11-12. 色丹嶋","label":"11-12. 色丹嶋","call_short":"","call_num":"","recid":"","websiteUrl":"","title":"","ckey":0,"web_map":"","available":"false","iiifUrl":""},"geometry":{"bbox":[146,43.33333333333333,147,43.99999999999999],"type":"Polygon","coordinates":[[[146,43.33333333333333],[146,43.99999999999999],[147,43.99999999999999],[147,43.33333333333333],[146,43.33333333333333]]]}},{"type":"Feature","properties":{"Id":0,"Sheet_ID":"16-11. 苫前","label":"16-11. 苫前","call_short":"","call_num":"","recid":"","websiteUrl":"","title":"","ckey":0,"web_map":"","available":"false","iiifUrl":""},"geometry":{"bbox":[141,44,142,44.666666666666664],"type":"Polygon","coordinates":[[[141,44],[141,44.666666666666664],[142,44.666666666666664],[142,44],[141,44]]]}},{"type":"Feature","properties":{"Id":0,"Sheet_ID":"15-11. 幌内","label":"15-11. 幌内","call_short":"","call_num":"","recid":"","websiteUrl":"","title":"","ckey":0,"web_map":"","available":"false","iiifUrl":""},"geometry":{"bbox":[142,44,143,44.666666666666664],"type":"Polygon","coordinates":[[[142,44],[142,44.666666666666664],[143,44.666666666666664],[143,44],[142,44]]]}},{"type":"Feature","properties":{"Id":0,"Sheet_ID":"14-11. 紋別","label":"14-11. 紋別","call_short":"","call_num":"","recid":"","websiteUrl":"","title":"","ckey":0,"web_map":"","available":"false","iiifUrl":""},"geometry":{"bbox":[143,44,144,44.666666666666664],"type":"Polygon","coordinates":[[[143,44],[143,44.666666666666664],[144,44.666666666666664],[144,44],[143,44]]]}},{"type":"Feature","properties":{"Id":0,"Sheet_ID":"13-11. 網走","label":"13-11. 網走","call_short":"","call_num":"","recid":"","websiteUrl":"","title":"","ckey":0,"web_map":"","available":"false","iiifUrl":""},"geometry":{"bbox":[144,44,145,44.666666666666664],"type":"Polygon","coordinates":[[[144,44],[144,44.666666666666664],[145,44.666666666666664],[145,44],[144,44]]]}},{"type":"Feature","properties":{"Id":0,"Sheet_ID":"12-11. 知床岬","label":"12-11. 知床岬","call_short":"","call_num":"","recid":"","websiteUrl":"","title":"","ckey":0,"web_map":"","available":"false","iiifUrl":""},"geometry":{"bbox":[145,44,146,44.666666666666664],"type":"Polygon","coordinates":[[[145,44],[145,44.666666666666664],[146,44.666666666666664],[146,44],[145,44]]]}},{"type":"Feature","properties":{"Id":0,"Sheet_ID":"11-11. 阿吐江也岬","label":"11-11. 阿吐江也岬","call_short":"","call_num":"","recid":"","websiteUrl":"","title":"","ckey":0,"web_map":"","available":"false","iiifUrl":""},"geometry":{"bbox":[146,44,147,44.666666666666664],"type":"Polygon","coordinates":[[[146,44],[146,44.666666666666664],[147,44.666666666666664],[147,44],[146,44]]]}},{"type":"Feature","properties":{"Id":0,"Sheet_ID":"10-11. 茂以計志岬","label":"10-11. 茂以計志岬","call_short":"","call_num":"","recid":"","websiteUrl":"","title":"","ckey":0,"web_map":"","available":"false","iiifUrl":""},"geometry":{"bbox":[147,44,148,44.666666666666664],"type":"Polygon","coordinates":[[[147,44],[147,44.666666666666664],[148,44.666666666666664],[148,44],[147,44]]]}},{"type":"Feature","properties":{"Id":0,"Sheet_ID":"16-10. 天鹽","label":"16-10. 天鹽","call_short":"","call_num":"","recid":"","websiteUrl":"","title":"","ckey":0,"web_map":"","available":"false","iiifUrl":""},"geometry":{"bbox":[141,44.666666666666664,142,45.33333333333333],"type":"Polygon","coordinates":[[[141,44.666666666666664],[141,45.33333333333333],[142,45.33333333333333],[142,44.666666666666664],[141,44.666666666666664]]]}},{"type":"Feature","properties":{"Id":0,"Sheet_ID":"15-10. 枝幸","label":"15-10. 枝幸","call_short":"","call_num":"","recid":"","websiteUrl":"","title":"","ckey":0,"web_map":"","available":"false","iiifUrl":""},"geometry":{"bbox":[142,44.666666666666664,143,45.33333333333333],"type":"Polygon","coordinates":[[[142,44.666666666666664],[142,45.33333333333333],[143,45.33333333333333],[143,44.666666666666664],[142,44.666666666666664]]]}},{"type":"Feature","properties":{"Id":0,"Sheet_ID":"10-10. 紗那","label":"10-10. 紗那","call_short":"","call_num":"","recid":"","websiteUrl":"","title":"","ckey":0,"web_map":"","available":"false","iiifUrl":""},"geometry":{"bbox":[147,44.666666666666664,148,45.33333333333333],"type":"Polygon","coordinates":[[[147,44.666666666666664],[147,45.33333333333333],[148,45.33333333333333],[148,44.666666666666664],[147,44.666666666666664]]]}},{"type":"Feature","properties":{"Id":0,"Sheet_ID":"9-10. 別飛","label":"9-10. 別飛","call_short":"","call_num":"","recid":"","websiteUrl":"","title":"","ckey":0,"web_map":"","available":"false","iiifUrl":""},"geometry":{"bbox":[148,44.666666666666664,149,45.33333333333333],"type":"Polygon","coordinates":[[[148,44.666666666666664],[148,45.33333333333333],[149,45.33333333333333],[149,44.666666666666664],[148,44.666666666666664]]]}},{"type":"Feature","properties":{"Id":0,"Sheet_ID":"16-9. 宗谷","label":"16-9. 宗谷","call_short":"","call_num":"","recid":"","websiteUrl":"","title":"","ckey":0,"web_map":"","available":"false","iiifUrl":""},"geometry":{"bbox":[141,45.33333333333333,142,45.99999999999999],"type":"Polygon","coordinates":[[[141,45.33333333333333],[141,45.99999999999999],[142,45.99999999999999],[142,45.33333333333333],[141,45.33333333333333]]]}},{"type":"Feature","properties":{"Id":0,"Sheet_ID":"9-9. 蘂取","label":"9-9. 蘂取","call_short":"","call_num":"","recid":"","websiteUrl":"","title":"","ckey":0,"web_map":"","available":"false","iiifUrl":""},"geometry":{"bbox":[148,45.33333333333333,149,45.99999999999999],"type":"Polygon","coordinates":[[[148,45.33333333333333],[148,45.99999999999999],[149,45.99999999999999],[149,45.33333333333333],[148,45.33333333333333]]]}}],"name":"index_10651291"}
