{"type":"FeatureCollection","features":[{"type":"Feature","properties":{"Id":0,"Sheet_ID":"23. 羽田燈台","label":"23. 羽田燈台","call_short":"","call_num":"","recid":"","websiteUrl":"","title":"","ckey":0,"web_map":"","available":"false","iiifUrl":""},"geometry":{"bbox":[139.75277799999998,35.5,139.802778,35.5333333],"type":"Polygon","coordinates":[[[139.75277799999998,35.5],[139.75277799999998,35.5333333],[139.802778,35.5333333],[139.802778,35.5],[139.75277799999998,35.5]]]}},{"type":"Feature","properties":{"Id":0,"Sheet_ID":"39. 矢口","label":"39. 矢口","call_short":"","call_num":"","recid":"","websiteUrl":"","title":"","ckey":0,"web_map":"","available":"false","iiifUrl":""},"geometry":{"bbox":[139.65277799999998,35.5333333,139.702778,35.566666600000005],"type":"Polygon","coordinates":[[[139.65277799999998,35.5333333],[139.65277799999998,35.566666600000005],[139.702778,35.566666600000005],[139.702778,35.5333333],[139.65277799999998,35.5333333]]]}},{"type":"Feature","properties":{"Id":0,"Sheet_ID":"31. 蒲田","label":"31. 蒲田","call_short":"","call_num":"","recid":"","websiteUrl":"","title":"","ckey":0,"web_map":"","available":"false","iiifUrl":""},"geometry":{"bbox":[139.702778,35.5333333,139.752778,35.566666600000005],"type":"Polygon","coordinates":[[[139.702778,35.5333333],[139.702778,35.566666600000005],[139.752778,35.566666600000005],[139.752778,35.5333333],[139.702778,35.5333333]]]}},{"type":"Feature","properties":{"Id":0,"Sheet_ID":"22. 穴守","label":"22. 穴守","call_short":"","call_num":"","recid":"","websiteUrl":"","title":"","ckey":0,"web_map":"","available":"false","iiifUrl":""},"geometry":{"bbox":[139.75277799999998,35.5333333,139.802778,35.566666600000005],"type":"Polygon","coordinates":[[[139.75277799999998,35.5333333],[139.75277799999998,35.566666600000005],[139.802778,35.566666600000005],[139.802778,35.5333333],[139.75277799999998,35.5333333]]]}},{"type":"Feature","properties":{"Id":0,"Sheet_ID":"46. 溝口","label":"46. 溝口","call_short":"","call_num":"","recid":"","websiteUrl":"","title":"","ckey":0,"web_map":"","available":"false","iiifUrl":""},"geometry":{"bbox":[139.602778,35.5666666,139.652778,35.5999999],"type":"Polygon","coordinates":[[[139.602778,35.5666666],[139.602778,35.5999999],[139.652778,35.5999999],[139.652778,35.5666666],[139.602778,35.5666666]]]}},{"type":"Feature","properties":{"Id":0,"Sheet_ID":"38. 田園調布","label":"38. 田園調布","call_short":"","call_num":"","recid":"","websiteUrl":"","title":"","ckey":0,"web_map":"","available":"false","iiifUrl":""},"geometry":{"bbox":[139.65277799999998,35.5666666,139.702778,35.5999999],"type":"Polygon","coordinates":[[[139.65277799999998,35.5666666],[139.65277799999998,35.5999999],[139.702778,35.5999999],[139.702778,35.5666666],[139.65277799999998,35.5666666]]]}},{"type":"Feature","properties":{"Id":0,"Sheet_ID":"30. 大森","label":"30. 大森","call_short":"","call_num":"","recid":"","websiteUrl":"","title":"","ckey":0,"web_map":"","available":"false","iiifUrl":""},"geometry":{"bbox":[139.702778,35.5666666,139.752778,35.5999999],"type":"Polygon","coordinates":[[[139.702778,35.5666666],[139.702778,35.5999999],[139.752778,35.5999999],[139.752778,35.5666666],[139.702778,35.5666666]]]}},{"type":"Feature","properties":{"Id":0,"Sheet_ID":"52. 登戸","label":"52. 登戸","call_short":"G7964 .T7 1937 .J3","call_num":"G7964 .T7 1937 .J3 SHEET 52","recid":"fz575hp7285","websiteUrl":"https://purl.stanford.edu/fz575hp7285","title":"一万分一地形圖 東京近傍","ckey":10645343,"web_map":"","available":"true","iiifUrl":"https://purl.stanford.edu/fz575hp7285/iiif/manifest"},"geometry":{"bbox":[139.552778,35.5999999,139.602778,35.6333332],"type":"Polygon","coordinates":[[[139.552778,35.5999999],[139.552778,35.6333332],[139.602778,35.6333332],[139.602778,35.5999999],[139.552778,35.5999999]]]}},{"type":"Feature","properties":{"Id":0,"Sheet_ID":"45. 二子","label":"45. 二子","call_short":"","call_num":"","recid":"","websiteUrl":"","title":"","ckey":0,"web_map":"","available":"false","iiifUrl":""},"geometry":{"bbox":[139.602778,35.5999999,139.652778,35.6333332],"type":"Polygon","coordinates":[[[139.602778,35.5999999],[139.602778,35.6333332],[139.652778,35.6333332],[139.652778,35.5999999],[139.602778,35.5999999]]]}},{"type":"Feature","properties":{"Id":0,"Sheet_ID":"37. 碑文谷","label":"37. 碑文谷","call_short":"","call_num":"","recid":"","websiteUrl":"","title":"","ckey":0,"web_map":"","available":"false","iiifUrl":""},"geometry":{"bbox":[139.65277799999998,35.5999999,139.702778,35.6333332],"type":"Polygon","coordinates":[[[139.65277799999998,35.5999999],[139.65277799999998,35.6333332],[139.702778,35.6333332],[139.702778,35.5999999],[139.65277799999998,35.5999999]]]}},{"type":"Feature","properties":{"Id":0,"Sheet_ID":"29. 品川","label":"29. 品川","call_short":"","call_num":"","recid":"","websiteUrl":"","title":"","ckey":0,"web_map":"","available":"false","iiifUrl":""},"geometry":{"bbox":[139.702778,35.5999999,139.752778,35.6333332],"type":"Polygon","coordinates":[[[139.702778,35.5999999],[139.702778,35.6333332],[139.752778,35.6333332],[139.752778,35.5999999],[139.702778,35.5999999]]]}},{"type":"Feature","properties":{"Id":0,"Sheet_ID":"21. 品川台場","label":"21. 品川台場","call_short":"","call_num":"","recid":"","websiteUrl":"","title":"","ckey":0,"web_map":"","available":"false","iiifUrl":""},"geometry":{"bbox":[139.75277799999998,35.5999999,139.802778,35.6333332],"type":"Polygon","coordinates":[[[139.75277799999998,35.5999999],[139.75277799999998,35.6333332],[139.802778,35.6333332],[139.802778,35.5999999],[139.75277799999998,35.5999999]]]}},{"type":"Feature","properties":{"Id":0,"Sheet_ID":"8. 江戸川口","label":"8. 江戸川口","call_short":"","call_num":"","recid":"","websiteUrl":"","title":"","ckey":0,"web_map":"","available":"false","iiifUrl":""},"geometry":{"bbox":[139.852778,35.5999999,139.902778,35.6333332],"type":"Polygon","coordinates":[[[139.852778,35.5999999],[139.852778,35.6333332],[139.902778,35.6333332],[139.902778,35.5999999],[139.852778,35.5999999]]]}},{"type":"Feature","properties":{"Id":0,"Sheet_ID":"51. 成城","label":"51. 成城","call_short":"","call_num":"","recid":"","websiteUrl":"","title":"","ckey":0,"web_map":"","available":"false","iiifUrl":""},"geometry":{"bbox":[139.552778,35.6333332,139.602778,35.666666500000005],"type":"Polygon","coordinates":[[[139.552778,35.6333332],[139.552778,35.666666500000005],[139.602778,35.666666500000005],[139.602778,35.6333332],[139.552778,35.6333332]]]}},{"type":"Feature","properties":{"Id":0,"Sheet_ID":"44. 経堂","label":"44. 経堂","call_short":"G7964 .T7 1937 .J3","call_num":"G7964 .T7 1937 .J3 SHEET 44","recid":"kq989kw9966","websiteUrl":"https://purl.stanford.edu/kq989kw9966","title":"一万分一地形圖 東京近傍","ckey":10645343,"web_map":"","available":"true","iiifUrl":"https://purl.stanford.edu/kq989kw9966/iiif/manifest"},"geometry":{"bbox":[139.602778,35.6333332,139.652778,35.666666500000005],"type":"Polygon","coordinates":[[[139.602778,35.6333332],[139.602778,35.666666500000005],[139.652778,35.666666500000005],[139.652778,35.6333332],[139.602778,35.6333332]]]}},{"type":"Feature","properties":{"Id":0,"Sheet_ID":"36. 世田谷","label":"36. 世田谷","call_short":"","call_num":"","recid":"","websiteUrl":"","title":"","ckey":0,"web_map":"","available":"false","iiifUrl":""},"geometry":{"bbox":[139.65277799999998,35.6333332,139.702778,35.666666500000005],"type":"Polygon","coordinates":[[[139.65277799999998,35.6333332],[139.65277799999998,35.666666500000005],[139.702778,35.666666500000005],[139.702778,35.6333332],[139.65277799999998,35.6333332]]]}},{"type":"Feature","properties":{"Id":0,"Sheet_ID":"28. 三田","label":"28. 三田","call_short":"G7964 .T7 1937 .J3","call_num":"G7964 .T7 1937 .J3 SHEET 28","recid":"xm444zc9977","websiteUrl":"https://purl.stanford.edu/xm444zc9977","title":"一万分一地形圖 東京近傍","ckey":10645343,"web_map":"","available":"true","iiifUrl":"https://purl.stanford.edu/xm444zc9977/iiif/manifest"},"geometry":{"bbox":[139.702778,35.6333332,139.752778,35.666666500000005],"type":"Polygon","coordinates":[[[139.702778,35.6333332],[139.702778,35.666666500000005],[139.752778,35.666666500000005],[139.752778,35.6333332],[139.702778,35.6333332]]]}},{"type":"Feature","properties":{"Id":0,"Sheet_ID":"20. 新橋","label":"20. 新橋","call_short":"G7964 .T7 1937 .J3","call_num":"G7964 .T7 1937 .J3 SHEET 20","recid":"ht950zm4194","websiteUrl":"https://purl.stanford.edu/ht950zm4194","title":"一万分一地形圖 東京近傍","ckey":10645343,"web_map":"","available":"true","iiifUrl":"https://purl.stanford.edu/ht950zm4194/iiif/manifest"},"geometry":{"bbox":[139.75277799999998,35.6333332,139.802778,35.666666500000005],"type":"Polygon","coordinates":[[[139.75277799999998,35.6333332],[139.75277799999998,35.666666500000005],[139.802778,35.666666500000005],[139.802778,35.6333332],[139.75277799999998,35.6333332]]]}},{"type":"Feature","properties":{"Id":0,"Sheet_ID":"14. 洲崎","label":"14. 洲崎","call_short":"","call_num":"","recid":"","websiteUrl":"","title":"","ckey":0,"web_map":"","available":"false","iiifUrl":""},"geometry":{"bbox":[139.802778,35.6333332,139.852778,35.666666500000005],"type":"Polygon","coordinates":[[[139.802778,35.6333332],[139.802778,35.666666500000005],[139.852778,35.666666500000005],[139.852778,35.6333332],[139.802778,35.6333332]]]}},{"type":"Feature","properties":{"Id":0,"Sheet_ID":"7. 浦安","label":"7. 浦安","call_short":"","call_num":"","recid":"","websiteUrl":"","title":"","ckey":0,"web_map":"","available":"false","iiifUrl":""},"geometry":{"bbox":[139.852778,35.6333332,139.902778,35.666666500000005],"type":"Polygon","coordinates":[[[139.852778,35.6333332],[139.852778,35.666666500000005],[139.902778,35.666666500000005],[139.902778,35.6333332],[139.852778,35.6333332]]]}},{"type":"Feature","properties":{"Id":0,"Sheet_ID":"50. 井之頭","label":"50. 井之頭","call_short":"","call_num":"","recid":"","websiteUrl":"","title":"","ckey":0,"web_map":"","available":"false","iiifUrl":""},"geometry":{"bbox":[139.552778,35.666666500000005,139.602778,35.69999980000001],"type":"Polygon","coordinates":[[[139.552778,35.666666500000005],[139.552778,35.69999980000001],[139.602778,35.69999980000001],[139.602778,35.666666500000005],[139.552778,35.666666500000005]]]}},{"type":"Feature","properties":{"Id":0,"Sheet_ID":"43. 上高井戸","label":"43. 上高井戸","call_short":"","call_num":"","recid":"","websiteUrl":"","title":"","ckey":0,"web_map":"","available":"false","iiifUrl":""},"geometry":{"bbox":[139.602778,35.666666500000005,139.652778,35.69999980000001],"type":"Polygon","coordinates":[[[139.602778,35.666666500000005],[139.602778,35.69999980000001],[139.652778,35.69999980000001],[139.652778,35.666666500000005],[139.602778,35.666666500000005]]]}},{"type":"Feature","properties":{"Id":0,"Sheet_ID":"35. 中野","label":"35. 中野","call_short":"G7964 .T7 1937 .J3","call_num":"G7964 .T7 1937 .J3 SHEET 35","recid":"fb503mc2305","websiteUrl":"https://purl.stanford.edu/fb503mc2305","title":"一万分一地形圖 東京近傍","ckey":10645343,"web_map":"","available":"true","iiifUrl":"https://purl.stanford.edu/fb503mc2305/iiif/manifest"},"geometry":{"bbox":[139.65277799999998,35.666666500000005,139.702778,35.69999980000001],"type":"Polygon","coordinates":[[[139.65277799999998,35.666666500000005],[139.65277799999998,35.69999980000001],[139.702778,35.69999980000001],[139.702778,35.666666500000005],[139.65277799999998,35.666666500000005]]]}},{"type":"Feature","properties":{"Id":0,"Sheet_ID":"27. 四谷","label":"27. 四谷","call_short":"G7964 .T7 1937 .J3","call_num":"G7964 .T7 1937 .J3 SHEET 27","recid":"bs999qx0413","websiteUrl":"https://purl.stanford.edu/bs999qx0413","title":"一万分一地形圖 東京近傍","ckey":10645343,"web_map":"","available":"true","iiifUrl":"https://purl.stanford.edu/bs999qx0413/iiif/manifest"},"geometry":{"bbox":[139.702778,35.666666500000005,139.752778,35.69999980000001],"type":"Polygon","coordinates":[[[139.702778,35.666666500000005],[139.702778,35.69999980000001],[139.752778,35.69999980000001],[139.752778,35.666666500000005],[139.702778,35.666666500000005]]]}},{"type":"Feature","properties":{"Id":0,"Sheet_ID":"19. 日本橋","label":"19. 日本橋","call_short":"","call_num":"","recid":"","websiteUrl":"","title":"","ckey":0,"web_map":"","available":"false","iiifUrl":""},"geometry":{"bbox":[139.75277799999998,35.666666500000005,139.802778,35.69999980000001],"type":"Polygon","coordinates":[[[139.75277799999998,35.666666500000005],[139.75277799999998,35.69999980000001],[139.802778,35.69999980000001],[139.802778,35.666666500000005],[139.75277799999998,35.666666500000005]]]}},{"type":"Feature","properties":{"Id":0,"Sheet_ID":"13. 深川","label":"13. 深川","call_short":"","call_num":"","recid":"","websiteUrl":"","title":"","ckey":0,"web_map":"","available":"false","iiifUrl":""},"geometry":{"bbox":[139.802778,35.666666500000005,139.852778,35.69999980000001],"type":"Polygon","coordinates":[[[139.802778,35.666666500000005],[139.802778,35.69999980000001],[139.852778,35.69999980000001],[139.852778,35.666666500000005],[139.802778,35.666666500000005]]]}},{"type":"Feature","properties":{"Id":0,"Sheet_ID":"6. 小松川","label":"6. 小松川","call_short":"","call_num":"","recid":"","websiteUrl":"","title":"","ckey":0,"web_map":"","available":"false","iiifUrl":""},"geometry":{"bbox":[139.852778,35.666666500000005,139.902778,35.69999980000001],"type":"Polygon","coordinates":[[[139.852778,35.666666500000005],[139.852778,35.69999980000001],[139.902778,35.69999980000001],[139.902778,35.666666500000005],[139.852778,35.666666500000005]]]}},{"type":"Feature","properties":{"Id":0,"Sheet_ID":"2. 行徳","label":"2. 行徳","call_short":"","call_num":"","recid":"","websiteUrl":"","title":"","ckey":0,"web_map":"","available":"false","iiifUrl":""},"geometry":{"bbox":[139.90277799999998,35.666666500000005,139.952778,35.69999980000001],"type":"Polygon","coordinates":[[[139.90277799999998,35.666666500000005],[139.90277799999998,35.69999980000001],[139.952778,35.69999980000001],[139.952778,35.666666500000005],[139.90277799999998,35.666666500000005]]]}},{"type":"Feature","properties":{"Id":0,"Sheet_ID":"49. 吉祥寺","label":"49. 吉祥寺","call_short":"","call_num":"","recid":"","websiteUrl":"","title":"","ckey":0,"web_map":"","available":"false","iiifUrl":""},"geometry":{"bbox":[139.552778,35.6999998,139.602778,35.73333310000001],"type":"Polygon","coordinates":[[[139.552778,35.6999998],[139.552778,35.73333310000001],[139.602778,35.73333310000001],[139.602778,35.6999998],[139.552778,35.6999998]]]}},{"type":"Feature","properties":{"Id":0,"Sheet_ID":"42. 荻窪","label":"42. 荻窪","call_short":"","call_num":"","recid":"","websiteUrl":"","title":"","ckey":0,"web_map":"","available":"false","iiifUrl":""},"geometry":{"bbox":[139.602778,35.6999998,139.652778,35.73333310000001],"type":"Polygon","coordinates":[[[139.602778,35.6999998],[139.602778,35.73333310000001],[139.652778,35.73333310000001],[139.652778,35.6999998],[139.602778,35.6999998]]]}},{"type":"Feature","properties":{"Id":0,"Sheet_ID":"34. 新井","label":"34. 新井","call_short":"","call_num":"","recid":"","websiteUrl":"","title":"","ckey":0,"web_map":"","available":"false","iiifUrl":""},"geometry":{"bbox":[139.65277799999998,35.6999998,139.702778,35.73333310000001],"type":"Polygon","coordinates":[[[139.65277799999998,35.6999998],[139.65277799999998,35.73333310000001],[139.702778,35.73333310000001],[139.702778,35.6999998],[139.65277799999998,35.6999998]]]}},{"type":"Feature","properties":{"Id":0,"Sheet_ID":"26. 早稲田","label":"26. 早稲田","call_short":"","call_num":"","recid":"","websiteUrl":"","title":"","ckey":0,"web_map":"","available":"false","iiifUrl":""},"geometry":{"bbox":[139.702778,35.6999998,139.752778,35.73333310000001],"type":"Polygon","coordinates":[[[139.702778,35.6999998],[139.702778,35.73333310000001],[139.752778,35.73333310000001],[139.752778,35.6999998],[139.702778,35.6999998]]]}},{"type":"Feature","properties":{"Id":0,"Sheet_ID":"18. 上野","label":"18. 上野","call_short":"","call_num":"","recid":"","websiteUrl":"","title":"","ckey":0,"web_map":"","available":"false","iiifUrl":""},"geometry":{"bbox":[139.75277799999998,35.6999998,139.802778,35.73333310000001],"type":"Polygon","coordinates":[[[139.75277799999998,35.6999998],[139.75277799999998,35.73333310000001],[139.802778,35.73333310000001],[139.802778,35.6999998],[139.75277799999998,35.6999998]]]}},{"type":"Feature","properties":{"Id":0,"Sheet_ID":"12. 向島","label":"12. 向島","call_short":"","call_num":"","recid":"","websiteUrl":"","title":"","ckey":0,"web_map":"","available":"false","iiifUrl":""},"geometry":{"bbox":[139.802778,35.6999998,139.852778,35.73333310000001],"type":"Polygon","coordinates":[[[139.802778,35.6999998],[139.802778,35.73333310000001],[139.852778,35.73333310000001],[139.852778,35.6999998],[139.802778,35.6999998]]]}},{"type":"Feature","properties":{"Id":0,"Sheet_ID":"5. 小岩","label":"5. 小岩","call_short":"G7964 .T7 1937 .J3","call_num":"G7964 .T7 1937 .J3 SHEET 5","recid":"dp995yr3025","websiteUrl":"https://purl.stanford.edu/dp995yr3025","title":"一万分一地形圖 東京近傍","ckey":10645343,"web_map":"","available":"true","iiifUrl":"https://purl.stanford.edu/dp995yr3025/iiif/manifest"},"geometry":{"bbox":[139.852778,35.6999998,139.902778,35.73333310000001],"type":"Polygon","coordinates":[[[139.852778,35.6999998],[139.852778,35.73333310000001],[139.902778,35.73333310000001],[139.902778,35.6999998],[139.852778,35.6999998]]]}},{"type":"Feature","properties":{"Id":0,"Sheet_ID":"1. 市川","label":"1. 市川","call_short":"","call_num":"","recid":"","websiteUrl":"","title":"","ckey":0,"web_map":"","available":"false","iiifUrl":""},"geometry":{"bbox":[139.90277799999998,35.6999998,139.952778,35.73333310000001],"type":"Polygon","coordinates":[[[139.90277799999998,35.6999998],[139.90277799999998,35.73333310000001],[139.952778,35.73333310000001],[139.952778,35.6999998],[139.90277799999998,35.6999998]]]}},{"type":"Feature","properties":{"Id":0,"Sheet_ID":"48. 下保谷","label":"48. 下保谷","call_short":"","call_num":"","recid":"","websiteUrl":"","title":"","ckey":0,"web_map":"","available":"false","iiifUrl":""},"geometry":{"bbox":[139.552778,35.73333310000001,139.602778,35.766666400000005],"type":"Polygon","coordinates":[[[139.552778,35.73333310000001],[139.552778,35.766666400000005],[139.602778,35.766666400000005],[139.602778,35.73333310000001],[139.552778,35.73333310000001]]]}},{"type":"Feature","properties":{"Id":0,"Sheet_ID":"41. 石神井","label":"41. 石神井","call_short":"","call_num":"","recid":"","websiteUrl":"","title":"","ckey":0,"web_map":"","available":"false","iiifUrl":""},"geometry":{"bbox":[139.602778,35.73333310000001,139.652778,35.766666400000005],"type":"Polygon","coordinates":[[[139.602778,35.73333310000001],[139.602778,35.766666400000005],[139.652778,35.766666400000005],[139.652778,35.73333310000001],[139.602778,35.73333310000001]]]}},{"type":"Feature","properties":{"Id":0,"Sheet_ID":"33. 練馬","label":"33. 練馬","call_short":"","call_num":"","recid":"","websiteUrl":"","title":"","ckey":0,"web_map":"","available":"false","iiifUrl":""},"geometry":{"bbox":[139.65277799999998,35.73333310000001,139.702778,35.766666400000005],"type":"Polygon","coordinates":[[[139.65277799999998,35.73333310000001],[139.65277799999998,35.766666400000005],[139.702778,35.766666400000005],[139.702778,35.73333310000001],[139.65277799999998,35.73333310000001]]]}},{"type":"Feature","properties":{"Id":0,"Sheet_ID":"25. 王子","label":"25. 王子","call_short":"","call_num":"","recid":"","websiteUrl":"","title":"","ckey":0,"web_map":"","available":"false","iiifUrl":""},"geometry":{"bbox":[139.702778,35.73333310000001,139.752778,35.766666400000005],"type":"Polygon","coordinates":[[[139.702778,35.73333310000001],[139.702778,35.766666400000005],[139.752778,35.766666400000005],[139.752778,35.73333310000001],[139.702778,35.73333310000001]]]}},{"type":"Feature","properties":{"Id":0,"Sheet_ID":"17. 三河島","label":"17. 三河島","call_short":"","call_num":"","recid":"","websiteUrl":"","title":"","ckey":0,"web_map":"","available":"false","iiifUrl":""},"geometry":{"bbox":[139.75277799999998,35.73333310000001,139.802778,35.766666400000005],"type":"Polygon","coordinates":[[[139.75277799999998,35.73333310000001],[139.75277799999998,35.766666400000005],[139.802778,35.766666400000005],[139.802778,35.73333310000001],[139.75277799999998,35.73333310000001]]]}},{"type":"Feature","properties":{"Id":0,"Sheet_ID":"11. 千住","label":"11. 千住","call_short":"","call_num":"","recid":"","websiteUrl":"","title":"","ckey":0,"web_map":"","available":"false","iiifUrl":""},"geometry":{"bbox":[139.802778,35.73333310000001,139.852778,35.766666400000005],"type":"Polygon","coordinates":[[[139.802778,35.73333310000001],[139.802778,35.766666400000005],[139.852778,35.766666400000005],[139.852778,35.73333310000001],[139.802778,35.73333310000001]]]}},{"type":"Feature","properties":{"Id":0,"Sheet_ID":"4. 金町","label":"4. 金町","call_short":"","call_num":"","recid":"","websiteUrl":"","title":"","ckey":0,"web_map":"","available":"false","iiifUrl":""},"geometry":{"bbox":[139.852778,35.73333310000001,139.902778,35.766666400000005],"type":"Polygon","coordinates":[[[139.852778,35.73333310000001],[139.852778,35.766666400000005],[139.902778,35.766666400000005],[139.902778,35.73333310000001],[139.852778,35.73333310000001]]]}},{"type":"Feature","properties":{"Id":0,"Sheet_ID":"47. 膝折","label":"47. 膝折","call_short":"","call_num":"","recid":"","websiteUrl":"","title":"","ckey":0,"web_map":"","available":"false","iiifUrl":""},"geometry":{"bbox":[139.552778,35.766666400000005,139.602778,35.79999970000001],"type":"Polygon","coordinates":[[[139.552778,35.766666400000005],[139.552778,35.79999970000001],[139.602778,35.79999970000001],[139.602778,35.766666400000005],[139.552778,35.766666400000005]]]}},{"type":"Feature","properties":{"Id":0,"Sheet_ID":"40. 成増","label":"40. 成増","call_short":"","call_num":"","recid":"","websiteUrl":"","title":"","ckey":0,"web_map":"","available":"false","iiifUrl":""},"geometry":{"bbox":[139.602778,35.766666400000005,139.652778,35.79999970000001],"type":"Polygon","coordinates":[[[139.602778,35.766666400000005],[139.602778,35.79999970000001],[139.652778,35.79999970000001],[139.652778,35.766666400000005],[139.602778,35.766666400000005]]]}},{"type":"Feature","properties":{"Id":0,"Sheet_ID":"32. 志村","label":"32. 志村","call_short":"","call_num":"","recid":"","websiteUrl":"","title":"","ckey":0,"web_map":"","available":"false","iiifUrl":""},"geometry":{"bbox":[139.65277799999998,35.766666400000005,139.702778,35.79999970000001],"type":"Polygon","coordinates":[[[139.65277799999998,35.766666400000005],[139.65277799999998,35.79999970000001],[139.702778,35.79999970000001],[139.702778,35.766666400000005],[139.65277799999998,35.766666400000005]]]}},{"type":"Feature","properties":{"Id":0,"Sheet_ID":"24. 赤羽","label":"24. 赤羽","call_short":"G7964 .T7 1937 .J3","call_num":"G7964 .T7 1937 .J3 SHEET 24","recid":"jm510tn8073","websiteUrl":"https://purl.stanford.edu/jm510tn8073","title":"一万分一地形圖 東京近傍","ckey":10645343,"web_map":"","available":"true","iiifUrl":"https://purl.stanford.edu/jm510tn8073/iiif/manifest"},"geometry":{"bbox":[139.702778,35.766666400000005,139.752778,35.79999970000001],"type":"Polygon","coordinates":[[[139.702778,35.766666400000005],[139.702778,35.79999970000001],[139.752778,35.79999970000001],[139.752778,35.766666400000005],[139.702778,35.766666400000005]]]}},{"type":"Feature","properties":{"Id":0,"Sheet_ID":"16. 西新井","label":"16. 西新井","call_short":"","call_num":"","recid":"","websiteUrl":"","title":"","ckey":0,"web_map":"","available":"false","iiifUrl":""},"geometry":{"bbox":[139.75277799999998,35.766666400000005,139.802778,35.79999970000001],"type":"Polygon","coordinates":[[[139.75277799999998,35.766666400000005],[139.75277799999998,35.79999970000001],[139.802778,35.79999970000001],[139.802778,35.766666400000005],[139.75277799999998,35.766666400000005]]]}},{"type":"Feature","properties":{"Id":0,"Sheet_ID":"10. 花畑","label":"10. 花畑","call_short":"","call_num":"","recid":"","websiteUrl":"","title":"","ckey":0,"web_map":"","available":"false","iiifUrl":""},"geometry":{"bbox":[139.802778,35.766666400000005,139.852778,35.79999970000001],"type":"Polygon","coordinates":[[[139.802778,35.766666400000005],[139.802778,35.79999970000001],[139.852778,35.79999970000001],[139.852778,35.766666400000005],[139.802778,35.766666400000005]]]}},{"type":"Feature","properties":{"Id":0,"Sheet_ID":"3. 松戸","label":"3. 松戸","call_short":"G7964 .T7 1937 .J3","call_num":"G7964 .T7 1937 .J3 SHEET 3","recid":"bc874dk5819","websiteUrl":"https://purl.stanford.edu/bc874dk5819","title":"一万分一地形圖 東京近傍","ckey":10645343,"web_map":"","available":"true","iiifUrl":"https://purl.stanford.edu/bc874dk5819/iiif/manifest"},"geometry":{"bbox":[139.852778,35.766666400000005,139.902778,35.79999970000001],"type":"Polygon","coordinates":[[[139.852778,35.766666400000005],[139.852778,35.79999970000001],[139.902778,35.79999970000001],[139.902778,35.766666400000005],[139.852778,35.766666400000005]]]}},{"type":"Feature","properties":{"Id":0,"Sheet_ID":"15. 舎人","label":"15. 舎人","call_short":"G7964 .T7 1937 .J3","call_num":"G7964 .T7 1937 .J3 SHEET 15","recid":"hn330xm8493","websiteUrl":"https://purl.stanford.edu/hn330xm8493","title":"一万分一地形圖 東京近傍","ckey":10645343,"web_map":"","available":"true","iiifUrl":"https://purl.stanford.edu/hn330xm8493/iiif/manifest"},"geometry":{"bbox":[139.75277799999998,35.7999997,139.802778,35.833333],"type":"Polygon","coordinates":[[[139.75277799999998,35.7999997],[139.75277799999998,35.833333],[139.802778,35.833333],[139.802778,35.7999997],[139.75277799999998,35.7999997]]]}},{"type":"Feature","properties":{"Id":0,"Sheet_ID":"9. 草加","label":"9. 草加","call_short":"","call_num":"","recid":"","websiteUrl":"","title":"","ckey":0,"web_map":"","available":"false","iiifUrl":""},"geometry":{"bbox":[139.802778,35.7999997,139.852778,35.833333],"type":"Polygon","coordinates":[[[139.802778,35.7999997],[139.802778,35.833333],[139.852778,35.833333],[139.852778,35.7999997],[139.802778,35.7999997]]]}}],"name":"index_10645343"}
