{
"type": "FeatureCollection",
"name": "index_map",
"xy_coordinate_resolution": 1e-07,
"features": [
{ "type": "Feature", "properties": { "Id": 0, "Sheet_ID": "SHEET D20", "label": "SHEET D20", "call_short": "G7004 .S54 A1 S5 .J3", "call_num": "G7004 .S54 A1 S5 .J3 SHEET D20", "recid": "yj477mh5066", "websiteUrl": "https://purl.stanford.edu/yj477mh5066", "title": "南名好", "ckey": 8930509, "available": true, "iiifUrl": "https://purl.stanford.edu/yj477mh5066/iiif/manifest" }, "geometry": { "type": "Polygon", "coordinates": [ [ [ 141.8708336, 46.327778 ], [ 141.9375002, 46.327778 ], [ 141.9375002, 46.3500002 ], [ 141.8708336, 46.3500002 ], [ 141.8708336, 46.327778 ] ] ] } },
{ "type": "Feature", "properties": { "Id": 0, "Sheet_ID": "SHEET D21", "label": "SHEET D21", "call_short": "G7004 .S54 A1 S5 .J3", "call_num": "G7004 .S54 A1 S5 .J3 SHEET D21", "recid": "wc558hw7195", "websiteUrl": "https://purl.stanford.edu/wc558hw7195", "title": "南名好", "ckey": 8930509, "available": true, "iiifUrl": "https://purl.stanford.edu/wc558hw7195/iiif/manifest" }, "geometry": { "type": "Polygon", "coordinates": [ [ [ 141.9375002, 46.327778 ], [ 142.0041668, 46.327778 ], [ 142.0041668, 46.3500002 ], [ 141.9375002, 46.3500002 ], [ 141.9375002, 46.327778 ] ] ] } },
{ "type": "Feature", "properties": { "Id": 0, "Sheet_ID": "SHEET D22", "label": "SHEET D22", "call_short": "G7004 .S54 A1 S5 .J3", "call_num": "G7004 .S54 A1 S5 .J3 SHEET D22", "recid": "xj967vp3560", "websiteUrl": "https://purl.stanford.edu/xj967vp3560", "title": "南名好", "ckey": 8930509, "available": true, "iiifUrl": "https://purl.stanford.edu/xj967vp3560/iiif/manifest" }, "geometry": { "type": "Polygon", "coordinates": [ [ [ 142.0041668, 46.327778 ], [ 142.0708334, 46.327778 ], [ 142.0708334, 46.3500002 ], [ 142.0041668, 46.3500002 ], [ 142.0041668, 46.327778 ] ] ] } },
{ "type": "Feature", "properties": { "Id": 0, "Sheet_ID": "SHEET D23", "label": "SHEET D23", "call_short": "G7004 .S54 A1 S5 .J3", "call_num": "G7004 .S54 A1 S5 .J3 SHEET D23", "recid": "dj129zf5845", "websiteUrl": "https://purl.stanford.edu/dj129zf5845", "title": "南名好", "ckey": 8930509, "available": true, "iiifUrl": "https://purl.stanford.edu/dj129zf5845/iiif/manifest" }, "geometry": { "type": "Polygon", "coordinates": [ [ [ 142.0708334, 46.327778 ], [ 142.1375, 46.327778 ], [ 142.1375, 46.3500002 ], [ 142.0708334, 46.3500002 ], [ 142.0708334, 46.327778 ] ] ] } },
{ "type": "Feature", "properties": { "Id": 0, "Sheet_ID": "SHEET D15", "label": "SHEET D15", "call_short": "G7004 .S54 A1 S5 .J3", "call_num": "G7004 .S54 A1 S5 .J3 SHEET D15", "recid": "sd816mk0438", "websiteUrl": "https://purl.stanford.edu/sd816mk0438", "title": "南名好", "ckey": 8930509, "available": true, "iiifUrl": "https://purl.stanford.edu/sd816mk0438/iiif/manifest" }, "geometry": { "type": "Polygon", "coordinates": [ [ [ 141.804167, 46.3500002 ], [ 141.8708336, 46.3500002 ], [ 141.8708336, 46.3722224 ], [ 141.804167, 46.3722224 ], [ 141.804167, 46.3500002 ] ] ] } },
{ "type": "Feature", "properties": { "Id": 0, "Sheet_ID": "SHEET D16", "label": "SHEET D16", "call_short": "G7004 .S54 A1 S5 .J3", "call_num": "G7004 .S54 A1 S5 .J3 SHEET D16", "recid": "vf000qp4121", "websiteUrl": "https://purl.stanford.edu/vf000qp4121", "title": "南名好", "ckey": 8930509, "available": true, "iiifUrl": "https://purl.stanford.edu/vf000qp4121/iiif/manifest" }, "geometry": { "type": "Polygon", "coordinates": [ [ [ 141.8708336, 46.3500002 ], [ 141.9375002, 46.3500002 ], [ 141.9375002, 46.3722224 ], [ 141.8708336, 46.3722224 ], [ 141.8708336, 46.3500002 ] ] ] } },
{ "type": "Feature", "properties": { "Id": 0, "Sheet_ID": "SHEET D17", "label": "SHEET D17", "call_short": "G7004 .S54 A1 S5 .J3", "call_num": "G7004 .S54 A1 S5 .J3 SHEET D17", "recid": "cb364xg6129", "websiteUrl": "https://purl.stanford.edu/cb364xg6129", "title": "南名好", "ckey": 8930509, "available": true, "iiifUrl": "https://purl.stanford.edu/cb364xg6129/iiif/manifest" }, "geometry": { "type": "Polygon", "coordinates": [ [ [ 141.9375002, 46.3500002 ], [ 142.0041668, 46.3500002 ], [ 142.0041668, 46.3722224 ], [ 141.9375002, 46.3722224 ], [ 141.9375002, 46.3500002 ] ] ] } },
{ "type": "Feature", "properties": { "Id": 0, "Sheet_ID": "SHEET D18", "label": "SHEET D18", "call_short": "G7004 .S54 A1 S5 .J3", "call_num": "G7004 .S54 A1 S5 .J3 SHEET D18", "recid": "gs819qd9605", "websiteUrl": "https://purl.stanford.edu/gs819qd9605", "title": "南名好", "ckey": 8930509, "available": true, "iiifUrl": "https://purl.stanford.edu/gs819qd9605/iiif/manifest" }, "geometry": { "type": "Polygon", "coordinates": [ [ [ 142.0041668, 46.3500002 ], [ 142.0708334, 46.3500002 ], [ 142.0708334, 46.3722224 ], [ 142.0041668, 46.3722224 ], [ 142.0041668, 46.3500002 ] ] ] } },
{ "type": "Feature", "properties": { "Id": 0, "Sheet_ID": "SHEET D19", "label": "SHEET D19", "call_short": "G7004 .S54 A1 S5 .J3", "call_num": "G7004 .S54 A1 S5 .J3 SHEET D19", "recid": "jx104gs4544", "websiteUrl": "https://purl.stanford.edu/jx104gs4544", "title": "南名好", "ckey": 8930509, "available": true, "iiifUrl": "https://purl.stanford.edu/jx104gs4544/iiif/manifest" }, "geometry": { "type": "Polygon", "coordinates": [ [ [ 142.0708334, 46.3500002 ], [ 142.1375, 46.3500002 ], [ 142.1375, 46.3722224 ], [ 142.0708334, 46.3722224 ], [ 142.0708334, 46.3500002 ] ] ] } },
{ "type": "Feature", "properties": { "Id": 0, "Sheet_ID": "SHEET D10", "label": "SHEET D10", "call_short": "G7004 .S54 A1 S5 .J3", "call_num": "G7004 .S54 A1 S5 .J3 SHEET D10", "recid": "rj819yn5685", "websiteUrl": "https://purl.stanford.edu/rj819yn5685", "title": "南名好", "ckey": 8930509, "available": true, "iiifUrl": "https://purl.stanford.edu/rj819yn5685/iiif/manifest" }, "geometry": { "type": "Polygon", "coordinates": [ [ [ 141.804167, 46.3722224 ], [ 141.8708336, 46.3722224 ], [ 141.8708336, 46.3944446 ], [ 141.804167, 46.3944446 ], [ 141.804167, 46.3722224 ] ] ] } },
{ "type": "Feature", "properties": { "Id": 0, "Sheet_ID": "SHEET D11", "label": "SHEET D11", "call_short": "G7004 .S54 A1 S5 .J3", "call_num": "G7004 .S54 A1 S5 .J3 SHEET D11", "recid": "xn613xn8631", "websiteUrl": "https://purl.stanford.edu/xn613xn8631", "title": "南名好", "ckey": 8930509, "available": true, "iiifUrl": "https://purl.stanford.edu/xn613xn8631/iiif/manifest" }, "geometry": { "type": "Polygon", "coordinates": [ [ [ 141.8708336, 46.3722224 ], [ 141.9375002, 46.3722224 ], [ 141.9375002, 46.3944446 ], [ 141.8708336, 46.3944446 ], [ 141.8708336, 46.3722224 ] ] ] } },
{ "type": "Feature", "properties": { "Id": 0, "Sheet_ID": "SHEET D12", "label": "SHEET D12", "call_short": "G7004 .S54 A1 S5 .J3", "call_num": "G7004 .S54 A1 S5 .J3 SHEET D12", "recid": "mv196fc5461", "websiteUrl": "https://purl.stanford.edu/mv196fc5461", "title": "南名好", "ckey": 8930509, "available": true, "iiifUrl": "https://purl.stanford.edu/mv196fc5461/iiif/manifest" }, "geometry": { "type": "Polygon", "coordinates": [ [ [ 141.9375002, 46.3722224 ], [ 142.0041668, 46.3722224 ], [ 142.0041668, 46.3944446 ], [ 141.9375002, 46.3944446 ], [ 141.9375002, 46.3722224 ] ] ] } },
{ "type": "Feature", "properties": { "Id": 0, "Sheet_ID": "SHEET D13", "label": "SHEET D13", "call_short": "G7004 .S54 A1 S5 .J3", "call_num": "G7004 .S54 A1 S5 .J3 SHEET D13", "recid": "fw509sv1086", "websiteUrl": "https://purl.stanford.edu/fw509sv1086", "title": "南名好", "ckey": 8930509, "available": true, "iiifUrl": "https://purl.stanford.edu/fw509sv1086/iiif/manifest" }, "geometry": { "type": "Polygon", "coordinates": [ [ [ 142.0041668, 46.3722224 ], [ 142.0708334, 46.3722224 ], [ 142.0708334, 46.3944446 ], [ 142.0041668, 46.3944446 ], [ 142.0041668, 46.3722224 ] ] ] } },
{ "type": "Feature", "properties": { "Id": 0, "Sheet_ID": "SHEET D14", "label": "SHEET D14", "call_short": "G7004 .S54 A1 S5 .J3", "call_num": "G7004 .S54 A1 S5 .J3 SHEET D14", "recid": "bw360tc9338", "websiteUrl": "https://purl.stanford.edu/bw360tc9338", "title": "南名好", "ckey": 8930509, "available": true, "iiifUrl": "https://purl.stanford.edu/bw360tc9338/iiif/manifest" }, "geometry": { "type": "Polygon", "coordinates": [ [ [ 142.0708334, 46.3722224 ], [ 142.1375, 46.3722224 ], [ 142.1375, 46.3944446 ], [ 142.0708334, 46.3944446 ], [ 142.0708334, 46.3722224 ] ] ] } },
{ "type": "Feature", "properties": { "Id": 0, "Sheet_ID": "SHEET D5", "label": "SHEET D5", "call_short": "G7004 .S54 A1 S5 .J3", "call_num": "G7004 .S54 A1 S5 .J3 SHEET D5", "recid": "fp338jk6304", "websiteUrl": "https://purl.stanford.edu/fp338jk6304", "title": "南名好", "ckey": 8930509, "available": true, "iiifUrl": "https://purl.stanford.edu/fp338jk6304/iiif/manifest" }, "geometry": { "type": "Polygon", "coordinates": [ [ [ 141.804167, 46.3944446 ], [ 141.8708336, 46.3944446 ], [ 141.8708336, 46.4166668 ], [ 141.804167, 46.4166668 ], [ 141.804167, 46.3944446 ] ] ] } },
{ "type": "Feature", "properties": { "Id": 0, "Sheet_ID": "SHEET D6", "label": "SHEET D6", "call_short": "G7004 .S54 A1 S5 .J3", "call_num": "G7004 .S54 A1 S5 .J3 SHEET D6", "recid": "rh745vv0769", "websiteUrl": "https://purl.stanford.edu/rh745vv0769", "title": "南名好", "ckey": 8930509, "available": true, "iiifUrl": "https://purl.stanford.edu/rh745vv0769/iiif/manifest" }, "geometry": { "type": "Polygon", "coordinates": [ [ [ 141.8708336, 46.3944446 ], [ 141.9375002, 46.3944446 ], [ 141.9375002, 46.4166668 ], [ 141.8708336, 46.4166668 ], [ 141.8708336, 46.3944446 ] ] ] } },
{ "type": "Feature", "properties": { "Id": 0, "Sheet_ID": "SHEET D7", "label": "SHEET D7", "call_short": "G7004 .S54 A1 S5 .J3", "call_num": "G7004 .S54 A1 S5 .J3 SHEET D7", "recid": "vw320hv6967", "websiteUrl": "https://purl.stanford.edu/vw320hv6967", "title": "南名好", "ckey": 8930509, "available": true, "iiifUrl": "https://purl.stanford.edu/vw320hv6967/iiif/manifest" }, "geometry": { "type": "Polygon", "coordinates": [ [ [ 141.9375002, 46.3944446 ], [ 142.0041668, 46.3944446 ], [ 142.0041668, 46.4166668 ], [ 141.9375002, 46.4166668 ], [ 141.9375002, 46.3944446 ] ] ] } },
{ "type": "Feature", "properties": { "Id": 0, "Sheet_ID": "SHEET D8", "label": "SHEET D8", "call_short": "G7004 .S54 A1 S5 .J3", "call_num": "G7004 .S54 A1 S5 .J3 SHEET D8", "recid": "vw245nw5462", "websiteUrl": "https://purl.stanford.edu/vw245nw5462", "title": "南名好", "ckey": 8930509, "available": true, "iiifUrl": "https://purl.stanford.edu/vw245nw5462/iiif/manifest" }, "geometry": { "type": "Polygon", "coordinates": [ [ [ 142.0041668, 46.3944446 ], [ 142.0708334, 46.3944446 ], [ 142.0708334, 46.4166668 ], [ 142.0041668, 46.4166668 ], [ 142.0041668, 46.3944446 ] ] ] } },
{ "type": "Feature", "properties": { "Id": 0, "Sheet_ID": "SHEET D9", "label": "SHEET D9", "call_short": "G7004 .S54 A1 S5 .J3", "call_num": "G7004 .S54 A1 S5 .J3 SHEET D9", "recid": "xc179mj7591", "websiteUrl": "https://purl.stanford.edu/xc179mj7591", "title": "南名好", "ckey": 8930509, "available": true, "iiifUrl": "https://purl.stanford.edu/xc179mj7591/iiif/manifest" }, "geometry": { "type": "Polygon", "coordinates": [ [ [ 142.0708334, 46.3944446 ], [ 142.1375, 46.3944446 ], [ 142.1375, 46.4166668 ], [ 142.0708334, 46.4166668 ], [ 142.0708334, 46.3944446 ] ] ] } },
{ "type": "Feature", "properties": { "Id": 0, "Sheet_ID": "SHEET D1", "label": "SHEET D1", "call_short": "G7004 .S54 A1 S5 .J3", "call_num": "G7004 .S54 A1 S5 .J3 SHEET D1", "recid": "qc840yh2321", "websiteUrl": "https://purl.stanford.edu/qc840yh2321", "title": "南名好", "ckey": 8930509, "available": true, "iiifUrl": "https://purl.stanford.edu/qc840yh2321/iiif/manifest" }, "geometry": { "type": "Polygon", "coordinates": [ [ [ 141.804167, 46.4166668 ], [ 141.8708336, 46.4166668 ], [ 141.8708336, 46.438889 ], [ 141.804167, 46.438889 ], [ 141.804167, 46.4166668 ] ] ] } },
{ "type": "Feature", "properties": { "Id": 0, "Sheet_ID": "SHEET D2", "label": "SHEET D2", "call_short": "G7004 .S54 A1 S5 .J3", "call_num": "G7004 .S54 A1 S5 .J3 SHEET D2", "recid": "jj397cr0828", "websiteUrl": "https://purl.stanford.edu/jj397cr0828", "title": "南名好", "ckey": 8930509, "available": true, "iiifUrl": "https://purl.stanford.edu/jj397cr0828/iiif/manifest" }, "geometry": { "type": "Polygon", "coordinates": [ [ [ 141.8708336, 46.4166668 ], [ 141.9375002, 46.4166668 ], [ 141.9375002, 46.438889 ], [ 141.8708336, 46.438889 ], [ 141.8708336, 46.4166668 ] ] ] } },
{ "type": "Feature", "properties": { "Id": 0, "Sheet_ID": "SHEET D3", "label": "SHEET D3", "call_short": "G7004 .S54 A1 S5 .J3", "call_num": "G7004 .S54 A1 S5 .J3 SHEET D3", "recid": "mj721xc5377", "websiteUrl": "https://purl.stanford.edu/mj721xc5377", "title": "南名好", "ckey": 8930509, "available": true, "iiifUrl": "https://purl.stanford.edu/mj721xc5377/iiif/manifest" }, "geometry": { "type": "Polygon", "coordinates": [ [ [ 141.9375002, 46.4166668 ], [ 142.0041668, 46.4166668 ], [ 142.0041668, 46.438889 ], [ 141.9375002, 46.438889 ], [ 141.9375002, 46.4166668 ] ] ] } },
{ "type": "Feature", "properties": { "Id": 0, "Sheet_ID": "SHEET D4", "label": "SHEET D4", "call_short": "G7004 .S54 A1 S5 .J3", "call_num": "G7004 .S54 A1 S5 .J3 SHEET D4", "recid": "sw875bj5183", "websiteUrl": "https://purl.stanford.edu/sw875bj5183", "title": "南名好", "ckey": 8930509, "available": true, "iiifUrl": "https://purl.stanford.edu/sw875bj5183/iiif/manifest" }, "geometry": { "type": "Polygon", "coordinates": [ [ [ 142.0041668, 46.4166668 ], [ 142.0708334, 46.4166668 ], [ 142.0708334, 46.438889 ], [ 142.0041668, 46.438889 ], [ 142.0041668, 46.4166668 ] ] ] } }
]
}
