{
"type": "FeatureCollection",
"name": "index_map",
"xy_coordinate_resolution": 1e-07,
"features": [
{ "type": "Feature", "properties": { "Id": 0, "Sheet_ID": "MAP 62", "label": "MAP 62", "call_short": "G7322 .U8 1917 .J3", "call_num": "G7322 .U8 1917 .J3 MAP 62", "recid": "pq387vk5288", "websiteUrl": "https://purl.stanford.edu/pq387vk5288", "title": "烏蘇里方面", "ckey": 10366271, "available": true, "iiifUrl": "https://purl.stanford.edu/pq387vk5288/iiif/manifest" }, "geometry": { "type": "Polygon", "coordinates": [ [ [ 130.55, 42.28 ], [ 130.8, 42.28 ], [ 130.8, 42.37 ], [ 130.55, 42.37 ], [ 130.55, 42.28 ] ] ] } },
{ "type": "Feature", "properties": { "Id": 0, "Sheet_ID": "MAP 61", "label": "MAP 61", "call_short": "G7322 .U8 1917 .J3", "call_num": "G7322 .U8 1917 .J3 MAP 61", "recid": "tn413qs3409", "websiteUrl": "https://purl.stanford.edu/tn413qs3409", "title": "烏蘇里方面", "ckey": 10366271, "available": true, "iiifUrl": "https://purl.stanford.edu/tn413qs3409/iiif/manifest" }, "geometry": { "type": "Polygon", "coordinates": [ [ [ 130.55, 42.37 ], [ 130.86, 42.37 ], [ 130.86, 42.5027778 ], [ 130.55, 42.5027778 ], [ 130.55, 42.37 ] ] ] } },
{ "type": "Feature", "properties": { "Id": 0, "Sheet_ID": "MAP 60", "label": "MAP 60", "call_short": "G7322 .U8 1917 .J3", "call_num": "G7322 .U8 1917 .J3 MAP 60", "recid": "dc495tp1051", "websiteUrl": "https://purl.stanford.edu/dc495tp1051", "title": "烏蘇里方面", "ckey": 10366271, "available": true, "iiifUrl": "https://purl.stanford.edu/dc495tp1051/iiif/manifest" }, "geometry": { "type": "Polygon", "coordinates": [ [ [ 130.55, 42.5027778 ], [ 130.8, 42.5027778 ], [ 130.8, 42.6972222 ], [ 130.55, 42.6972222 ], [ 130.55, 42.5027778 ] ] ] } },
{ "type": "Feature", "properties": { "Id": 0, "Sheet_ID": "MAP 59", "label": "MAP 59", "call_short": "G7322 .U8 1917 .J3", "call_num": "G7322 .U8 1917 .J3 MAP 59", "recid": "sd007df4150", "websiteUrl": "https://purl.stanford.edu/sd007df4150", "title": "烏蘇里方面", "ckey": 10366271, "available": true, "iiifUrl": "https://purl.stanford.edu/sd007df4150/iiif/manifest" }, "geometry": { "type": "Polygon", "coordinates": [ [ [ 130.8, 42.5027778 ], [ 131.05, 42.5027778 ], [ 131.05, 42.6972222 ], [ 130.8, 42.6972222 ], [ 130.8, 42.5027778 ] ] ] } },
{ "type": "Feature", "properties": { "Id": 0, "Sheet_ID": "MAP 58", "label": "MAP 58", "call_short": "0", "call_num": "0", "recid": "0", "websiteUrl": "0", "title": "0", "ckey": 0, "available": false, "iiifUrl": "0" }, "geometry": { "type": "Polygon", "coordinates": [ [ [ 131.05, 42.5027778 ], [ 131.3, 42.5027778 ], [ 131.3, 42.6972222 ], [ 131.05, 42.6972222 ], [ 131.05, 42.5027778 ] ] ] } },
{ "type": "Feature", "properties": { "Id": 0, "Sheet_ID": "MAP 57", "label": "MAP 57", "call_short": "G7322 .U8 1917 .J3", "call_num": "G7322 .U8 1917 .J3 MAP 57", "recid": "tt156hv5955", "websiteUrl": "https://purl.stanford.edu/tt156hv5955", "title": "烏蘇里方面", "ckey": 10366271, "available": true, "iiifUrl": "https://purl.stanford.edu/tt156hv5955/iiif/manifest" }, "geometry": { "type": "Polygon", "coordinates": [ [ [ 130.35, 42.6972222 ], [ 130.6, 42.6972222 ], [ 130.6, 42.8916666 ], [ 130.35, 42.8916666 ], [ 130.35, 42.6972222 ] ] ] } },
{ "type": "Feature", "properties": { "Id": 0, "Sheet_ID": "MAP 56", "label": "MAP 56", "call_short": "G7322 .U8 1917 .J3", "call_num": "G7322 .U8 1917 .J3 MAP 56", "recid": "dy055dx1014", "websiteUrl": "https://purl.stanford.edu/dy055dx1014", "title": "烏蘇里方面", "ckey": 10366271, "available": true, "iiifUrl": "https://purl.stanford.edu/dy055dx1014/iiif/manifest" }, "geometry": { "type": "Polygon", "coordinates": [ [ [ 130.6, 42.6972222 ], [ 130.85, 42.6972222 ], [ 130.85, 42.8916666 ], [ 130.6, 42.8916666 ], [ 130.6, 42.6972222 ] ] ] } },
{ "type": "Feature", "properties": { "Id": 0, "Sheet_ID": "MAP 55", "label": "MAP 55", "call_short": "G7322 .U8 1917 .J3", "call_num": "G7322 .U8 1917 .J3 MAP 55", "recid": "gp820tg0939", "websiteUrl": "https://purl.stanford.edu/gp820tg0939", "title": "烏蘇里方面", "ckey": 10366271, "available": true, "iiifUrl": "https://purl.stanford.edu/gp820tg0939/iiif/manifest" }, "geometry": { "type": "Polygon", "coordinates": [ [ [ 130.85, 42.6972222 ], [ 131.1, 42.6972222 ], [ 131.1, 42.8916666 ], [ 130.85, 42.8916666 ], [ 130.85, 42.6972222 ] ] ] } },
{ "type": "Feature", "properties": { "Id": 0, "Sheet_ID": "MAP 54", "label": "MAP 54", "call_short": "G7322 .U8 1917 .J3", "call_num": "G7322 .U8 1917 .J3 MAP 54", "recid": "rb382bz0233", "websiteUrl": "https://purl.stanford.edu/rb382bz0233", "title": "烏蘇里方面", "ckey": 10366271, "available": true, "iiifUrl": "https://purl.stanford.edu/rb382bz0233/iiif/manifest" }, "geometry": { "type": "Polygon", "coordinates": [ [ [ 131.1, 42.6972222 ], [ 131.35, 42.6972222 ], [ 131.35, 42.8916666 ], [ 131.1, 42.8916666 ], [ 131.1, 42.6972222 ] ] ] } },
{ "type": "Feature", "properties": { "Id": 0, "Sheet_ID": "MAP 53", "label": "MAP 53", "call_short": "G7322 .U8 1917 .J3", "call_num": "G7322 .U8 1917 .J3 MAP 53", "recid": "gk747xd0579", "websiteUrl": "https://purl.stanford.edu/gk747xd0579", "title": "烏蘇里方面", "ckey": 10366271, "available": true, "iiifUrl": "https://purl.stanford.edu/gk747xd0579/iiif/manifest" }, "geometry": { "type": "Polygon", "coordinates": [ [ [ 131.35, 42.6972222 ], [ 131.6, 42.6972222 ], [ 131.6, 42.8916666 ], [ 131.35, 42.8916666 ], [ 131.35, 42.6972222 ] ] ] } },
{ "type": "Feature", "properties": { "Id": 0, "Sheet_ID": "MAP 52", "label": "MAP 52", "call_short": "0", "call_num": "0", "recid": "0", "websiteUrl": "0", "title": "0", "ckey": 0, "available": false, "iiifUrl": "0" }, "geometry": { "type": "Polygon", "coordinates": [ [ [ 131.1, 42.8916666 ], [ 131.35, 42.8916666 ], [ 131.35, 43.0861111 ], [ 131.1, 43.0861111 ], [ 131.1, 42.8916666 ] ] ] } },
{ "type": "Feature", "properties": { "Id": 0, "Sheet_ID": "MAP 51", "label": "MAP 51", "call_short": "G7322 .U8 1917 .J3", "call_num": "G7322 .U8 1917 .J3 MAP 51", "recid": "fd580rc6625", "websiteUrl": "https://purl.stanford.edu/fd580rc6625", "title": "烏蘇里方面", "ckey": 10366271, "available": true, "iiifUrl": "https://purl.stanford.edu/fd580rc6625/iiif/manifest" }, "geometry": { "type": "Polygon", "coordinates": [ [ [ 131.35, 42.8916666 ], [ 131.6, 42.8916666 ], [ 131.6, 43.0861111 ], [ 131.35, 43.0861111 ], [ 131.35, 42.8916666 ] ] ] } },
{ "type": "Feature", "properties": { "Id": 0, "Sheet_ID": "MAP 50", "label": "MAP 50", "call_short": "G7322 .U8 1917 .J3", "call_num": "G7322 .U8 1917 .J3 MAP 50", "recid": "ws114bs5756", "websiteUrl": "https://purl.stanford.edu/ws114bs5756", "title": "烏蘇里方面", "ckey": 10366271, "available": true, "iiifUrl": "https://purl.stanford.edu/ws114bs5756/iiif/manifest" }, "geometry": { "type": "Polygon", "coordinates": [ [ [ 131.7, 42.925 ], [ 131.975, 42.925 ], [ 131.975, 43.0861111 ], [ 131.7, 43.0861111 ], [ 131.7, 42.925 ] ] ] } },
{ "type": "Feature", "properties": { "Id": 0, "Sheet_ID": "MAP 49", "label": "MAP 49", "call_short": "0", "call_num": "0", "recid": "0", "websiteUrl": "0", "title": "0", "ckey": 0, "available": false, "iiifUrl": "0" }, "geometry": { "type": "Polygon", "coordinates": [ [ [ 132.35, 42.8916666 ], [ 132.6, 42.8916666 ], [ 132.6, 43.086111 ], [ 132.35, 43.086111 ], [ 132.35, 42.8916666 ] ] ] } },
{ "type": "Feature", "properties": { "Id": 0, "Sheet_ID": "MAP 48", "label": "MAP 48", "call_short": "G7322 .U8 1917 .J3", "call_num": "G7322 .U8 1917 .J3 MAP 48", "recid": "xb948nx4365", "websiteUrl": "https://purl.stanford.edu/xb948nx4365", "title": "烏蘇里方面", "ckey": 10366271, "available": true, "iiifUrl": "https://purl.stanford.edu/xb948nx4365/iiif/manifest" }, "geometry": { "type": "Polygon", "coordinates": [ [ [ 132.6, 42.7916666 ], [ 132.85, 42.7916666 ], [ 132.85, 42.986111 ], [ 132.6, 42.986111 ], [ 132.6, 42.7916666 ] ] ] } },
{ "type": "Feature", "properties": { "Id": 0, "Sheet_ID": "MAP 47", "label": "MAP 47", "call_short": "0", "call_num": "0", "recid": "0", "websiteUrl": "0", "title": "0", "ckey": 0, "available": false, "iiifUrl": "0" }, "geometry": { "type": "Polygon", "coordinates": [ [ [ 132.85, 42.7916666 ], [ 133.1, 42.7916666 ], [ 133.1, 42.986111 ], [ 132.85, 42.986111 ], [ 132.85, 42.7916666 ] ] ] } },
{ "type": "Feature", "properties": { "Id": 0, "Sheet_ID": "MAP 46", "label": "MAP 46", "call_short": "G7322 .U8 1917 .J3", "call_num": "G7322 .U8 1917 .J3 MAP 46", "recid": "sk395tp8415", "websiteUrl": "https://purl.stanford.edu/sk395tp8415", "title": "烏蘇里方面", "ckey": 10366271, "available": true, "iiifUrl": "https://purl.stanford.edu/sk395tp8415/iiif/manifest" }, "geometry": { "type": "Polygon", "coordinates": [ [ [ 133.1, 42.7916666 ], [ 133.35, 42.7916666 ], [ 133.35, 42.986111 ], [ 133.1, 42.986111 ], [ 133.1, 42.7916666 ] ] ] } },
{ "type": "Feature", "properties": { "Id": 0, "Sheet_ID": "MAP 45", "label": "MAP 45", "call_short": "G7322 .U8 1917 .J3", "call_num": "G7322 .U8 1917 .J3 MAP 45", "recid": "yf605hz2694", "websiteUrl": "https://purl.stanford.edu/yf605hz2694", "title": "烏蘇里方面", "ckey": 10366271, "available": true, "iiifUrl": "https://purl.stanford.edu/yf605hz2694/iiif/manifest" }, "geometry": { "type": "Polygon", "coordinates": [ [ [ 131.1, 43.0861111 ], [ 131.35, 43.0861111 ], [ 131.35, 43.2805555 ], [ 131.1, 43.2805555 ], [ 131.1, 43.0861111 ] ] ] } },
{ "type": "Feature", "properties": { "Id": 0, "Sheet_ID": "MAP 44", "label": "MAP 44", "call_short": "G7322 .U8 1917 .J3", "call_num": "G7322 .U8 1917 .J3 MAP 44", "recid": "tn795vs3104", "websiteUrl": "https://purl.stanford.edu/tn795vs3104", "title": "烏蘇里方面", "ckey": 10366271, "available": true, "iiifUrl": "https://purl.stanford.edu/tn795vs3104/iiif/manifest" }, "geometry": { "type": "Polygon", "coordinates": [ [ [ 131.35, 43.0861111 ], [ 131.6, 43.0861111 ], [ 131.6, 43.2805555 ], [ 131.35, 43.2805555 ], [ 131.35, 43.0861111 ] ] ] } },
{ "type": "Feature", "properties": { "Id": 0, "Sheet_ID": "MAP 43", "label": "MAP 43", "call_short": "G7322 .U8 1917 .J3", "call_num": "G7322 .U8 1917 .J3 MAP 43", "recid": "sj788zf8963", "websiteUrl": "https://purl.stanford.edu/sj788zf8963", "title": "烏蘇里方面", "ckey": 10366271, "available": true, "iiifUrl": "https://purl.stanford.edu/sj788zf8963/iiif/manifest" }, "geometry": { "type": "Polygon", "coordinates": [ [ [ 131.6, 43.0861111 ], [ 131.8, 43.0861111 ], [ 131.8, 43.2805555 ], [ 131.6, 43.2805555 ], [ 131.6, 43.0861111 ] ] ] } },
{ "type": "Feature", "properties": { "Id": 0, "Sheet_ID": "MAP 42", "label": "MAP 42", "call_short": "G7322 .U8 1917 .J3", "call_num": "G7322 .U8 1917 .J3 MAP 42", "recid": "yq758rw5146", "websiteUrl": "https://purl.stanford.edu/yq758rw5146", "title": "烏蘇里方面", "ckey": 10366271, "available": true, "iiifUrl": "https://purl.stanford.edu/yq758rw5146/iiif/manifest" }, "geometry": { "type": "Polygon", "coordinates": [ [ [ 131.85, 43.0861111 ], [ 132.1, 43.0861111 ], [ 132.1, 43.2805555 ], [ 131.85, 43.2805555 ], [ 131.85, 43.0861111 ] ] ] } },
{ "type": "Feature", "properties": { "Id": 0, "Sheet_ID": "MAP 41", "label": "MAP 41", "call_short": "G7322 .U8 1917 .J3", "call_num": "G7322 .U8 1917 .J3 MAP 41", "recid": "bk699dy5378", "websiteUrl": "https://purl.stanford.edu/bk699dy5378", "title": "烏蘇里方面", "ckey": 10366271, "available": true, "iiifUrl": "https://purl.stanford.edu/bk699dy5378/iiif/manifest" }, "geometry": { "type": "Polygon", "coordinates": [ [ [ 132.1, 43.0861111 ], [ 132.35, 43.0861111 ], [ 132.35, 43.2805555 ], [ 132.1, 43.2805555 ], [ 132.1, 43.0861111 ] ] ] } },
{ "type": "Feature", "properties": { "Id": 0, "Sheet_ID": "MAP 40", "label": "MAP 40", "call_short": "G7322 .U8 1917 .J3", "call_num": "G7322 .U8 1917 .J3 MAP 40", "recid": "dh045zx0964", "websiteUrl": "https://purl.stanford.edu/dh045zx0964", "title": "烏蘇里方面", "ckey": 10366271, "available": true, "iiifUrl": "https://purl.stanford.edu/dh045zx0964/iiif/manifest" }, "geometry": { "type": "Polygon", "coordinates": [ [ [ 131.24, 43.2805555 ], [ 131.35, 43.2805555 ], [ 131.35, 43.4749999 ], [ 131.24, 43.4749999 ], [ 131.24, 43.2805555 ] ] ] } },
{ "type": "Feature", "properties": { "Id": 0, "Sheet_ID": "MAP 39", "label": "MAP 39", "call_short": "G7322 .U8 1917 .J3", "call_num": "G7322 .U8 1917 .J3 MAP 39", "recid": "bk574zr4105", "websiteUrl": "https://purl.stanford.edu/bk574zr4105", "title": "烏蘇里方面", "ckey": 10366271, "available": true, "iiifUrl": "https://purl.stanford.edu/bk574zr4105/iiif/manifest" }, "geometry": { "type": "Polygon", "coordinates": [ [ [ 131.35, 43.2805555 ], [ 131.6, 43.2805555 ], [ 131.6, 43.4749999 ], [ 131.35, 43.4749999 ], [ 131.35, 43.2805555 ] ] ] } },
{ "type": "Feature", "properties": { "Id": 0, "Sheet_ID": "MAP 38", "label": "MAP 38", "call_short": "G7322 .U8 1917 .J3", "call_num": "G7322 .U8 1917 .J3 MAP 38", "recid": "px485mz7211", "websiteUrl": "https://purl.stanford.edu/px485mz7211", "title": "烏蘇里方面", "ckey": 10366271, "available": true, "iiifUrl": "https://purl.stanford.edu/px485mz7211/iiif/manifest" }, "geometry": { "type": "Polygon", "coordinates": [ [ [ 131.6, 43.2805555 ], [ 131.85, 43.2805555 ], [ 131.85, 43.4749999 ], [ 131.6, 43.4749999 ], [ 131.6, 43.2805555 ] ] ] } },
{ "type": "Feature", "properties": { "Id": 0, "Sheet_ID": "MAP 37", "label": "MAP 37", "call_short": "G7322 .U8 1917 .J3", "call_num": "G7322 .U8 1917 .J3 MAP 37", "recid": "dj317my9818", "websiteUrl": "https://purl.stanford.edu/dj317my9818", "title": "烏蘇里方面", "ckey": 10366271, "available": true, "iiifUrl": "https://purl.stanford.edu/dj317my9818/iiif/manifest" }, "geometry": { "type": "Polygon", "coordinates": [ [ [ 131.85, 43.2805555 ], [ 132.1, 43.2805555 ], [ 132.1, 43.4749999 ], [ 131.85, 43.4749999 ], [ 131.85, 43.2805555 ] ] ] } },
{ "type": "Feature", "properties": { "Id": 0, "Sheet_ID": "MAP 36", "label": "MAP 36", "call_short": "G7322 .U8 1917 .J3", "call_num": "G7322 .U8 1917 .J3 MAP 36", "recid": "gd047cz3197", "websiteUrl": "https://purl.stanford.edu/gd047cz3197", "title": "烏蘇里方面", "ckey": 10366271, "available": true, "iiifUrl": "https://purl.stanford.edu/gd047cz3197/iiif/manifest" }, "geometry": { "type": "Polygon", "coordinates": [ [ [ 132.1, 43.2805555 ], [ 132.35, 43.2805555 ], [ 132.35, 43.4749999 ], [ 132.1, 43.4749999 ], [ 132.1, 43.2805555 ] ] ] } },
{ "type": "Feature", "properties": { "Id": 0, "Sheet_ID": "MAP 35", "label": "MAP 35", "call_short": "G7322 .U8 1917 .J3", "call_num": "G7322 .U8 1917 .J3 MAP 35", "recid": "wc039bb3345", "websiteUrl": "https://purl.stanford.edu/wc039bb3345", "title": "烏蘇里方面", "ckey": 10366271, "available": true, "iiifUrl": "https://purl.stanford.edu/wc039bb3345/iiif/manifest" }, "geometry": { "type": "Polygon", "coordinates": [ [ [ 132.35, 43.2805555 ], [ 132.6, 43.2805555 ], [ 132.6, 43.4749999 ], [ 132.35, 43.4749999 ], [ 132.35, 43.2805555 ] ] ] } },
{ "type": "Feature", "properties": { "Id": 0, "Sheet_ID": "MAP 34", "label": "MAP 34", "call_short": "G7322 .U8 1917 .J3", "call_num": "G7322 .U8 1917 .J3 MAP 34", "recid": "nh892kw0769", "websiteUrl": "https://purl.stanford.edu/nh892kw0769", "title": "烏蘇里方面", "ckey": 10366271, "available": true, "iiifUrl": "https://purl.stanford.edu/nh892kw0769/iiif/manifest" }, "geometry": { "type": "Polygon", "coordinates": [ [ [ 131.35, 43.4749999 ], [ 131.6, 43.4749999 ], [ 131.6, 43.6694443 ], [ 131.35, 43.6694443 ], [ 131.35, 43.4749999 ] ] ] } },
{ "type": "Feature", "properties": { "Id": 0, "Sheet_ID": "MAP 33", "label": "MAP 33", "call_short": "G7322 .U8 1917 .J3", "call_num": "G7322 .U8 1917 .J3 MAP 33", "recid": "hf171hf2013", "websiteUrl": "https://purl.stanford.edu/hf171hf2013", "title": "烏蘇里方面", "ckey": 10366271, "available": true, "iiifUrl": "https://purl.stanford.edu/hf171hf2013/iiif/manifest" }, "geometry": { "type": "Polygon", "coordinates": [ [ [ 131.6, 43.4749999 ], [ 131.85, 43.4749999 ], [ 131.85, 43.6694443 ], [ 131.6, 43.6694443 ], [ 131.6, 43.4749999 ] ] ] } },
{ "type": "Feature", "properties": { "Id": 0, "Sheet_ID": "MAP 32", "label": "MAP 32", "call_short": "G7322 .U8 1917 .J3", "call_num": "G7322 .U8 1917 .J3 MAP 32", "recid": "vn724zb6621", "websiteUrl": "https://purl.stanford.edu/vn724zb6621", "title": "烏蘇里方面", "ckey": 10366271, "available": true, "iiifUrl": "https://purl.stanford.edu/vn724zb6621/iiif/manifest" }, "geometry": { "type": "Polygon", "coordinates": [ [ [ 131.85, 43.4749999 ], [ 132.1, 43.4749999 ], [ 132.1, 43.6694443 ], [ 131.85, 43.6694443 ], [ 131.85, 43.4749999 ] ] ] } },
{ "type": "Feature", "properties": { "Id": 0, "Sheet_ID": "MAP 31", "label": "MAP 31", "call_short": "G7322 .U8 1917 .J3", "call_num": "G7322 .U8 1917 .J3 MAP 31", "recid": "wq370qx3006", "websiteUrl": "https://purl.stanford.edu/wq370qx3006", "title": "烏蘇里方面", "ckey": 10366271, "available": true, "iiifUrl": "https://purl.stanford.edu/wq370qx3006/iiif/manifest" }, "geometry": { "type": "Polygon", "coordinates": [ [ [ 132.1, 43.4749999 ], [ 132.35, 43.4749999 ], [ 132.35, 43.6694443 ], [ 132.1, 43.6694443 ], [ 132.1, 43.4749999 ] ] ] } },
{ "type": "Feature", "properties": { "Id": 0, "Sheet_ID": "MAP 30", "label": "MAP 30", "call_short": "G7322 .U8 1917 .J3", "call_num": "G7322 .U8 1917 .J3 MAP 30", "recid": "qk480ts4676", "websiteUrl": "https://purl.stanford.edu/qk480ts4676", "title": "烏蘇里方面", "ckey": 10366271, "available": true, "iiifUrl": "https://purl.stanford.edu/qk480ts4676/iiif/manifest" }, "geometry": { "type": "Polygon", "coordinates": [ [ [ 132.35, 43.4749999 ], [ 132.6, 43.4749999 ], [ 132.6, 43.6694443 ], [ 132.35, 43.6694443 ], [ 132.35, 43.4749999 ] ] ] } },
{ "type": "Feature", "properties": { "Id": 0, "Sheet_ID": "MAP 29", "label": "MAP 29", "call_short": "G7322 .U8 1917 .J3", "call_num": "G7322 .U8 1917 .J3 MAP 29", "recid": "st589mb8412", "websiteUrl": "https://purl.stanford.edu/st589mb8412", "title": "烏蘇里方面", "ckey": 10366271, "available": true, "iiifUrl": "https://purl.stanford.edu/st589mb8412/iiif/manifest" }, "geometry": { "type": "Polygon", "coordinates": [ [ [ 131.35, 43.6694443 ], [ 131.6, 43.6694443 ], [ 131.6, 43.8638887 ], [ 131.35, 43.8638887 ], [ 131.35, 43.6694443 ] ] ] } },
{ "type": "Feature", "properties": { "Id": 0, "Sheet_ID": "MAP 28", "label": "MAP 28", "call_short": "G7322 .U8 1917 .J3", "call_num": "G7322 .U8 1917 .J3 MAP 28", "recid": "ty075sf9635", "websiteUrl": "https://purl.stanford.edu/ty075sf9635", "title": "烏蘇里方面", "ckey": 10366271, "available": true, "iiifUrl": "https://purl.stanford.edu/ty075sf9635/iiif/manifest" }, "geometry": { "type": "Polygon", "coordinates": [ [ [ 131.6, 43.6694443 ], [ 131.85, 43.6694443 ], [ 131.85, 43.8638887 ], [ 131.6, 43.8638887 ], [ 131.6, 43.6694443 ] ] ] } },
{ "type": "Feature", "properties": { "Id": 0, "Sheet_ID": "MAP 27", "label": "MAP 27", "call_short": "G7322 .U8 1917 .J3", "call_num": "G7322 .U8 1917 .J3 MAP 27", "recid": "qy722wb0813", "websiteUrl": "https://purl.stanford.edu/qy722wb0813", "title": "烏蘇里方面", "ckey": 10366271, "available": true, "iiifUrl": "https://purl.stanford.edu/qy722wb0813/iiif/manifest" }, "geometry": { "type": "Polygon", "coordinates": [ [ [ 131.85, 43.6694443 ], [ 132.1, 43.6694443 ], [ 132.1, 43.8638887 ], [ 131.85, 43.8638887 ], [ 131.85, 43.6694443 ] ] ] } },
{ "type": "Feature", "properties": { "Id": 0, "Sheet_ID": "MAP 26", "label": "MAP 26", "call_short": "G7322 .U8 1917 .J3", "call_num": "G7322 .U8 1917 .J3 MAP 26", "recid": "zk473zn8483", "websiteUrl": "https://purl.stanford.edu/zk473zn8483", "title": "烏蘇里方面", "ckey": 10366271, "available": true, "iiifUrl": "https://purl.stanford.edu/zk473zn8483/iiif/manifest" }, "geometry": { "type": "Polygon", "coordinates": [ [ [ 132.1, 43.6694443 ], [ 132.35, 43.6694443 ], [ 132.35, 43.8638887 ], [ 132.1, 43.8638887 ], [ 132.1, 43.6694443 ] ] ] } },
{ "type": "Feature", "properties": { "Id": 0, "Sheet_ID": "MAP 25", "label": "MAP 25", "call_short": "G7322 .U8 1917 .J3", "call_num": "G7322 .U8 1917 .J3 MAP 25", "recid": "sj488gh0690", "websiteUrl": "https://purl.stanford.edu/sj488gh0690", "title": "烏蘇里方面", "ckey": 10366271, "available": true, "iiifUrl": "https://purl.stanford.edu/sj488gh0690/iiif/manifest" }, "geometry": { "type": "Polygon", "coordinates": [ [ [ 131.225, 43.8638887 ], [ 131.35, 43.8638887 ], [ 131.35, 44.0583331 ], [ 131.225, 44.0583331 ], [ 131.225, 43.8638887 ] ] ] } },
{ "type": "Feature", "properties": { "Id": 0, "Sheet_ID": "MAP 24", "label": "MAP 24", "call_short": "G7322 .U8 1917 .J3", "call_num": "G7322 .U8 1917 .J3 MAP 24", "recid": "gb268js4827", "websiteUrl": "https://purl.stanford.edu/gb268js4827", "title": "烏蘇里方面", "ckey": 10366271, "available": true, "iiifUrl": "https://purl.stanford.edu/gb268js4827/iiif/manifest" }, "geometry": { "type": "Polygon", "coordinates": [ [ [ 131.35, 43.8638887 ], [ 131.6, 43.8638887 ], [ 131.6, 44.0583331 ], [ 131.35, 44.0583331 ], [ 131.35, 43.8638887 ] ] ] } },
{ "type": "Feature", "properties": { "Id": 0, "Sheet_ID": "MAP 23", "label": "MAP 23", "call_short": "G7322 .U8 1917 .J3", "call_num": "G7322 .U8 1917 .J3 MAP 23", "recid": "jj818xx8167", "websiteUrl": "https://purl.stanford.edu/jj818xx8167", "title": "烏蘇里方面", "ckey": 10366271, "available": true, "iiifUrl": "https://purl.stanford.edu/jj818xx8167/iiif/manifest" }, "geometry": { "type": "Polygon", "coordinates": [ [ [ 131.6, 43.8638887 ], [ 131.85, 43.8638887 ], [ 131.85, 44.0583331 ], [ 131.6, 44.0583331 ], [ 131.6, 43.8638887 ] ] ] } },
{ "type": "Feature", "properties": { "Id": 0, "Sheet_ID": "MAP 22", "label": "MAP 22", "call_short": "G7322 .U8 1917 .J3", "call_num": "G7322 .U8 1917 .J3 MAP 22", "recid": "gz986rp3613", "websiteUrl": "https://purl.stanford.edu/gz986rp3613", "title": "烏蘇里方面", "ckey": 10366271, "available": true, "iiifUrl": "https://purl.stanford.edu/gz986rp3613/iiif/manifest" }, "geometry": { "type": "Polygon", "coordinates": [ [ [ 131.85, 43.8638887 ], [ 132.1, 43.8638887 ], [ 132.1, 44.0583331 ], [ 131.85, 44.0583331 ], [ 131.85, 43.8638887 ] ] ] } },
{ "type": "Feature", "properties": { "Id": 0, "Sheet_ID": "MAP 21", "label": "MAP 21", "call_short": "G7322 .U8 1917 .J3", "call_num": "G7322 .U8 1917 .J3 MAP 21", "recid": "kv023qq8405", "websiteUrl": "https://purl.stanford.edu/kv023qq8405", "title": "烏蘇里方面", "ckey": 10366271, "available": true, "iiifUrl": "https://purl.stanford.edu/kv023qq8405/iiif/manifest" }, "geometry": { "type": "Polygon", "coordinates": [ [ [ 132.1, 43.8638887 ], [ 132.35, 43.8638887 ], [ 132.35, 44.0583331 ], [ 132.1, 44.0583331 ], [ 132.1, 43.8638887 ] ] ] } },
{ "type": "Feature", "properties": { "Id": 0, "Sheet_ID": "MAP 20", "label": "MAP 20", "call_short": "G7322 .U8 1917 .J3", "call_num": "G7322 .U8 1917 .J3 MAP 20", "recid": "zc408sp3601", "websiteUrl": "https://purl.stanford.edu/zc408sp3601", "title": "烏蘇里方面", "ckey": 10366271, "available": true, "iiifUrl": "https://purl.stanford.edu/zc408sp3601/iiif/manifest" }, "geometry": { "type": "Polygon", "coordinates": [ [ [ 132.35, 43.8638887 ], [ 132.6, 43.8638887 ], [ 132.6, 44.0583331 ], [ 132.35, 44.0583331 ], [ 132.35, 43.8638887 ] ] ] } },
{ "type": "Feature", "properties": { "Id": 0, "Sheet_ID": "MAP 19", "label": "MAP 19", "call_short": "G7322 .U8 1917 .J3", "call_num": "G7322 .U8 1917 .J3 MAP 19", "recid": "md507wg4132", "websiteUrl": "https://purl.stanford.edu/md507wg4132", "title": "烏蘇里方面", "ckey": 10366271, "available": true, "iiifUrl": "https://purl.stanford.edu/md507wg4132/iiif/manifest" }, "geometry": { "type": "Polygon", "coordinates": [ [ [ 132.6, 43.8638887 ], [ 132.85, 43.8638887 ], [ 132.85, 44.0583331 ], [ 132.6, 44.0583331 ], [ 132.6, 43.8638887 ] ] ] } },
{ "type": "Feature", "properties": { "Id": 0, "Sheet_ID": "MAP 17-18", "label": "MAP 17-18", "call_short": "G7322 .U8 1917 .J3", "call_num": "G7322 .U8 1917 .J3 MAP 17-18", "recid": "fx726vh2876", "websiteUrl": "https://purl.stanford.edu/fx726vh2876", "title": "烏蘇里方面", "ckey": 10366271, "available": true, "iiifUrl": "https://purl.stanford.edu/fx726vh2876/iiif/manifest" }, "geometry": { "type": "Polygon", "coordinates": [ [ [ 131.225, 44.0583331 ], [ 131.6, 44.0583331 ], [ 131.6, 44.2527775 ], [ 131.225, 44.2527775 ], [ 131.225, 44.0583331 ] ] ] } },
{ "type": "Feature", "properties": { "Id": 0, "Sheet_ID": "MAP 16", "label": "MAP 16", "call_short": "G7322 .U8 1917 .J3", "call_num": "G7322 .U8 1917 .J3 MAP 16", "recid": "kd263qs1693", "websiteUrl": "https://purl.stanford.edu/kd263qs1693", "title": "烏蘇里方面", "ckey": 10366271, "available": true, "iiifUrl": "https://purl.stanford.edu/kd263qs1693/iiif/manifest" }, "geometry": { "type": "Polygon", "coordinates": [ [ [ 131.6, 44.0583331 ], [ 131.85, 44.0583331 ], [ 131.85, 44.2527775 ], [ 131.6, 44.2527775 ], [ 131.6, 44.0583331 ] ] ] } },
{ "type": "Feature", "properties": { "Id": 0, "Sheet_ID": "MAP 15", "label": "MAP 15", "call_short": "G7322 .U8 1917 .J3", "call_num": "G7322 .U8 1917 .J3 MAP 15", "recid": "my234ny2808", "websiteUrl": "https://purl.stanford.edu/my234ny2808", "title": "烏蘇里方面", "ckey": 10366271, "available": true, "iiifUrl": "https://purl.stanford.edu/my234ny2808/iiif/manifest" }, "geometry": { "type": "Polygon", "coordinates": [ [ [ 131.85, 44.0583331 ], [ 132.1, 44.0583331 ], [ 132.1, 44.2527775 ], [ 131.85, 44.2527775 ], [ 131.85, 44.0583331 ] ] ] } },
{ "type": "Feature", "properties": { "Id": 0, "Sheet_ID": "MAP 14", "label": "MAP 14", "call_short": "G7322 .U8 1917 .J3", "call_num": "G7322 .U8 1917 .J3 MAP 14", "recid": "zm239kn6490", "websiteUrl": "https://purl.stanford.edu/zm239kn6490", "title": "烏蘇里方面", "ckey": 10366271, "available": true, "iiifUrl": "https://purl.stanford.edu/zm239kn6490/iiif/manifest" }, "geometry": { "type": "Polygon", "coordinates": [ [ [ 132.1, 44.0583331 ], [ 132.35, 44.0583331 ], [ 132.35, 44.2527775 ], [ 132.1, 44.2527775 ], [ 132.1, 44.0583331 ] ] ] } },
{ "type": "Feature", "properties": { "Id": 0, "Sheet_ID": "MAP 13", "label": "MAP 13", "call_short": "G7322 .U8 1917 .J3", "call_num": "G7322 .U8 1917 .J3 MAP 13", "recid": "ks702gq5869", "websiteUrl": "https://purl.stanford.edu/ks702gq5869", "title": "烏蘇里方面", "ckey": 10366271, "available": true, "iiifUrl": "https://purl.stanford.edu/ks702gq5869/iiif/manifest" }, "geometry": { "type": "Polygon", "coordinates": [ [ [ 131.35, 44.2527775 ], [ 131.6, 44.2527775 ], [ 131.6, 44.4472219 ], [ 131.35, 44.4472219 ], [ 131.35, 44.2527775 ] ] ] } },
{ "type": "Feature", "properties": { "Id": 0, "Sheet_ID": "MAP 12", "label": "MAP 12", "call_short": "G7322 .U8 1917 .J3", "call_num": "G7322 .U8 1917 .J3 MAP 12", "recid": "hd471zg7055", "websiteUrl": "https://purl.stanford.edu/hd471zg7055", "title": "烏蘇里方面", "ckey": 10366271, "available": true, "iiifUrl": "https://purl.stanford.edu/hd471zg7055/iiif/manifest" }, "geometry": { "type": "Polygon", "coordinates": [ [ [ 131.6, 44.2527775 ], [ 131.85, 44.2527775 ], [ 131.85, 44.4472219 ], [ 131.6, 44.4472219 ], [ 131.6, 44.2527775 ] ] ] } },
{ "type": "Feature", "properties": { "Id": 0, "Sheet_ID": "MAP 11", "label": "MAP 11", "call_short": "G7322 .U8 1917 .J3", "call_num": "G7322 .U8 1917 .J3 MAP 11", "recid": "yt226xw8992", "websiteUrl": "https://purl.stanford.edu/yt226xw8992", "title": "烏蘇里方面", "ckey": 10366271, "available": true, "iiifUrl": "https://purl.stanford.edu/yt226xw8992/iiif/manifest" }, "geometry": { "type": "Polygon", "coordinates": [ [ [ 131.1, 44.4472219 ], [ 131.35, 44.4472219 ], [ 131.35, 44.6416664 ], [ 131.1, 44.6416664 ], [ 131.1, 44.4472219 ] ] ] } },
{ "type": "Feature", "properties": { "Id": 0, "Sheet_ID": "MAP 10", "label": "MAP 10", "call_short": "G7322 .U8 1917 .J3", "call_num": "G7322 .U8 1917 .J3 MAP 10", "recid": "xq725bz3344", "websiteUrl": "https://purl.stanford.edu/xq725bz3344", "title": "烏蘇里方面", "ckey": 10366271, "available": true, "iiifUrl": "https://purl.stanford.edu/xq725bz3344/iiif/manifest" }, "geometry": { "type": "Polygon", "coordinates": [ [ [ 131.85, 44.4472219 ], [ 132.1, 44.4472219 ], [ 132.1, 44.6416664 ], [ 131.85, 44.6416664 ], [ 131.85, 44.4472219 ] ] ] } },
{ "type": "Feature", "properties": { "Id": 0, "Sheet_ID": "MAP 9", "label": "MAP 9", "call_short": "G7322 .U8 1917 .J3", "call_num": "G7322 .U8 1917 .J3 MAP 9", "recid": "fs094tv8522", "websiteUrl": "https://purl.stanford.edu/fs094tv8522", "title": "烏蘇里方面", "ckey": 10366271, "available": true, "iiifUrl": "https://purl.stanford.edu/fs094tv8522/iiif/manifest" }, "geometry": { "type": "Polygon", "coordinates": [ [ [ 131.1, 44.6416664 ], [ 131.35, 44.6416664 ], [ 131.35, 44.8361108 ], [ 131.1, 44.8361108 ], [ 131.1, 44.6416664 ] ] ] } },
{ "type": "Feature", "properties": { "Id": 0, "Sheet_ID": "MAP 8", "label": "MAP 8", "call_short": "G7322 .U8 1917 .J3", "call_num": "G7322 .U8 1917 .J3 MAP 8", "recid": "ds889pr3752", "websiteUrl": "https://purl.stanford.edu/ds889pr3752", "title": "烏蘇里方面", "ckey": 10366271, "available": true, "iiifUrl": "https://purl.stanford.edu/ds889pr3752/iiif/manifest" }, "geometry": { "type": "Polygon", "coordinates": [ [ [ 131.35, 44.6416664 ], [ 131.6, 44.6416664 ], [ 131.6, 44.8361108 ], [ 131.35, 44.8361108 ], [ 131.35, 44.6416664 ] ] ] } },
{ "type": "Feature", "properties": { "Id": 0, "Sheet_ID": "MAP 6-7", "label": "MAP 6-7", "call_short": "G7322 .U8 1917 .J3", "call_num": "G7322 .U8 1917 .J3 MAP 6-7", "recid": "tr950sp9027", "websiteUrl": "https://purl.stanford.edu/tr950sp9027", "title": "烏蘇里方面", "ckey": 10366271, "available": true, "iiifUrl": "https://purl.stanford.edu/tr950sp9027/iiif/manifest" }, "geometry": { "type": "Polygon", "coordinates": [ [ [ 131.85, 44.6416664 ], [ 132.1, 44.6416664 ], [ 132.1, 44.8361108 ], [ 131.85, 44.8361108 ], [ 131.85, 44.6416664 ] ] ] } },
{ "type": "Feature", "properties": { "Id": 0, "Sheet_ID": "MAP 5", "label": "MAP 5", "call_short": "G7322 .U8 1917 .J3", "call_num": "G7322 .U8 1917 .J3 MAP 5", "recid": "tb603cn5610", "websiteUrl": "https://purl.stanford.edu/tb603cn5610", "title": "烏蘇里方面", "ckey": 10366271, "available": true, "iiifUrl": "https://purl.stanford.edu/tb603cn5610/iiif/manifest" }, "geometry": { "type": "Polygon", "coordinates": [ [ [ 131.1, 44.8361108 ], [ 131.35, 44.8361108 ], [ 131.35, 45.0305552 ], [ 131.1, 45.0305552 ], [ 131.1, 44.8361108 ] ] ] } },
{ "type": "Feature", "properties": { "Id": 0, "Sheet_ID": "MAP 4", "label": "MAP 4", "call_short": "G7322 .U8 1917 .J3", "call_num": "G7322 .U8 1917 .J3 MAP 4", "recid": "jx102tg9444", "websiteUrl": "https://purl.stanford.edu/jx102tg9444", "title": "烏蘇里方面", "ckey": 10366271, "available": true, "iiifUrl": "https://purl.stanford.edu/jx102tg9444/iiif/manifest" }, "geometry": { "type": "Polygon", "coordinates": [ [ [ 131.35, 44.8361108 ], [ 131.6, 44.8361108 ], [ 131.6, 45.0305552 ], [ 131.35, 45.0305552 ], [ 131.35, 44.8361108 ] ] ] } },
{ "type": "Feature", "properties": { "Id": 0, "Sheet_ID": "MAP 3", "label": "MAP 3", "call_short": "G7322 .U8 1917 .J3", "call_num": "G7322 .U8 1917 .J3 MAP 3", "recid": "jb491sm7977", "websiteUrl": "https://purl.stanford.edu/jb491sm7977", "title": "烏蘇里方面", "ckey": 10366271, "available": true, "iiifUrl": "https://purl.stanford.edu/jb491sm7977/iiif/manifest" }, "geometry": { "type": "Polygon", "coordinates": [ [ [ 131.6, 45.0305552 ], [ 131.85, 45.0305552 ], [ 131.85, 45.2249996 ], [ 131.6, 45.2249996 ], [ 131.6, 45.0305552 ] ] ] } },
{ "type": "Feature", "properties": { "Id": 0, "Sheet_ID": "MAP 2", "label": "MAP 2", "call_short": "G7322 .U8 1917 .J3", "call_num": "G7322 .U8 1917 .J3 MAP 2", "recid": "cq240jv0195", "websiteUrl": "https://purl.stanford.edu/cq240jv0195", "title": "烏蘇里方面", "ckey": 10366271, "available": true, "iiifUrl": "https://purl.stanford.edu/cq240jv0195/iiif/manifest" }, "geometry": { "type": "Polygon", "coordinates": [ [ [ 131.85, 45.0305552 ], [ 132.1, 45.0305552 ], [ 132.1, 45.2249996 ], [ 131.85, 45.2249996 ], [ 131.85, 45.0305552 ] ] ] } },
{ "type": "Feature", "properties": { "Id": 0, "Sheet_ID": "MAP 1", "label": "MAP 1", "call_short": "G7322 .U8 1917 .J3", "call_num": "G7322 .U8 1917 .J3 MAP 1", "recid": "qn373cp8959", "websiteUrl": "https://purl.stanford.edu/qn373cp8959", "title": "烏蘇里方面", "ckey": 10366271, "available": true, "iiifUrl": "https://purl.stanford.edu/qn373cp8959/iiif/manifest" }, "geometry": { "type": "Polygon", "coordinates": [ [ [ 131.85, 45.2249996 ], [ 132.1, 45.2249996 ], [ 132.1, 45.419444 ], [ 131.85, 45.419444 ], [ 131.85, 45.2249996 ] ] ] } }
]
}
