{"type":"FeatureCollection","features":[{"type":"Feature","properties":{"Id":0,"Sheet_ID":"トロキナ飛行場","label":"トロキナ飛行場","call_short":"G9282 .B6 P61 1944 .J3","call_num":"G9282 .B6 P61 1944 .J3","recid":"pd561xk6871","websiteUrl":"https://purl.stanford.edu/pd561xk6871","title":"トロキナ飛行場","ckey":12284225,"web_map":"","available":"true","iiiUrl":"https://purl.stanford.edu/pd561xk6871/iiif/manifest"},"geometry":{"bbox":[154.975,-6.275,155.125,-6.175],"type":"Polygon","coordinates":[[[154.975,-6.275],[154.975,-6.175],[155.125,-6.175],[155.125,-6.275],[154.975,-6.275]]]}}],"name":"index_12284225"}
