{"type":"FeatureCollection","features":[{"type":"Feature","properties":{"Id":0,"Sheet_ID":"25. コーリ","label":"25. コーリ","call_short":"G7270 S100 .J385","call_num":"G7270 S100 .J385 SHEET 25","recid":"cx474gs0679","websiteUrl":"https://purl.stanford.edu/cx474gs0679","title":"西伯利十万分一圖 薩哈嗹灣","ckey":12284147,"web_map":"","available":"true","iiifUrl":"https://purl.stanford.edu/cx474gs0679/iiif/manifest"},"geometry":{"bbox":[140,53.333333,141,54],"type":"Polygon","coordinates":[[[140,53.333333],[140,54],[141,54],[141,53.333333],[140,53.333333]]]}},{"type":"Feature","properties":{"Id":0,"Sheet_ID":"20. 薩哈嗹灣","label":"20. 薩哈嗹灣","call_short":"G7270 S100 .J385","call_num":"G7270 S100 .J385 SHEET 20","recid":"sr209yh8722","websiteUrl":"https://purl.stanford.edu/sr209yh8722","title":"西伯利十万分一圖 薩哈嗹灣","ckey":12284147,"web_map":"","available":"true","iiifUrl":"https://purl.stanford.edu/sr209yh8722/iiif/manifest"},"geometry":{"bbox":[141,53.333333,142,54],"type":"Polygon","coordinates":[[[141,53.333333],[141,54],[142,54],[142,53.333333],[141,53.333333]]]}},{"type":"Feature","properties":{"Id":0,"Sheet_ID":"15. オハ","label":"15. オハ","call_short":"","call_num":"","recid":"","websiteUrl":"","title":"","ckey":0,"web_map":"","available":"false","iiifUrl":""},"geometry":{"bbox":[142,53.333333,143,54],"type":"Polygon","coordinates":[[[142,53.333333],[142,54],[143,54],[143,53.333333],[142,53.333333]]]}},{"type":"Feature","properties":{"Id":0,"Sheet_ID":"10. エハビ","label":"10. エハビ","call_short":"","call_num":"","recid":"","websiteUrl":"","title":"","ckey":0,"web_map":"","available":"false","iiifUrl":""},"geometry":{"bbox":[143,53.33333300000004,143.5000000000001,53.66666700000013],"type":"Polygon","coordinates":[[[143,53.33333300000004],[143,53.66666700000013],[143.5000000000001,53.66666700000013],[143.5000000000001,53.33333300000004],[143,53.33333300000004]]]}},{"type":"Feature","properties":{"Id":0,"Sheet_ID":"24. リトゥチ岬北部","label":"24. リトゥチ岬北部","call_short":"","call_num":"","recid":"","websiteUrl":"","title":"","ckey":0,"web_map":"","available":"false","iiifUrl":""},"geometry":{"bbox":[140,54,141,54.666667],"type":"Polygon","coordinates":[[[140,54],[140,54.666667],[141,54.666667],[141,54],[140,54]]]}},{"type":"Feature","properties":{"Id":0,"Sheet_ID":"14: シミーヅタ半島","label":"14: シミーヅタ半島","call_short":"G7270 S100 .J385","call_num":"G7270 S100 .J385 SHEET 14","recid":"ys085kh8821","websiteUrl":"https://purl.stanford.edu/ys085kh8821","title":"北樺太十万分一圖 薩哈嗹灣","ckey":12284147,"web_map":"","available":"true","iiifUrl":"https://purl.stanford.edu/ys085kh8821/iiif/manifest"},"geometry":{"bbox":[142,54,143,54.666667],"type":"Polygon","coordinates":[[[142,54],[142,54.666667],[143,54.666667],[143,54],[142,54]]]}}],"name":"index_12284147"}
