{"type":"FeatureCollection","features":[{"type":"Feature","properties":{"Id":0,"Sheet_ID":"SHEET 2","label":"SHEET 2","call_short":"G7823 .S55 1941 .J3","call_num":"G7823 .S55 1941 .J3 SHEET 2","recid":"nf501wg4827","websiteUrl":"https://purl.stanford.edu/nf501wg4827","title":"四川附近五十万分一地誌圖","ckey":10221513,"web_map":"","available":"true","iiiUrl":"https://purl.stanford.edu/nf501wg4827/iiif/manifest"},"geometry":{"bbox":[100,28.333333000000003,105.00000000000001,31.666667000000004],"type":"Polygon","coordinates":[[[100,28.333333000000003],[100,31.666667000000004],[105.00000000000001,31.666667000000004],[105.00000000000001,28.333333000000003],[100,28.333333000000003]]]}},{"type":"Feature","properties":{"Id":0,"Sheet_ID":"SHEET 1","label":"SHEET 1","call_short":"G7823 .S55 1941 .J3","call_num":"G7823 .S55 1941 .J3 SHEET 1","recid":"nn836py9296","websiteUrl":"https://purl.stanford.edu/nn836py9296","title":"四川附近五十万分一地誌圖","ckey":10221513,"web_map":"","available":"true","iiiUrl":"https://purl.stanford.edu/nn836py9296/iiif/manifest"},"geometry":{"bbox":[105.00000000000001,28.333333000000003,110,31.666667000000004],"type":"Polygon","coordinates":[[[105.00000000000001,28.333333000000003],[105.00000000000001,31.666667000000004],[110,31.666667000000004],[110,28.333333000000003],[105.00000000000001,28.333333000000003]]]}}],"name":"index_10221513"}
