{"type":"FeatureCollection","features":[{"type":"Feature","properties":{"Id":0,"Sheet_ID":"25. クルゥスータイ","label":"25. クルゥスータイ","call_short":"","call_num":"","recid":"","websiteUrl":"","title":"","ckey":0,"web_map":"","available":"false","iiifUrl":""},"geometry":{"bbox":[115,50,116.00000000000001,50.6666666],"type":"Polygon","coordinates":[[[115,50],[115,50.6666666],[116.00000000000001,50.6666666],[116.00000000000001,50],[115,50]]]}},{"type":"Feature","properties":{"Id":0,"Sheet_ID":"20. ボルジャ","label":"20. ボルジャ","call_short":"G7270 S100 .J3","call_num":"G7270 S100 .J3 SHEET 20","recid":"px672dk4523","websiteUrl":"https://purl.stanford.edu/px672dk4523","title":"蒙古及西伯利十万分一圖 ネルチンスク","ckey":12372180,"web_map":"","available":"true","iiifUrl":"https://purl.stanford.edu/px672dk4523/iiif/manifest"},"geometry":{"bbox":[116.00000000000001,50,117,50.6666666],"type":"Polygon","coordinates":[[[116.00000000000001,50],[116.00000000000001,50.6666666],[117,50.6666666],[117,50],[116.00000000000001,50]]]}},{"type":"Feature","properties":{"Id":0,"Sheet_ID":"15. ツァガンオルーエフスカヤ","label":"15. ツァガンオルーエフスカヤ","call_short":"G7270 S100 .J3","call_num":"G7270 S100 .J3 SHEET 15","recid":"yk902dk3386","websiteUrl":"https://purl.stanford.edu/yk902dk3386","title":"西伯利十万分一圖 ネルチンスク","ckey":12372180,"web_map":"","available":"true","iiifUrl":"https://purl.stanford.edu/yk902dk3386/iiif/manifest"},"geometry":{"bbox":[117,50,118.00000000000001,50.6666666],"type":"Polygon","coordinates":[[[117,50],[117,50.6666666],[118.00000000000001,50.6666666],[118.00000000000001,50],[117,50]]]}},{"type":"Feature","properties":{"Id":0,"Sheet_ID":"10. ブィルカ","label":"10. ブィルカ","call_short":"G7270 S100 .J3","call_num":"G7270 S100 .J3 SHEET 10","recid":"ws393mq5769","websiteUrl":"https://purl.stanford.edu/ws393mq5769","title":"西伯利十万分一圖 ネルチンスク","ckey":12372180,"web_map":"","available":"true","iiifUrl":"https://purl.stanford.edu/ws393mq5769/iiif/manifest"},"geometry":{"bbox":[118.00000000000001,50,119,50.6666666],"type":"Polygon","coordinates":[[[118.00000000000001,50],[118.00000000000001,50.6666666],[119,50.6666666],[119,50],[118.00000000000001,50]]]}},{"type":"Feature","properties":{"Id":0,"Sheet_ID":"5. 黒山頭","label":"5. 黒山頭","call_short":"G7270 S100 .J3","call_num":"G7270 S100 .J3 SHEET 5","recid":"dv139xn8874","websiteUrl":"https://purl.stanford.edu/dv139xn8874","title":"満州及西伯利十万分一圖 ネルチンスク","ckey":12372180,"web_map":"","available":"true","iiifUrl":"https://purl.stanford.edu/dv139xn8874/iiif/manifest"},"geometry":{"bbox":[119,50,119.99999999999999,50.6666666],"type":"Polygon","coordinates":[[[119,50],[119,50.6666666],[119.99999999999999,50.6666666],[119.99999999999999,50],[119,50]]]}},{"type":"Feature","properties":{"Id":0,"Sheet_ID":"24. オロビャンヌヌィー","label":"24. オロビャンヌヌィー","call_short":"","call_num":"","recid":"","websiteUrl":"","title":"","ckey":0,"web_map":"","available":"false","iiifUrl":""},"geometry":{"bbox":[115,50.6666666,116.00000000000001,51.3333332],"type":"Polygon","coordinates":[[[115,50.6666666],[115,51.3333332],[116.00000000000001,51.3333332],[116.00000000000001,50.6666666],[115,50.6666666]]]}},{"type":"Feature","properties":{"Id":0,"Sheet_ID":"19. ボルヂャ北方","label":"19. ボルヂャ北方","call_short":"G7270 S100 .J3","call_num":"G7270 S100 .J3 SHEET 19","recid":"mt227kw1898","websiteUrl":"https://purl.stanford.edu/mt227kw1898","title":"西伯利十万分一圖 ネルチンスク","ckey":12372180,"web_map":"","available":"true","iiifUrl":"https://purl.stanford.edu/mt227kw1898/iiif/manifest"},"geometry":{"bbox":[116.00000000000001,50.6666666,117,51.3333332],"type":"Polygon","coordinates":[[[116.00000000000001,50.6666666],[116.00000000000001,51.3333332],[117,51.3333332],[117,50.6666666],[116.00000000000001,50.6666666]]]}},{"type":"Feature","properties":{"Id":0,"Sheet_ID":"14. アレキサンドロフスキーザヴォード","label":"14. アレキサンドロフスキーザヴォード","call_short":"G7270 S100 .J3","call_num":"G7270 S100 .J3 SHEET 14","recid":"vr942mn3210","websiteUrl":"https://purl.stanford.edu/vr942mn3210","title":"西伯利十万分一圖 ネルチンスク","ckey":12372180,"web_map":"","available":"true","iiifUrl":"https://purl.stanford.edu/vr942mn3210/iiif/manifest"},"geometry":{"bbox":[117,50.6666666,118.00000000000001,51.3333332],"type":"Polygon","coordinates":[[[117,50.6666666],[117,51.3333332],[118.00000000000001,51.3333332],[118.00000000000001,50.6666666],[117,50.6666666]]]}},{"type":"Feature","properties":{"Id":0,"Sheet_ID":"9. ドノー","label":"9. ドノー","call_short":"G7270 S100 .J3","call_num":"G7270 S100 .J3 SHEET 9","recid":"vq727nc2260","websiteUrl":"https://purl.stanford.edu/vq727nc2260","title":"西伯利十万分一圖 ネルチンスク","ckey":12372180,"web_map":"","available":"true","iiifUrl":"https://purl.stanford.edu/vq727nc2260/iiif/manifest"},"geometry":{"bbox":[118.00000000000001,50.6666666,119,51.3333332],"type":"Polygon","coordinates":[[[118.00000000000001,50.6666666],[118.00000000000001,51.3333332],[119,51.3333332],[119,50.6666666],[118.00000000000001,50.6666666]]]}},{"type":"Feature","properties":{"Id":0,"Sheet_ID":"4. ネルチンスキーザヴォード","label":"4. ネルチンスキーザヴォード","call_short":"G7270 S100 .J3","call_num":"G7270 S100 .J3 SHEET 4","recid":"zy504rt9725","websiteUrl":"https://purl.stanford.edu/zy504rt9725","title":"満州及西伯利十万分一圖 ネルチンスク","ckey":12372180,"web_map":"","available":"true","iiifUrl":"https://purl.stanford.edu/zy504rt9725/iiif/manifest"},"geometry":{"bbox":[119,50.6666666,119.99999999999999,51.3333332],"type":"Polygon","coordinates":[[[119,50.6666666],[119,51.3333332],[119.99999999999999,51.3333332],[119.99999999999999,50.6666666],[119,50.6666666]]]}},{"type":"Feature","properties":{"Id":0,"Sheet_ID":"23. ガルキンスキー","label":"23. ガルキンスキー","call_short":"","call_num":"","recid":"","websiteUrl":"","title":"","ckey":0,"web_map":"","available":"false","iiifUrl":""},"geometry":{"bbox":[115,51.3333332,116.00000000000001,51.999999800000005],"type":"Polygon","coordinates":[[[115,51.3333332],[115,51.999999800000005],[116.00000000000001,51.999999800000005],[116.00000000000001,51.3333332],[115,51.3333332]]]}},{"type":"Feature","properties":{"Id":0,"Sheet_ID":"18. ネルチンスク","label":"18. ネルチンスク","call_short":"G7270 S100 .J3","call_num":"G7270 S100 .J3 SHEET 18","recid":"vw913nj1854","websiteUrl":"https://purl.stanford.edu/vw913nj1854","title":"西伯利十万分一圖 ネルチンスク","ckey":12372180,"web_map":"","available":"true","iiifUrl":"https://purl.stanford.edu/vw913nj1854/iiif/manifest"},"geometry":{"bbox":[116.00000000000001,51.3333332,117,51.999999800000005],"type":"Polygon","coordinates":[[[116.00000000000001,51.3333332],[116.00000000000001,51.999999800000005],[117,51.999999800000005],[117,51.3333332],[116.00000000000001,51.3333332]]]}},{"type":"Feature","properties":{"Id":0,"Sheet_ID":"13. ヂドキンスカーヤ","label":"13. ヂドキンスカーヤ","call_short":"G7270 S100 .J3","call_num":"G7270 S100 .J3 SHEET 13","recid":"yn010yy5151","websiteUrl":"https://purl.stanford.edu/yn010yy5151","title":"西伯利十万分一圖 ネルチンスク","ckey":12372180,"web_map":"","available":"true","iiifUrl":"https://purl.stanford.edu/yn010yy5151/iiif/manifest"},"geometry":{"bbox":[117,51.3333332,118.00000000000001,51.999999800000005],"type":"Polygon","coordinates":[[[117,51.3333332],[117,51.999999800000005],[118.00000000000001,51.999999800000005],[118.00000000000001,51.3333332],[117,51.3333332]]]}},{"type":"Feature","properties":{"Id":0,"Sheet_ID":"8. ガジームルスキー","label":"8. ガジームルスキー","call_short":"G7270 S100 .J3","call_num":"G7270 S100 .J3 SHEET 8","recid":"zc704cn1667","websiteUrl":"https://purl.stanford.edu/zc704cn1667","title":"西伯利十万分一圖 ネルチンスク","ckey":12372180,"web_map":"","available":"true","iiifUrl":"https://purl.stanford.edu/zc704cn1667/iiif/manifest"},"geometry":{"bbox":[118.00000000000001,51.3333332,119,51.999999800000005],"type":"Polygon","coordinates":[[[118.00000000000001,51.3333332],[118.00000000000001,51.999999800000005],[119,51.999999800000005],[119,51.3333332],[118.00000000000001,51.3333332]]]}},{"type":"Feature","properties":{"Id":0,"Sheet_ID":"3. ホミャコフスキー","label":"3. ホミャコフスキー","call_short":"G7270 S100 .J3","call_num":"G7270 S100 .J3 SHEET 3","recid":"ct042pn8492","websiteUrl":"https://purl.stanford.edu/ct042pn8492","title":"満州及西伯利十万分一圖 ネルチンスク","ckey":12372180,"web_map":"","available":"true","iiifUrl":"https://purl.stanford.edu/ct042pn8492/iiif/manifest"},"geometry":{"bbox":[119,51.3333332,119.99999999999999,51.999999800000005],"type":"Polygon","coordinates":[[[119,51.3333332],[119,51.999999800000005],[119.99999999999999,51.999999800000005],[119.99999999999999,51.3333332],[119,51.3333332]]]}},{"type":"Feature","properties":{"Id":0,"Sheet_ID":"22. ツァガクシーン","label":"22. ツァガクシーン","call_short":"","call_num":"","recid":"","websiteUrl":"","title":"","ckey":0,"web_map":"","available":"false","iiifUrl":""},"geometry":{"bbox":[115,51.999999800000005,116.00000000000001,52.66666640000001],"type":"Polygon","coordinates":[[[115,51.999999800000005],[115,52.66666640000001],[116.00000000000001,52.66666640000001],[116.00000000000001,51.999999800000005],[115,51.999999800000005]]]}},{"type":"Feature","properties":{"Id":0,"Sheet_ID":"17. アリンスク","label":"17. アリンスク","call_short":"","call_num":"","recid":"","websiteUrl":"","title":"","ckey":0,"web_map":"","available":"false","iiifUrl":""},"geometry":{"bbox":[116.00000000000001,51.999999800000005,117,52.66666640000001],"type":"Polygon","coordinates":[[[116.00000000000001,51.999999800000005],[116.00000000000001,52.66666640000001],[117,52.66666640000001],[117,51.999999800000005],[116.00000000000001,51.999999800000005]]]}},{"type":"Feature","properties":{"Id":0,"Sheet_ID":"12. スレーテンスク","label":"12. スレーテンスク","call_short":"G7270 S100 .J3","call_num":"G7270 S100 .J3 SHEET 12","recid":"qh958bk8134","websiteUrl":"https://purl.stanford.edu/qh958bk8134","title":"西伯利十万分一圖 ネルチンスク","ckey":12372180,"web_map":"","available":"true","iiifUrl":"https://purl.stanford.edu/qh958bk8134/iiif/manifest"},"geometry":{"bbox":[117,51.999999800000005,118.00000000000001,52.66666640000001],"type":"Polygon","coordinates":[[[117,51.999999800000005],[117,52.66666640000001],[118.00000000000001,52.66666640000001],[118.00000000000001,51.999999800000005],[117,51.999999800000005]]]}},{"type":"Feature","properties":{"Id":0,"Sheet_ID":"7. シールキンスキー","label":"7. シールキンスキー","call_short":"G7270 S100 .J3","call_num":"G7270 S100 .J3 SHEET 7","recid":"fh490ss7744","websiteUrl":"https://purl.stanford.edu/fh490ss7744","title":"西伯利十万分一圖 ネルチンスク","ckey":12372180,"web_map":"","available":"true","iiifUrl":"https://purl.stanford.edu/fh490ss7744/iiif/manifest"},"geometry":{"bbox":[118.00000000000001,51.999999800000005,119,52.66666640000001],"type":"Polygon","coordinates":[[[118.00000000000001,51.999999800000005],[118.00000000000001,52.66666640000001],[119,52.66666640000001],[119,51.999999800000005],[118.00000000000001,51.999999800000005]]]}},{"type":"Feature","properties":{"Id":0,"Sheet_ID":"2. ゼレン","label":"2. ゼレン","call_short":"G7270 S100 .J3","call_num":"G7270 S100 .J3 SHEET 2","recid":"gh629jg1807","websiteUrl":"https://purl.stanford.edu/gh629jg1807","title":"西伯利十万分一圖 ネルチンスク","ckey":12372180,"web_map":"","available":"true","iiifUrl":"https://purl.stanford.edu/gh629jg1807/iiif/manifest"},"geometry":{"bbox":[119,51.999999800000005,119.99999999999999,52.66666640000001],"type":"Polygon","coordinates":[[[119,51.999999800000005],[119,52.66666640000001],[119.99999999999999,52.66666640000001],[119.99999999999999,51.999999800000005],[119,51.999999800000005]]]}},{"type":"Feature","properties":{"Id":0,"Sheet_ID":"16. アリンスク北方","label":"16. アリンスク北方","call_short":"","call_num":"","recid":"","websiteUrl":"","title":"","ckey":0,"web_map":"","available":"false","iiifUrl":""},"geometry":{"bbox":[116.00000000000001,52.66666640000001,117,53.333333],"type":"Polygon","coordinates":[[[116.00000000000001,52.66666640000001],[116.00000000000001,53.333333],[117,53.333333],[117,52.66666640000001],[116.00000000000001,52.66666640000001]]]}},{"type":"Feature","properties":{"Id":0,"Sheet_ID":"11. ジーロウォ","label":"11. ジーロウォ","call_short":"","call_num":"","recid":"","websiteUrl":"","title":"","ckey":0,"web_map":"","available":"false","iiifUrl":""},"geometry":{"bbox":[117,52.66666640000001,118.00000000000001,53.333333],"type":"Polygon","coordinates":[[[117,52.66666640000001],[117,53.333333],[118.00000000000001,53.333333],[118.00000000000001,52.66666640000001],[117,52.66666640000001]]]}},{"type":"Feature","properties":{"Id":0,"Sheet_ID":"6. ズベガ","label":"6. ズベガ","call_short":"","call_num":"","recid":"","websiteUrl":"","title":"","ckey":0,"web_map":"","available":"false","iiifUrl":""},"geometry":{"bbox":[118.00000000000001,52.66666640000001,119,53.333333],"type":"Polygon","coordinates":[[[118.00000000000001,52.66666640000001],[118.00000000000001,53.333333],[119,53.333333],[119,52.66666640000001],[118.00000000000001,52.66666640000001]]]}},{"type":"Feature","properties":{"Id":0,"Sheet_ID":"1. ゴルビーツァ","label":"1. ゴルビーツァ","call_short":"","call_num":"","recid":"","websiteUrl":"","title":"","ckey":0,"web_map":"","available":"false","iiifUrl":""},"geometry":{"bbox":[119,52.66666640000001,119.99999999999999,53.333333],"type":"Polygon","coordinates":[[[119,52.66666640000001],[119,53.333333],[119.99999999999999,53.333333],[119.99999999999999,52.66666640000001],[119,52.66666640000001]]]}}],"name":"index_12372180"}
