{
"type": "FeatureCollection",
"name": "index_map",
"xy_coordinate_resolution": 1e-07,
"features": [
{ "type": "Feature", "properties": { "Id": 0, "Sheet_ID": "12. 大英河子", "label": "12. 大英河子", "call_short": "0", "call_num": "0", "recid": "0", "websiteUrl": "0", "title": "0", "ckey": 0, "available": false, "iiifUrl": "0" }, "geometry": { "type": "Polygon", "coordinates": [ [ [ 120.5, 40.6416663 ], [ 120.6666668, 40.6416663 ], [ 120.6666668, 40.7249998 ], [ 120.5, 40.7249998 ], [ 120.5, 40.6416663 ] ] ] } },
{ "type": "Feature", "properties": { "Id": 0, "Sheet_ID": "11. 双樹舗", "label": "11. 双樹舗", "call_short": "0", "call_num": "0", "recid": "0", "websiteUrl": "0", "title": "0", "ckey": 0, "available": false, "iiifUrl": "0" }, "geometry": { "type": "Polygon", "coordinates": [ [ [ 120.6666668, 40.6416663 ], [ 120.8333335, 40.6416663 ], [ 120.8333335, 40.7249998 ], [ 120.6666668, 40.7249998 ], [ 120.6666668, 40.6416663 ] ] ] } },
{ "type": "Feature", "properties": { "Id": 0, "Sheet_ID": "8. 玉皇閣", "label": "8. 玉皇閣", "call_short": "0", "call_num": "0", "recid": "0", "websiteUrl": "0", "title": "0", "ckey": 0, "available": false, "iiifUrl": "0" }, "geometry": { "type": "Polygon", "coordinates": [ [ [ 120.8333335, 40.6416663 ], [ 121.0, 40.6416663 ], [ 121.0, 40.7249998 ], [ 120.8333335, 40.7249998 ], [ 120.8333335, 40.6416663 ] ] ] } },
{ "type": "Feature", "properties": { "Id": 0, "Sheet_ID": "4. 大孤山", "label": "4. 大孤山", "call_short": "G7822 .L5 1923 .J3", "call_num": "G7822 .L5 1923 .J3 SHEET 4", "recid": "rh002ym3208", "websiteUrl": "https://purl.stanford.edu/rh002ym3208", "title": "二万五千分一圖 連山灣近傍", "ckey": 12124205, "available": true, "iiifUrl": "https://purl.stanford.edu/rh002ym3208/iiif/manifest" }, "geometry": { "type": "Polygon", "coordinates": [ [ [ 121.0, 40.6416663 ], [ 121.166667, 40.6416663 ], [ 121.166667, 40.7249998 ], [ 121.0, 40.7249998 ], [ 121.0, 40.6416663 ] ] ] } },
{ "type": "Feature", "properties": { "Id": 0, "Sheet_ID": "10. 五里河子", "label": "10. 五里河子", "call_short": "G7822 .L5 1923 .J3", "call_num": "G7822 .L5 1923 .J3 SHEET 10", "recid": "dv918gh8120", "websiteUrl": "https://purl.stanford.edu/dv918gh8120", "title": "二万五千分一圖 連山灣近傍", "ckey": 12124205, "available": true, "iiifUrl": "https://purl.stanford.edu/dv918gh8120/iiif/manifest" }, "geometry": { "type": "Polygon", "coordinates": [ [ [ 120.6666668, 40.7249998 ], [ 120.8333335, 40.7249998 ], [ 120.8333335, 40.8083333 ], [ 120.6666668, 40.8083333 ], [ 120.6666668, 40.7249998 ] ] ] } },
{ "type": "Feature", "properties": { "Id": 0, "Sheet_ID": "7. 連山", "label": "7. 連山", "call_short": "0", "call_num": "0", "recid": "0", "websiteUrl": "0", "title": "0", "ckey": 0, "available": false, "iiifUrl": "0" }, "geometry": { "type": "Polygon", "coordinates": [ [ [ 120.8333335, 40.7249998 ], [ 121.0, 40.7249998 ], [ 121.0, 40.8083333 ], [ 120.8333335, 40.8083333 ], [ 120.8333335, 40.7249998 ] ] ] } },
{ "type": "Feature", "properties": { "Id": 0, "Sheet_ID": "3. 筆架山", "label": "3. 筆架山", "call_short": "G7822 .L5 1923 .J3", "call_num": "G7822 .L5 1923 .J3 SHEET 3", "recid": "hn389fb4485", "websiteUrl": "https://purl.stanford.edu/hn389fb4485", "title": "二万五千分一圖 連山灣近傍", "ckey": 12124205, "available": true, "iiifUrl": "https://purl.stanford.edu/hn389fb4485/iiif/manifest" }, "geometry": { "type": "Polygon", "coordinates": [ [ [ 121.0, 40.7249998 ], [ 121.166667, 40.7249998 ], [ 121.166667, 40.8083333 ], [ 121.0, 40.8083333 ], [ 121.0, 40.7249998 ] ] ] } },
{ "type": "Feature", "properties": { "Id": 0, "Sheet_ID": "9. 新立屯", "label": "9. 新立屯", "call_short": "G7822 .L5 1923 .J3", "call_num": "G7822 .L5 1923 .J3 SHEET 9", "recid": "fp534nv1887", "websiteUrl": "https://purl.stanford.edu/fp534nv1887", "title": "二万五千分一圖 連山灣近傍", "ckey": 12124205, "available": true, "iiifUrl": "https://purl.stanford.edu/fp534nv1887/iiif/manifest" }, "geometry": { "type": "Polygon", "coordinates": [ [ [ 120.6666668, 40.8083333 ], [ 120.8333335, 40.8083333 ], [ 120.8333335, 40.8916668 ], [ 120.6666668, 40.8916668 ], [ 120.6666668, 40.8083333 ] ] ] } },
{ "type": "Feature", "properties": { "Id": 0, "Sheet_ID": "6. 塔山", "label": "6. 塔山", "call_short": "G7822 .L5 1923 .J3", "call_num": "G7822 .L5 1923 .J3 SHEET 6", "recid": "rh160xc9414", "websiteUrl": "https://purl.stanford.edu/rh160xc9414", "title": "二万五千分一圖 連山灣近傍", "ckey": 12124205, "available": true, "iiifUrl": "https://purl.stanford.edu/rh160xc9414/iiif/manifest" }, "geometry": { "type": "Polygon", "coordinates": [ [ [ 120.8333335, 40.8083333 ], [ 121.0, 40.8083333 ], [ 121.0, 40.8916668 ], [ 120.8333335, 40.8916668 ], [ 120.8333335, 40.8083333 ] ] ] } },
{ "type": "Feature", "properties": { "Id": 0, "Sheet_ID": "2. 西海口", "label": "2. 西海口", "call_short": "G7822 .L5 1923 .J3", "call_num": "G7822 .L5 1923 .J3 SHEET 2", "recid": "zz704hc6230", "websiteUrl": "https://purl.stanford.edu/zz704hc6230", "title": "二万五千分一圖 連山灣近傍", "ckey": 12124205, "available": true, "iiifUrl": "https://purl.stanford.edu/zz704hc6230/iiif/manifest" }, "geometry": { "type": "Polygon", "coordinates": [ [ [ 121.0, 40.8083333 ], [ 121.166667, 40.8083333 ], [ 121.166667, 40.8916668 ], [ 121.0, 40.8916668 ], [ 121.0, 40.8083333 ] ] ] } },
{ "type": "Feature", "properties": { "Id": 0, "Sheet_ID": "5. 新民屯", "label": "5. 新民屯", "call_short": "G7822 .L5 1923 .J3", "call_num": "G7822 .L5 1923 .J3 SHEET 5", "recid": "mw217wg6553", "websiteUrl": "https://purl.stanford.edu/mw217wg6553", "title": "二万五千分一圖 連山灣近傍", "ckey": 12124205, "available": true, "iiifUrl": "https://purl.stanford.edu/mw217wg6553/iiif/manifest" }, "geometry": { "type": "Polygon", "coordinates": [ [ [ 120.8333335, 40.8916668 ], [ 121.0, 40.8916668 ], [ 121.0, 40.9750003 ], [ 120.8333335, 40.9750003 ], [ 120.8333335, 40.8916668 ] ] ] } },
{ "type": "Feature", "properties": { "Id": 0, "Sheet_ID": "1. 高橋", "label": "1. 高橋", "call_short": "G7822 .L5 1923 .J3", "call_num": "G7822 .L5 1923 .J3 SHEET 1", "recid": "mn220qk4036", "websiteUrl": "https://purl.stanford.edu/mn220qk4036", "title": "二万五千分一圖 連山灣近傍", "ckey": 12124205, "available": true, "iiifUrl": "https://purl.stanford.edu/mn220qk4036/iiif/manifest" }, "geometry": { "type": "Polygon", "coordinates": [ [ [ 121.0, 40.8916668 ], [ 121.166667, 40.8916668 ], [ 121.166667, 40.9750003 ], [ 121.0, 40.9750003 ], [ 121.0, 40.8916668 ] ] ] } }
]
}
