{
"type": "FeatureCollection",
"name": "index_map",
"features": [
{ "type": "Feature", "properties": { "Id": 0, "Sheet_ID": "東部國境", "label": "東部國境", "call_short": "G7823 .B5P61 1941 .J3", "call_num": "G7823 .B5P61 1941 .J3", "recid": "cd195dp4237", "websiteUrl": "https://purl.stanford.edu/cd195dp4237", "title": "極東「ソ」領飛行場一覧圖 (東部國境) / 五十万分一東部國境近傍圖", "ckey": 12381399, "web_map": null, "available": true, "iiifUrl": "https://purl.stanford.edu/cd195dp4237/iiif/manifest" }, "geometry": { "type": "Polygon", "coordinates": [ [ [ 130.0, 42.166667 ], [ 134.5, 42.166667 ], [ 134.5, 46.666667 ], [ 130.0, 46.666667 ], [ 130.0, 42.166667 ] ] ] } }
]
}
