{
"type": "FeatureCollection",
"name": "index_map",
"xy_coordinate_resolution": 1e-07,
"features": [
{ "type": "Feature", "properties": { "Id": 0, "Sheet_ID": "ボロン湖", "label": "ボロン湖", "call_short": "0", "call_num": "0", "recid": "0", "websiteUrl": "0", "title": "0", "ckey": 0, "available": false, "iiifUrl": "0" }, "geometry": { "type": "Polygon", "coordinates": [ [ [ 136.0, 49.666667 ], [ 136.5, 49.666667 ], [ 136.5, 50.0000003 ], [ 136.0, 50.0000003 ], [ 136.0, 49.666667 ] ] ] } },
{ "type": "Feature", "properties": { "Id": 0, "Sheet_ID": "マルムイジ", "label": "マルムイジ", "call_short": "0", "call_num": "0", "recid": "0", "websiteUrl": "0", "title": "0", "ckey": 0, "available": false, "iiifUrl": "0" }, "geometry": { "type": "Polygon", "coordinates": [ [ [ 136.5, 49.666667 ], [ 137.0, 49.666667 ], [ 137.0, 50.0000003 ], [ 136.5, 50.0000003 ], [ 136.5, 49.666667 ] ] ] } },
{ "type": "Feature", "properties": { "Id": 0, "Sheet_ID": "九タ170. ウオズネセンスコエ", "label": "九タ170. ウオズネセンスコエ", "call_short": "G7270 S100 .J6", "call_num": "G7270 S100 .J6 9TA170", "recid": "yw903yp0629", "websiteUrl": "https://purl.stanford.edu/yw903yp0629", "title": "西伯利十万分一圖", "ckey": 12732964, "available": true, "iiifUrl": "https://purl.stanford.edu/yw903yp0629/iiif/manifest" }, "geometry": { "type": "Polygon", "coordinates": [ [ [ 136.5, 50.0000003 ], [ 137.0, 50.0000003 ], [ 137.0, 50.3333336 ], [ 136.5, 50.3333336 ], [ 136.5, 50.0000003 ] ] ] } },
{ "type": "Feature", "properties": { "Id": 0, "Sheet_ID": "九タ160. オルロフスカヤ", "label": "九タ160. オルロフスカヤ", "call_short": "G7270 S100 .J6", "call_num": "G7270 S100 .J6 9TA160", "recid": "yr599xf0766", "websiteUrl": "https://purl.stanford.edu/yr599xf0766", "title": "西伯利十万分一圖", "ckey": 12732964, "available": true, "iiifUrl": "https://purl.stanford.edu/yr599xf0766/iiif/manifest" }, "geometry": { "type": "Polygon", "coordinates": [ [ [ 137.0, 50.0000003 ], [ 137.5, 50.0000003 ], [ 137.5, 50.3333336 ], [ 137.0, 50.3333336 ], [ 137.0, 50.0000003 ] ] ] } },
{ "type": "Feature", "properties": { "Id": 0, "Sheet_ID": "九タ150. ホルダビ", "label": "九タ150. ホルダビ", "call_short": "G7270 S100 .J6", "call_num": "G7270 S100 .J6 9TA150", "recid": "vf233st0072", "websiteUrl": "https://purl.stanford.edu/vf233st0072", "title": "西伯利十万分一圖", "ckey": 12732964, "available": true, "iiifUrl": "https://purl.stanford.edu/vf233st0072/iiif/manifest" }, "geometry": { "type": "Polygon", "coordinates": [ [ [ 137.5, 50.0000003 ], [ 138.0, 50.0000003 ], [ 138.0, 50.3333336 ], [ 137.5, 50.3333336 ], [ 137.5, 50.0000003 ] ] ] } },
{ "type": "Feature", "properties": { "Id": 0, "Sheet_ID": "九タ140. クーン", "label": "九タ140. クーン", "call_short": "G7270 S100 .J6", "call_num": "G7270 S100 .J6 9TA140", "recid": "sx654hb5493", "websiteUrl": "https://purl.stanford.edu/sx654hb5493", "title": "西伯利十万分一圖", "ckey": 12732964, "available": true, "iiifUrl": "https://purl.stanford.edu/sx654hb5493/iiif/manifest" }, "geometry": { "type": "Polygon", "coordinates": [ [ [ 138.0, 50.0000003 ], [ 138.5, 50.0000003 ], [ 138.5, 50.3333336 ], [ 138.0, 50.3333336 ], [ 138.0, 50.0000003 ] ] ] } },
{ "type": "Feature", "properties": { "Id": 0, "Sheet_ID": "九タ130. ダウロ", "label": "九タ130. ダウロ", "call_short": "G7270 S100 .J6", "call_num": "G7270 S100 .J6 9TA130", "recid": "fm943zq0543", "websiteUrl": "https://purl.stanford.edu/fm943zq0543", "title": "西伯利十万分一圖", "ckey": 12732964, "available": true, "iiifUrl": "https://purl.stanford.edu/fm943zq0543/iiif/manifest" }, "geometry": { "type": "Polygon", "coordinates": [ [ [ 138.5, 50.0000003 ], [ 139.0, 50.0000003 ], [ 139.0, 50.3333336 ], [ 138.5, 50.3333336 ], [ 138.5, 50.0000003 ] ] ] } },
{ "type": "Feature", "properties": { "Id": 0, "Sheet_ID": "九タ120. キーラー河", "label": "九タ120. キーラー河", "call_short": "G7270 S100 .J6", "call_num": "G7270 S100 .J6 9TA120", "recid": "yw193ss2973", "websiteUrl": "https://purl.stanford.edu/yw193ss2973", "title": "西伯利十万分一圖", "ckey": 12732964, "available": true, "iiifUrl": "https://purl.stanford.edu/yw193ss2973/iiif/manifest" }, "geometry": { "type": "Polygon", "coordinates": [ [ [ 139.0, 50.0000003 ], [ 139.5, 50.0000003 ], [ 139.5, 50.3333336 ], [ 139.0, 50.3333336 ], [ 139.0, 50.0000003 ] ] ] } },
{ "type": "Feature", "properties": { "Id": 0, "Sheet_ID": "九タ169. サラヒンダ", "label": "九タ169. サラヒンダ", "call_short": "G7270 S100 .J6", "call_num": "G7270 S100 .J6 9TA169", "recid": "zp454dc9825", "websiteUrl": "https://purl.stanford.edu/zp454dc9825", "title": "西伯利十万分一圖", "ckey": 12732964, "available": true, "iiifUrl": "https://purl.stanford.edu/zp454dc9825/iiif/manifest" }, "geometry": { "type": "Polygon", "coordinates": [ [ [ 136.5, 50.3333336 ], [ 137.0, 50.3333336 ], [ 137.0, 50.6666669 ], [ 136.5, 50.6666669 ], [ 136.5, 50.3333336 ] ] ] } },
{ "type": "Feature", "properties": { "Id": 0, "Sheet_ID": "九タ159. フムミ", "label": "九タ159. フムミ", "call_short": "G7270 S100 .J6", "call_num": "G7270 S100 .J6 9TA159", "recid": "gk279ww8926", "websiteUrl": "https://purl.stanford.edu/gk279ww8926", "title": "西伯利十万分一圖", "ckey": 12732964, "available": true, "iiifUrl": "https://purl.stanford.edu/gk279ww8926/iiif/manifest" }, "geometry": { "type": "Polygon", "coordinates": [ [ [ 137.0, 50.3333336 ], [ 137.5, 50.3333336 ], [ 137.5, 50.6666669 ], [ 137.0, 50.6666669 ], [ 137.0, 50.3333336 ] ] ] } },
{ "type": "Feature", "properties": { "Id": 0, "Sheet_ID": "九タ149. 二十四號", "label": "九タ149. 二十四號", "call_short": "G7270 S100 .J6", "call_num": "G7270 S100 .J6 9TA149", "recid": "ns813qm6300", "websiteUrl": "https://purl.stanford.edu/ns813qm6300", "title": "西伯利十万分一圖", "ckey": 12732964, "available": true, "iiifUrl": "https://purl.stanford.edu/ns813qm6300/iiif/manifest" }, "geometry": { "type": "Polygon", "coordinates": [ [ [ 137.5, 50.3333336 ], [ 138.0, 50.3333336 ], [ 138.0, 50.6666669 ], [ 137.5, 50.6666669 ], [ 137.5, 50.3333336 ] ] ] } },
{ "type": "Feature", "properties": { "Id": 0, "Sheet_ID": "九タ139. アグトアリー", "label": "九タ139. アグトアリー", "call_short": "G7270 S100 .J6", "call_num": "G7270 S100 .J6 9TA139", "recid": "zv331mf4183", "websiteUrl": "https://purl.stanford.edu/zv331mf4183", "title": "西伯利十万分一圖", "ckey": 12732964, "available": true, "iiifUrl": "https://purl.stanford.edu/zv331mf4183/iiif/manifest" }, "geometry": { "type": "Polygon", "coordinates": [ [ [ 138.0, 50.3333336 ], [ 138.5, 50.3333336 ], [ 138.5, 50.6666669 ], [ 138.0, 50.6666669 ], [ 138.0, 50.3333336 ] ] ] } },
{ "type": "Feature", "properties": { "Id": 0, "Sheet_ID": "九タ129. エポンサー山", "label": "九タ129. エポンサー山", "call_short": "G7270 S100 .J6", "call_num": "G7270 S100 .J6 9TA129", "recid": "mb412fw1951", "websiteUrl": "https://purl.stanford.edu/mb412fw1951", "title": "西伯利十万分一圖", "ckey": 12732964, "available": true, "iiifUrl": "https://purl.stanford.edu/mb412fw1951/iiif/manifest" }, "geometry": { "type": "Polygon", "coordinates": [ [ [ 138.5, 50.3333336 ], [ 139.0, 50.3333336 ], [ 139.0, 50.6666669 ], [ 138.5, 50.6666669 ], [ 138.5, 50.3333336 ] ] ] } },
{ "type": "Feature", "properties": { "Id": 0, "Sheet_ID": "九タ158. ヴェールフネタムボフスコエ", "label": "九タ158. ヴェールフネタムボフスコエ", "call_short": "G7270 S100 .J6", "call_num": "G7270 S100 .J6 9TA158", "recid": "pq105vc3144", "websiteUrl": "https://purl.stanford.edu/pq105vc3144", "title": "西伯利十万分一圖", "ckey": 12732964, "available": true, "iiifUrl": "https://purl.stanford.edu/pq105vc3144/iiif/manifest" }, "geometry": { "type": "Polygon", "coordinates": [ [ [ 137.0, 50.6666669 ], [ 137.5, 50.6666669 ], [ 137.5, 51.0000001 ], [ 137.0, 51.0000001 ], [ 137.0, 50.6666669 ] ] ] } },
{ "type": "Feature", "properties": { "Id": 0, "Sheet_ID": "九タ148. スレードネ・タムボフスク", "label": "九タ148. スレードネ・タムボフスク", "call_short": "G7270 S100 .J6", "call_num": "G7270 S100 .J6 9TA148", "recid": "my108cj5277", "websiteUrl": "https://purl.stanford.edu/my108cj5277", "title": "西伯利十万分一圖", "ckey": 12732964, "available": true, "iiifUrl": "https://purl.stanford.edu/my108cj5277/iiif/manifest" }, "geometry": { "type": "Polygon", "coordinates": [ [ [ 137.5, 50.6666669 ], [ 138.0, 50.6666669 ], [ 138.0, 51.0000001 ], [ 137.5, 51.0000001 ], [ 137.5, 50.6666669 ] ] ] } },
{ "type": "Feature", "properties": { "Id": 0, "Sheet_ID": "ニジネ・タムボフスク", "label": "ニジネ・タムボフスク", "call_short": "0", "call_num": "0", "recid": "0", "websiteUrl": "0", "title": "0", "ckey": 0, "available": false, "iiifUrl": "0" }, "geometry": { "type": "Polygon", "coordinates": [ [ [ 138.0, 50.6666669 ], [ 138.5, 50.6666669 ], [ 138.5, 51.0000001 ], [ 138.0, 51.0000001 ], [ 138.0, 50.6666669 ] ] ] } },
{ "type": "Feature", "properties": { "Id": 0, "Sheet_ID": "シゼミン", "label": "シゼミン", "call_short": "0", "call_num": "0", "recid": "0", "websiteUrl": "0", "title": "0", "ckey": 0, "available": false, "iiifUrl": "0" }, "geometry": { "type": "Polygon", "coordinates": [ [ [ 140.0, 50.6666669 ], [ 140.5, 50.6666669 ], [ 140.5, 51.0000001 ], [ 140.0, 51.0000001 ], [ 140.0, 50.6666669 ] ] ] } },
{ "type": "Feature", "properties": { "Id": 0, "Sheet_ID": "シェレホボ", "label": "シェレホボ", "call_short": "0", "call_num": "0", "recid": "0", "websiteUrl": "0", "title": "0", "ckey": 0, "available": false, "iiifUrl": "0" }, "geometry": { "type": "Polygon", "coordinates": [ [ [ 138.0, 51.0000001 ], [ 138.5, 51.0000001 ], [ 138.5, 51.3333334 ], [ 138.0, 51.3333334 ], [ 138.0, 51.0000001 ] ] ] } },
{ "type": "Feature", "properties": { "Id": 0, "Sheet_ID": "ジェレブツォヴォ", "label": "ジェレブツォヴォ", "call_short": "0", "call_num": "0", "recid": "0", "websiteUrl": "0", "title": "0", "ckey": 0, "available": false, "iiifUrl": "0" }, "geometry": { "type": "Polygon", "coordinates": [ [ [ 138.5, 51.0000001 ], [ 139.0, 51.0000001 ], [ 139.0, 51.3333334 ], [ 138.5, 51.3333334 ], [ 138.5, 51.0000001 ] ] ] } },
{ "type": "Feature", "properties": { "Id": 0, "Sheet_ID": "九タ117. チンメルマノフカ", "label": "九タ117. チンメルマノフカ", "call_short": "G7270 S100 .J6", "call_num": "G7270 S100 .J6 9TA117", "recid": "md156hy3552", "websiteUrl": "https://purl.stanford.edu/md156hy3552", "title": "西伯利十万分一圖", "ckey": 12732964, "available": true, "iiifUrl": "https://purl.stanford.edu/md156hy3552/iiif/manifest" }, "geometry": { "type": "Polygon", "coordinates": [ [ [ 139.0, 51.0000001 ], [ 139.5, 51.0000001 ], [ 139.5, 51.3333334 ], [ 139.0, 51.3333334 ], [ 139.0, 51.0000001 ] ] ] } },
{ "type": "Feature", "properties": { "Id": 0, "Sheet_ID": "九タ107. ヤイ河", "label": "九タ107. ヤイ河", "call_short": "G7270 S100 .J6", "call_num": "G7270 S100 .J6 9TA107", "recid": "gz593wj3226", "websiteUrl": "https://purl.stanford.edu/gz593wj3226", "title": "西伯利十万分一圖", "ckey": 12732964, "available": true, "iiifUrl": "https://purl.stanford.edu/gz593wj3226/iiif/manifest" }, "geometry": { "type": "Polygon", "coordinates": [ [ [ 139.5, 51.0000001 ], [ 140.0, 51.0000001 ], [ 140.0, 51.3333334 ], [ 139.5, 51.3333334 ], [ 139.5, 51.0000001 ] ] ] } },
{ "type": "Feature", "properties": { "Id": 0, "Sheet_ID": "モソロワ河", "label": "モソロワ河", "call_short": "0", "call_num": "0", "recid": "0", "websiteUrl": "0", "title": "0", "ckey": 0, "available": false, "iiifUrl": "0" }, "geometry": { "type": "Polygon", "coordinates": [ [ [ 140.0, 51.0000001 ], [ 140.5, 51.0000001 ], [ 140.5, 51.3333334 ], [ 140.0, 51.3333334 ], [ 140.0, 51.0000001 ] ] ] } },
{ "type": "Feature", "properties": { "Id": 0, "Sheet_ID": "キシリョーフカ", "label": "キシリョーフカ", "call_short": "0", "call_num": "0", "recid": "0", "websiteUrl": "0", "title": "0", "ckey": 0, "available": false, "iiifUrl": "0" }, "geometry": { "type": "Polygon", "coordinates": [ [ [ 138.5, 51.3333334 ], [ 139.0, 51.3333334 ], [ 139.0, 51.6666667 ], [ 138.5, 51.6666667 ], [ 138.5, 51.3333334 ] ] ] } },
{ "type": "Feature", "properties": { "Id": 0, "Sheet_ID": "スハノフカ", "label": "スハノフカ", "call_short": "0", "call_num": "0", "recid": "0", "websiteUrl": "0", "title": "0", "ckey": 0, "available": false, "iiifUrl": "0" }, "geometry": { "type": "Polygon", "coordinates": [ [ [ 139.0, 51.3333334 ], [ 139.5, 51.3333334 ], [ 139.5, 51.6666667 ], [ 139.0, 51.6666667 ], [ 139.0, 51.3333334 ] ] ] } },
{ "type": "Feature", "properties": { "Id": 0, "Sheet_ID": "ソフィスコエ", "label": "ソフィスコエ", "call_short": "0", "call_num": "0", "recid": "0", "websiteUrl": "0", "title": "0", "ckey": 0, "available": false, "iiifUrl": "0" }, "geometry": { "type": "Polygon", "coordinates": [ [ [ 139.5, 51.3333334 ], [ 140.0, 51.3333334 ], [ 140.0, 51.6666667 ], [ 139.5, 51.6666667 ], [ 139.5, 51.3333334 ] ] ] } },
{ "type": "Feature", "properties": { "Id": 0, "Sheet_ID": "コマロフカ", "label": "コマロフカ", "call_short": "0", "call_num": "0", "recid": "0", "websiteUrl": "0", "title": "0", "ckey": 0, "available": false, "iiifUrl": "0" }, "geometry": { "type": "Polygon", "coordinates": [ [ [ 140.0, 51.3333334 ], [ 140.5, 51.3333334 ], [ 140.5, 51.6666667 ], [ 140.0, 51.6666667 ], [ 140.0, 51.3333334 ] ] ] } },
{ "type": "Feature", "properties": { "Id": 0, "Sheet_ID": "九タ105. ハラン湖", "label": "九タ105. ハラン湖", "call_short": "G7270 S100 .J6", "call_num": "G7270 S100 .J6 9TA105", "recid": "fw715hp9561", "websiteUrl": "https://purl.stanford.edu/fw715hp9561", "title": "西伯利十万分一圖", "ckey": 12732964, "available": true, "iiifUrl": "https://purl.stanford.edu/fw715hp9561/iiif/manifest" }, "geometry": { "type": "Polygon", "coordinates": [ [ [ 139.5, 51.6666667 ], [ 140.0, 51.6666667 ], [ 140.0, 52.0 ], [ 139.5, 52.0 ], [ 139.5, 51.6666667 ] ] ] } },
{ "type": "Feature", "properties": { "Id": 0, "Sheet_ID": "マリンスコウスペンスコエ", "label": "マリンスコウスペンスコエ", "call_short": "0", "call_num": "0", "recid": "0", "websiteUrl": "0", "title": "0", "ckey": 0, "available": false, "iiifUrl": "0" }, "geometry": { "type": "Polygon", "coordinates": [ [ [ 140.0, 51.6666667 ], [ 140.5, 51.6666667 ], [ 140.5, 52.0 ], [ 140.0, 52.0 ], [ 140.0, 51.6666667 ] ] ] } },
{ "type": "Feature", "properties": { "Id": 0, "Sheet_ID": "モンゴーリ", "label": "モンゴーリ", "call_short": "0", "call_num": "0", "recid": "0", "websiteUrl": "0", "title": "0", "ckey": 0, "available": false, "iiifUrl": "0" }, "geometry": { "type": "Polygon", "coordinates": [ [ [ 140.0, 52.0 ], [ 140.5, 52.0 ], [ 140.5, 52.3333333 ], [ 140.0, 52.3333333 ], [ 140.0, 52.0 ] ] ] } },
{ "type": "Feature", "properties": { "Id": 0, "Sheet_ID": "ボリシェミハスロフスコエ", "label": "ボリシェミハスロフスコエ", "call_short": "0", "call_num": "0", "recid": "0", "websiteUrl": "0", "title": "0", "ckey": 0, "available": false, "iiifUrl": "0" }, "geometry": { "type": "Polygon", "coordinates": [ [ [ 140.0, 52.3333333 ], [ 140.5, 52.3333333 ], [ 140.5, 52.6666666 ], [ 140.0, 52.6666666 ], [ 140.0, 52.3333333 ] ] ] } },
{ "type": "Feature", "properties": { "Id": 0, "Sheet_ID": "ウヂンスキー", "label": "ウヂンスキー", "call_short": "0", "call_num": "0", "recid": "0", "websiteUrl": "0", "title": "0", "ckey": 0, "available": false, "iiifUrl": "0" }, "geometry": { "type": "Polygon", "coordinates": [ [ [ 138.5, 52.6666666 ], [ 139.0, 52.6666666 ], [ 139.0, 52.9999999 ], [ 138.5, 52.9999999 ], [ 138.5, 52.6666666 ] ] ] } },
{ "type": "Feature", "properties": { "Id": 0, "Sheet_ID": "九タ112. セルギミ・ハイロ", "label": "九タ112. セルギミ・ハイロ", "call_short": "G7270 S100 .J6", "call_num": "G7270 S100 .J6 9TA112", "recid": "kg382xx3088", "websiteUrl": "https://purl.stanford.edu/kg382xx3088", "title": "西伯利十万分一圖", "ckey": 12732964, "available": true, "iiifUrl": "https://purl.stanford.edu/kg382xx3088/iiif/manifest" }, "geometry": { "type": "Polygon", "coordinates": [ [ [ 139.0, 52.6666666 ], [ 139.5, 52.6666666 ], [ 139.5, 52.9999999 ], [ 139.0, 52.9999999 ], [ 139.0, 52.6666666 ] ] ] } },
{ "type": "Feature", "properties": { "Id": 0, "Sheet_ID": "九タ102. ウスチ・アムグン", "label": "九タ102. ウスチ・アムグン", "call_short": "G7270 S100 .J6", "call_num": "G7270 S100 .J6 9TA102", "recid": "ff856hg3559", "websiteUrl": "https://purl.stanford.edu/ff856hg3559", "title": "西伯利十万分一圖", "ckey": 12732964, "available": true, "iiifUrl": "https://purl.stanford.edu/ff856hg3559/iiif/manifest" }, "geometry": { "type": "Polygon", "coordinates": [ [ [ 139.5, 52.6666666 ], [ 140.0, 52.6666666 ], [ 140.0, 52.9999999 ], [ 139.5, 52.9999999 ], [ 139.5, 52.6666666 ] ] ] } },
{ "type": "Feature", "properties": { "Id": 0, "Sheet_ID": "スサニーノ", "label": "スサニーノ", "call_short": "0", "call_num": "0", "recid": "0", "websiteUrl": "0", "title": "0", "ckey": 0, "available": false, "iiifUrl": "0" }, "geometry": { "type": "Polygon", "coordinates": [ [ [ 140.0, 52.6666666 ], [ 140.5, 52.6666666 ], [ 140.5, 52.9999999 ], [ 140.0, 52.9999999 ], [ 140.0, 52.6666666 ] ] ] } },
{ "type": "Feature", "properties": { "Id": 0, "Sheet_ID": "九タ111. ダリヂャ", "label": "九タ111. ダリヂャ", "call_short": "G7270 S100 .J6", "call_num": "G7270 S100 .J6 9TA111", "recid": "dv011kx9244", "websiteUrl": "https://purl.stanford.edu/dv011kx9244", "title": "西伯利十万分一圖", "ckey": 12732964, "available": true, "iiifUrl": "https://purl.stanford.edu/dv011kx9244/iiif/manifest" }, "geometry": { "type": "Polygon", "coordinates": [ [ [ 139.0, 52.9999999 ], [ 139.5, 52.9999999 ], [ 139.5, 53.3333331 ], [ 139.0, 53.3333331 ], [ 139.0, 52.9999999 ] ] ] } },
{ "type": "Feature", "properties": { "Id": 0, "Sheet_ID": "ヘーズ河", "label": "ヘーズ河", "call_short": "0", "call_num": "0", "recid": "0", "websiteUrl": "0", "title": "0", "ckey": 0, "available": false, "iiifUrl": "0" }, "geometry": { "type": "Polygon", "coordinates": [ [ [ 139.5, 52.9999999 ], [ 140.0, 52.9999999 ], [ 140.0, 53.3333331 ], [ 139.5, 53.3333331 ], [ 139.5, 52.9999999 ] ] ] } },
{ "type": "Feature", "properties": { "Id": 0, "Sheet_ID": "マーガ", "label": "マーガ", "call_short": "0", "call_num": "0", "recid": "0", "websiteUrl": "0", "title": "0", "ckey": 0, "available": false, "iiifUrl": "0" }, "geometry": { "type": "Polygon", "coordinates": [ [ [ 140.0, 52.9999999 ], [ 140.5, 52.9999999 ], [ 140.5, 53.3333331 ], [ 140.0, 53.3333331 ], [ 140.0, 52.9999999 ] ] ] } },
{ "type": "Feature", "properties": { "Id": 0, "Sheet_ID": "ベリベキン河", "label": "ベリベキン河", "call_short": "0", "call_num": "0", "recid": "0", "websiteUrl": "0", "title": "0", "ckey": 0, "available": false, "iiifUrl": "0" }, "geometry": { "type": "Polygon", "coordinates": [ [ [ 139.0, 53.3333331 ], [ 139.5, 53.3333331 ], [ 139.5, 53.6666664 ], [ 139.0, 53.6666664 ], [ 139.0, 53.3333331 ] ] ] } },
{ "type": "Feature", "properties": { "Id": 0, "Sheet_ID": "アリョール湖", "label": "アリョール湖", "call_short": "0", "call_num": "0", "recid": "0", "websiteUrl": "0", "title": "0", "ckey": 0, "available": false, "iiifUrl": "0" }, "geometry": { "type": "Polygon", "coordinates": [ [ [ 139.5, 53.3333331 ], [ 140.0, 53.3333331 ], [ 140.0, 53.6666664 ], [ 139.5, 53.6666664 ], [ 139.5, 53.3333331 ] ] ] } },
{ "type": "Feature", "properties": { "Id": 0, "Sheet_ID": "プリースク・スレテンスキー", "label": "プリースク・スレテンスキー", "call_short": "0", "call_num": "0", "recid": "0", "websiteUrl": "0", "title": "0", "ckey": 0, "available": false, "iiifUrl": "0" }, "geometry": { "type": "Polygon", "coordinates": [ [ [ 140.0, 53.3333331 ], [ 140.5, 53.3333331 ], [ 140.5, 53.6666664 ], [ 140.0, 53.6666664 ], [ 140.0, 53.3333331 ] ] ] } },
{ "type": "Feature", "properties": { "Id": 0, "Sheet_ID": "コーリ", "label": "コーリ", "call_short": "0", "call_num": "0", "recid": "0", "websiteUrl": "0", "title": "0", "ckey": 0, "available": false, "iiifUrl": "0" }, "geometry": { "type": "Polygon", "coordinates": [ [ [ 140.5, 53.3333331 ], [ 141.0, 53.3333331 ], [ 141.0, 53.6666664 ], [ 140.5, 53.6666664 ], [ 140.5, 53.3333331 ] ] ] } },
{ "type": "Feature", "properties": { "Id": 0, "Sheet_ID": "ピクチァ河", "label": "ピクチァ河", "call_short": "0", "call_num": "0", "recid": "0", "websiteUrl": "0", "title": "0", "ckey": 0, "available": false, "iiifUrl": "0" }, "geometry": { "type": "Polygon", "coordinates": [ [ [ 139.5, 53.6666664 ], [ 140.0, 53.6666664 ], [ 140.0, 53.9999997 ], [ 139.5, 53.9999997 ], [ 139.5, 53.6666664 ] ] ] } },
{ "type": "Feature", "properties": { "Id": 0, "Sheet_ID": "八レ199. リトケ岬", "label": "八レ199. リトケ岬", "call_short": "G7270 S100 .J6", "call_num": "G7270 S100 .J6 8RE199", "recid": "jw521jf3658", "websiteUrl": "https://purl.stanford.edu/jw521jf3658", "title": "西伯利十万分一圖", "ckey": 12732964, "available": true, "iiifUrl": "https://purl.stanford.edu/jw521jf3658/iiif/manifest" }, "geometry": { "type": "Polygon", "coordinates": [ [ [ 140.0, 53.6666664 ], [ 140.5, 53.6666664 ], [ 140.5, 53.9999997 ], [ 140.0, 53.9999997 ], [ 140.0, 53.6666664 ] ] ] } },
{ "type": "Feature", "properties": { "Id": 0, "Sheet_ID": "リトケ岬北部", "label": "リトケ岬北部", "call_short": "0", "call_num": "0", "recid": "0", "websiteUrl": "0", "title": "0", "ckey": 0, "available": false, "iiifUrl": "0" }, "geometry": { "type": "Polygon", "coordinates": [ [ [ 140.0, 53.9999997 ], [ 140.5, 53.9999997 ], [ 140.5, 54.333333 ], [ 140.0, 54.333333 ], [ 140.0, 53.9999997 ] ] ] } },
{ "type": "Feature", "properties": { "Id": 0, "Sheet_ID": "ツァーモヅィンザ山", "label": "ツァーモヅィンザ山", "call_short": "0", "call_num": "0", "recid": "0", "websiteUrl": "0", "title": "0", "ckey": 0, "available": false, "iiifUrl": "0" }, "geometry": { "type": "Polygon", "coordinates": [ [ [ 133.5, 43.666667 ], [ 134.0, 43.666667 ], [ 134.0, 44.0000003 ], [ 133.5, 44.0000003 ], [ 133.5, 43.666667 ] ] ] } },
{ "type": "Feature", "properties": { "Id": 0, "Sheet_ID": "九號", "label": "九號", "call_short": "0", "call_num": "0", "recid": "0", "websiteUrl": "0", "title": "0", "ckey": 0, "available": false, "iiifUrl": "0" }, "geometry": { "type": "Polygon", "coordinates": [ [ [ 134.0, 43.666667 ], [ 134.5, 43.666667 ], [ 134.5, 44.0000003 ], [ 134.0, 44.0000003 ], [ 134.0, 43.666667 ] ] ] } },
{ "type": "Feature", "properties": { "Id": 0, "Sheet_ID": "フルマノフカ", "label": "フルマノフカ", "call_short": "0", "call_num": "0", "recid": "0", "websiteUrl": "0", "title": "0", "ckey": 0, "available": false, "iiifUrl": "0" }, "geometry": { "type": "Polygon", "coordinates": [ [ [ 134.5, 43.666667 ], [ 135.0, 43.666667 ], [ 135.0, 44.0000003 ], [ 134.5, 44.0000003 ], [ 134.5, 43.666667 ] ] ] } },
{ "type": "Feature", "properties": { "Id": 0, "Sheet_ID": "チゥグーエフカ", "label": "チゥグーエフカ", "call_short": "0", "call_num": "0", "recid": "0", "websiteUrl": "0", "title": "0", "ckey": 0, "available": false, "iiifUrl": "0" }, "geometry": { "type": "Polygon", "coordinates": [ [ [ 133.5, 44.0000003 ], [ 134.0, 44.0000003 ], [ 134.0, 44.3333336 ], [ 133.5, 44.3333336 ], [ 133.5, 44.0000003 ] ] ] } },
{ "type": "Feature", "properties": { "Id": 0, "Sheet_ID": "壹〇カ118. 八號", "label": "壹〇カ118. 八號", "call_short": "G7270 S100 .J6", "call_num": "G7270 S100 .J6 10KA118", "recid": "dc117pw1508", "websiteUrl": "https://purl.stanford.edu/dc117pw1508", "title": "西伯利十万分一圖", "ckey": 12732964, "available": true, "iiifUrl": "https://purl.stanford.edu/dc117pw1508/iiif/manifest" }, "geometry": { "type": "Polygon", "coordinates": [ [ [ 134.0, 44.0000003 ], [ 134.5, 44.0000003 ], [ 134.5, 44.3333336 ], [ 134.0, 44.3333336 ], [ 134.0, 44.0000003 ] ] ] } },
{ "type": "Feature", "properties": { "Id": 0, "Sheet_ID": "フルマノフカ北方", "label": "フルマノフカ北方", "call_short": "0", "call_num": "0", "recid": "0", "websiteUrl": "0", "title": "0", "ckey": 0, "available": false, "iiifUrl": "0" }, "geometry": { "type": "Polygon", "coordinates": [ [ [ 134.5, 44.0000003 ], [ 135.0, 44.0000003 ], [ 135.0, 44.3333336 ], [ 134.5, 44.3333336 ], [ 134.5, 44.0000003 ] ] ] } },
{ "type": "Feature", "properties": { "Id": 0, "Sheet_ID": "ノーヴォクラスノヤローヴォ", "label": "ノーヴォクラスノヤローヴォ", "call_short": "0", "call_num": "0", "recid": "0", "websiteUrl": "0", "title": "0", "ckey": 0, "available": false, "iiifUrl": "0" }, "geometry": { "type": "Polygon", "coordinates": [ [ [ 133.5, 44.3333336 ], [ 134.0, 44.3333336 ], [ 134.0, 44.6666669 ], [ 133.5, 44.6666669 ], [ 133.5, 44.3333336 ] ] ] } },
{ "type": "Feature", "properties": { "Id": 0, "Sheet_ID": "コクシャロフカ", "label": "コクシャロフカ", "call_short": "0", "call_num": "0", "recid": "0", "websiteUrl": "0", "title": "0", "ckey": 0, "available": false, "iiifUrl": "0" }, "geometry": { "type": "Polygon", "coordinates": [ [ [ 134.0, 44.3333336 ], [ 134.5, 44.3333336 ], [ 134.5, 44.6666669 ], [ 134.0, 44.6666669 ], [ 134.0, 44.3333336 ] ] ] } },
{ "type": "Feature", "properties": { "Id": 0, "Sheet_ID": "スハノフカ", "label": "スハノフカ", "call_short": "0", "call_num": "0", "recid": "0", "websiteUrl": "0", "title": "0", "ckey": 0, "available": false, "iiifUrl": "0" }, "geometry": { "type": "Polygon", "coordinates": [ [ [ 134.5, 44.3333336 ], [ 135.0, 44.3333336 ], [ 135.0, 44.6666669 ], [ 134.5, 44.6666669 ], [ 134.5, 44.3333336 ] ] ] } },
{ "type": "Feature", "properties": { "Id": 0, "Sheet_ID": "リズグー山", "label": "リズグー山", "call_short": "0", "call_num": "0", "recid": "0", "websiteUrl": "0", "title": "0", "ckey": 0, "available": false, "iiifUrl": "0" }, "geometry": { "type": "Polygon", "coordinates": [ [ [ 134.0, 44.6666669 ], [ 134.5, 44.6666669 ], [ 134.5, 45.0000002 ], [ 134.0, 45.0000002 ], [ 134.0, 44.6666669 ] ] ] } },
{ "type": "Feature", "properties": { "Id": 0, "Sheet_ID": "オクライナ", "label": "オクライナ", "call_short": "0", "call_num": "0", "recid": "0", "websiteUrl": "0", "title": "0", "ckey": 0, "available": false, "iiifUrl": "0" }, "geometry": { "type": "Polygon", "coordinates": [ [ [ 134.5, 44.6666669 ], [ 135.0, 44.6666669 ], [ 135.0, 45.0000002 ], [ 134.5, 45.0000002 ], [ 134.5, 44.6666669 ] ] ] } },
{ "type": "Feature", "properties": { "Id": 0, "Sheet_ID": "ファンヂャーン", "label": "ファンヂャーン", "call_short": "0", "call_num": "0", "recid": "0", "websiteUrl": "0", "title": "0", "ckey": 0, "available": false, "iiifUrl": "0" }, "geometry": { "type": "Polygon", "coordinates": [ [ [ 134.0, 45.0000002 ], [ 134.5, 45.0000002 ], [ 134.5, 45.3333335 ], [ 134.0, 45.3333335 ], [ 134.0, 45.0000002 ] ] ] } },
{ "type": "Feature", "properties": { "Id": 0, "Sheet_ID": "壹〇カ105. マルトィワコリャナ", "label": "壹〇カ105. マルトィワコリャナ", "call_short": "G7270 S100 .J6", "call_num": "G7270 S100 .J6 10KA105", "recid": "qh488cf6589", "websiteUrl": "https://purl.stanford.edu/qh488cf6589", "title": "西伯利十万分一圖", "ckey": 12732964, "available": true, "iiifUrl": "https://purl.stanford.edu/qh488cf6589/iiif/manifest" }, "geometry": { "type": "Polygon", "coordinates": [ [ [ 134.5, 45.0000002 ], [ 135.0, 45.0000002 ], [ 135.0, 45.3333335 ], [ 134.5, 45.3333335 ], [ 134.5, 45.0000002 ] ] ] } },
{ "type": "Feature", "properties": { "Id": 0, "Sheet_ID": "ラキットノエ", "label": "ラキットノエ", "call_short": "0", "call_num": "0", "recid": "0", "websiteUrl": "0", "title": "0", "ckey": 0, "available": false, "iiifUrl": "0" }, "geometry": { "type": "Polygon", "coordinates": [ [ [ 134.0, 45.3333335 ], [ 134.5, 45.3333335 ], [ 134.5, 45.6666668 ], [ 134.0, 45.6666668 ], [ 134.0, 45.3333335 ] ] ] } },
{ "type": "Feature", "properties": { "Id": 0, "Sheet_ID": "壹〇カ104. クリドフカ", "label": "壹〇カ104. クリドフカ", "call_short": "G7270 S100 .J6", "call_num": "G7270 S100 .J6 10KA104", "recid": "wt915bj2472", "websiteUrl": "https://purl.stanford.edu/wt915bj2472", "title": "西伯利十万分一圖", "ckey": 12732964, "available": true, "iiifUrl": "https://purl.stanford.edu/wt915bj2472/iiif/manifest" }, "geometry": { "type": "Polygon", "coordinates": [ [ [ 134.5, 45.3333335 ], [ 135.0, 45.3333335 ], [ 135.0, 45.6666668 ], [ 134.5, 45.6666668 ], [ 134.5, 45.3333335 ] ] ] } },
{ "type": "Feature", "properties": { "Id": 0, "Sheet_ID": "タワラーザ山", "label": "タワラーザ山", "call_short": "0", "call_num": "0", "recid": "0", "websiteUrl": "0", "title": "0", "ckey": 0, "available": false, "iiifUrl": "0" }, "geometry": { "type": "Polygon", "coordinates": [ [ [ 134.0, 45.6666668 ], [ 134.5, 45.6666668 ], [ 134.5, 46.0000001 ], [ 134.0, 46.0000001 ], [ 134.0, 45.6666668 ] ] ] } },
{ "type": "Feature", "properties": { "Id": 0, "Sheet_ID": "壹〇カ103. イワノヴィチ", "label": "壹〇カ103. イワノヴィチ", "call_short": "G7270 S100 .J6", "call_num": "G7270 S100 .J6 10KA103", "recid": "wr841jb0827", "websiteUrl": "https://purl.stanford.edu/wr841jb0827", "title": "西伯利十万分一圖", "ckey": 12732964, "available": true, "iiifUrl": "https://purl.stanford.edu/wr841jb0827/iiif/manifest" }, "geometry": { "type": "Polygon", "coordinates": [ [ [ 134.5, 45.6666668 ], [ 135.0, 45.6666668 ], [ 135.0, 46.0000001 ], [ 134.5, 46.0000001 ], [ 134.5, 45.6666668 ] ] ] } },
{ "type": "Feature", "properties": { "Id": 0, "Sheet_ID": "トチーリナヤ山", "label": "トチーリナヤ山", "call_short": "0", "call_num": "0", "recid": "0", "websiteUrl": "0", "title": "0", "ckey": 0, "available": false, "iiifUrl": "0" }, "geometry": { "type": "Polygon", "coordinates": [ [ [ 134.0, 46.0000001 ], [ 134.5, 46.0000001 ], [ 134.5, 46.3333334 ], [ 134.0, 46.3333334 ], [ 134.0, 46.0000001 ] ] ] } },
{ "type": "Feature", "properties": { "Id": 0, "Sheet_ID": "ビシュヘドウザ山", "label": "ビシュヘドウザ山", "call_short": "0", "call_num": "0", "recid": "0", "websiteUrl": "0", "title": "0", "ckey": 0, "available": false, "iiifUrl": "0" }, "geometry": { "type": "Polygon", "coordinates": [ [ [ 134.5, 46.0000001 ], [ 135.0, 46.0000001 ], [ 135.0, 46.3333334 ], [ 134.5, 46.3333334 ], [ 134.5, 46.0000001 ] ] ] } },
{ "type": "Feature", "properties": { "Id": 0, "Sheet_ID": "九カ192. シビチ", "label": "九カ192. シビチ", "call_short": "G7270 S100 .J6", "call_num": "G7270 S100 .J6 9KA192", "recid": "hn670xd3313", "websiteUrl": "https://purl.stanford.edu/hn670xd3313", "title": "西伯利十万分一圖", "ckey": 12732964, "available": true, "iiifUrl": "https://purl.stanford.edu/hn670xd3313/iiif/manifest" }, "geometry": { "type": "Polygon", "coordinates": [ [ [ 135.0, 46.0000001 ], [ 135.5, 46.0000001 ], [ 135.5, 46.3333334 ], [ 135.0, 46.3333334 ], [ 135.0, 46.0000001 ] ] ] } },
{ "type": "Feature", "properties": { "Id": 0, "Sheet_ID": "チェムルィンザ山", "label": "チェムルィンザ山", "call_short": "0", "call_num": "0", "recid": "0", "websiteUrl": "0", "title": "0", "ckey": 0, "available": false, "iiifUrl": "0" }, "geometry": { "type": "Polygon", "coordinates": [ [ [ 134.5, 46.3333334 ], [ 135.0, 46.3333334 ], [ 135.0, 46.6666666 ], [ 134.5, 46.6666666 ], [ 134.5, 46.3333334 ] ] ] } },
{ "type": "Feature", "properties": { "Id": 0, "Sheet_ID": "九カ191. オロン", "label": "九カ191. オロン", "call_short": "G7270 S100 .J6", "call_num": "G7270 S100 .J6 9KA191", "recid": "qr385vb4730", "websiteUrl": "https://purl.stanford.edu/qr385vb4730", "title": "西伯利十万分一圖", "ckey": 12732964, "available": true, "iiifUrl": "https://purl.stanford.edu/qr385vb4730/iiif/manifest" }, "geometry": { "type": "Polygon", "coordinates": [ [ [ 135.0, 46.3333334 ], [ 135.5, 46.3333334 ], [ 135.5, 46.6666666 ], [ 135.0, 46.6666666 ], [ 135.0, 46.3333334 ] ] ] } },
{ "type": "Feature", "properties": { "Id": 0, "Sheet_ID": "モホワーヤ河", "label": "モホワーヤ河", "call_short": "0", "call_num": "0", "recid": "0", "websiteUrl": "0", "title": "0", "ckey": 0, "available": false, "iiifUrl": "0" }, "geometry": { "type": "Polygon", "coordinates": [ [ [ 134.5, 46.6666666 ], [ 135.0, 46.6666666 ], [ 135.0, 46.9999999 ], [ 134.5, 46.9999999 ], [ 134.5, 46.6666666 ] ] ] } },
{ "type": "Feature", "properties": { "Id": 0, "Sheet_ID": "ダーエコウ山", "label": "ダーエコウ山", "call_short": "0", "call_num": "0", "recid": "0", "websiteUrl": "0", "title": "0", "ckey": 0, "available": false, "iiifUrl": "0" }, "geometry": { "type": "Polygon", "coordinates": [ [ [ 135.0, 46.6666666 ], [ 135.5, 46.6666666 ], [ 135.5, 46.9999999 ], [ 135.0, 46.9999999 ], [ 135.0, 46.6666666 ] ] ] } },
{ "type": "Feature", "properties": { "Id": 0, "Sheet_ID": "ジャグリーガ山", "label": "ジャグリーガ山", "call_short": "0", "call_num": "0", "recid": "0", "websiteUrl": "0", "title": "0", "ckey": 0, "available": false, "iiifUrl": "0" }, "geometry": { "type": "Polygon", "coordinates": [ [ [ 135.5, 46.6666666 ], [ 136.0, 46.6666666 ], [ 136.0, 46.9999999 ], [ 135.5, 46.9999999 ], [ 135.5, 46.6666666 ] ] ] } },
{ "type": "Feature", "properties": { "Id": 0, "Sheet_ID": "ハバロフスク", "label": "ハバロフスク", "call_short": "0", "call_num": "0", "recid": "0", "websiteUrl": "0", "title": "0", "ckey": 0, "available": false, "iiifUrl": "0" }, "geometry": { "type": "Polygon", "coordinates": [ [ [ 135.0, 48.3333331 ], [ 135.5, 48.3333331 ], [ 135.5, 48.6666664 ], [ 135.0, 48.6666664 ], [ 135.0, 48.3333331 ] ] ] } },
{ "type": "Feature", "properties": { "Id": 0, "Sheet_ID": "アナスタセーフカ", "label": "アナスタセーフカ", "call_short": "0", "call_num": "0", "recid": "0", "websiteUrl": "0", "title": "0", "ckey": 0, "available": false, "iiifUrl": "0" }, "geometry": { "type": "Polygon", "coordinates": [ [ [ 135.5, 48.3333331 ], [ 136.0, 48.3333331 ], [ 136.0, 48.6666664 ], [ 135.5, 48.6666664 ], [ 135.5, 48.3333331 ] ] ] } },
{ "type": "Feature", "properties": { "Id": 0, "Sheet_ID": "ハバロフスク北部", "label": "ハバロフスク北部", "call_short": "0", "call_num": "0", "recid": "0", "websiteUrl": "0", "title": "0", "ckey": 0, "available": false, "iiifUrl": "0" }, "geometry": { "type": "Polygon", "coordinates": [ [ [ 135.0, 48.6666664 ], [ 135.5, 48.6666664 ], [ 135.5, 48.9999997 ], [ 135.0, 48.9999997 ], [ 135.0, 48.6666664 ] ] ] } },
{ "type": "Feature", "properties": { "Id": 0, "Sheet_ID": "九ヨ184. ウヤツコエ", "label": "九ヨ184. ウヤツコエ", "call_short": "G7270 S100 .J6", "call_num": "G7270 S100 .J6 9YO184", "recid": "kq013vv4700", "websiteUrl": "https://purl.stanford.edu/kq013vv4700", "title": "西伯利十万分一圖", "ckey": 12732964, "available": true, "iiifUrl": "https://purl.stanford.edu/kq013vv4700/iiif/manifest" }, "geometry": { "type": "Polygon", "coordinates": [ [ [ 135.5, 48.6666664 ], [ 136.0, 48.6666664 ], [ 136.0, 48.9999997 ], [ 135.5, 48.9999997 ], [ 135.5, 48.6666664 ] ] ] } },
{ "type": "Feature", "properties": { "Id": 0, "Sheet_ID": "チョルナー", "label": "チョルナー", "call_short": "0", "call_num": "0", "recid": "0", "websiteUrl": "0", "title": "0", "ckey": 0, "available": false, "iiifUrl": "0" }, "geometry": { "type": "Polygon", "coordinates": [ [ [ 136.0, 48.6666664 ], [ 136.5, 48.6666664 ], [ 136.5, 48.9999997 ], [ 136.0, 48.9999997 ], [ 136.0, 48.6666664 ] ] ] } },
{ "type": "Feature", "properties": { "Id": 0, "Sheet_ID": "二十三號", "label": "二十三號", "call_short": "0", "call_num": "0", "recid": "0", "websiteUrl": "0", "title": "0", "ckey": 0, "available": false, "iiifUrl": "0" }, "geometry": { "type": "Polygon", "coordinates": [ [ [ 135.0, 48.9999997 ], [ 135.5, 48.9999997 ], [ 135.5, 49.333333 ], [ 135.0, 49.333333 ], [ 135.0, 48.9999997 ] ] ] } },
{ "type": "Feature", "properties": { "Id": 0, "Sheet_ID": "十八號", "label": "十八號", "call_short": "0", "call_num": "0", "recid": "0", "websiteUrl": "0", "title": "0", "ckey": 0, "available": false, "iiifUrl": "0" }, "geometry": { "type": "Polygon", "coordinates": [ [ [ 135.5, 48.9999997 ], [ 136.0, 48.9999997 ], [ 136.0, 49.333333 ], [ 135.5, 49.333333 ], [ 135.5, 48.9999997 ] ] ] } },
{ "type": "Feature", "properties": { "Id": 0, "Sheet_ID": "クルン", "label": "クルン", "call_short": "0", "call_num": "0", "recid": "0", "websiteUrl": "0", "title": "0", "ckey": 0, "available": false, "iiifUrl": "0" }, "geometry": { "type": "Polygon", "coordinates": [ [ [ 136.0, 48.9999997 ], [ 136.5, 48.9999997 ], [ 136.5, 49.333333 ], [ 136.0, 49.333333 ], [ 136.0, 48.9999997 ] ] ] } },
{ "type": "Feature", "properties": { "Id": 0, "Sheet_ID": "奇克", "label": "奇克", "call_short": "0", "call_num": "0", "recid": "0", "websiteUrl": "0", "title": "0", "ckey": 0, "available": false, "iiifUrl": "0" }, "geometry": { "type": "Polygon", "coordinates": [ [ [ 128.0, 49.333333 ], [ 128.5, 49.333333 ], [ 128.5, 49.6666664 ], [ 128.0, 49.6666664 ], [ 128.0, 49.333333 ] ] ] } },
{ "type": "Feature", "properties": { "Id": 0, "Sheet_ID": "車陸", "label": "車陸", "call_short": "0", "call_num": "0", "recid": "0", "websiteUrl": "0", "title": "0", "ckey": 0, "available": false, "iiifUrl": "0" }, "geometry": { "type": "Polygon", "coordinates": [ [ [ 128.5, 49.333333 ], [ 129.0, 49.333333 ], [ 129.0, 49.6666664 ], [ 128.5, 49.6666664 ], [ 128.5, 49.333333 ] ] ] } },
{ "type": "Feature", "properties": { "Id": 0, "Sheet_ID": "上道幹", "label": "上道幹", "call_short": "0", "call_num": "0", "recid": "0", "websiteUrl": "0", "title": "0", "ckey": 0, "available": false, "iiifUrl": "0" }, "geometry": { "type": "Polygon", "coordinates": [ [ [ 129.0, 49.333333 ], [ 129.5, 49.333333 ], [ 129.5, 49.6666664 ], [ 129.0, 49.6666664 ], [ 129.0, 49.333333 ] ] ] } },
{ "type": "Feature", "properties": { "Id": 0, "Sheet_ID": "常家屯", "label": "常家屯", "call_short": "0", "call_num": "0", "recid": "0", "websiteUrl": "0", "title": "0", "ckey": 0, "available": false, "iiifUrl": "0" }, "geometry": { "type": "Polygon", "coordinates": [ [ [ 129.5, 49.333333 ], [ 130.0, 49.333333 ], [ 130.0, 49.6666664 ], [ 129.5, 49.6666664 ], [ 129.5, 49.333333 ] ] ] } },
{ "type": "Feature", "properties": { "Id": 0, "Sheet_ID": "アルハラ", "label": "アルハラ", "call_short": "0", "call_num": "0", "recid": "0", "websiteUrl": "0", "title": "0", "ckey": 0, "available": false, "iiifUrl": "0" }, "geometry": { "type": "Polygon", "coordinates": [ [ [ 130.0, 49.333333 ], [ 130.5, 49.333333 ], [ 130.5, 49.6666664 ], [ 130.0, 49.6666664 ], [ 130.0, 49.333333 ] ] ] } },
{ "type": "Feature", "properties": { "Id": 0, "Sheet_ID": "ウェルブネボリタフカ", "label": "ウェルブネボリタフカ", "call_short": "0", "call_num": "0", "recid": "0", "websiteUrl": "0", "title": "0", "ckey": 0, "available": false, "iiifUrl": "0" }, "geometry": { "type": "Polygon", "coordinates": [ [ [ 128.0, 49.6666664 ], [ 128.5, 49.6666664 ], [ 128.5, 49.9999999 ], [ 128.0, 49.9999999 ], [ 128.0, 49.6666664 ] ] ] } },
{ "type": "Feature", "properties": { "Id": 0, "Sheet_ID": "壹壹ヨ121. ミハイロフカ", "label": "壹壹ヨ121. ミハイロフカ", "call_short": "G7270 S100 .J6", "call_num": "G7270 S100 .J6 11YO121", "recid": "fn701yb8364", "websiteUrl": "https://purl.stanford.edu/fn701yb8364", "title": "西伯利十万分一圖", "ckey": 12732964, "available": true, "iiifUrl": "https://purl.stanford.edu/fn701yb8364/iiif/manifest" }, "geometry": { "type": "Polygon", "coordinates": [ [ [ 128.5, 49.6666664 ], [ 129.0, 49.6666664 ], [ 129.0, 49.9999999 ], [ 128.5, 49.9999999 ], [ 128.5, 49.6666664 ] ] ] } },
{ "type": "Feature", "properties": { "Id": 0, "Sheet_ID": "壹壹ヨ111. ライチーハ", "label": "壹壹ヨ111. ライチーハ", "call_short": "G7270 S100 .J6", "call_num": "G7270 S100 .J6 11YO111", "recid": "kv975tc0079", "websiteUrl": "https://purl.stanford.edu/kv975tc0079", "title": "西伯利十万分一圖", "ckey": 12732964, "available": true, "iiifUrl": "https://purl.stanford.edu/kv975tc0079/iiif/manifest" }, "geometry": { "type": "Polygon", "coordinates": [ [ [ 129.0, 49.6666664 ], [ 129.5, 49.6666664 ], [ 129.5, 49.9999999 ], [ 129.0, 49.9999999 ], [ 129.0, 49.6666664 ] ] ] } },
{ "type": "Feature", "properties": { "Id": 0, "Sheet_ID": "壹壹ヨ101. ブレーヤ", "label": "壹壹ヨ101. ブレーヤ", "call_short": "G7270 S100 .J6", "call_num": "G7270 S100 .J6 11YO101", "recid": "yc601tx0047", "websiteUrl": "https://purl.stanford.edu/yc601tx0047", "title": "西伯利十万分一圖", "ckey": 12732964, "available": true, "iiifUrl": "https://purl.stanford.edu/yc601tx0047/iiif/manifest" }, "geometry": { "type": "Polygon", "coordinates": [ [ [ 129.5, 49.6666664 ], [ 130.0, 49.6666664 ], [ 130.0, 49.9999999 ], [ 129.5, 49.9999999 ], [ 129.5, 49.6666664 ] ] ] } },
{ "type": "Feature", "properties": { "Id": 0, "Sheet_ID": "クリーコフカ", "label": "クリーコフカ", "call_short": "0", "call_num": "0", "recid": "0", "websiteUrl": "0", "title": "0", "ckey": 0, "available": false, "iiifUrl": "0" }, "geometry": { "type": "Polygon", "coordinates": [ [ [ 130.0, 49.6666664 ], [ 130.5, 49.6666664 ], [ 130.5, 49.9999999 ], [ 130.0, 49.9999999 ], [ 130.0, 49.6666664 ] ] ] } },
{ "type": "Feature", "properties": { "Id": 0, "Sheet_ID": "タムボフカ", "label": "タムボフカ", "call_short": "0", "call_num": "0", "recid": "0", "websiteUrl": "0", "title": "0", "ckey": 0, "available": false, "iiifUrl": "0" }, "geometry": { "type": "Polygon", "coordinates": [ [ [ 128.0, 49.9999999 ], [ 128.5, 49.9999999 ], [ 128.5, 50.3333333 ], [ 128.0, 50.3333333 ], [ 128.0, 49.9999999 ] ] ] } },
{ "type": "Feature", "properties": { "Id": 0, "Sheet_ID": "壹壹タ130. ペスチァノ・オゼルスコエ", "label": "壹壹タ130. ペスチァノ・オゼルスコエ", "call_short": "G7270 S100 .J6", "call_num": "G7270 S100 .J6 11TA130", "recid": "fc116vf0106", "websiteUrl": "https://purl.stanford.edu/fc116vf0106", "title": "西伯利十万分一圖", "ckey": 12732964, "available": true, "iiifUrl": "https://purl.stanford.edu/fc116vf0106/iiif/manifest" }, "geometry": { "type": "Polygon", "coordinates": [ [ [ 128.5, 49.9999999 ], [ 129.0, 49.9999999 ], [ 129.0, 50.3333333 ], [ 128.5, 50.3333333 ], [ 128.5, 49.9999999 ] ] ] } },
{ "type": "Feature", "properties": { "Id": 0, "Sheet_ID": "ザヴィタヤ", "label": "ザヴィタヤ", "call_short": "0", "call_num": "0", "recid": "0", "websiteUrl": "0", "title": "0", "ckey": 0, "available": false, "iiifUrl": "0" }, "geometry": { "type": "Polygon", "coordinates": [ [ [ 129.0, 49.9999999 ], [ 129.5, 49.9999999 ], [ 129.5, 50.3333333 ], [ 129.0, 50.3333333 ], [ 129.0, 49.9999999 ] ] ] } },
{ "type": "Feature", "properties": { "Id": 0, "Sheet_ID": "壹壹タ110. バヒレーウォ", "label": "壹壹タ110. バヒレーウォ", "call_short": "G7270 S100 .J6", "call_num": "G7270 S100 .J6 11TA110", "recid": "bb729vk1426", "websiteUrl": "https://purl.stanford.edu/bb729vk1426", "title": "西伯利十万分一圖", "ckey": 12732964, "available": true, "iiifUrl": "https://purl.stanford.edu/bb729vk1426/iiif/manifest" }, "geometry": { "type": "Polygon", "coordinates": [ [ [ 129.5, 49.9999999 ], [ 130.0, 49.9999999 ], [ 130.0, 50.3333333 ], [ 129.5, 50.3333333 ], [ 129.5, 49.9999999 ] ] ] } },
{ "type": "Feature", "properties": { "Id": 0, "Sheet_ID": "キセレーワ", "label": "キセレーワ", "call_short": "0", "call_num": "0", "recid": "0", "websiteUrl": "0", "title": "0", "ckey": 0, "available": false, "iiifUrl": "0" }, "geometry": { "type": "Polygon", "coordinates": [ [ [ 130.0, 49.9999999 ], [ 130.5, 49.9999999 ], [ 130.5, 50.3333333 ], [ 130.0, 50.3333333 ], [ 130.0, 49.9999999 ] ] ] } },
{ "type": "Feature", "properties": { "Id": 0, "Sheet_ID": "イワノフカ", "label": "イワノフカ", "call_short": "0", "call_num": "0", "recid": "0", "websiteUrl": "0", "title": "0", "ckey": 0, "available": false, "iiifUrl": "0" }, "geometry": { "type": "Polygon", "coordinates": [ [ [ 128.0, 50.3333333 ], [ 128.5, 50.3333333 ], [ 128.5, 50.6666667 ], [ 128.0, 50.6666667 ], [ 128.0, 50.3333333 ] ] ] } },
{ "type": "Feature", "properties": { "Id": 0, "Sheet_ID": "壹壹タ129. ポズデエフカ", "label": "壹壹タ129. ポズデエフカ", "call_short": "G7270 S100 .J6", "call_num": "G7270 S100 .J6 11TA129", "recid": "rr768nm0954", "websiteUrl": "https://purl.stanford.edu/rr768nm0954", "title": "西伯利十万分一圖", "ckey": 12732964, "available": true, "iiifUrl": "https://purl.stanford.edu/rr768nm0954/iiif/manifest" }, "geometry": { "type": "Polygon", "coordinates": [ [ [ 128.5, 50.3333333 ], [ 129.0, 50.3333333 ], [ 129.0, 50.6666667 ], [ 128.5, 50.6666667 ], [ 128.5, 50.3333333 ] ] ] } },
{ "type": "Feature", "properties": { "Id": 0, "Sheet_ID": "壹壹タ119. エカテリノスラフカ", "label": "壹壹タ119. エカテリノスラフカ", "call_short": "G7270 S100 .J6", "call_num": "G7270 S100 .J6 11TA119", "recid": "zb431fx3745", "websiteUrl": "https://purl.stanford.edu/zb431fx3745", "title": "西伯利十万分一圖", "ckey": 12732964, "available": true, "iiifUrl": "https://purl.stanford.edu/zb431fx3745/iiif/manifest" }, "geometry": { "type": "Polygon", "coordinates": [ [ [ 129.0, 50.3333333 ], [ 129.5, 50.3333333 ], [ 129.5, 50.6666667 ], [ 129.0, 50.6666667 ], [ 129.0, 50.3333333 ] ] ] } },
{ "type": "Feature", "properties": { "Id": 0, "Sheet_ID": "壹壹タ109. ポスレドノエ", "label": "壹壹タ109. ポスレドノエ", "call_short": "G7270 S100 .J6", "call_num": "G7270 S100 .J6 11TA109", "recid": "yc818xd3547", "websiteUrl": "https://purl.stanford.edu/yc818xd3547", "title": "西伯利十万分一圖", "ckey": 12732964, "available": true, "iiifUrl": "https://purl.stanford.edu/yc818xd3547/iiif/manifest" }, "geometry": { "type": "Polygon", "coordinates": [ [ [ 129.5, 50.3333333 ], [ 130.0, 50.3333333 ], [ 130.0, 50.6666667 ], [ 129.5, 50.6666667 ], [ 129.5, 50.3333333 ] ] ] } },
{ "type": "Feature", "properties": { "Id": 0, "Sheet_ID": "チュウーグダ河", "label": "チュウーグダ河", "call_short": "0", "call_num": "0", "recid": "0", "websiteUrl": "0", "title": "0", "ckey": 0, "available": false, "iiifUrl": "0" }, "geometry": { "type": "Polygon", "coordinates": [ [ [ 130.0, 50.3333333 ], [ 130.5, 50.3333333 ], [ 130.5, 50.6666667 ], [ 130.0, 50.6666667 ], [ 130.0, 50.3333333 ] ] ] } },
{ "type": "Feature", "properties": { "Id": 0, "Sheet_ID": "クィブィシェフカヴォストチナヤ", "label": "クィブィシェフカヴォストチナヤ", "call_short": "0", "call_num": "0", "recid": "0", "websiteUrl": "0", "title": "0", "ckey": 0, "available": false, "iiifUrl": "0" }, "geometry": { "type": "Polygon", "coordinates": [ [ [ 128.0, 50.6666667 ], [ 128.5, 50.6666667 ], [ 128.5, 51.0000001 ], [ 128.0, 51.0000001 ], [ 128.0, 50.6666667 ] ] ] } },
{ "type": "Feature", "properties": { "Id": 0, "Sheet_ID": "壹壹タ128. オジァエフカ", "label": "壹壹タ128. オジァエフカ", "call_short": "G7270 S100 .J6", "call_num": "G7270 S100 .J6 11TA128", "recid": "jc577zv1601", "websiteUrl": "https://purl.stanford.edu/jc577zv1601", "title": "西伯利十万分一圖", "ckey": 12732964, "available": true, "iiifUrl": "https://purl.stanford.edu/jc577zv1601/iiif/manifest" }, "geometry": { "type": "Polygon", "coordinates": [ [ [ 128.5, 50.6666667 ], [ 129.0, 50.6666667 ], [ 129.0, 51.0000001 ], [ 128.5, 51.0000001 ], [ 128.5, 50.6666667 ] ] ] } },
{ "type": "Feature", "properties": { "Id": 0, "Sheet_ID": "壹壹タ118. トルバガタイ", "label": "壹壹タ118. トルバガタイ", "call_short": "G7270 S100 .J6", "call_num": "G7270 S100 .J6 11TA118", "recid": "rb619pt9276", "websiteUrl": "https://purl.stanford.edu/rb619pt9276", "title": "西伯利十万分一圖", "ckey": 12732964, "available": true, "iiifUrl": "https://purl.stanford.edu/rb619pt9276/iiif/manifest" }, "geometry": { "type": "Polygon", "coordinates": [ [ [ 129.0, 50.6666667 ], [ 129.5, 50.6666667 ], [ 129.5, 51.0000001 ], [ 129.0, 51.0000001 ], [ 129.0, 50.6666667 ] ] ] } },
{ "type": "Feature", "properties": { "Id": 0, "Sheet_ID": "壹壹タ108. ノーヴォ・ニコラエフカ", "label": "壹壹タ108. ノーヴォ・ニコラエフカ", "call_short": "G7270 S100 .J6", "call_num": "G7270 S100 .J6 11TA108", "recid": "sn792xc5135", "websiteUrl": "https://purl.stanford.edu/sn792xc5135", "title": "西伯利十万分一圖", "ckey": 12732964, "available": true, "iiifUrl": "https://purl.stanford.edu/sn792xc5135/iiif/manifest" }, "geometry": { "type": "Polygon", "coordinates": [ [ [ 129.5, 50.6666667 ], [ 130.0, 50.6666667 ], [ 130.0, 51.0000001 ], [ 129.5, 51.0000001 ], [ 129.5, 50.6666667 ] ] ] } },
{ "type": "Feature", "properties": { "Id": 0, "Sheet_ID": "ベロノゴヴォ", "label": "ベロノゴヴォ", "call_short": "0", "call_num": "0", "recid": "0", "websiteUrl": "0", "title": "0", "ckey": 0, "available": false, "iiifUrl": "0" }, "geometry": { "type": "Polygon", "coordinates": [ [ [ 128.0, 51.0000001 ], [ 128.5, 51.0000001 ], [ 128.5, 51.3333336 ], [ 128.0, 51.3333336 ], [ 128.0, 51.0000001 ] ] ] } },
{ "type": "Feature", "properties": { "Id": 0, "Sheet_ID": "壹壹タ127. ウェルナヤ", "label": "壹壹タ127. ウェルナヤ", "call_short": "G7270 S100 .J6", "call_num": "G7270 S100 .J6 11TA127", "recid": "mw814rx6130", "websiteUrl": "https://purl.stanford.edu/mw814rx6130", "title": "西伯利十万分一圖", "ckey": 12732964, "available": true, "iiifUrl": "https://purl.stanford.edu/mw814rx6130/iiif/manifest" }, "geometry": { "type": "Polygon", "coordinates": [ [ [ 128.5, 51.0000001 ], [ 129.0, 51.0000001 ], [ 129.0, 51.3333336 ], [ 128.5, 51.3333336 ], [ 128.5, 51.0000001 ] ] ] } },
{ "type": "Feature", "properties": { "Id": 0, "Sheet_ID": "ソコロフカ", "label": "ソコロフカ", "call_short": "0", "call_num": "0", "recid": "0", "websiteUrl": "0", "title": "0", "ckey": 0, "available": false, "iiifUrl": "0" }, "geometry": { "type": "Polygon", "coordinates": [ [ [ 129.0, 51.0000001 ], [ 129.5, 51.0000001 ], [ 129.5, 51.3333336 ], [ 129.0, 51.3333336 ], [ 129.0, 51.0000001 ] ] ] } },
{ "type": "Feature", "properties": { "Id": 0, "Sheet_ID": "壹壹タ107. クングリ", "label": "壹壹タ107. クングリ", "call_short": "G7270 S100 .J6", "call_num": "G7270 S100 .J6 11TA107", "recid": "br682xy8318", "websiteUrl": "https://purl.stanford.edu/br682xy8318", "title": "西伯利十万分一圖", "ckey": 12732964, "available": true, "iiifUrl": "https://purl.stanford.edu/br682xy8318/iiif/manifest" }, "geometry": { "type": "Polygon", "coordinates": [ [ [ 129.5, 51.0000001 ], [ 130.0, 51.0000001 ], [ 130.0, 51.3333336 ], [ 129.5, 51.3333336 ], [ 129.5, 51.0000001 ] ] ] } },
{ "type": "Feature", "properties": { "Id": 0, "Sheet_ID": "スヴォボトヌイ", "label": "スヴォボトヌイ", "call_short": "0", "call_num": "0", "recid": "0", "websiteUrl": "0", "title": "0", "ckey": 0, "available": false, "iiifUrl": "0" }, "geometry": { "type": "Polygon", "coordinates": [ [ [ 128.0, 51.3333336 ], [ 128.5, 51.3333336 ], [ 128.5, 51.666667 ], [ 128.0, 51.666667 ], [ 128.0, 51.3333336 ] ] ] } },
{ "type": "Feature", "properties": { "Id": 0, "Sheet_ID": "マザノーヴォ", "label": "マザノーヴォ", "call_short": "0", "call_num": "0", "recid": "0", "websiteUrl": "0", "title": "0", "ckey": 0, "available": false, "iiifUrl": "0" }, "geometry": { "type": "Polygon", "coordinates": [ [ [ 128.5, 51.3333336 ], [ 129.0, 51.3333336 ], [ 129.0, 51.666667 ], [ 128.5, 51.666667 ], [ 128.5, 51.3333336 ] ] ] } },
{ "type": "Feature", "properties": { "Id": 0, "Sheet_ID": "ラマンカウーツィヴォ", "label": "ラマンカウーツィヴォ", "call_short": "0", "call_num": "0", "recid": "0", "websiteUrl": "0", "title": "0", "ckey": 0, "available": false, "iiifUrl": "0" }, "geometry": { "type": "Polygon", "coordinates": [ [ [ 129.0, 51.3333336 ], [ 129.5, 51.3333336 ], [ 129.5, 51.666667 ], [ 129.0, 51.666667 ], [ 129.0, 51.3333336 ] ] ] } },
{ "type": "Feature", "properties": { "Id": 0, "Sheet_ID": "一號", "label": "一號", "call_short": "0", "call_num": "0", "recid": "0", "websiteUrl": "0", "title": "0", "ckey": 0, "available": false, "iiifUrl": "0" }, "geometry": { "type": "Polygon", "coordinates": [ [ [ 129.5, 51.3333336 ], [ 130.0, 51.3333336 ], [ 130.0, 51.666667 ], [ 129.5, 51.666667 ], [ 129.5, 51.3333336 ] ] ] } },
{ "type": "Feature", "properties": { "Id": 0, "Sheet_ID": "シャツリナ農舎", "label": "シャツリナ農舎", "call_short": "0", "call_num": "0", "recid": "0", "websiteUrl": "0", "title": "0", "ckey": 0, "available": false, "iiifUrl": "0" }, "geometry": { "type": "Polygon", "coordinates": [ [ [ 130.0, 51.3333336 ], [ 130.5, 51.3333336 ], [ 130.5, 51.666667 ], [ 130.0, 51.666667 ], [ 130.0, 51.3333336 ] ] ] } },
{ "type": "Feature", "properties": { "Id": 0, "Sheet_ID": "ソロヴィエフスコエ", "label": "ソロヴィエフスコエ", "call_short": "0", "call_num": "0", "recid": "0", "websiteUrl": "0", "title": "0", "ckey": 0, "available": false, "iiifUrl": "0" }, "geometry": { "type": "Polygon", "coordinates": [ [ [ 115.5, 49.666667 ], [ 116.0, 49.666667 ], [ 116.0, 50.0000002 ], [ 115.5, 50.0000002 ], [ 115.5, 49.666667 ] ] ] } },
{ "type": "Feature", "properties": { "Id": 0, "Sheet_ID": "シャワルテ湖", "label": "シャワルテ湖", "call_short": "0", "call_num": "0", "recid": "0", "websiteUrl": "0", "title": "0", "ckey": 0, "available": false, "iiifUrl": "0" }, "geometry": { "type": "Polygon", "coordinates": [ [ [ 116.0, 49.666667 ], [ 116.5, 49.666667 ], [ 116.5, 50.0000002 ], [ 116.0, 50.0000002 ], [ 116.0, 49.666667 ] ] ] } },
{ "type": "Feature", "properties": { "Id": 0, "Sheet_ID": "ダウリヤ", "label": "ダウリヤ", "call_short": "0", "call_num": "0", "recid": "0", "websiteUrl": "0", "title": "0", "ckey": 0, "available": false, "iiifUrl": "0" }, "geometry": { "type": "Polygon", "coordinates": [ [ [ 116.5, 49.666667 ], [ 117.0, 49.666667 ], [ 117.0, 50.0000002 ], [ 116.5, 50.0000002 ], [ 116.5, 49.666667 ] ] ] } },
{ "type": "Feature", "properties": { "Id": 0, "Sheet_ID": "クルスゥタイ", "label": "クルスゥタイ", "call_short": "0", "call_num": "0", "recid": "0", "websiteUrl": "0", "title": "0", "ckey": 0, "available": false, "iiifUrl": "0" }, "geometry": { "type": "Polygon", "coordinates": [ [ [ 115.5, 50.0000002 ], [ 116.0, 50.0000002 ], [ 116.0, 50.3333335 ], [ 115.5, 50.3333335 ], [ 115.5, 50.0000002 ] ] ] } },
{ "type": "Feature", "properties": { "Id": 0, "Sheet_ID": "壹參タ180. ボルジンスコエ湖", "label": "壹參タ180. ボルジンスコエ湖", "call_short": "G7270 S100 .J6", "call_num": "G7270 S100 .J6 13TA180", "recid": "qf484bj2535", "websiteUrl": "https://purl.stanford.edu/qf484bj2535", "title": "西伯利十万分一圖", "ckey": 12732964, "available": true, "iiifUrl": "https://purl.stanford.edu/qf484bj2535/iiif/manifest" }, "geometry": { "type": "Polygon", "coordinates": [ [ [ 116.0, 50.0000002 ], [ 116.5, 50.0000002 ], [ 116.5, 50.3333335 ], [ 116.0, 50.3333335 ], [ 116.0, 50.0000002 ] ] ] } },
{ "type": "Feature", "properties": { "Id": 0, "Sheet_ID": "ハラノール驛", "label": "ハラノール驛", "call_short": "0", "call_num": "0", "recid": "0", "websiteUrl": "0", "title": "0", "ckey": 0, "available": false, "iiifUrl": "0" }, "geometry": { "type": "Polygon", "coordinates": [ [ [ 116.5, 50.0000002 ], [ 117.0, 50.0000002 ], [ 117.0, 50.3333335 ], [ 116.5, 50.3333335 ], [ 116.5, 50.0000002 ] ] ] } },
{ "type": "Feature", "properties": { "Id": 0, "Sheet_ID": "クラースヌイヴェリカンソフホーズ", "label": "クラースヌイヴェリカンソフホーズ", "call_short": "0", "call_num": "0", "recid": "0", "websiteUrl": "0", "title": "0", "ckey": 0, "available": false, "iiifUrl": "0" }, "geometry": { "type": "Polygon", "coordinates": [ [ [ 117.0, 50.0000002 ], [ 117.5, 50.0000002 ], [ 117.5, 50.3333335 ], [ 117.0, 50.3333335 ], [ 117.0, 50.0000002 ] ] ] } },
{ "type": "Feature", "properties": { "Id": 0, "Sheet_ID": "スタールィチンダント", "label": "スタールィチンダント", "call_short": "0", "call_num": "0", "recid": "0", "websiteUrl": "0", "title": "0", "ckey": 0, "available": false, "iiifUrl": "0" }, "geometry": { "type": "Polygon", "coordinates": [ [ [ 115.5, 50.3333335 ], [ 116.0, 50.3333335 ], [ 116.0, 50.6666667 ], [ 115.5, 50.6666667 ], [ 115.5, 50.3333335 ] ] ] } },
{ "type": "Feature", "properties": { "Id": 0, "Sheet_ID": "第二チンダント", "label": "第二チンダント", "call_short": "0", "call_num": "0", "recid": "0", "websiteUrl": "0", "title": "0", "ckey": 0, "available": false, "iiifUrl": "0" }, "geometry": { "type": "Polygon", "coordinates": [ [ [ 116.0, 50.3333335 ], [ 116.5, 50.3333335 ], [ 116.5, 50.6666667 ], [ 116.0, 50.6666667 ], [ 116.0, 50.3333335 ] ] ] } },
{ "type": "Feature", "properties": { "Id": 0, "Sheet_ID": "壹參タ169. ボルジャ", "label": "壹參タ169. ボルジャ", "call_short": "G7270 S100 .J6", "call_num": "G7270 S100 .J6 13TA169", "recid": "gg578yd8668", "websiteUrl": "https://purl.stanford.edu/gg578yd8668", "title": "西伯利十万分一圖", "ckey": 12732964, "available": true, "iiifUrl": "https://purl.stanford.edu/gg578yd8668/iiif/manifest" }, "geometry": { "type": "Polygon", "coordinates": [ [ [ 116.5, 50.3333335 ], [ 117.0, 50.3333335 ], [ 117.0, 50.6666667 ], [ 116.5, 50.6666667 ], [ 116.5, 50.3333335 ] ] ] } },
{ "type": "Feature", "properties": { "Id": 0, "Sheet_ID": "ツァガン・オルゥエフスカヤ", "label": "ツァガン・オルゥエフスカヤ", "call_short": "0", "call_num": "0", "recid": "0", "websiteUrl": "0", "title": "0", "ckey": 0, "available": false, "iiifUrl": "0" }, "geometry": { "type": "Polygon", "coordinates": [ [ [ 117.0, 50.3333335 ], [ 117.5, 50.3333335 ], [ 117.5, 50.6666667 ], [ 117.0, 50.6666667 ], [ 117.0, 50.3333335 ] ] ] } },
{ "type": "Feature", "properties": { "Id": 0, "Sheet_ID": "第七十七號待避驛", "label": "第七十七號待避驛", "call_short": "0", "call_num": "0", "recid": "0", "websiteUrl": "0", "title": "0", "ckey": 0, "available": false, "iiifUrl": "0" }, "geometry": { "type": "Polygon", "coordinates": [ [ [ 116.0, 50.6666667 ], [ 116.5, 50.6666667 ], [ 116.5, 51.0 ], [ 116.0, 51.0 ], [ 116.0, 50.6666667 ] ] ] } },
{ "type": "Feature", "properties": { "Id": 0, "Sheet_ID": "クラスヌイアクチャンブリ", "label": "クラスヌイアクチャンブリ", "call_short": "0", "call_num": "0", "recid": "0", "websiteUrl": "0", "title": "0", "ckey": 0, "available": false, "iiifUrl": "0" }, "geometry": { "type": "Polygon", "coordinates": [ [ [ 116.5, 50.6666667 ], [ 117.0, 50.6666667 ], [ 117.0, 51.0 ], [ 116.5, 51.0 ], [ 116.5, 50.6666667 ] ] ] } },
{ "type": "Feature", "properties": { "Id": 0, "Sheet_ID": "名稱ヤキーモフコルホーズ", "label": "名稱ヤキーモフコルホーズ", "call_short": "0", "call_num": "0", "recid": "0", "websiteUrl": "0", "title": "0", "ckey": 0, "available": false, "iiifUrl": "0" }, "geometry": { "type": "Polygon", "coordinates": [ [ [ 117.0, 50.6666667 ], [ 117.5, 50.6666667 ], [ 117.5, 51.0 ], [ 117.0, 51.0 ], [ 117.0, 50.6666667 ] ] ] } },
{ "type": "Feature", "properties": { "Id": 0, "Sheet_ID": "キローチァ", "label": "キローチァ", "call_short": "0", "call_num": "0", "recid": "0", "websiteUrl": "0", "title": "0", "ckey": 0, "available": false, "iiifUrl": "0" }, "geometry": { "type": "Polygon", "coordinates": [ [ [ 115.5, 51.3333333 ], [ 116.0, 51.3333333 ], [ 116.0, 51.6666665 ], [ 115.5, 51.6666665 ], [ 115.5, 51.3333333 ] ] ] } },
{ "type": "Feature", "properties": { "Id": 0, "Sheet_ID": "セミヨノフ", "label": "セミヨノフ", "call_short": "0", "call_num": "0", "recid": "0", "websiteUrl": "0", "title": "0", "ckey": 0, "available": false, "iiifUrl": "0" }, "geometry": { "type": "Polygon", "coordinates": [ [ [ 116.0, 51.3333333 ], [ 116.5, 51.3333333 ], [ 116.5, 51.6666665 ], [ 116.0, 51.6666665 ], [ 116.0, 51.3333333 ] ] ] } },
{ "type": "Feature", "properties": { "Id": 0, "Sheet_ID": "ノーヴォトロイツカーヤ", "label": "ノーヴォトロイツカーヤ", "call_short": "0", "call_num": "0", "recid": "0", "websiteUrl": "0", "title": "0", "ckey": 0, "available": false, "iiifUrl": "0" }, "geometry": { "type": "Polygon", "coordinates": [ [ [ 116.5, 51.3333333 ], [ 117.0, 51.3333333 ], [ 117.0, 51.6666665 ], [ 116.5, 51.6666665 ], [ 116.5, 51.3333333 ] ] ] } },
{ "type": "Feature", "properties": { "Id": 0, "Sheet_ID": "グロボーウォ", "label": "グロボーウォ", "call_short": "0", "call_num": "0", "recid": "0", "websiteUrl": "0", "title": "0", "ckey": 0, "available": false, "iiifUrl": "0" }, "geometry": { "type": "Polygon", "coordinates": [ [ [ 117.0, 51.3333333 ], [ 117.5, 51.3333333 ], [ 117.5, 51.6666665 ], [ 117.0, 51.6666665 ], [ 117.0, 51.3333333 ] ] ] } },
{ "type": "Feature", "properties": { "Id": 0, "Sheet_ID": "カザノフスコエ", "label": "カザノフスコエ", "call_short": "0", "call_num": "0", "recid": "0", "websiteUrl": "0", "title": "0", "ckey": 0, "available": false, "iiifUrl": "0" }, "geometry": { "type": "Polygon", "coordinates": [ [ [ 115.5, 51.6666665 ], [ 116.0, 51.6666665 ], [ 116.0, 51.9999998 ], [ 115.5, 51.9999998 ], [ 115.5, 51.6666665 ] ] ] } },
{ "type": "Feature", "properties": { "Id": 0, "Sheet_ID": "壹參タ175. シルカ", "label": "壹參タ175. シルカ", "call_short": "G7270 S100 .J6", "call_num": "G7270 S100 .J6 13TA175", "recid": "gk069zf7471", "websiteUrl": "https://purl.stanford.edu/gk069zf7471", "title": "西伯利十万分一圖", "ckey": 12732964, "available": true, "iiifUrl": "https://purl.stanford.edu/gk069zf7471/iiif/manifest" }, "geometry": { "type": "Polygon", "coordinates": [ [ [ 116.0, 51.6666665 ], [ 116.5, 51.6666665 ], [ 116.5, 51.9999998 ], [ 116.0, 51.9999998 ], [ 116.0, 51.6666665 ] ] ] } },
{ "type": "Feature", "properties": { "Id": 0, "Sheet_ID": "壹參タ165. ネルチンスク", "label": "壹參タ165. ネルチンスク", "call_short": "G7270 S100 .J6", "call_num": "G7270 S100 .J6 13TA165", "recid": "ks671fr4377", "websiteUrl": "https://purl.stanford.edu/ks671fr4377", "title": "西伯利十万分一圖", "ckey": 12732964, "available": true, "iiifUrl": "https://purl.stanford.edu/ks671fr4377/iiif/manifest" }, "geometry": { "type": "Polygon", "coordinates": [ [ [ 116.5, 51.6666665 ], [ 117.0, 51.6666665 ], [ 117.0, 51.9999998 ], [ 116.5, 51.9999998 ], [ 116.5, 51.6666665 ] ] ] } },
{ "type": "Feature", "properties": { "Id": 0, "Sheet_ID": "ヂドキンスカーヤ", "label": "ヂドキンスカーヤ", "call_short": "0", "call_num": "0", "recid": "0", "websiteUrl": "0", "title": "0", "ckey": 0, "available": false, "iiifUrl": "0" }, "geometry": { "type": "Polygon", "coordinates": [ [ [ 117.0, 51.6666665 ], [ 117.5, 51.6666665 ], [ 117.5, 51.9999998 ], [ 117.0, 51.9999998 ], [ 117.0, 51.6666665 ] ] ] } },
{ "type": "Feature", "properties": { "Id": 0, "Sheet_ID": "ツァガクシーン", "label": "ツァガクシーン", "call_short": "0", "call_num": "0", "recid": "0", "websiteUrl": "0", "title": "0", "ckey": 0, "available": false, "iiifUrl": "0" }, "geometry": { "type": "Polygon", "coordinates": [ [ [ 115.5, 51.9999998 ], [ 116.0, 51.9999998 ], [ 116.0, 52.333333 ], [ 115.5, 52.333333 ], [ 115.5, 51.9999998 ] ] ] } },
{ "type": "Feature", "properties": { "Id": 0, "Sheet_ID": "トルギーンスカヤ", "label": "トルギーンスカヤ", "call_short": "0", "call_num": "0", "recid": "0", "websiteUrl": "0", "title": "0", "ckey": 0, "available": false, "iiifUrl": "0" }, "geometry": { "type": "Polygon", "coordinates": [ [ [ 116.0, 51.9999998 ], [ 116.5, 51.9999998 ], [ 116.5, 52.333333 ], [ 116.0, 52.333333 ], [ 116.0, 51.9999998 ] ] ] } },
{ "type": "Feature", "properties": { "Id": 0, "Sheet_ID": "タルスキー", "label": "タルスキー", "call_short": "0", "call_num": "0", "recid": "0", "websiteUrl": "0", "title": "0", "ckey": 0, "available": false, "iiifUrl": "0" }, "geometry": { "type": "Polygon", "coordinates": [ [ [ 116.5, 51.9999998 ], [ 117.0, 51.9999998 ], [ 117.0, 52.333333 ], [ 116.5, 52.333333 ], [ 116.5, 51.9999998 ] ] ] } },
{ "type": "Feature", "properties": { "Id": 0, "Sheet_ID": "クエングスカヤ", "label": "クエングスカヤ", "call_short": "0", "call_num": "0", "recid": "0", "websiteUrl": "0", "title": "0", "ckey": 0, "available": false, "iiifUrl": "0" }, "geometry": { "type": "Polygon", "coordinates": [ [ [ 117.0, 51.9999998 ], [ 117.5, 51.9999998 ], [ 117.5, 52.333333 ], [ 117.0, 52.333333 ], [ 117.0, 51.9999998 ] ] ] } },
{ "type": "Feature", "properties": { "Id": 0, "Sheet_ID": "アシンガ", "label": "アシンガ", "call_short": "0", "call_num": "0", "recid": "0", "websiteUrl": "0", "title": "0", "ckey": 0, "available": false, "iiifUrl": "0" }, "geometry": { "type": "Polygon", "coordinates": [ [ [ 109.5, 49.0 ], [ 110.0, 49.0 ], [ 110.0, 49.3333334 ], [ 109.5, 49.3333334 ], [ 109.5, 49.0 ] ] ] } },
{ "type": "Feature", "properties": { "Id": 0, "Sheet_ID": "壹四ヨ193. バリヂカン", "label": "壹四ヨ193. バリヂカン", "call_short": "G7270 S100 .J6", "call_num": "G7270 S100 .J6 14YO193", "recid": "qc244cj9651", "websiteUrl": "https://purl.stanford.edu/qc244cj9651", "title": "西伯利十万分一圖", "ckey": 12732964, "available": true, "iiifUrl": "https://purl.stanford.edu/qc244cj9651/iiif/manifest" }, "geometry": { "type": "Polygon", "coordinates": [ [ [ 110.0, 49.0 ], [ 110.5, 49.0 ], [ 110.5, 49.3333334 ], [ 110.0, 49.3333334 ], [ 110.0, 49.0 ] ] ] } },
{ "type": "Feature", "properties": { "Id": 0, "Sheet_ID": "壹四ヨ183. ジェルナコフカ谷", "label": "壹四ヨ183. ジェルナコフカ谷", "call_short": "G7270 S100 .J6", "call_num": "G7270 S100 .J6 14YO183", "recid": "mz265nx6925", "websiteUrl": "https://purl.stanford.edu/mz265nx6925", "title": "西伯利十万分一圖", "ckey": 12732964, "available": true, "iiifUrl": "https://purl.stanford.edu/mz265nx6925/iiif/manifest" }, "geometry": { "type": "Polygon", "coordinates": [ [ [ 110.5, 49.0 ], [ 111.0, 49.0 ], [ 111.0, 49.3333334 ], [ 110.5, 49.3333334 ], [ 110.5, 49.0 ] ] ] } },
{ "type": "Feature", "properties": { "Id": 0, "Sheet_ID": "キルクンスキー", "label": "キルクンスキー", "call_short": "0", "call_num": "0", "recid": "0", "websiteUrl": "0", "title": "0", "ckey": 0, "available": false, "iiifUrl": "0" }, "geometry": { "type": "Polygon", "coordinates": [ [ [ 111.0, 49.0 ], [ 111.5, 49.0 ], [ 111.5, 49.3333334 ], [ 111.0, 49.3333334 ], [ 111.0, 49.0 ] ] ] } },
{ "type": "Feature", "properties": { "Id": 0, "Sheet_ID": "アシンガ谷", "label": "アシンガ谷", "call_short": "0", "call_num": "0", "recid": "0", "websiteUrl": "0", "title": "0", "ckey": 0, "available": false, "iiifUrl": "0" }, "geometry": { "type": "Polygon", "coordinates": [ [ [ 109.5, 49.3333334 ], [ 110.0, 49.3333334 ], [ 110.0, 49.6666667 ], [ 109.5, 49.6666667 ], [ 109.5, 49.3333334 ] ] ] } },
{ "type": "Feature", "properties": { "Id": 0, "Sheet_ID": "壹四ヨ192. ネムィラ河", "label": "壹四ヨ192. ネムィラ河", "call_short": "G7270 S100 .J6", "call_num": "G7270 S100 .J6 14YO192", "recid": "vb749dh5881", "websiteUrl": "https://purl.stanford.edu/vb749dh5881", "title": "西伯利十万分一圖", "ckey": 12732964, "available": true, "iiifUrl": "https://purl.stanford.edu/vb749dh5881/iiif/manifest" }, "geometry": { "type": "Polygon", "coordinates": [ [ [ 110.0, 49.3333334 ], [ 110.5, 49.3333334 ], [ 110.5, 49.6666667 ], [ 110.0, 49.6666667 ], [ 110.0, 49.3333334 ] ] ] } },
{ "type": "Feature", "properties": { "Id": 0, "Sheet_ID": "壹四ヨ182. マルガルツォン山", "label": "壹四ヨ182. マルガルツォン山", "call_short": "G7270 S100 .J6", "call_num": "G7270 S100 .J6 14YO182", "recid": "wr863pn1926", "websiteUrl": "https://purl.stanford.edu/wr863pn1926", "title": "西伯利十万分一圖", "ckey": 12732964, "available": true, "iiifUrl": "https://purl.stanford.edu/wr863pn1926/iiif/manifest" }, "geometry": { "type": "Polygon", "coordinates": [ [ [ 110.5, 49.3333334 ], [ 111.0, 49.3333334 ], [ 111.0, 49.6666667 ], [ 110.5, 49.6666667 ], [ 110.5, 49.3333334 ] ] ] } },
{ "type": "Feature", "properties": { "Id": 0, "Sheet_ID": "壹四ヨ172. ブククゥン", "label": "壹四ヨ172. ブククゥン", "call_short": "G7270 S100 .J6", "call_num": "G7270 S100 .J6 14YO172", "recid": "hf372hg6000", "websiteUrl": "https://purl.stanford.edu/hf372hg6000", "title": "西伯利十万分一圖", "ckey": 12732964, "available": true, "iiifUrl": "https://purl.stanford.edu/hf372hg6000/iiif/manifest" }, "geometry": { "type": "Polygon", "coordinates": [ [ [ 111.0, 49.3333334 ], [ 111.5, 49.3333334 ], [ 111.5, 49.6666667 ], [ 111.0, 49.6666667 ], [ 111.0, 49.3333334 ] ] ] } },
{ "type": "Feature", "properties": { "Id": 0, "Sheet_ID": "壹四ヨ162. クィラ", "label": "壹四ヨ162. クィラ", "call_short": "G7270 S100 .J6", "call_num": "G7270 S100 .J6 14YO162", "recid": "jm966gh8176", "websiteUrl": "https://purl.stanford.edu/jm966gh8176", "title": "西伯利十万分一圖", "ckey": 12732964, "available": true, "iiifUrl": "https://purl.stanford.edu/jm966gh8176/iiif/manifest" }, "geometry": { "type": "Polygon", "coordinates": [ [ [ 111.5, 49.3333334 ], [ 112.0, 49.3333334 ], [ 112.0, 49.6666667 ], [ 111.5, 49.6666667 ], [ 111.5, 49.3333334 ] ] ] } },
{ "type": "Feature", "properties": { "Id": 0, "Sheet_ID": "壹四ヨ152. トィリン", "label": "壹四ヨ152. トィリン", "call_short": "G7270 S100 .J6", "call_num": "G7270 S100 .J6 14YO152", "recid": "pp451vd6009", "websiteUrl": "https://purl.stanford.edu/pp451vd6009", "title": "西伯利十万分一圖", "ckey": 12732964, "available": true, "iiifUrl": "https://purl.stanford.edu/pp451vd6009/iiif/manifest" }, "geometry": { "type": "Polygon", "coordinates": [ [ [ 112.0, 49.3333334 ], [ 112.5, 49.3333334 ], [ 112.5, 49.6666667 ], [ 112.0, 49.6666667 ], [ 112.0, 49.3333334 ] ] ] } },
{ "type": "Feature", "properties": { "Id": 0, "Sheet_ID": "ヴェールフキ・ウリフゥン", "label": "ヴェールフキ・ウリフゥン", "call_short": "0", "call_num": "0", "recid": "0", "websiteUrl": "0", "title": "0", "ckey": 0, "available": false, "iiifUrl": "0" }, "geometry": { "type": "Polygon", "coordinates": [ [ [ 112.5, 49.3333334 ], [ 113.0, 49.3333334 ], [ 113.0, 49.6666667 ], [ 112.5, 49.6666667 ], [ 112.5, 49.3333334 ] ] ] } },
{ "type": "Feature", "properties": { "Id": 0, "Sheet_ID": "ワィクリストワ山", "label": "ワィクリストワ山", "call_short": "0", "call_num": "0", "recid": "0", "websiteUrl": "0", "title": "0", "ckey": 0, "available": false, "iiifUrl": "0" }, "geometry": { "type": "Polygon", "coordinates": [ [ [ 109.5, 49.6666667 ], [ 110.0, 49.6666667 ], [ 110.0, 50.0000001 ], [ 109.5, 50.0000001 ], [ 109.5, 49.6666667 ] ] ] } },
{ "type": "Feature", "properties": { "Id": 0, "Sheet_ID": "壹四ヨ191. セミオーゼルヌイ", "label": "壹四ヨ191. セミオーゼルヌイ", "call_short": "G7270 S100 .J6", "call_num": "G7270 S100 .J6 14YO191", "recid": "xx509rs5432", "websiteUrl": "https://purl.stanford.edu/xx509rs5432", "title": "西伯利十万分一圖", "ckey": 12732964, "available": true, "iiifUrl": "https://purl.stanford.edu/xx509rs5432/iiif/manifest" }, "geometry": { "type": "Polygon", "coordinates": [ [ [ 110.0, 49.6666667 ], [ 110.5, 49.6666667 ], [ 110.5, 50.0000001 ], [ 110.0, 50.0000001 ], [ 110.0, 49.6666667 ] ] ] } },
{ "type": "Feature", "properties": { "Id": 0, "Sheet_ID": "壹四ヨ181. ホニンチゥルン連山", "label": "壹四ヨ181. ホニンチゥルン連山", "call_short": "G7270 S100 .J6", "call_num": "G7270 S100 .J6 14YO181", "recid": "sd242bt1434", "websiteUrl": "https://purl.stanford.edu/sd242bt1434", "title": "西伯利十万分一圖", "ckey": 12732964, "available": true, "iiifUrl": "https://purl.stanford.edu/sd242bt1434/iiif/manifest" }, "geometry": { "type": "Polygon", "coordinates": [ [ [ 110.5, 49.6666667 ], [ 111.0, 49.6666667 ], [ 111.0, 50.0000001 ], [ 110.5, 50.0000001 ], [ 110.5, 49.6666667 ] ] ] } },
{ "type": "Feature", "properties": { "Id": 0, "Sheet_ID": "壹四ヨ171. ツォホンド山", "label": "壹四ヨ171. ツォホンド山", "call_short": "G7270 S100 .J6", "call_num": "G7270 S100 .J6 14YO171", "recid": "cr451zy5002", "websiteUrl": "https://purl.stanford.edu/cr451zy5002", "title": "西伯利十万分一圖", "ckey": 12732964, "available": true, "iiifUrl": "https://purl.stanford.edu/cr451zy5002/iiif/manifest" }, "geometry": { "type": "Polygon", "coordinates": [ [ [ 111.0, 49.6666667 ], [ 111.5, 49.6666667 ], [ 111.5, 50.0000001 ], [ 111.0, 50.0000001 ], [ 111.0, 49.6666667 ] ] ] } },
{ "type": "Feature", "properties": { "Id": 0, "Sheet_ID": "壹四ヨ161. クリンダ", "label": "壹四ヨ161. クリンダ", "call_short": "G7270 S100 .J6", "call_num": "G7270 S100 .J6 14YO161", "recid": "sx835sk8064", "websiteUrl": "https://purl.stanford.edu/sx835sk8064", "title": "西伯利十万分一圖", "ckey": 12732964, "available": true, "iiifUrl": "https://purl.stanford.edu/sx835sk8064/iiif/manifest" }, "geometry": { "type": "Polygon", "coordinates": [ [ [ 111.5, 49.6666667 ], [ 112.0, 49.6666667 ], [ 112.0, 50.0000001 ], [ 111.5, 50.0000001 ], [ 111.5, 49.6666667 ] ] ] } },
{ "type": "Feature", "properties": { "Id": 0, "Sheet_ID": "壹四ヨ151. ブィルツァ", "label": "壹四ヨ151. ブィルツァ", "call_short": "G7270 S100 .J6", "call_num": "G7270 S100 .J6 14YO151", "recid": "bh786zh3660", "websiteUrl": "https://purl.stanford.edu/bh786zh3660", "title": "西伯利十万分一圖", "ckey": 12732964, "available": true, "iiifUrl": "https://purl.stanford.edu/bh786zh3660/iiif/manifest" }, "geometry": { "type": "Polygon", "coordinates": [ [ [ 112.0, 49.6666667 ], [ 112.5, 49.6666667 ], [ 112.5, 50.0000001 ], [ 112.0, 50.0000001 ], [ 112.0, 49.6666667 ] ] ] } },
{ "type": "Feature", "properties": { "Id": 0, "Sheet_ID": "マングゥト", "label": "マングゥト", "call_short": "0", "call_num": "0", "recid": "0", "websiteUrl": "0", "title": "0", "ckey": 0, "available": false, "iiifUrl": "0" }, "geometry": { "type": "Polygon", "coordinates": [ [ [ 112.5, 49.6666667 ], [ 113.0, 49.6666667 ], [ 113.0, 50.0000001 ], [ 112.5, 50.0000001 ], [ 112.5, 49.6666667 ] ] ] } },
{ "type": "Feature", "properties": { "Id": 0, "Sheet_ID": "シレタ山", "label": "シレタ山", "call_short": "0", "call_num": "0", "recid": "0", "websiteUrl": "0", "title": "0", "ckey": 0, "available": false, "iiifUrl": "0" }, "geometry": { "type": "Polygon", "coordinates": [ [ [ 110.0, 50.0000001 ], [ 110.5, 50.0000001 ], [ 110.5, 50.3333335 ], [ 110.0, 50.3333335 ], [ 110.0, 50.0000001 ] ] ] } },
{ "type": "Feature", "properties": { "Id": 0, "Sheet_ID": "壹四タ190. ハルツァガ", "label": "壹四タ190. ハルツァガ", "call_short": "G7270 S100 .J6", "call_num": "G7270 S100 .J6 14TA190", "recid": "ft503wv5877", "websiteUrl": "https://purl.stanford.edu/ft503wv5877", "title": "西伯利十万分一圖", "ckey": 12732964, "available": true, "iiifUrl": "https://purl.stanford.edu/ft503wv5877/iiif/manifest" }, "geometry": { "type": "Polygon", "coordinates": [ [ [ 110.5, 50.0000001 ], [ 111.0, 50.0000001 ], [ 111.0, 50.3333335 ], [ 110.5, 50.3333335 ], [ 110.5, 50.0000001 ] ] ] } },
{ "type": "Feature", "properties": { "Id": 0, "Sheet_ID": "インゴダ河上流", "label": "インゴダ河上流", "call_short": "0", "call_num": "0", "recid": "0", "websiteUrl": "0", "title": "0", "ckey": 0, "available": false, "iiifUrl": "0" }, "geometry": { "type": "Polygon", "coordinates": [ [ [ 111.0, 50.0000001 ], [ 111.5, 50.0000001 ], [ 111.5, 50.3333335 ], [ 111.0, 50.3333335 ], [ 111.0, 50.0000001 ] ] ] } },
{ "type": "Feature", "properties": { "Id": 0, "Sheet_ID": "ウルリスキー山", "label": "ウルリスキー山", "call_short": "0", "call_num": "0", "recid": "0", "websiteUrl": "0", "title": "0", "ckey": 0, "available": false, "iiifUrl": "0" }, "geometry": { "type": "Polygon", "coordinates": [ [ [ 111.5, 50.0000001 ], [ 112.0, 50.0000001 ], [ 112.0, 50.3333335 ], [ 111.5, 50.3333335 ], [ 111.5, 50.0000001 ] ] ] } },
{ "type": "Feature", "properties": { "Id": 0, "Sheet_ID": "ニージネ・ウリフンスキー", "label": "ニージネ・ウリフンスキー", "call_short": "0", "call_num": "0", "recid": "0", "websiteUrl": "0", "title": "0", "ckey": 0, "available": false, "iiifUrl": "0" }, "geometry": { "type": "Polygon", "coordinates": [ [ [ 112.5, 50.0000001 ], [ 113.0, 50.0000001 ], [ 113.0, 50.3333335 ], [ 112.5, 50.3333335 ], [ 112.5, 50.0000001 ] ] ] } },
{ "type": "Feature", "properties": { "Id": 0, "Sheet_ID": "チェレムホヴォ", "label": "チェレムホヴォ", "call_short": "0", "call_num": "0", "recid": "0", "websiteUrl": "0", "title": "0", "ckey": 0, "available": false, "iiifUrl": "0" }, "geometry": { "type": "Polygon", "coordinates": [ [ [ 110.0, 50.3333335 ], [ 110.5, 50.3333335 ], [ 110.5, 50.6666668 ], [ 110.0, 50.6666668 ], [ 110.0, 50.3333335 ] ] ] } },
{ "type": "Feature", "properties": { "Id": 0, "Sheet_ID": "オブシフコワ", "label": "オブシフコワ", "call_short": "0", "call_num": "0", "recid": "0", "websiteUrl": "0", "title": "0", "ckey": 0, "available": false, "iiifUrl": "0" }, "geometry": { "type": "Polygon", "coordinates": [ [ [ 110.5, 50.3333335 ], [ 111.0, 50.3333335 ], [ 111.0, 50.6666668 ], [ 110.5, 50.6666668 ], [ 110.5, 50.3333335 ] ] ] } },
{ "type": "Feature", "properties": { "Id": 0, "Sheet_ID": "オーゼルナヤ冬舎", "label": "オーゼルナヤ冬舎", "call_short": "0", "call_num": "0", "recid": "0", "websiteUrl": "0", "title": "0", "ckey": 0, "available": false, "iiifUrl": "0" }, "geometry": { "type": "Polygon", "coordinates": [ [ [ 111.0, 50.3333335 ], [ 111.5, 50.3333335 ], [ 111.5, 50.6666668 ], [ 111.0, 50.6666668 ], [ 111.0, 50.3333335 ] ] ] } },
{ "type": "Feature", "properties": { "Id": 0, "Sheet_ID": "レオノフカ", "label": "レオノフカ", "call_short": "0", "call_num": "0", "recid": "0", "websiteUrl": "0", "title": "0", "ckey": 0, "available": false, "iiifUrl": "0" }, "geometry": { "type": "Polygon", "coordinates": [ [ [ 109.5, 51.6666669 ], [ 110.0, 51.6666669 ], [ 110.0, 52.0000003 ], [ 109.5, 52.0000003 ], [ 109.5, 51.6666669 ] ] ] } },
{ "type": "Feature", "properties": { "Id": 0, "Sheet_ID": "トゥロスカイ", "label": "トゥロスカイ", "call_short": "0", "call_num": "0", "recid": "0", "websiteUrl": "0", "title": "0", "ckey": 0, "available": false, "iiifUrl": "0" }, "geometry": { "type": "Polygon", "coordinates": [ [ [ 110.0, 51.6666669 ], [ 110.5, 51.6666669 ], [ 110.5, 52.0000003 ], [ 110.0, 52.0000003 ], [ 110.0, 51.6666669 ] ] ] } },
{ "type": "Feature", "properties": { "Id": 0, "Sheet_ID": "チェサンスキーダツァン", "label": "チェサンスキーダツァン", "call_short": "0", "call_num": "0", "recid": "0", "websiteUrl": "0", "title": "0", "ckey": 0, "available": false, "iiifUrl": "0" }, "geometry": { "type": "Polygon", "coordinates": [ [ [ 110.5, 51.6666669 ], [ 111.0, 51.6666669 ], [ 111.0, 52.0000003 ], [ 110.5, 52.0000003 ], [ 110.5, 51.6666669 ] ] ] } },
{ "type": "Feature", "properties": { "Id": 0, "Sheet_ID": "ホリンスコエ", "label": "ホリンスコエ", "call_short": "0", "call_num": "0", "recid": "0", "websiteUrl": "0", "title": "0", "ckey": 0, "available": false, "iiifUrl": "0" }, "geometry": { "type": "Polygon", "coordinates": [ [ [ 109.5, 52.0000003 ], [ 110.0, 52.0000003 ], [ 110.0, 52.3333336 ], [ 109.5, 52.3333336 ], [ 109.5, 52.0000003 ] ] ] } },
{ "type": "Feature", "properties": { "Id": 0, "Sheet_ID": "壹四タ194. オニノボルスク", "label": "壹四タ194. オニノボルスク", "call_short": "G7270 S100 .J6", "call_num": "G7270 S100 .J6 14TA194", "recid": "rd796hk8947", "websiteUrl": "https://purl.stanford.edu/rd796hk8947", "title": "西伯利十万分一圖", "ckey": 12732964, "available": true, "iiifUrl": "https://purl.stanford.edu/rd796hk8947/iiif/manifest" }, "geometry": { "type": "Polygon", "coordinates": [ [ [ 110.0, 52.0000003 ], [ 110.5, 52.0000003 ], [ 110.5, 52.3333336 ], [ 110.0, 52.3333336 ], [ 110.0, 52.0000003 ] ] ] } },
{ "type": "Feature", "properties": { "Id": 0, "Sheet_ID": "バルン・ウリドゥルガ", "label": "バルン・ウリドゥルガ", "call_short": "0", "call_num": "0", "recid": "0", "websiteUrl": "0", "title": "0", "ckey": 0, "available": false, "iiifUrl": "0" }, "geometry": { "type": "Polygon", "coordinates": [ [ [ 110.5, 52.0000003 ], [ 111.0, 52.0000003 ], [ 111.0, 52.3333336 ], [ 110.5, 52.3333336 ], [ 110.5, 52.0000003 ] ] ] } },
{ "type": "Feature", "properties": { "Id": 0, "Sheet_ID": "フウダック", "label": "フウダック", "call_short": "0", "call_num": "0", "recid": "0", "websiteUrl": "0", "title": "0", "ckey": 0, "available": false, "iiifUrl": "0" }, "geometry": { "type": "Polygon", "coordinates": [ [ [ 109.5, 52.3333336 ], [ 110.0, 52.3333336 ], [ 110.0, 52.666667 ], [ 109.5, 52.666667 ], [ 109.5, 52.3333336 ] ] ] } },
{ "type": "Feature", "properties": { "Id": 0, "Sheet_ID": "ブルゥン・アシャンガ", "label": "ブルゥン・アシャンガ", "call_short": "0", "call_num": "0", "recid": "0", "websiteUrl": "0", "title": "0", "ckey": 0, "available": false, "iiifUrl": "0" }, "geometry": { "type": "Polygon", "coordinates": [ [ [ 110.0, 52.3333336 ], [ 110.5, 52.3333336 ], [ 110.5, 52.666667 ], [ 110.0, 52.666667 ], [ 110.0, 52.3333336 ] ] ] } },
{ "type": "Feature", "properties": { "Id": 0, "Sheet_ID": "ポペレチノエ", "label": "ポペレチノエ", "call_short": "0", "call_num": "0", "recid": "0", "websiteUrl": "0", "title": "0", "ckey": 0, "available": false, "iiifUrl": "0" }, "geometry": { "type": "Polygon", "coordinates": [ [ [ 110.5, 52.3333336 ], [ 111.0, 52.3333336 ], [ 111.0, 52.666667 ], [ 110.5, 52.666667 ], [ 110.5, 52.3333336 ] ] ] } }
]
}
