{
"type": "FeatureCollection",
"name": "index_map",
"xy_coordinate_resolution": 1e-07,
"features": [
{ "type": "Feature", "properties": { "Id": 0, "Sheet_ID": "6. 満洲中部 - 沿海州", "label": "6. 満洲中部 - 沿海州", "call_short": "G7323 .K5P6 S1000 .J3", "call_num": "G7323 .K5P6 S1000 .J3 SHEET 6", "recid": "cv862kb1136", "websiteUrl": "https://purl.stanford.edu/cv862kb1136", "title": "百万分一圖", "ckey": 10652573, "available": true, "iiifUrl": "https://purl.stanford.edu/cv862kb1136/iiif/manifest" }, "geometry": { "type": "Polygon", "coordinates": [ [ [ 121.0, 41.583333 ], [ 133.0, 41.583333 ], [ 133.666667, 47.833333 ], [ 120.333333, 47.833333 ], [ 121.0, 41.583333 ] ] ] } },
{ "type": "Feature", "properties": { "Id": 0, "Sheet_ID": "8. ハバロフスク地方 - 滿洲東北部", "label": "8. ハバロフスク地方 - 滿洲東北部", "call_short": "G7323 .K5P6 S1000 .J3", "call_num": "G7323 .K5P6 S1000 .J3 SHEET 8", "recid": "nr357ph7571", "websiteUrl": "https://purl.stanford.edu/nr357ph7571", "title": "百万分一圖", "ckey": 10652573, "available": true, "iiifUrl": "https://purl.stanford.edu/nr357ph7571/iiif/manifest" }, "geometry": { "type": "Polygon", "coordinates": [ [ [ 127.333333, 47.416667 ], [ 136.666667, 47.416667 ], [ 137.666667, 56.333333 ], [ 126.333333, 56.333333 ], [ 127.333333, 47.416667 ] ] ] } }
]
}
