{
"type": "FeatureCollection",
"name": "index_map",
"xy_coordinate_resolution": 1e-07,
"features": [
{ "type": "Feature", "properties": { "Id": 0, "Sheet_ID": "25號. オホーツク - ヴェルホヤンスク", "label": "25號. オホーツク - ヴェルホヤンスク", "call_short": "G7800 S2000 .J3", "call_num": "G7800 S2000 .J3 SHEET 25", "recid": "sh421br2501", "websiteUrl": "https://purl.stanford.edu/sh421br2501", "title": "二百万分一大東亞航空圖", "ckey": 10556445, "available": true, "iiifUrl": "https://purl.stanford.edu/sh421br2501/iiif/manifest" }, "geometry": { "type": "Polygon", "coordinates": [ [ [ 132.0, 58.0 ], [ 148.0, 58.0 ], [ 148.0, 68.0 ], [ 132.0, 68.0 ], [ 132.0, 58.0 ] ] ] } },
{ "type": "Feature", "properties": { "Id": 0, "Sheet_ID": "17號. ギジガ - マガダン", "label": "17號. ギジガ - マガダン", "call_short": "G7800 S2000 .J3", "call_num": "G7800 S2000 .J3 SHEET 17", "recid": "xm525rr3223", "websiteUrl": "https://purl.stanford.edu/xm525rr3223", "title": "二百万分一大東亞航空圖", "ckey": 10556445, "available": true, "iiifUrl": "https://purl.stanford.edu/xm525rr3223/iiif/manifest" }, "geometry": { "type": "Polygon", "coordinates": [ [ [ 146.0, 58.0 ], [ 162.0, 58.0 ], [ 162.0, 68.0 ], [ 146.0, 68.0 ], [ 146.0, 58.0 ] ] ] } },
{ "type": "Feature", "properties": { "Id": 0, "Sheet_ID": "9號. オリュトルスコエ", "label": "9號. オリュトルスコエ", "call_short": "G7800 S2000 .J3", "call_num": "G7800 S2000 .J3 SHEET 9", "recid": "yq949sc3183", "websiteUrl": "https://purl.stanford.edu/yq949sc3183", "title": "二百万分一大東亞航空圖", "ckey": 10556445, "available": true, "iiifUrl": "https://purl.stanford.edu/yq949sc3183/iiif/manifest" }, "geometry": { "type": "Polygon", "coordinates": [ [ [ 160.0, 58.0 ], [ 176.0, 58.0 ], [ 176.0, 68.0 ], [ 160.0, 68.0 ], [ 160.0, 58.0 ] ] ] } },
{ "type": "Feature", "properties": { "Id": 0, "Sheet_ID": "1號. アナドィリ - チゥコト半島 / アナドィリ", "label": "1號. アナドィリ - チゥコト半島 / アナドィリ", "call_short": "0", "call_num": "0", "recid": "0", "websiteUrl": "0", "title": "0", "ckey": 0, "available": false, "iiifUrl": "0" }, "geometry": { "type": "MultiPolygon", "coordinates": [ [ [ [ -170.0, 58.0 ], [ -170.0, 68.0 ], [ -180.0, 68.0 ], [ -180.0, 58.0 ], [ -170.0, 58.0 ] ] ], [ [ [ 180.0, 58.0 ], [ 180.0, 68.0 ], [ 174.0, 68.0 ], [ 174.0, 58.0 ], [ 180.0, 58.0 ] ] ] ] } },
{ "type": "Feature", "properties": { "Id": 0, "Sheet_ID": "東1號. ベーリング海峽", "label": "東1號. ベーリング海峽", "call_short": "G7800 S2000 .J3", "call_num": "G7800 S2000 .J3 SHEET E-1", "recid": "ss572ng0259", "websiteUrl": "https://purl.stanford.edu/ss572ng0259", "title": "二百万分一大東亞航空圖", "ckey": 10556445, "available": true, "iiifUrl": "https://purl.stanford.edu/ss572ng0259/iiif/manifest" }, "geometry": { "type": "Polygon", "coordinates": [ [ [ -172.0, 58.0 ], [ -156.0, 58.0 ], [ -156.0, 68.0 ], [ -172.0, 68.0 ], [ -172.0, 58.0 ] ] ] } },
{ "type": "Feature", "properties": { "Id": 0, "Sheet_ID": "東7號. フェヤバンクス - アンカレッヂ", "label": "東7號. フェヤバンクス - アンカレッヂ", "call_short": "G7800 S2000 .J3", "call_num": "G7800 S2000 .J3 SHEET E-7", "recid": "mw264hh2205", "websiteUrl": "https://purl.stanford.edu/mw264hh2205", "title": "二百万分一大東亞航空圖", "ckey": 10556445, "available": true, "iiifUrl": "https://purl.stanford.edu/mw264hh2205/iiif/manifest" }, "geometry": { "type": "Polygon", "coordinates": [ [ [ -158.0, 58.0 ], [ -142.0, 58.0 ], [ -142.0, 68.0 ], [ -158.0, 68.0 ], [ -158.0, 58.0 ] ] ] } },
{ "type": "Feature", "properties": { "Id": 0, "Sheet_ID": "東13號. ホワイトホース - ドーソン", "label": "東13號. ホワイトホース - ドーソン", "call_short": "G7800 S2000 .J3", "call_num": "G7800 S2000 .J3 SHEET E-13", "recid": "mc867sb1400", "websiteUrl": "https://purl.stanford.edu/mc867sb1400", "title": "二百万分一大東亞航空圖", "ckey": 10556445, "available": true, "iiifUrl": "https://purl.stanford.edu/mc867sb1400/iiif/manifest" }, "geometry": { "type": "Polygon", "coordinates": [ [ [ -144.0, 58.0 ], [ -128.0, 58.0 ], [ -128.0, 68.0 ], [ -144.0, 68.0 ], [ -144.0, 58.0 ] ] ] } },
{ "type": "Feature", "properties": { "Id": 0, "Sheet_ID": "東18號. 大ベーア湖", "label": "東18號. 大ベーア湖", "call_short": "G7800 S2000 .J3", "call_num": "G7800 S2000 .J3 SHEET E-18", "recid": "xd196qn2759", "websiteUrl": "https://purl.stanford.edu/xd196qn2759", "title": "二百万分一大東亞航空圖", "ckey": 10556445, "available": true, "iiifUrl": "https://purl.stanford.edu/xd196qn2759/iiif/manifest" }, "geometry": { "type": "Polygon", "coordinates": [ [ [ -130.0, 58.0 ], [ -114.0, 58.0 ], [ -114.0, 68.0 ], [ -130.0, 68.0 ], [ -130.0, 58.0 ] ] ] } },
{ "type": "Feature", "properties": { "Id": 0, "Sheet_ID": "10號. アリューシャン列島西部 - カムチャツカ半島東部", "label": "10號. アリューシャン列島西部 - カムチャツカ半島東部", "call_short": "G7800 S2000 .J3", "call_num": "G7800 S2000 .J3 SHEET 10", "recid": "gx802mf0089", "websiteUrl": "https://purl.stanford.edu/gx802mf0089", "title": "二百万分一大東亞航空圖", "ckey": 10556445, "available": true, "iiifUrl": "https://purl.stanford.edu/gx802mf0089/iiif/manifest" }, "geometry": { "type": "Polygon", "coordinates": [ [ [ 160.0, 47.0 ], [ 176.0, 47.0 ], [ 176.0, 60.0 ], [ 160.0, 60.0 ], [ 160.0, 47.0 ] ] ] } },
{ "type": "Feature", "properties": { "Id": 0, "Sheet_ID": "東2號. アラスカ西南部 - アリューシャン列島東部", "label": "東2號. アラスカ西南部 - アリューシャン列島東部", "call_short": "G7800 S2000 .J3", "call_num": "G7800 S2000 .J3 SHEET E-2", "recid": "xh899tj1899", "websiteUrl": "https://purl.stanford.edu/xh899tj1899", "title": "二百万分一大東亞航空圖", "ckey": 10556445, "available": true, "iiifUrl": "https://purl.stanford.edu/xh899tj1899/iiif/manifest" }, "geometry": { "type": "Polygon", "coordinates": [ [ [ -172.0, 47.0 ], [ -156.0, 47.0 ], [ -156.0, 60.0 ], [ -172.0, 60.0 ], [ -172.0, 47.0 ] ] ] } },
{ "type": "Feature", "properties": { "Id": 0, "Sheet_ID": "2號. アリューシャン列島中部", "label": "2號. アリューシャン列島中部", "call_short": "G7800 S2000 .J3", "call_num": "G7800 S2000 .J3 SHEET 2", "recid": "jb931cc8409", "websiteUrl": "https://purl.stanford.edu/jb931cc8409", "title": "二百万分一大東亞航空圖", "ckey": 10556445, "available": true, "iiifUrl": "https://purl.stanford.edu/jb931cc8409/iiif/manifest" }, "geometry": { "type": "MultiPolygon", "coordinates": [ [ [ [ -170.0, 47.0 ], [ -170.0, 60.0 ], [ -180.0, 60.0 ], [ -180.0, 47.0 ], [ -170.0, 47.0 ] ] ], [ [ [ 180.0, 47.0 ], [ 180.0, 60.0 ], [ 174.0, 60.0 ], [ 174.0, 47.0 ], [ 180.0, 47.0 ] ] ] ] } },
{ "type": "Feature", "properties": { "Id": 0, "Sheet_ID": "東8號. コジャツク島", "label": "東8號. コジャツク島", "call_short": "G7800 S2000 .J3", "call_num": "G7800 S2000 .J3 SHEET E-8", "recid": "nd819xb5686", "websiteUrl": "https://purl.stanford.edu/nd819xb5686", "title": "二百万分一大東亞航空圖", "ckey": 10556445, "available": true, "iiifUrl": "https://purl.stanford.edu/nd819xb5686/iiif/manifest" }, "geometry": { "type": "Polygon", "coordinates": [ [ [ -158.0, 47.0 ], [ -142.0, 47.0 ], [ -142.0, 60.0 ], [ -158.0, 60.0 ], [ -158.0, 47.0 ] ] ] } },
{ "type": "Feature", "properties": { "Id": 0, "Sheet_ID": "東14號. ジュノー - セントジェームス岬", "label": "東14號. ジュノー - セントジェームス岬", "call_short": "G7800 S2000 .J3", "call_num": "G7800 S2000 .J3 SHEET E-14", "recid": "gc869pd5703", "websiteUrl": "https://purl.stanford.edu/gc869pd5703", "title": "二百万分一大東亞航空圖", "ckey": 10556445, "available": true, "iiifUrl": "https://purl.stanford.edu/gc869pd5703/iiif/manifest" }, "geometry": { "type": "Polygon", "coordinates": [ [ [ -144.0, 47.0 ], [ -128.0, 47.0 ], [ -128.0, 60.0 ], [ -144.0, 60.0 ], [ -144.0, 47.0 ] ] ] } },
{ "type": "Feature", "properties": { "Id": 0, "Sheet_ID": "東19號. シヤトル - ヴァンクーヴァー - ハゼルトン", "label": "東19號. シヤトル - ヴァンクーヴァー - ハゼルトン", "call_short": "G7800 S2000 .J3", "call_num": "G7800 S2000 .J3 SHEET E-19", "recid": "qv856dk9785", "websiteUrl": "https://purl.stanford.edu/qv856dk9785", "title": "二百万分一大東亞航空圖", "ckey": 10556445, "available": true, "iiifUrl": "https://purl.stanford.edu/qv856dk9785/iiif/manifest" }, "geometry": { "type": "Polygon", "coordinates": [ [ [ -130.0, 47.0 ], [ -114.0, 47.0 ], [ -114.0, 60.0 ], [ -130.0, 60.0 ], [ -130.0, 47.0 ] ] ] } },
{ "type": "Feature", "properties": { "Id": 0, "Sheet_ID": "27號. 樺太南部 - 本州", "label": "27號. 樺太南部 - 本州", "call_short": "G7800 S2000 .J3", "call_num": "G7800 S2000 .J3 SHEET 27", "recid": "fh781gn7693", "websiteUrl": "https://purl.stanford.edu/fh781gn7693", "title": "二百万分一大東亞航空圖", "ckey": 10556445, "available": true, "iiifUrl": "https://purl.stanford.edu/fh781gn7693/iiif/manifest" }, "geometry": { "type": "Polygon", "coordinates": [ [ [ 132.0, 32.0 ], [ 148.0, 32.0 ], [ 148.0, 49.0 ], [ 132.0, 49.0 ], [ 132.0, 32.0 ] ] ] } },
{ "type": "Feature", "properties": { "Id": 0, "Sheet_ID": "35號. 日本西部 - 滿洲首部", "label": "35號. 日本西部 - 滿洲首部", "call_short": "G7800 S2000 .J3", "call_num": "G7800 S2000 .J3 SHEET 35", "recid": "cp259kz1779", "websiteUrl": "https://purl.stanford.edu/cp259kz1779", "title": "二百万分一大東亞航空圖", "ckey": 10556445, "available": true, "iiifUrl": "https://purl.stanford.edu/cp259kz1779/iiif/manifest" }, "geometry": { "type": "Polygon", "coordinates": [ [ [ 118.0, 32.0 ], [ 134.0, 32.0 ], [ 134.0, 49.0 ], [ 118.0, 49.0 ], [ 118.0, 32.0 ] ] ] } },
{ "type": "Feature", "properties": { "Id": 0, "Sheet_ID": "42號. 北京 - 西安 - 庫倫", "label": "42號. 北京 - 西安 - 庫倫", "call_short": "G7800 S2000 .J3", "call_num": "G7800 S2000 .J3 SHEET 42", "recid": "mq358xj2906", "websiteUrl": "https://purl.stanford.edu/mq358xj2906", "title": "二百万分一大東亞航空圖", "ckey": 10556445, "available": true, "iiifUrl": "https://purl.stanford.edu/mq358xj2906/iiif/manifest" }, "geometry": { "type": "Polygon", "coordinates": [ [ [ 104.0, 32.0 ], [ 120.0, 32.0 ], [ 120.0, 49.0 ], [ 104.0, 49.0 ], [ 104.0, 32.0 ] ] ] } },
{ "type": "Feature", "properties": { "Id": 0, "Sheet_ID": "49號. 蘭州 - 哈密", "label": "49號. 蘭州 - 哈密", "call_short": "0", "call_num": "0", "recid": "0", "websiteUrl": "0", "title": "0", "ckey": 0, "available": false, "iiifUrl": "0" }, "geometry": { "type": "Polygon", "coordinates": [ [ [ 90.0, 32.0 ], [ 106.0, 32.0 ], [ 106.0, 49.0 ], [ 90.0, 49.0 ], [ 90.0, 32.0 ] ] ] } },
{ "type": "Feature", "properties": { "Id": 0, "Sheet_ID": "28號. 四國南部 - 小笠原諸島 - マリアナ諸島", "label": "28號. 四國南部 - 小笠原諸島 - マリアナ諸島", "call_short": "G7800 S2000 .J3", "call_num": "G7800 S2000 .J3 SHEET 28", "recid": "zp675ng2572", "websiteUrl": "https://purl.stanford.edu/zp675ng2572", "title": "二百万分一大東亞航空圖", "ckey": 10556445, "available": true, "iiifUrl": "https://purl.stanford.edu/zp675ng2572/iiif/manifest" }, "geometry": { "type": "Polygon", "coordinates": [ [ [ 132.0, 14.0 ], [ 148.0, 14.0 ], [ 148.0, 34.0 ], [ 132.0, 34.0 ], [ 132.0, 14.0 ] ] ] } },
{ "type": "Feature", "properties": { "Id": 0, "Sheet_ID": "36號. 福岡 - 南京 - マニラ", "label": "36號. 福岡 - 南京 - マニラ", "call_short": "G7800 S2000 .J3", "call_num": "G7800 S2000 .J3 SHEET 36", "recid": "rx248dt0383", "websiteUrl": "https://purl.stanford.edu/rx248dt0383", "title": "二百万分一大東亞航空圖", "ckey": 10556445, "available": true, "iiifUrl": "https://purl.stanford.edu/rx248dt0383/iiif/manifest" }, "geometry": { "type": "Polygon", "coordinates": [ [ [ 118.0, 14.0 ], [ 134.0, 14.0 ], [ 134.0, 34.0 ], [ 118.0, 34.0 ], [ 118.0, 14.0 ] ] ] } },
{ "type": "Feature", "properties": { "Id": 0, "Sheet_ID": "43號. 南京 - 重慶 - 海南島", "label": "43號. 南京 - 重慶 - 海南島", "call_short": "G7800 S2000 .J3", "call_num": "G7800 S2000 .J3 SHEET 43", "recid": "km105jp6211", "websiteUrl": "https://purl.stanford.edu/km105jp6211", "title": "二百万分一大東亞航空圖", "ckey": 10556445, "available": true, "iiifUrl": "https://purl.stanford.edu/km105jp6211/iiif/manifest" }, "geometry": { "type": "Polygon", "coordinates": [ [ [ 104.0, 14.0 ], [ 120.0, 14.0 ], [ 120.0, 34.0 ], [ 104.0, 34.0 ], [ 104.0, 14.0 ] ] ] } },
{ "type": "Feature", "properties": { "Id": 0, "Sheet_ID": "50號. 成都 - マンダレー - ラングーン", "label": "50號. 成都 - マンダレー - ラングーン", "call_short": "0", "call_num": "0", "recid": "0", "websiteUrl": "0", "title": "0", "ckey": 0, "available": false, "iiifUrl": "0" }, "geometry": { "type": "Polygon", "coordinates": [ [ [ 90.0, 14.0 ], [ 106.0, 14.0 ], [ 106.0, 34.0 ], [ 90.0, 34.0 ], [ 90.0, 14.0 ] ] ] } },
{ "type": "Feature", "properties": { "Id": 0, "Sheet_ID": "20號. 中ノ鳥島 - 南鳥島", "label": "20號. 中ノ鳥島 - 南鳥島", "call_short": "0", "call_num": "0", "recid": "0", "websiteUrl": "0", "title": "0", "ckey": 0, "available": false, "iiifUrl": "0" }, "geometry": { "type": "Polygon", "coordinates": [ [ [ 146.0, 14.0 ], [ 162.0, 14.0 ], [ 162.0, 34.0 ], [ 146.0, 34.0 ], [ 146.0, 14.0 ] ] ] } },
{ "type": "Feature", "properties": { "Id": 0, "Sheet_ID": "29號. サイパン - パラオ - パプア北部", "label": "29號. サイパン - パラオ - パプア北部", "call_short": "G7800 S2000 .J3", "call_num": "G7800 S2000 .J3 SHEET 29", "recid": "pz444tx2918", "websiteUrl": "https://purl.stanford.edu/pz444tx2918", "title": "二百万分一大東亞航空圖", "ckey": 10556445, "available": true, "iiifUrl": "https://purl.stanford.edu/pz444tx2918/iiif/manifest" }, "geometry": { "type": "Polygon", "coordinates": [ [ [ 132.0, -6.0 ], [ 148.0, -6.0 ], [ 148.0, 16.0 ], [ 132.0, 16.0 ], [ 132.0, -6.0 ] ] ] } },
{ "type": "Feature", "properties": { "Id": 0, "Sheet_ID": "37號. マニラ - ダヴァオ - マカッサル", "label": "37號. マニラ - ダヴァオ - マカッサル", "call_short": "G7800 S2000 .J3", "call_num": "G7800 S2000 .J3 SHEET 37", "recid": "kq534xp1775", "websiteUrl": "https://purl.stanford.edu/kq534xp1775", "title": "二百万分一大東亞航空圖", "ckey": 10556445, "available": true, "iiifUrl": "https://purl.stanford.edu/kq534xp1775/iiif/manifest" }, "geometry": { "type": "Polygon", "coordinates": [ [ [ 118.0, -6.0 ], [ 134.0, -6.0 ], [ 134.0, 16.0 ], [ 118.0, 16.0 ], [ 118.0, -6.0 ] ] ] } },
{ "type": "Feature", "properties": { "Id": 0, "Sheet_ID": "44號. 佛印南部 - ボルネオ", "label": "44號. 佛印南部 - ボルネオ", "call_short": "G7800 S2000 .J3", "call_num": "G7800 S2000 .J3 SHEET 44", "recid": "mj498ry0979", "websiteUrl": "https://purl.stanford.edu/mj498ry0979", "title": "二百万分一大東亞航空圖", "ckey": 10556445, "available": true, "iiifUrl": "https://purl.stanford.edu/mj498ry0979/iiif/manifest" }, "geometry": { "type": "Polygon", "coordinates": [ [ [ 104.0, -6.0 ], [ 120.0, -6.0 ], [ 120.0, 16.0 ], [ 104.0, 16.0 ], [ 104.0, -6.0 ] ] ] } },
{ "type": "Feature", "properties": { "Id": 0, "Sheet_ID": "51號. バンコク - 昭南 - パレンバン", "label": "51號. バンコク - 昭南 - パレンバン", "call_short": "0", "call_num": "0", "recid": "0", "websiteUrl": "0", "title": "0", "ckey": 0, "available": false, "iiifUrl": "0" }, "geometry": { "type": "Polygon", "coordinates": [ [ [ 90.0, -6.0 ], [ 106.0, -6.0 ], [ 106.0, 16.0 ], [ 90.0, 16.0 ], [ 90.0, -6.0 ] ] ] } },
{ "type": "Feature", "properties": { "Id": 0, "Sheet_ID": "21號. ポナペ島 - トラック諸島 - ビスマルク群島", "label": "21號. ポナペ島 - トラック諸島 - ビスマルク群島", "call_short": "0", "call_num": "0", "recid": "0", "websiteUrl": "0", "title": "0", "ckey": 0, "available": false, "iiifUrl": "0" }, "geometry": { "type": "Polygon", "coordinates": [ [ [ 146.0, -6.0 ], [ 162.0, -6.0 ], [ 162.0, 16.0 ], [ 146.0, 16.0 ], [ 146.0, -6.0 ] ] ] } },
{ "type": "Feature", "properties": { "Id": 0, "Sheet_ID": "13號. マーシャル諸島", "label": "13號. マーシャル諸島", "call_short": "0", "call_num": "0", "recid": "0", "websiteUrl": "0", "title": "0", "ckey": 0, "available": false, "iiifUrl": "0" }, "geometry": { "type": "Polygon", "coordinates": [ [ [ 160.0, -6.0 ], [ 176.0, -6.0 ], [ 176.0, 16.0 ], [ 160.0, 16.0 ], [ 160.0, -6.0 ] ] ] } },
{ "type": "Feature", "properties": { "Id": 0, "Sheet_ID": "30號. パプア南部 - 濠洲北部", "label": "30號. パプア南部 - 濠洲北部", "call_short": "0", "call_num": "0", "recid": "0", "websiteUrl": "0", "title": "0", "ckey": 0, "available": false, "iiifUrl": "0" }, "geometry": { "type": "Polygon", "coordinates": [ [ [ 132.0, -25.0 ], [ 148.0, -25.0 ], [ 148.0, -4.0 ], [ 132.0, -4.0 ], [ 132.0, -25.0 ] ] ] } },
{ "type": "Feature", "properties": { "Id": 0, "Sheet_ID": "38號. セレベス南部 - 濠洲西北部", "label": "38號. セレベス南部 - 濠洲西北部", "call_short": "0", "call_num": "0", "recid": "0", "websiteUrl": "0", "title": "0", "ckey": 0, "available": false, "iiifUrl": "0" }, "geometry": { "type": "Polygon", "coordinates": [ [ [ 118.0, -25.0 ], [ 134.0, -25.0 ], [ 134.0, -4.0 ], [ 118.0, -4.0 ], [ 118.0, -25.0 ] ] ] } },
{ "type": "Feature", "properties": { "Id": 0, "Sheet_ID": "45號. ジャワ - 濠洲西北部", "label": "45號. ジャワ - 濠洲西北部", "call_short": "G7800 S2000 .J3", "call_num": "G7800 S2000 .J3 SHEET 45", "recid": "bb892zz5420", "websiteUrl": "https://purl.stanford.edu/bb892zz5420", "title": "二百万分一大東亞航空圖", "ckey": 10556445, "available": true, "iiifUrl": "https://purl.stanford.edu/bb892zz5420/iiif/manifest" }, "geometry": { "type": "Polygon", "coordinates": [ [ [ 104.0, -4.0 ], [ 104.0, -25.0 ], [ 120.0, -25.0 ], [ 120.0, -4.0 ], [ 104.0, -4.0 ] ] ] } },
{ "type": "Feature", "properties": { "Id": 0, "Sheet_ID": "22號. ソロモン諸島 - 濠洲東北部", "label": "22號. ソロモン諸島 - 濠洲東北部", "call_short": "0", "call_num": "0", "recid": "0", "websiteUrl": "0", "title": "0", "ckey": 0, "available": false, "iiifUrl": "0" }, "geometry": { "type": "Polygon", "coordinates": [ [ [ 146.0, -25.0 ], [ 162.0, -25.0 ], [ 162.0, -4.0 ], [ 146.0, -4.0 ], [ 146.0, -25.0 ] ] ] } },
{ "type": "Feature", "properties": { "Id": 0, "Sheet_ID": "14號. サンタクルーズ諸島 - ニューカレドニア島", "label": "14號. サンタクルーズ諸島 - ニューカレドニア島", "call_short": "0", "call_num": "0", "recid": "0", "websiteUrl": "0", "title": "0", "ckey": 0, "available": false, "iiifUrl": "0" }, "geometry": { "type": "Polygon", "coordinates": [ [ [ 160.0, -25.0 ], [ 176.0, -25.0 ], [ 176.0, -4.0 ], [ 160.0, -4.0 ], [ 160.0, -25.0 ] ] ] } },
{ "type": "Feature", "properties": { "Id": 0, "Sheet_ID": "6號. 西サモア諸島 - フィヂー諸島", "label": "6號. 西サモア諸島 - フィヂー諸島", "call_short": "0", "call_num": "0", "recid": "0", "websiteUrl": "0", "title": "0", "ckey": 0, "available": false, "iiifUrl": "0" }, "geometry": { "type": "MultiPolygon", "coordinates": [ [ [ [ -170.0, -4.0 ], [ -180.0, -4.0 ], [ -180.0, -25.0 ], [ -170.0, -25.0 ], [ -170.0, -4.0 ] ] ], [ [ [ 180.0, -4.0 ], [ 174.0, -4.0 ], [ 174.0, -25.0 ], [ 180.0, -25.0 ], [ 180.0, -4.0 ] ] ] ] } }
]
}
