{"type":"FeatureCollection","features":[{"type":"Feature","properties":{"Id":0,"Sheet_ID":"SHEET 72","label":"SHEET 72","call_short":"","call_num":"","recid":"","websiteUrl":"","title":"","ckey":0,"web_map":"","available":"false","iiiUrl":""},"geometry":{"bbox":[101,5,102,6.000000000000001],"type":"Polygon","coordinates":[[[101,5],[101,6.000000000000001],[102,6.000000000000001],[102,5],[101,5]]]}},{"type":"Feature","properties":{"Id":0,"Sheet_ID":"SHEET 68","label":"SHEET 68","call_short":"G8025 S200 .J3","call_num":"G8025 S200 .J3 SHEET 68","recid":"fd809xj4785","websiteUrl":"https://purl.stanford.edu/fd809xj4785","title":"タイ國二十万分一圖","ckey":8003289,"web_map":"","available":"true","iiiUrl":"https://purl.stanford.edu/fd809xj4785/iiif/manifest"},"geometry":{"bbox":[99,6.000000000000001,100,7],"type":"Polygon","coordinates":[[[99,6.000000000000001],[99,7],[100,7],[100,6.000000000000001],[99,6.000000000000001]]]}},{"type":"Feature","properties":{"Id":0,"Sheet_ID":"SHEET 69","label":"SHEET 69","call_short":"","call_num":"","recid":"","websiteUrl":"","title":"","ckey":0,"web_map":"","available":"false","iiiUrl":""},"geometry":{"bbox":[100,6.000000000000001,101,7],"type":"Polygon","coordinates":[[[100,6.000000000000001],[100,7],[101,7],[101,6.000000000000001],[100,6.000000000000001]]]}},{"type":"Feature","properties":{"Id":0,"Sheet_ID":"SHEET 70","label":"SHEET 70","call_short":"G8025 S200 .J3","call_num":"G8025 S200 .J3 SHEET 70","recid":"wv091mv6538","websiteUrl":"https://purl.stanford.edu/wv091mv6538","title":"タイ國二十万分一圖","ckey":8003289,"web_map":"","available":"true","iiiUrl":"https://purl.stanford.edu/wv091mv6538/iiif/manifest"},"geometry":{"bbox":[101.00000000000006,6.000000000000114,102.116667,7.000000000000114],"type":"Polygon","coordinates":[[[101.00000000000006,6.000000000000114],[101.00000000000006,7.000000000000114],[102.116667,7.000000000000114],[102.116667,6.000000000000114],[101.00000000000006,6.000000000000114]]]}},{"type":"Feature","properties":{"Id":0,"Sheet_ID":"SHEET 65","label":"SHEET 65","call_short":"G8025 S200 .J3","call_num":"G8025 S200 .J3 SHEET 65","recid":"pz990zp6136","websiteUrl":"https://purl.stanford.edu/pz990zp6136","title":"タイ國二十万分一圖","ckey":8003289,"web_map":"","available":"true","iiiUrl":"https://purl.stanford.edu/pz990zp6136/iiif/manifest"},"geometry":{"bbox":[98,7,99,8],"type":"Polygon","coordinates":[[[98,7],[98,8],[99,8],[99,7],[98,7]]]}},{"type":"Feature","properties":{"Id":0,"Sheet_ID":"SHEET 66","label":"SHEET 66","call_short":"G8025 S200 .J3","call_num":"G8025 S200 .J3 SHEET 66","recid":"np755np3484","websiteUrl":"https://purl.stanford.edu/np755np3484","title":"タイ國二十万分一圖","ckey":8003289,"web_map":"","available":"true","iiiUrl":"https://purl.stanford.edu/np755np3484/iiif/manifest"},"geometry":{"bbox":[99,7,100,8],"type":"Polygon","coordinates":[[[99,7],[99,8],[100,8],[100,7],[99,7]]]}},{"type":"Feature","properties":{"Id":0,"Sheet_ID":"SHEET 67","label":"SHEET 67","call_short":"G8025 S200 .J3","call_num":"G8025 S200 .J3 SHEET 67","recid":"hq991vb2575","websiteUrl":"https://purl.stanford.edu/hq991vb2575","title":"タイ國二十万分一圖","ckey":8003289,"web_map":"","available":"true","iiiUrl":"https://purl.stanford.edu/hq991vb2575/iiif/manifest"},"geometry":{"bbox":[100,7,101,8],"type":"Polygon","coordinates":[[[100,7],[100,8],[101,8],[101,7],[100,7]]]}},{"type":"Feature","properties":{"Id":0,"Sheet_ID":"SHEET 62","label":"SHEET 62","call_short":"G8025 S200 .J3","call_num":"G8025 S200 .J3 SHEET 62","recid":"pv720rw1515","websiteUrl":"https://purl.stanford.edu/pv720rw1515","title":"タイ國二十万分一圖","ckey":8003289,"web_map":"","available":"true","iiiUrl":"https://purl.stanford.edu/pv720rw1515/iiif/manifest"},"geometry":{"bbox":[98,8,99,9],"type":"Polygon","coordinates":[[[98,8],[98,9],[99,9],[99,8],[98,8]]]}},{"type":"Feature","properties":{"Id":0,"Sheet_ID":"SHEET 63","label":"SHEET 63","call_short":"G8025 S200 .J3","call_num":"G8025 S200 .J3 SHEET 63","recid":"rq035wx2633","websiteUrl":"https://purl.stanford.edu/rq035wx2633","title":"タイ國二十万分一圖","ckey":8003289,"web_map":"","available":"true","iiiUrl":"https://purl.stanford.edu/rq035wx2633/iiif/manifest"},"geometry":{"bbox":[99,8,100,9],"type":"Polygon","coordinates":[[[99,8],[99,9],[100,9],[100,8],[99,8]]]}},{"type":"Feature","properties":{"Id":0,"Sheet_ID":"SHEET 64","label":"SHEET 64","call_short":"G8025 S200 .J3","call_num":"G8025 S200 .J3 SHEET 64","recid":"yh599zr9660","websiteUrl":"https://purl.stanford.edu/yh599zr9660","title":"タイ國二十万分一圖","ckey":8003289,"web_map":"","available":"true","iiiUrl":"https://purl.stanford.edu/yh599zr9660/iiif/manifest"},"geometry":{"bbox":[100,8,101,9],"type":"Polygon","coordinates":[[[100,8],[100,9],[101,9],[101,8],[100,8]]]}},{"type":"Feature","properties":{"Id":0,"Sheet_ID":"SHEET 60","label":"SHEET 60","call_short":"G8025 S200 .J3","call_num":"G8025 S200 .J3 SHEET 60","recid":"zm603ry3686","websiteUrl":"https://purl.stanford.edu/zm603ry3686","title":"タイ國二十万分一圖","ckey":8003289,"web_map":"","available":"true","iiiUrl":"https://purl.stanford.edu/zm603ry3686/iiif/manifest"},"geometry":{"bbox":[98,9,99,10],"type":"Polygon","coordinates":[[[98,9],[98,10],[99,10],[99,9],[98,9]]]}},{"type":"Feature","properties":{"Id":0,"Sheet_ID":"SHEET 61","label":"SHEET 61","call_short":"G8025 S200 .J3","call_num":"G8025 S200 .J3 SHEET 61","recid":"nj704yt9731","websiteUrl":"https://purl.stanford.edu/nj704yt9731","title":"タイ國二十万分一圖","ckey":8003289,"web_map":"","available":"true","iiiUrl":"https://purl.stanford.edu/nj704yt9731/iiif/manifest"},"geometry":{"bbox":[99,9,100,10],"type":"Polygon","coordinates":[[[99,9],[99,10],[100,10],[100,9],[99,9]]]}},{"type":"Feature","properties":{"Id":0,"Sheet_ID":"SHEET 58","label":"SHEET 58","call_short":"G8025 S200 .J3","call_num":"G8025 S200 .J3 SHEET 58","recid":"kg475yf3410","websiteUrl":"https://purl.stanford.edu/kg475yf3410","title":"タイ國二十万分一圖","ckey":8003289,"web_map":"","available":"true","iiiUrl":"https://purl.stanford.edu/kg475yf3410/iiif/manifest"},"geometry":{"bbox":[98,10,99,11],"type":"Polygon","coordinates":[[[98,10],[98,11],[99,11],[99,10],[98,10]]]}},{"type":"Feature","properties":{"Id":0,"Sheet_ID":"SHEET 59","label":"SHEET 59","call_short":"G8025 S200 .J3","call_num":"G8025 S200 .J3 SHEET 59","recid":"my683jx7241","websiteUrl":"https://purl.stanford.edu/my683jx7241","title":"タイ國二十万分一圖","ckey":8003289,"web_map":"","available":"true","iiiUrl":"https://purl.stanford.edu/my683jx7241/iiif/manifest"},"geometry":{"bbox":[99,10,100,11],"type":"Polygon","coordinates":[[[99,10],[99,11],[100,11],[100,10],[99,10]]]}},{"type":"Feature","properties":{"Id":0,"Sheet_ID":"SHEET 56","label":"SHEET 56","call_short":"","call_num":"","recid":"","websiteUrl":"","title":"","ckey":0,"web_map":"","available":"false","iiiUrl":""},"geometry":{"bbox":[99,11,100,12.000000000000002],"type":"Polygon","coordinates":[[[99,11],[99,12.000000000000002],[100,12.000000000000002],[100,11],[99,11]]]}},{"type":"Feature","properties":{"Id":0,"Sheet_ID":"SHEET 57","label":"SHEET 57","call_short":"G8025 S200 .J3","call_num":"G8025 S200 .J3 SHEET 57","recid":"ts147tr8096","websiteUrl":"https://purl.stanford.edu/ts147tr8096","title":"タイ國二十万分一圖","ckey":8003289,"web_map":"","available":"true","iiiUrl":"https://purl.stanford.edu/ts147tr8096/iiif/manifest"},"geometry":{"bbox":[102,11,103,12.000000000000002],"type":"Polygon","coordinates":[[[102,11],[102,12.000000000000002],[103,12.000000000000002],[103,11],[102,11]]]}},{"type":"Feature","properties":{"Id":0,"Sheet_ID":"SHEET 52","label":"SHEET 52","call_short":"G8025 S200 .J3","call_num":"G8025 S200 .J3 SHEET 52","recid":"qk046ty5574","websiteUrl":"https://purl.stanford.edu/qk046ty5574","title":"タイ國二十万分一圖","ckey":8003289,"web_map":"","available":"true","iiiUrl":"https://purl.stanford.edu/qk046ty5574/iiif/manifest"},"geometry":{"bbox":[99,12.000000000000002,100,13],"type":"Polygon","coordinates":[[[99,12.000000000000002],[99,13],[100,13],[100,12.000000000000002],[99,12.000000000000002]]]}},{"type":"Feature","properties":{"Id":0,"Sheet_ID":"SHEET 53","label":"SHEET 53","call_short":"G8025 S200 .J3","call_num":"G8025 S200 .J3 SHEET 53","recid":"fy668jx4931","websiteUrl":"https://purl.stanford.edu/fy668jx4931","title":"タイ國二十万分一圖","ckey":8003289,"web_map":"","available":"true","iiiUrl":"https://purl.stanford.edu/fy668jx4931/iiif/manifest"},"geometry":{"bbox":[100,12.000000000000002,101,13],"type":"Polygon","coordinates":[[[100,12.000000000000002],[100,13],[101,13],[101,12.000000000000002],[100,12.000000000000002]]]}},{"type":"Feature","properties":{"Id":0,"Sheet_ID":"SHEET 54","label":"SHEET 54","call_short":"G8025 S200 .J3","call_num":"G8025 S200 .J3 SHEET 54","recid":"wk265mc0521","websiteUrl":"https://purl.stanford.edu/wk265mc0521","title":"タイ國二十万分一圖","ckey":8003289,"web_map":"","available":"true","iiiUrl":"https://purl.stanford.edu/wk265mc0521/iiif/manifest"},"geometry":{"bbox":[101,12.000000000000002,102,13],"type":"Polygon","coordinates":[[[101,12.000000000000002],[101,13],[102,13],[102,12.000000000000002],[101,12.000000000000002]]]}},{"type":"Feature","properties":{"Id":0,"Sheet_ID":"SHEET 55","label":"SHEET 55","call_short":"G8025 S200 .J3","call_num":"G8025 S200 .J3 SHEET 55","recid":"fy199zh7501","websiteUrl":"https://purl.stanford.edu/fy199zh7501","title":"タイ國二十万分一圖","ckey":8003289,"web_map":"","available":"true","iiiUrl":"https://purl.stanford.edu/fy199zh7501/iiif/manifest"},"geometry":{"bbox":[102,12.000000000000002,103,13],"type":"Polygon","coordinates":[[[102,12.000000000000002],[102,13],[103,13],[103,12.000000000000002],[102,12.000000000000002]]]}},{"type":"Feature","properties":{"Id":0,"Sheet_ID":"SHEET 48","label":"SHEET 48","call_short":"G8025 S200 .J3","call_num":"G8025 S200 .J3 SHEET 48","recid":"zv500sm9467","websiteUrl":"https://purl.stanford.edu/zv500sm9467","title":"タイ國二十万分一圖","ckey":8003289,"web_map":"","available":"true","iiiUrl":"https://purl.stanford.edu/zv500sm9467/iiif/manifest"},"geometry":{"bbox":[99,13,100,14],"type":"Polygon","coordinates":[[[99,13],[99,14],[100,14],[100,13],[99,13]]]}},{"type":"Feature","properties":{"Id":0,"Sheet_ID":"SHEET 49","label":"SHEET 49","call_short":"G8025 S200 .J3","call_num":"G8025 S200 .J3 SHEET 49","recid":"xd169nz5961","websiteUrl":"https://purl.stanford.edu/xd169nz5961","title":"タイ國二十万分一圖","ckey":8003289,"web_map":"","available":"true","iiiUrl":"https://purl.stanford.edu/xd169nz5961/iiif/manifest"},"geometry":{"bbox":[100,13,101,14],"type":"Polygon","coordinates":[[[100,13],[100,14],[101,14],[101,13],[100,13]]]}},{"type":"Feature","properties":{"Id":0,"Sheet_ID":"SHEET 50","label":"SHEET 50","call_short":"G8025 S200 .J3","call_num":"G8025 S200 .J3 SHEET 50","recid":"mm815jk5608","websiteUrl":"https://purl.stanford.edu/mm815jk5608","title":"タイ國二十万分一圖","ckey":8003289,"web_map":"","available":"true","iiiUrl":"https://purl.stanford.edu/mm815jk5608/iiif/manifest"},"geometry":{"bbox":[101,13,102,14],"type":"Polygon","coordinates":[[[101,13],[101,14],[102,14],[102,13],[101,13]]]}},{"type":"Feature","properties":{"Id":0,"Sheet_ID":"SHEET 51","label":"SHEET 51","call_short":"G8025 S200 .J3","call_num":"G8025 S200 .J3 SHEET 51","recid":"pz509hp6878","websiteUrl":"https://purl.stanford.edu/pz509hp6878","title":"タイ國二十万分一圖","ckey":8003289,"web_map":"","available":"true","iiiUrl":"https://purl.stanford.edu/pz509hp6878/iiif/manifest"},"geometry":{"bbox":[102,13,103,14],"type":"Polygon","coordinates":[[[102,13],[102,14],[103,14],[103,13],[102,13]]]}},{"type":"Feature","properties":{"Id":0,"Sheet_ID":"SHEET 40","label":"SHEET 40","call_short":"G8025 S200 .J3","call_num":"G8025 S200 .J3 SHEET 40","recid":"sq228hr4588","websiteUrl":"https://purl.stanford.edu/sq228hr4588","title":"タイ國二十万分一圖","ckey":8003289,"web_map":"","available":"true","iiiUrl":"https://purl.stanford.edu/sq228hr4588/iiif/manifest"},"geometry":{"bbox":[98,14,99,14.999999999999998],"type":"Polygon","coordinates":[[[98,14],[98,14.999999999999998],[99,14.999999999999998],[99,14],[98,14]]]}},{"type":"Feature","properties":{"Id":0,"Sheet_ID":"SHEET 41","label":"SHEET 41","call_short":"G8025 S200 .J3","call_num":"G8025 S200 .J3 SHEET 41","recid":"tq920gt2032","websiteUrl":"https://purl.stanford.edu/tq920gt2032","title":"タイ國二十万分一圖","ckey":8003289,"web_map":"","available":"true","iiiUrl":"https://purl.stanford.edu/tq920gt2032/iiif/manifest"},"geometry":{"bbox":[99,14,100,14.999999999999998],"type":"Polygon","coordinates":[[[99,14],[99,14.999999999999998],[100,14.999999999999998],[100,14],[99,14]]]}},{"type":"Feature","properties":{"Id":0,"Sheet_ID":"SHEET 42","label":"SHEET 42","call_short":"G8025 S200 .J3","call_num":"G8025 S200 .J3 SHEET 42","recid":"kj319mg7834","websiteUrl":"https://purl.stanford.edu/kj319mg7834","title":"タイ國二十万分一圖","ckey":8003289,"web_map":"","available":"true","iiiUrl":"https://purl.stanford.edu/kj319mg7834/iiif/manifest"},"geometry":{"bbox":[100,14,101,14.999999999999998],"type":"Polygon","coordinates":[[[100,14],[100,14.999999999999998],[101,14.999999999999998],[101,14],[100,14]]]}},{"type":"Feature","properties":{"Id":0,"Sheet_ID":"SHEET 43","label":"SHEET 43","call_short":"G8025 S200 .J3","call_num":"G8025 S200 .J3 SHEET 43","recid":"fr893mk8980","websiteUrl":"https://purl.stanford.edu/fr893mk8980","title":"タイ國二十万分一圖","ckey":8003289,"web_map":"","available":"true","iiiUrl":"https://purl.stanford.edu/fr893mk8980/iiif/manifest"},"geometry":{"bbox":[101,14,102,14.999999999999998],"type":"Polygon","coordinates":[[[101,14],[101,14.999999999999998],[102,14.999999999999998],[102,14],[101,14]]]}},{"type":"Feature","properties":{"Id":0,"Sheet_ID":"SHEET 44","label":"SHEET 44","call_short":"G8025 S200 .J3","call_num":"G8025 S200 .J3 SHEET 44","recid":"dm269bg7777","websiteUrl":"https://purl.stanford.edu/dm269bg7777","title":"タイ國二十万分一圖","ckey":8003289,"web_map":"","available":"true","iiiUrl":"https://purl.stanford.edu/dm269bg7777/iiif/manifest"},"geometry":{"bbox":[102,14,103,14.999999999999998],"type":"Polygon","coordinates":[[[102,14],[102,14.999999999999998],[103,14.999999999999998],[103,14],[102,14]]]}},{"type":"Feature","properties":{"Id":0,"Sheet_ID":"SHEET 45","label":"SHEET 45","call_short":"G8025 S200 .J3","call_num":"G8025 S200 .J3 SHEET 45","recid":"jd940sg9936","websiteUrl":"https://purl.stanford.edu/jd940sg9936","title":"タイ國二十万分一圖","ckey":8003289,"web_map":"","available":"true","iiiUrl":"https://purl.stanford.edu/jd940sg9936/iiif/manifest"},"geometry":{"bbox":[103,14,104,14.999999999999998],"type":"Polygon","coordinates":[[[103,14],[103,14.999999999999998],[104,14.999999999999998],[104,14],[103,14]]]}},{"type":"Feature","properties":{"Id":0,"Sheet_ID":"SHEET 46","label":"SHEET 46","call_short":"G8025 S200 .J3","call_num":"G8025 S200 .J3 SHEET 46","recid":"wc726xj8169","websiteUrl":"https://purl.stanford.edu/wc726xj8169","title":"タイ國二十万分一圖","ckey":8003289,"web_map":"","available":"true","iiiUrl":"https://purl.stanford.edu/wc726xj8169/iiif/manifest"},"geometry":{"bbox":[104,14,105.00000000000001,14.999999999999998],"type":"Polygon","coordinates":[[[104,14],[104,14.999999999999998],[105.00000000000001,14.999999999999998],[105.00000000000001,14],[104,14]]]}},{"type":"Feature","properties":{"Id":0,"Sheet_ID":"SHEET 47","label":"SHEET 47","call_short":"G8025 S200 .J3","call_num":"G8025 S200 .J3 SHEET 47","recid":"tw954jw6039","websiteUrl":"https://purl.stanford.edu/tw954jw6039","title":"タイ國二十万分一圖","ckey":8003289,"web_map":"","available":"true","iiiUrl":"https://purl.stanford.edu/tw954jw6039/iiif/manifest"},"geometry":{"bbox":[105.00000000000001,14,106,14.999999999999998],"type":"Polygon","coordinates":[[[105.00000000000001,14],[105.00000000000001,14.999999999999998],[106,14.999999999999998],[106,14],[105.00000000000001,14]]]}},{"type":"Feature","properties":{"Id":0,"Sheet_ID":"SHEET 32","label":"SHEET 32","call_short":"","call_num":"","recid":"","websiteUrl":"","title":"","ckey":0,"web_map":"","available":"false","iiiUrl":""},"geometry":{"bbox":[98,14.999999999999998,99,16],"type":"Polygon","coordinates":[[[98,14.999999999999998],[98,16],[99,16],[99,14.999999999999998],[98,14.999999999999998]]]}},{"type":"Feature","properties":{"Id":0,"Sheet_ID":"SHEET 33","label":"SHEET 33","call_short":"G8025 S200 .J3","call_num":"G8025 S200 .J3 SHEET 33","recid":"hn674kj9277","websiteUrl":"https://purl.stanford.edu/hn674kj9277","title":"タイ國二十万分一圖","ckey":8003289,"web_map":"","available":"true","iiiUrl":"https://purl.stanford.edu/hn674kj9277/iiif/manifest"},"geometry":{"bbox":[99,14.999999999999998,100,16],"type":"Polygon","coordinates":[[[99,14.999999999999998],[99,16],[100,16],[100,14.999999999999998],[99,14.999999999999998]]]}},{"type":"Feature","properties":{"Id":0,"Sheet_ID":"SHEET 34","label":"SHEET 34","call_short":"G8025 S200 .J3","call_num":"G8025 S200 .J3 SHEET 34","recid":"zt335gf6919","websiteUrl":"https://purl.stanford.edu/zt335gf6919","title":"タイ國二十万分一圖","ckey":8003289,"web_map":"","available":"true","iiiUrl":"https://purl.stanford.edu/zt335gf6919/iiif/manifest"},"geometry":{"bbox":[100,14.999999999999998,101,16],"type":"Polygon","coordinates":[[[100,14.999999999999998],[100,16],[101,16],[101,14.999999999999998],[100,14.999999999999998]]]}},{"type":"Feature","properties":{"Id":0,"Sheet_ID":"SHEET 35","label":"SHEET 35","call_short":"G8025 S200 .J3","call_num":"G8025 S200 .J3 SHEET 35","recid":"df654np9303","websiteUrl":"https://purl.stanford.edu/df654np9303","title":"タイ國二十万分一圖","ckey":8003289,"web_map":"","available":"true","iiiUrl":"https://purl.stanford.edu/df654np9303/iiif/manifest"},"geometry":{"bbox":[101,14.999999999999998,102,16],"type":"Polygon","coordinates":[[[101,14.999999999999998],[101,16],[102,16],[102,14.999999999999998],[101,14.999999999999998]]]}},{"type":"Feature","properties":{"Id":0,"Sheet_ID":"SHEET 36","label":"SHEET 36","call_short":"G8025 S200 .J3","call_num":"G8025 S200 .J3 SHEET 36","recid":"vw761wf3626","websiteUrl":"https://purl.stanford.edu/vw761wf3626","title":"タイ國二十万分一圖","ckey":8003289,"web_map":"","available":"true","iiiUrl":"https://purl.stanford.edu/vw761wf3626/iiif/manifest"},"geometry":{"bbox":[102,14.999999999999998,103,16],"type":"Polygon","coordinates":[[[102,14.999999999999998],[102,16],[103,16],[103,14.999999999999998],[102,14.999999999999998]]]}},{"type":"Feature","properties":{"Id":0,"Sheet_ID":"SHEET 37","label":"SHEET 37","call_short":"G8025 S200 .J3","call_num":"G8025 S200 .J3 SHEET 37","recid":"yr353hn2243","websiteUrl":"https://purl.stanford.edu/yr353hn2243","title":"タイ國二十万分一圖","ckey":8003289,"web_map":"","available":"true","iiiUrl":"https://purl.stanford.edu/yr353hn2243/iiif/manifest"},"geometry":{"bbox":[103,14.999999999999998,104,16],"type":"Polygon","coordinates":[[[103,14.999999999999998],[103,16],[104,16],[104,14.999999999999998],[103,14.999999999999998]]]}},{"type":"Feature","properties":{"Id":0,"Sheet_ID":"SHEET 38","label":"SHEET 38","call_short":"G8025 S200 .J3","call_num":"G8025 S200 .J3 SHEET 38","recid":"db287rp0427","websiteUrl":"https://purl.stanford.edu/db287rp0427","title":"タイ國二十万分一圖","ckey":8003289,"web_map":"","available":"true","iiiUrl":"https://purl.stanford.edu/db287rp0427/iiif/manifest"},"geometry":{"bbox":[104,14.999999999999998,105.00000000000001,16],"type":"Polygon","coordinates":[[[104,14.999999999999998],[104,16],[105.00000000000001,16],[105.00000000000001,14.999999999999998],[104,14.999999999999998]]]}},{"type":"Feature","properties":{"Id":0,"Sheet_ID":"SHEET 39","label":"SHEET 39","call_short":"G8025 S200 .J3","call_num":"G8025 S200 .J3 SHEET 39","recid":"gj058rb1619","websiteUrl":"https://purl.stanford.edu/gj058rb1619","title":"タイ國二十万分一圖","ckey":8003289,"web_map":"","available":"true","iiiUrl":"https://purl.stanford.edu/gj058rb1619/iiif/manifest"},"geometry":{"bbox":[105.00000000000001,14.999999999999998,106,16],"type":"Polygon","coordinates":[[[105.00000000000001,14.999999999999998],[105.00000000000001,16],[106,16],[106,14.999999999999998],[105.00000000000001,14.999999999999998]]]}},{"type":"Feature","properties":{"Id":0,"Sheet_ID":"SHEET 24","label":"SHEET 24","call_short":"G8025 S200 .J3","call_num":"G8025 S200 .J3 SHEET 24","recid":"yx599jr4826","websiteUrl":"https://purl.stanford.edu/yx599jr4826","title":"タイ國二十万分一圖","ckey":8003289,"web_map":"","available":"true","iiiUrl":"https://purl.stanford.edu/yx599jr4826/iiif/manifest"},"geometry":{"bbox":[98,16,99,17],"type":"Polygon","coordinates":[[[98,16],[98,17],[99,17],[99,16],[98,16]]]}},{"type":"Feature","properties":{"Id":0,"Sheet_ID":"SHEET 25","label":"SHEET 25","call_short":"","call_num":"","recid":"","websiteUrl":"","title":"","ckey":0,"web_map":"","available":"false","iiiUrl":""},"geometry":{"bbox":[99,16,100,17],"type":"Polygon","coordinates":[[[99,16],[99,17],[100,17],[100,16],[99,16]]]}},{"type":"Feature","properties":{"Id":0,"Sheet_ID":"SHEET 26","label":"SHEET 26","call_short":"G8025 S200 .J3","call_num":"G8025 S200 .J3 SHEET 26","recid":"hb308jq7145","websiteUrl":"https://purl.stanford.edu/hb308jq7145","title":"タイ國二十万分一圖","ckey":8003289,"web_map":"","available":"true","iiiUrl":"https://purl.stanford.edu/hb308jq7145/iiif/manifest"},"geometry":{"bbox":[100,16,101,17],"type":"Polygon","coordinates":[[[100,16],[100,17],[101,17],[101,16],[100,16]]]}},{"type":"Feature","properties":{"Id":0,"Sheet_ID":"SHEET 27","label":"SHEET 27","call_short":"G8025 S200 .J3","call_num":"G8025 S200 .J3 SHEET 27","recid":"kt485gf7997","websiteUrl":"https://purl.stanford.edu/kt485gf7997","title":"タイ國二十万分一圖","ckey":8003289,"web_map":"","available":"true","iiiUrl":"https://purl.stanford.edu/kt485gf7997/iiif/manifest"},"geometry":{"bbox":[101,16,102,17],"type":"Polygon","coordinates":[[[101,16],[101,17],[102,17],[102,16],[101,16]]]}},{"type":"Feature","properties":{"Id":0,"Sheet_ID":"SHEET 28","label":"SHEET 28","call_short":"G8025 S200 .J3","call_num":"G8025 S200 .J3 SHEET 28","recid":"zr629rk4072","websiteUrl":"https://purl.stanford.edu/zr629rk4072","title":"タイ國二十万分一圖","ckey":8003289,"web_map":"","available":"true","iiiUrl":"https://purl.stanford.edu/zr629rk4072/iiif/manifest"},"geometry":{"bbox":[102,16,103,17],"type":"Polygon","coordinates":[[[102,16],[102,17],[103,17],[103,16],[102,16]]]}},{"type":"Feature","properties":{"Id":0,"Sheet_ID":"SHEET 29","label":"SHEET 29","call_short":"G8025 S200 .J3","call_num":"G8025 S200 .J3 SHEET 29","recid":"bk698pz7776","websiteUrl":"https://purl.stanford.edu/bk698pz7776","title":"タイ國二十万分一圖","ckey":8003289,"web_map":"","available":"true","iiiUrl":"https://purl.stanford.edu/bk698pz7776/iiif/manifest"},"geometry":{"bbox":[103,16,104,17],"type":"Polygon","coordinates":[[[103,16],[103,17],[104,17],[104,16],[103,16]]]}},{"type":"Feature","properties":{"Id":0,"Sheet_ID":"SHEET 30","label":"SHEET 30","call_short":"G8025 S200 .J3","call_num":"G8025 S200 .J3 SHEET 30","recid":"vd086zm5357","websiteUrl":"https://purl.stanford.edu/vd086zm5357","title":"タイ國二十万分一圖","ckey":8003289,"web_map":"","available":"true","iiiUrl":"https://purl.stanford.edu/vd086zm5357/iiif/manifest"},"geometry":{"bbox":[104,16,105.00000000000001,17],"type":"Polygon","coordinates":[[[104,16],[104,17],[105.00000000000001,17],[105.00000000000001,16],[104,16]]]}},{"type":"Feature","properties":{"Id":0,"Sheet_ID":"SHEET 31","label":"SHEET 31","call_short":"G8025 S200 .J3","call_num":"G8025 S200 .J3 SHEET 31","recid":"zp873qt9247","websiteUrl":"https://purl.stanford.edu/zp873qt9247","title":"タイ國二十万分一圖","ckey":8003289,"web_map":"","available":"true","iiiUrl":"https://purl.stanford.edu/zp873qt9247/iiif/manifest"},"geometry":{"bbox":[105.00000000000001,16,106,17],"type":"Polygon","coordinates":[[[105.00000000000001,16],[105.00000000000001,17],[106,17],[106,16],[105.00000000000001,16]]]}},{"type":"Feature","properties":{"Id":0,"Sheet_ID":"SHEET 16","label":"SHEET 16","call_short":"G8025 S200 .J3","call_num":"G8025 S200 .J3 SHEET 16","recid":"br401dn6251","websiteUrl":"https://purl.stanford.edu/br401dn6251","title":"タイ國二十万分一圖","ckey":8003289,"web_map":"","available":"true","iiiUrl":"https://purl.stanford.edu/br401dn6251/iiif/manifest"},"geometry":{"bbox":[97,17,98,18],"type":"Polygon","coordinates":[[[97,17],[97,18],[98,18],[98,17],[97,17]]]}},{"type":"Feature","properties":{"Id":0,"Sheet_ID":"SHEET 17","label":"SHEET 17","call_short":"G8025 S200 .J3","call_num":"G8025 S200 .J3 SHEET 17","recid":"kc682hv6506","websiteUrl":"https://purl.stanford.edu/kc682hv6506","title":"タイ國二十万分一圖","ckey":8003289,"web_map":"","available":"true","iiiUrl":"https://purl.stanford.edu/kc682hv6506/iiif/manifest"},"geometry":{"bbox":[98,17,99,18],"type":"Polygon","coordinates":[[[98,17],[98,18],[99,18],[99,17],[98,17]]]}},{"type":"Feature","properties":{"Id":0,"Sheet_ID":"SHEET 18","label":"SHEET 18","call_short":"G8025 S200 .J3","call_num":"G8025 S200 .J3 SHEET 18","recid":"rt395hz9597","websiteUrl":"https://purl.stanford.edu/rt395hz9597","title":"タイ國二十万分一圖","ckey":8003289,"web_map":"","available":"true","iiiUrl":"https://purl.stanford.edu/rt395hz9597/iiif/manifest"},"geometry":{"bbox":[99,17,100,18],"type":"Polygon","coordinates":[[[99,17],[99,18],[100,18],[100,17],[99,17]]]}},{"type":"Feature","properties":{"Id":0,"Sheet_ID":"SHEET 19","label":"SHEET 19","call_short":"G8025 S200 .J3","call_num":"G8025 S200 .J3 SHEET 19","recid":"zc310xn1257","websiteUrl":"https://purl.stanford.edu/zc310xn1257","title":"タイ國二十万分一圖","ckey":8003289,"web_map":"","available":"true","iiiUrl":"https://purl.stanford.edu/zc310xn1257/iiif/manifest"},"geometry":{"bbox":[100,17,101,18],"type":"Polygon","coordinates":[[[100,17],[100,18],[101,18],[101,17],[100,17]]]}},{"type":"Feature","properties":{"Id":0,"Sheet_ID":"SHEET 20","label":"SHEET 20","call_short":"G8025 S200 .J3","call_num":"G8025 S200 .J3 SHEET 20","recid":"nr729jd6664","websiteUrl":"https://purl.stanford.edu/nr729jd6664","title":"タイ國二十万分一圖","ckey":8003289,"web_map":"","available":"true","iiiUrl":"https://purl.stanford.edu/nr729jd6664/iiif/manifest"},"geometry":{"bbox":[101,17,102,18],"type":"Polygon","coordinates":[[[101,17],[101,18],[102,18],[102,17],[101,17]]]}},{"type":"Feature","properties":{"Id":0,"Sheet_ID":"SHEET 21","label":"SHEET 21","call_short":"G8025 S200 .J3","call_num":"G8025 S200 .J3 SHEET 21","recid":"gn683wb1547","websiteUrl":"https://purl.stanford.edu/gn683wb1547","title":"タイ國二十万分一圖","ckey":8003289,"web_map":"","available":"true","iiiUrl":"https://purl.stanford.edu/gn683wb1547/iiif/manifest"},"geometry":{"bbox":[102,17,103,18],"type":"Polygon","coordinates":[[[102,17],[102,18],[103,18],[103,17],[102,17]]]}},{"type":"Feature","properties":{"Id":0,"Sheet_ID":"SHEET 22","label":"SHEET 22","call_short":"","call_num":"","recid":"","websiteUrl":"","title":"","ckey":0,"web_map":"","available":"false","iiiUrl":""},"geometry":{"bbox":[103,17,104,18],"type":"Polygon","coordinates":[[[103,17],[103,18],[104,18],[104,17],[103,17]]]}},{"type":"Feature","properties":{"Id":0,"Sheet_ID":"SHEET 23","label":"SHEET 23","call_short":"G8025 S200 .J3","call_num":"G8025 S200 .J3 SHEET 23","recid":"zh028ct6358","websiteUrl":"https://purl.stanford.edu/zh028ct6358","title":"タイ國二十万分一圖","ckey":8003289,"web_map":"","available":"true","iiiUrl":"https://purl.stanford.edu/zh028ct6358/iiif/manifest"},"geometry":{"bbox":[104,17,105.00000000000001,18],"type":"Polygon","coordinates":[[[104,17],[104,18],[105.00000000000001,18],[105.00000000000001,17],[104,17]]]}},{"type":"Feature","properties":{"Id":0,"Sheet_ID":"SHEET 8","label":"SHEET 8","call_short":"G8025 S200 .J3","call_num":"G8025 S200 .J3 SHEET 8","recid":"vv936gq2536","websiteUrl":"https://purl.stanford.edu/vv936gq2536","title":"タイ國二十万分一圖","ckey":8003289,"web_map":"","available":"true","iiiUrl":"https://purl.stanford.edu/vv936gq2536/iiif/manifest"},"geometry":{"bbox":[97,18,98,19],"type":"Polygon","coordinates":[[[97,18],[97,19],[98,19],[98,18],[97,18]]]}},{"type":"Feature","properties":{"Id":0,"Sheet_ID":"SHEET 9","label":"SHEET 9","call_short":"G8025 S200 .J3","call_num":"G8025 S200 .J3 SHEET 9","recid":"vf894ff6021","websiteUrl":"https://purl.stanford.edu/vf894ff6021","title":"タイ國二十万分一圖","ckey":8003289,"web_map":"","available":"true","iiiUrl":"https://purl.stanford.edu/vf894ff6021/iiif/manifest"},"geometry":{"bbox":[98,18,99,19],"type":"Polygon","coordinates":[[[98,18],[98,19],[99,19],[99,18],[98,18]]]}},{"type":"Feature","properties":{"Id":0,"Sheet_ID":"SHEET 10","label":"SHEET 10","call_short":"G8025 S200 .J3","call_num":"G8025 S200 .J3 SHEET 10","recid":"sb514sr5864","websiteUrl":"https://purl.stanford.edu/sb514sr5864","title":"タイ國二十万分一圖","ckey":8003289,"web_map":"","available":"true","iiiUrl":"https://purl.stanford.edu/sb514sr5864/iiif/manifest"},"geometry":{"bbox":[99,18,100,19],"type":"Polygon","coordinates":[[[99,18],[99,19],[100,19],[100,18],[99,18]]]}},{"type":"Feature","properties":{"Id":0,"Sheet_ID":"SHEET 11","label":"SHEET 11","call_short":"G8025 S200 .J3","call_num":"G8025 S200 .J3 SHEET 11","recid":"xp707zq3048","websiteUrl":"https://purl.stanford.edu/xp707zq3048","title":"タイ國二十万分一圖","ckey":8003289,"web_map":"","available":"true","iiiUrl":"https://purl.stanford.edu/xp707zq3048/iiif/manifest"},"geometry":{"bbox":[100,18,101,19],"type":"Polygon","coordinates":[[[100,18],[100,19],[101,19],[101,18],[100,18]]]}},{"type":"Feature","properties":{"Id":0,"Sheet_ID":"SHEET 12","label":"SHEET 12","call_short":"G8025 S200 .J3","call_num":"G8025 S200 .J3 SHEET 12","recid":"bh723vq1635","websiteUrl":"https://purl.stanford.edu/bh723vq1635","title":"タイ國二十万分一圖","ckey":8003289,"web_map":"","available":"true","iiiUrl":"https://purl.stanford.edu/bh723vq1635/iiif/manifest"},"geometry":{"bbox":[101,18,102,19],"type":"Polygon","coordinates":[[[101,18],[101,19],[102,19],[102,18],[101,18]]]}},{"type":"Feature","properties":{"Id":0,"Sheet_ID":"SHEET 13","label":"SHEET 13","call_short":"G8025 S200 .J3","call_num":"G8025 S200 .J3 SHEET 13","recid":"vs864pk6867","websiteUrl":"https://purl.stanford.edu/vs864pk6867","title":"タイ國二十万分一圖","ckey":8003289,"web_map":"","available":"true","iiiUrl":"https://purl.stanford.edu/vs864pk6867/iiif/manifest"},"geometry":{"bbox":[102,18,103,19],"type":"Polygon","coordinates":[[[102,18],[102,19],[103,19],[103,18],[102,18]]]}},{"type":"Feature","properties":{"Id":0,"Sheet_ID":"SHEET 14","label":"SHEET 14","call_short":"G8025 S200 .J3","call_num":"G8025 S200 .J3 SHEET 14","recid":"vd233jd9967","websiteUrl":"https://purl.stanford.edu/vd233jd9967","title":"タイ國二十万分一圖","ckey":8003289,"web_map":"","available":"true","iiiUrl":"https://purl.stanford.edu/vd233jd9967/iiif/manifest"},"geometry":{"bbox":[103,18,104,19],"type":"Polygon","coordinates":[[[103,18],[103,19],[104,19],[104,18],[103,18]]]}},{"type":"Feature","properties":{"Id":0,"Sheet_ID":"SHEET 15","label":"SHEET 15","call_short":"G8025 S200 .J3","call_num":"G8025 S200 .J3 SHEET 15","recid":"xd915ck9747","websiteUrl":"https://purl.stanford.edu/xd915ck9747","title":"タイ國二十万分一圖","ckey":8003289,"web_map":"","available":"true","iiiUrl":"https://purl.stanford.edu/xd915ck9747/iiif/manifest"},"geometry":{"bbox":[104,18,105.00000000000001,19],"type":"Polygon","coordinates":[[[104,18],[104,19],[105.00000000000001,19],[105.00000000000001,18],[104,18]]]}},{"type":"Feature","properties":{"Id":0,"Sheet_ID":"SHEET 3","label":"SHEET 3","call_short":"G8025 S200 .J3","call_num":"G8025 S200 .J3 SHEET 3","recid":"ty200wr1890","websiteUrl":"https://purl.stanford.edu/ty200wr1890","title":"タイ國二十万分一圖","ckey":8003289,"web_map":"","available":"true","iiiUrl":"https://purl.stanford.edu/ty200wr1890/iiif/manifest"},"geometry":{"bbox":[97,19,98,20],"type":"Polygon","coordinates":[[[97,19],[97,20],[98,20],[98,19],[97,19]]]}},{"type":"Feature","properties":{"Id":0,"Sheet_ID":"SHEET 4","label":"SHEET 4","call_short":"G8025 S200 .J3","call_num":"G8025 S200 .J3 SHEET 4","recid":"yx428jv8614","websiteUrl":"https://purl.stanford.edu/yx428jv8614","title":"タイ國二十万分一圖","ckey":8003289,"web_map":"","available":"true","iiiUrl":"https://purl.stanford.edu/yx428jv8614/iiif/manifest"},"geometry":{"bbox":[98,19,99,20],"type":"Polygon","coordinates":[[[98,19],[98,20],[99,20],[99,19],[98,19]]]}},{"type":"Feature","properties":{"Id":0,"Sheet_ID":"SHEET 5","label":"SHEET 5","call_short":"","call_num":"","recid":"","websiteUrl":"","title":"","ckey":0,"web_map":"","available":"false","iiiUrl":""},"geometry":{"bbox":[99,19,100,20],"type":"Polygon","coordinates":[[[99,19],[99,20],[100,20],[100,19],[99,19]]]}},{"type":"Feature","properties":{"Id":0,"Sheet_ID":"SHEET 6","label":"SHEET 6","call_short":"G8025 S200 .J3","call_num":"G8025 S200 .J3 SHEET 6","recid":"ph814nc5790","websiteUrl":"https://purl.stanford.edu/ph814nc5790","title":"タイ國二十万分一圖","ckey":8003289,"web_map":"","available":"true","iiiUrl":"https://purl.stanford.edu/ph814nc5790/iiif/manifest"},"geometry":{"bbox":[100,19,101,20],"type":"Polygon","coordinates":[[[100,19],[100,20],[101,20],[101,19],[100,19]]]}},{"type":"Feature","properties":{"Id":0,"Sheet_ID":"SHEET 7","label":"SHEET 7","call_short":"G8025 S200 .J3","call_num":"G8025 S200 .J3 SHEET 7","recid":"vy691rp2065","websiteUrl":"https://purl.stanford.edu/vy691rp2065","title":"タイ國二十万分一圖","ckey":8003289,"web_map":"","available":"true","iiiUrl":"https://purl.stanford.edu/vy691rp2065/iiif/manifest"},"geometry":{"bbox":[101,19,102,20],"type":"Polygon","coordinates":[[[101,19],[101,20],[102,20],[102,19],[101,19]]]}},{"type":"Feature","properties":{"Id":0,"Sheet_ID":"SHEET 1","label":"SHEET 1","call_short":"","call_num":"","recid":"","websiteUrl":"","title":"","ckey":0,"web_map":"","available":"false","iiiUrl":""},"geometry":{"bbox":[99,20,100,21],"type":"Polygon","coordinates":[[[99,20],[99,21],[100,21],[100,20],[99,20]]]}},{"type":"Feature","properties":{"Id":0,"Sheet_ID":"SHEET 2","label":"SHEET 2","call_short":"G8025 S200 .J3","call_num":"G8025 S200 .J3 SHEET 2","recid":"sh292vg2620","websiteUrl":"https://purl.stanford.edu/sh292vg2620","title":"タイ國二十万分一圖","ckey":8003289,"web_map":"","available":"true","iiiUrl":"https://purl.stanford.edu/sh292vg2620/iiif/manifest"},"geometry":{"bbox":[100,20,101,21],"type":"Polygon","coordinates":[[[100,20],[100,21],[101,21],[101,20],[100,20]]]}}],"name":"index_8003289"}
