{
"type": "FeatureCollection",
"name": "index_map",
"features": [
{ "type": "Feature", "properties": { "Id": 0, "Sheet_ID": "25. 七站", "label": "25. 七站", "call_short": "G7823 .H292 S100 .J3", "call_num": "G7823 .H292 S100 .J3 SHEET 25", "recid": "hn135gv6836", "websiteUrl": "https://purl.stanford.edu/hn135gv6836", "title": "満洲十万分一圖 黒河及ブラゴウェシチェンスク", "ckey": 12375494, "available": true, "iiifUrl": "https://purl.stanford.edu/hn135gv6836/iiif/manifest" }, "geometry": { "type": "Polygon", "coordinates": [ [ [ 125.0, 50.0 ], [ 126.0, 50.0 ], [ 126.0, 50.6666666 ], [ 125.0, 50.6666666 ], [ 125.0, 50.0 ] ] ] } },
{ "type": "Feature", "properties": { "Id": 0, "Sheet_ID": "20. 五道溝", "label": "20. 五道溝", "call_short": null, "call_num": null, "recid": null, "websiteUrl": null, "title": null, "ckey": 0, "available": false, "iiifUrl": null }, "geometry": { "type": "Polygon", "coordinates": [ [ [ 126.0, 50.0 ], [ 127.0, 50.0 ], [ 127.0, 50.6666666 ], [ 126.0, 50.6666666 ], [ 126.0, 50.0 ] ] ] } },
{ "type": "Feature", "properties": { "Id": 0, "Sheet_ID": "15. 黒河", "label": "15. 黒河", "call_short": null, "call_num": null, "recid": null, "websiteUrl": null, "title": null, "ckey": 0, "available": false, "iiifUrl": null }, "geometry": { "type": "Polygon", "coordinates": [ [ [ 127.0, 50.0 ], [ 128.0, 50.0 ], [ 128.0, 50.6666666 ], [ 127.0, 50.6666666 ], [ 127.0, 50.0 ] ] ] } },
{ "type": "Feature", "properties": { "Id": 0, "Sheet_ID": "10. タムボフカ", "label": "10. タムボフカ", "call_short": "G7823 .H292 S100 .J3", "call_num": "G7823 .H292 S100 .J3 SHEET 10", "recid": "yv200hb2356", "websiteUrl": "https://purl.stanford.edu/yv200hb2356", "title": "西伯利十万分一圖 黒河及ブラゴウェシチェンスク", "ckey": 12375494, "available": true, "iiifUrl": "https://purl.stanford.edu/yv200hb2356/iiif/manifest" }, "geometry": { "type": "Polygon", "coordinates": [ [ [ 128.0, 50.0 ], [ 129.0, 50.0 ], [ 129.0, 50.6666666 ], [ 128.0, 50.6666666 ], [ 128.0, 50.0 ] ] ] } },
{ "type": "Feature", "properties": { "Id": 0, "Sheet_ID": "5. ザウィタヤ", "label": "5. ザウィタヤ", "call_short": "G7823 .H292 S100 .J3", "call_num": "G7823 .H292 S100 .J3 SHEET 5", "recid": "jj409dt8802", "websiteUrl": "https://purl.stanford.edu/jj409dt8802", "title": "西伯利十万分一圖 黒河及ブラゴウェシチェンスク", "ckey": 12375494, "available": true, "iiifUrl": "https://purl.stanford.edu/jj409dt8802/iiif/manifest" }, "geometry": { "type": "Polygon", "coordinates": [ [ [ 129.0, 50.0 ], [ 130.0, 50.0 ], [ 130.0, 50.6666666 ], [ 129.0, 50.6666666 ], [ 129.0, 50.0 ] ] ] } },
{ "type": "Feature", "properties": { "Id": 0, "Sheet_ID": "24. 十站", "label": "24. 十站", "call_short": "G7823 .H292 S100 .J3", "call_num": "G7823 .H292 S100 .J3 SHEET 24", "recid": "pd711jn4755", "websiteUrl": "https://purl.stanford.edu/pd711jn4755", "title": "満洲十万分一圖 黒河及ブラゴウェシチェンスク", "ckey": 12375494, "available": true, "iiifUrl": "https://purl.stanford.edu/pd711jn4755/iiif/manifest" }, "geometry": { "type": "Polygon", "coordinates": [ [ [ 125.0, 50.6666666 ], [ 126.0, 50.6666666 ], [ 126.0, 51.3333332 ], [ 125.0, 51.3333332 ], [ 125.0, 50.6666666 ] ] ] } },
{ "type": "Feature", "properties": { "Id": 0, "Sheet_ID": "19. 三道卡", "label": "19. 三道卡", "call_short": "G7823 .H292 S100 .J3", "call_num": "G7823 .H292 S100 .J3 SHEET 19", "recid": "tq709zf4576", "websiteUrl": "https://purl.stanford.edu/tq709zf4576", "title": "満洲及西伯利十万分一圖 黒河及ブラゴウェシチェンスク", "ckey": 12375494, "available": true, "iiifUrl": "https://purl.stanford.edu/tq709zf4576/iiif/manifest" }, "geometry": { "type": "Polygon", "coordinates": [ [ [ 126.0, 50.6666666 ], [ 127.0, 50.6666666 ], [ 127.0, 51.3333332 ], [ 126.0, 51.3333332 ], [ 126.0, 50.6666666 ] ] ] } },
{ "type": "Feature", "properties": { "Id": 0, "Sheet_ID": "14. アンドレーエフカ", "label": "14. アンドレーエフカ", "call_short": null, "call_num": null, "recid": null, "websiteUrl": null, "title": null, "ckey": 0, "available": false, "iiifUrl": null }, "geometry": { "type": "Polygon", "coordinates": [ [ [ 127.0, 50.6666666 ], [ 128.0, 50.6666666 ], [ 128.0, 51.3333332 ], [ 127.0, 51.3333332 ], [ 127.0, 50.6666666 ] ] ] } },
{ "type": "Feature", "properties": { "Id": 0, "Sheet_ID": "9. クイブィシェフ", "label": "9. クイブィシェフ", "call_short": "G7823 .H292 S100 .J3", "call_num": "G7823 .H292 S100 .J3 SHEET 9", "recid": "pj099jz4059", "websiteUrl": "https://purl.stanford.edu/pj099jz4059", "title": "西伯利十万分一圖 黒河及ブラゴウェシチェンスク", "ckey": 12375494, "available": true, "iiifUrl": "https://purl.stanford.edu/pj099jz4059/iiif/manifest" }, "geometry": { "type": "Polygon", "coordinates": [ [ [ 128.0, 50.6666666 ], [ 129.0, 50.6666666 ], [ 129.0, 51.3333332 ], [ 128.0, 51.3333332 ], [ 128.0, 50.6666666 ] ] ] } },
{ "type": "Feature", "properties": { "Id": 0, "Sheet_ID": "4. トルバガタイ", "label": "4. トルバガタイ", "call_short": "G7823 .H292 S100 .J3", "call_num": "G7823 .H292 S100 .J3 SHEET 4", "recid": "py425nx2869", "websiteUrl": "https://purl.stanford.edu/py425nx2869", "title": "西伯利十万分一圖 黒河及ブラゴウェシチェンスク", "ckey": 12375494, "available": true, "iiifUrl": "https://purl.stanford.edu/py425nx2869/iiif/manifest" }, "geometry": { "type": "Polygon", "coordinates": [ [ [ 129.0, 50.6666666 ], [ 130.0, 50.6666666 ], [ 130.0, 51.3333332 ], [ 129.0, 51.3333332 ], [ 129.0, 50.6666666 ] ] ] } },
{ "type": "Feature", "properties": { "Id": 0, "Sheet_ID": "23. 興隆溝", "label": "23. 興隆溝", "call_short": "G7823 .H292 S100 .J3", "call_num": "G7823 .H292 S100 .J3 SHEET 23", "recid": "xz306sh1056", "websiteUrl": "https://purl.stanford.edu/xz306sh1056", "title": "満洲十万分一圖 黒河及ブラゴウェシチェンスク", "ckey": 12375494, "available": true, "iiifUrl": "https://purl.stanford.edu/xz306sh1056/iiif/manifest" }, "geometry": { "type": "Polygon", "coordinates": [ [ [ 125.0, 51.3333332 ], [ 126.0, 51.3333332 ], [ 126.0, 51.9999998 ], [ 125.0, 51.9999998 ], [ 125.0, 51.3333332 ] ] ] } },
{ "type": "Feature", "properties": { "Id": 0, "Sheet_ID": "18. 呼瑪", "label": "18. 呼瑪", "call_short": null, "call_num": null, "recid": null, "websiteUrl": null, "title": null, "ckey": 0, "available": false, "iiifUrl": null }, "geometry": { "type": "Polygon", "coordinates": [ [ [ 126.0, 51.3333332 ], [ 127.0, 51.3333332 ], [ 127.0, 51.9999998 ], [ 126.0, 51.9999998 ], [ 126.0, 51.3333332 ] ] ] } },
{ "type": "Feature", "properties": { "Id": 0, "Sheet_ID": "13. セレクタン", "label": "13. セレクタン", "call_short": "G7823 .H292 S100 .J3", "call_num": "G7823 .H292 S100 .J3 SHEET 13", "recid": "md185td3749", "websiteUrl": "https://purl.stanford.edu/md185td3749", "title": "西伯利十万分一圖 黒河及ブラゴウェシチェンスク", "ckey": 12375494, "available": true, "iiifUrl": "https://purl.stanford.edu/md185td3749/iiif/manifest" }, "geometry": { "type": "Polygon", "coordinates": [ [ [ 127.0, 51.3333332 ], [ 128.0, 51.3333332 ], [ 128.0, 51.9999998 ], [ 127.0, 51.9999998 ], [ 127.0, 51.3333332 ] ] ] } },
{ "type": "Feature", "properties": { "Id": 0, "Sheet_ID": "8. アレクセーフスク", "label": "8. アレクセーフスク", "call_short": "G7823 .H292 S100 .J3", "call_num": "G7823 .H292 S100 .J3 SHEET 8", "recid": "dg249zp4242", "websiteUrl": "https://purl.stanford.edu/dg249zp4242", "title": "西伯利十万分一圖 黒河及ブラゴウェシチェンスク", "ckey": 12375494, "available": true, "iiifUrl": "https://purl.stanford.edu/dg249zp4242/iiif/manifest" }, "geometry": { "type": "Polygon", "coordinates": [ [ [ 128.0, 51.3333332 ], [ 129.0, 51.3333332 ], [ 129.0, 51.9999998 ], [ 128.0, 51.9999998 ], [ 128.0, 51.3333332 ] ] ] } },
{ "type": "Feature", "properties": { "Id": 0, "Sheet_ID": "3. ウゴローワヤ / ボゴスロフカ", "label": "3. ウゴローワヤ / ボゴスロフカ", "call_short": null, "call_num": null, "recid": null, "websiteUrl": null, "title": null, "ckey": 0, "available": false, "iiifUrl": null }, "geometry": { "type": "Polygon", "coordinates": [ [ [ 129.0, 51.3333332 ], [ 130.0, 51.3333332 ], [ 130.0, 51.9999998 ], [ 129.0, 51.9999998 ], [ 129.0, 51.3333332 ] ] ] } },
{ "type": "Feature", "properties": { "Id": 0, "Sheet_ID": "22. 譚宝山", "label": "22. 譚宝山", "call_short": null, "call_num": null, "recid": null, "websiteUrl": null, "title": null, "ckey": 0, "available": false, "iiifUrl": null }, "geometry": { "type": "Polygon", "coordinates": [ [ [ 125.0, 51.9999998 ], [ 126.0, 51.9999998 ], [ 126.0, 52.6666664 ], [ 125.0, 52.6666664 ], [ 125.0, 51.9999998 ] ] ] } },
{ "type": "Feature", "properties": { "Id": 0, "Sheet_ID": "17. シワキ", "label": "17. シワキ", "call_short": "G7823 .H292 S100 .J3", "call_num": "G7823 .H292 S100 .J3 SHEET 17", "recid": "zm443gd8130", "websiteUrl": "https://purl.stanford.edu/zm443gd8130", "title": "満洲及西伯利十万分一圖 黒河及ブラゴウェシチェンスク", "ckey": 12375494, "available": true, "iiifUrl": "https://purl.stanford.edu/zm443gd8130/iiif/manifest" }, "geometry": { "type": "Polygon", "coordinates": [ [ [ 126.0, 51.9999998 ], [ 127.0, 51.9999998 ], [ 127.0, 52.6666664 ], [ 126.0, 52.6666664 ], [ 126.0, 51.9999998 ] ] ] } },
{ "type": "Feature", "properties": { "Id": 0, "Sheet_ID": "12. ガンダチ", "label": "12. ガンダチ", "call_short": "G7823 .H292 S100 .J3", "call_num": "G7823 .H292 S100 .J3 SHEET 12", "recid": "xn352wh7836", "websiteUrl": "https://purl.stanford.edu/xn352wh7836", "title": "西伯利十万分一圖 黒河及ブラゴウェシチェンスク", "ckey": 12375494, "available": true, "iiifUrl": "https://purl.stanford.edu/xn352wh7836/iiif/manifest" }, "geometry": { "type": "Polygon", "coordinates": [ [ [ 127.0, 51.9999998 ], [ 128.0, 51.9999998 ], [ 128.0, 52.6666664 ], [ 127.0, 52.6666664 ], [ 127.0, 51.9999998 ] ] ] } },
{ "type": "Feature", "properties": { "Id": 0, "Sheet_ID": "7. クフテーリン", "label": "7. クフテーリン", "call_short": null, "call_num": null, "recid": null, "websiteUrl": null, "title": null, "ckey": 0, "available": false, "iiifUrl": null }, "geometry": { "type": "Polygon", "coordinates": [ [ [ 128.0, 51.9999998 ], [ 129.0, 51.9999998 ], [ 129.0, 52.6666664 ], [ 128.0, 52.6666664 ], [ 128.0, 51.9999998 ] ] ] } },
{ "type": "Feature", "properties": { "Id": 0, "Sheet_ID": "2. メヅェーヅカ", "label": "2. メヅェーヅカ", "call_short": null, "call_num": null, "recid": null, "websiteUrl": null, "title": null, "ckey": 0, "available": false, "iiifUrl": null }, "geometry": { "type": "Polygon", "coordinates": [ [ [ 129.0, 51.9999998 ], [ 130.0, 51.9999998 ], [ 130.0, 52.6666664 ], [ 129.0, 52.6666664 ], [ 129.0, 51.9999998 ] ] ] } },
{ "type": "Feature", "properties": { "Id": 0, "Sheet_ID": "21. オリギーン", "label": "21. オリギーン", "call_short": "G7823 .H292 S100 .J3", "call_num": "G7823 .H292 S100 .J3 SHEET 21", "recid": "yf048sk4341", "websiteUrl": "https://purl.stanford.edu/yf048sk4341", "title": "満洲及西伯利十万分一圖 黒河及ブラゴウェシチェンスク", "ckey": 12375494, "available": true, "iiifUrl": "https://purl.stanford.edu/yf048sk4341/iiif/manifest" }, "geometry": { "type": "Polygon", "coordinates": [ [ [ 125.0, 52.6666664 ], [ 126.0, 52.6666664 ], [ 126.0, 53.333333 ], [ 125.0, 53.333333 ], [ 125.0, 52.6666664 ] ] ] } },
{ "type": "Feature", "properties": { "Id": 0, "Sheet_ID": "16. ウシュムン", "label": "16. ウシュムン", "call_short": "G7823 .H292 S100 .J3", "call_num": "G7823 .H292 S100 .J3 SHEET 16", "recid": "pm318bz2412", "websiteUrl": "https://purl.stanford.edu/pm318bz2412", "title": "満洲及西伯利十万分一圖 黒河及ブラゴウェシチェンスク", "ckey": 12375494, "available": true, "iiifUrl": "https://purl.stanford.edu/pm318bz2412/iiif/manifest" }, "geometry": { "type": "Polygon", "coordinates": [ [ [ 126.0, 52.6666664 ], [ 127.0, 52.6666664 ], [ 127.0, 53.333333 ], [ 126.0, 53.333333 ], [ 126.0, 52.6666664 ] ] ] } },
{ "type": "Feature", "properties": { "Id": 0, "Sheet_ID": "11. ステパノーワ", "label": "11. ステパノーワ", "call_short": "G7823 .H292 S100 .J3", "call_num": "G7823 .H292 S100 .J3 SHEET 11", "recid": "pq498pv5980", "websiteUrl": "https://purl.stanford.edu/pq498pv5980", "title": "西伯利十万分一圖 黒河及ブラゴウェシチェンスク", "ckey": 12375494, "available": true, "iiifUrl": "https://purl.stanford.edu/pq498pv5980/iiif/manifest" }, "geometry": { "type": "Polygon", "coordinates": [ [ [ 127.0, 52.6666664 ], [ 128.0, 52.6666664 ], [ 128.0, 53.333333 ], [ 127.0, 53.333333 ], [ 127.0, 52.6666664 ] ] ] } },
{ "type": "Feature", "properties": { "Id": 0, "Sheet_ID": "6. 十七號", "label": "6. 十七號", "call_short": null, "call_num": null, "recid": null, "websiteUrl": null, "title": null, "ckey": 0, "available": false, "iiifUrl": null }, "geometry": { "type": "Polygon", "coordinates": [ [ [ 128.0, 52.6666664 ], [ 129.0, 52.6666664 ], [ 129.0, 53.333333 ], [ 128.0, 53.333333 ], [ 128.0, 52.6666664 ] ] ] } },
{ "type": "Feature", "properties": { "Id": 0, "Sheet_ID": "1. コロレーワ坑?", "label": "1. コロレーワ坑?", "call_short": null, "call_num": null, "recid": null, "websiteUrl": null, "title": null, "ckey": 0, "available": false, "iiifUrl": null }, "geometry": { "type": "Polygon", "coordinates": [ [ [ 130.0, 52.6666664 ], [ 130.0, 53.333333 ], [ 129.0, 53.333333 ], [ 129.0, 52.6666664 ], [ 130.0, 52.6666664 ] ] ] } },
{ "type": "Feature", "properties": { "Id": 0, "Sheet_ID": "5. ザウィタヤ ED.2", "label": "5. ザウィタヤ ED.2", "call_short": "G7823 .H292 S100 .J3", "call_num": "G7823 .H292 S100 .J3 SHEET 5 ED.2", "recid": "ry283cq5938", "websiteUrl": "https://purl.stanford.edu/ry283cq5938", "title": "西伯利十万分一圖 黒河及ブラゴウェシチェンスク", "ckey": 12375494, "available": true, "iiifUrl": "https://purl.stanford.edu/ry283cq5938/iiif/manifest" }, "geometry": { "type": "Polygon", "coordinates": [ [ [ 129.0, 50.0 ], [ 130.0, 50.0 ], [ 130.0, 50.6666666 ], [ 129.0, 50.6666666 ], [ 129.0, 50.0 ] ] ] } },
{ "type": "Feature", "properties": { "Id": 0, "Sheet_ID": "9. クイブィシェフ ED.2", "label": "9. クイブィシェフ ED.2", "call_short": "G7823 .H292 S100 .J3", "call_num": "G7823 .H292 S100 .J3 SHEET 9 ED.2", "recid": "by848fs0954", "websiteUrl": "https://purl.stanford.edu/by848fs0954", "title": "西伯利十万分一圖 黒河及ブラゴウェシチェンスク", "ckey": 12375494, "available": true, "iiifUrl": "https://purl.stanford.edu/by848fs0954/iiif/manifest" }, "geometry": { "type": "Polygon", "coordinates": [ [ [ 128.0, 50.6666666 ], [ 129.0, 50.6666666 ], [ 129.0, 51.3333332 ], [ 128.0, 51.3333332 ], [ 128.0, 50.6666666 ] ] ] } },
{ "type": "Feature", "properties": { "Id": 0, "Sheet_ID": "10. タムボフカ ED.2", "label": "10. タムボフカ ED.2", "call_short": "G7823 .H292 S100 .J3", "call_num": "G7823 .H292 S100 .J3 SHEET 10 ED.2", "recid": "zs591mn5701", "websiteUrl": "https://purl.stanford.edu/zs591mn5701", "title": "西伯利十万分一圖 黒河及ブラゴウェシチェンスク", "ckey": 12375494, "available": true, "iiifUrl": "https://purl.stanford.edu/zs591mn5701/iiif/manifest" }, "geometry": { "type": "Polygon", "coordinates": [ [ [ 128.0, 50.0 ], [ 129.0, 50.0 ], [ 129.0, 50.6666666 ], [ 128.0, 50.6666666 ], [ 128.0, 50.0 ] ] ] } },
{ "type": "Feature", "properties": { "Id": 0, "Sheet_ID": "16. ウシュムン ED.2", "label": "16. ウシュムン ED.2", "call_short": "G7823 .H292 S100 .J3", "call_num": "G7823 .H292 S100 .J3 SHEET 16 ED.2", "recid": "rh631vw0636", "websiteUrl": "https://purl.stanford.edu/rh631vw0636", "title": "満洲及西伯利十万分一圖 黒河及ブラゴウェシチェンスク", "ckey": 12375494, "available": true, "iiifUrl": "https://purl.stanford.edu/rh631vw0636/iiif/manifest" }, "geometry": { "type": "Polygon", "coordinates": [ [ [ 126.0, 52.6666664 ], [ 127.0, 52.6666664 ], [ 127.0, 53.333333 ], [ 126.0, 53.333333 ], [ 126.0, 52.6666664 ] ] ] } }
]
}
