{"type":"FeatureCollection","features":[{"type":"Feature","properties":{"Id":0,"Sheet_ID":"壹六ト504","label":"壹六ト504","call_short":"G7720 S500 .J3","call_num":"G7720 S500 .J3 16TO504","recid":"ty124dx4297","websiteUrl":"https://purl.stanford.edu/ty124dx4297","title":"佛印緬甸五十万分一圖","ckey":10651247,"web_map":"","available":"true","iiiUrl":"https://purl.stanford.edu/ty124dx4297/iiif/manifest"},"geometry":{"bbox":[100,20,102.5,21.666667000000004],"type":"Polygon","coordinates":[[[100,20],[100,21.666667000000004],[102.5,21.666667000000004],[102.5,20],[100,20]]]}}],"name":"index_10651247"}
