{"type":"FeatureCollection","features":[{"type":"Feature","properties":{"Id":0,"Sheet_ID":"サイパン島","label":"サイパン島","call_short":"G9412 .S3 S100 .J3","call_num":"G9412 .S3 S100 .J3","recid":"gc640vh9797","websiteUrl":"https://purl.stanford.edu/gc640vh9797","title":"サイパン島 / 十万分一圖マリアナ諸島","ckey":10652528,"web_map":"","available":"true","iiifUrl":"https://purl.stanford.edu/gc640vh9797/iiif/manifest"},"geometry":{"bbox":[145.433333,14.733333000000002,145.95,15.416667],"type":"Polygon","coordinates":[[[145.433333,14.733333000000002],[145.433333,15.416667],[145.95,15.416667],[145.95,14.733333000000002],[145.433333,14.733333000000002]]]}}],"name":"index_10652528"}
