{
"type": "FeatureCollection",
"name": "index_map",
"xy_coordinate_resolution": 1e-07,
"features": [
{ "type": "Feature", "properties": { "Sheet_ID": "幌筵島 16", "label": "幌筵島 16", "call_short": "G7340 S50 .J36", "call_num": "G7340 S50 .J36 D-16", "recid": "pk939vz4538", "websiteUrl": "https://purl.stanford.edu/pk939vz4538", "title": "五万分一地形図 千島列島", "ckey": 9714174, "available": true, "iiifUrl": "https://purl.stanford.edu/pk939vz4538/iiif/manifest" }, "geometry": { "type": "Polygon", "coordinates": [ [ [ 155.002778, 50.0 ], [ 155.252778, 50.0 ], [ 155.252778, 50.1666667 ], [ 155.002778, 50.1666667 ], [ 155.002778, 50.0 ] ] ] } },
{ "type": "Feature", "properties": { "Sheet_ID": "幌筵島 12", "label": "幌筵島 12", "call_short": "G7340 S50 .J36", "call_num": "G7340 S50 .J36 D-12", "recid": "ty347dv9138", "websiteUrl": "https://purl.stanford.edu/ty347dv9138", "title": "五万分一地形図 千島列島", "ckey": 9714174, "available": true, "iiifUrl": "https://purl.stanford.edu/ty347dv9138/iiif/manifest" }, "geometry": { "type": "Polygon", "coordinates": [ [ [ 155.252778, 50.0 ], [ 155.502778, 50.0 ], [ 155.502778, 50.1666667 ], [ 155.252778, 50.1666667 ], [ 155.252778, 50.0 ] ] ] } },
{ "type": "Feature", "properties": { "Sheet_ID": "幌筵島 8", "label": "幌筵島 8", "call_short": "G7340 S50 .J36", "call_num": "G7340 S50 .J36 D-8", "recid": "bt371bh7036", "websiteUrl": "https://purl.stanford.edu/bt371bh7036", "title": "五万分一地形図 千島列島", "ckey": 9714174, "available": true, "iiifUrl": "https://purl.stanford.edu/bt371bh7036/iiif/manifest" }, "geometry": { "type": "Polygon", "coordinates": [ [ [ 155.502778, 49.983333 ], [ 155.752778, 49.983333 ], [ 155.752778, 50.1666667 ], [ 155.502778, 50.1666667 ], [ 155.502778, 49.983333 ] ] ] } },
{ "type": "Feature", "properties": { "Sheet_ID": "幌筵島 15 西部", "label": "幌筵島 15 西部", "call_short": "G7340 S50 .J36", "call_num": "G7340 S50 .J36 D-15 W", "recid": "bk228mk6916", "websiteUrl": "https://purl.stanford.edu/bk228mk6916", "title": "五万分一地形図 千島列島", "ckey": 9714174, "available": true, "iiifUrl": "https://purl.stanford.edu/bk228mk6916/iiif/manifest" }, "geometry": { "type": "Polygon", "coordinates": [ [ [ 154.752778, 50.1666667 ], [ 155.002778, 50.1666667 ], [ 155.002778, 50.3333333 ], [ 154.752778, 50.3333333 ], [ 154.752778, 50.1666667 ] ] ] } },
{ "type": "Feature", "properties": { "Sheet_ID": "幌筵島 15", "label": "幌筵島 15", "call_short": "G7340 S50 .J36", "call_num": "G7340 S50 .J36 D-15", "recid": "nn337xf9041", "websiteUrl": "https://purl.stanford.edu/nn337xf9041", "title": "五万分一地形図 千島列島", "ckey": 9714174, "available": true, "iiifUrl": "https://purl.stanford.edu/nn337xf9041/iiif/manifest" }, "geometry": { "type": "Polygon", "coordinates": [ [ [ 155.002778, 50.1666667 ], [ 155.252778, 50.1666667 ], [ 155.252778, 50.3333333 ], [ 155.002778, 50.3333333 ], [ 155.002778, 50.1666667 ] ] ] } },
{ "type": "Feature", "properties": { "Sheet_ID": "幌筵島 11", "label": "幌筵島 11", "call_short": "G7340 S50 .J36", "call_num": "G7340 S50 .J36 D-11", "recid": "wz614vj7488", "websiteUrl": "https://purl.stanford.edu/wz614vj7488", "title": "五万分一地形図 千島列島", "ckey": 9714174, "available": true, "iiifUrl": "https://purl.stanford.edu/wz614vj7488/iiif/manifest" }, "geometry": { "type": "Polygon", "coordinates": [ [ [ 155.252778, 50.1666667 ], [ 155.502778, 50.1666667 ], [ 155.502778, 50.3333333 ], [ 155.252778, 50.3333333 ], [ 155.252778, 50.1666667 ] ] ] } },
{ "type": "Feature", "properties": { "Sheet_ID": "幌筵島 7", "label": "幌筵島 7", "call_short": "G7340 S50 .J36", "call_num": "G7340 S50 .J36 D-7", "recid": "cj455zv4669", "websiteUrl": "https://purl.stanford.edu/cj455zv4669", "title": "五万分一地形図 千島列島", "ckey": 9714174, "available": true, "iiifUrl": "https://purl.stanford.edu/cj455zv4669/iiif/manifest" }, "geometry": { "type": "Polygon", "coordinates": [ [ [ 155.502778, 50.1666667 ], [ 155.752778, 50.1666667 ], [ 155.752778, 50.3333333 ], [ 155.502778, 50.3333333 ], [ 155.502778, 50.1666667 ] ] ] } },
{ "type": "Feature", "properties": { "Sheet_ID": "幌筵島 3", "label": "幌筵島 3", "call_short": "G7340 S50 .J36", "call_num": "G7340 S50 .J36 D-3", "recid": "gt573yz8259", "websiteUrl": "https://purl.stanford.edu/gt573yz8259", "title": "五万分一地形図 千島列島", "ckey": 9714174, "available": true, "iiifUrl": "https://purl.stanford.edu/gt573yz8259/iiif/manifest" }, "geometry": { "type": "Polygon", "coordinates": [ [ [ 155.752778, 50.1666667 ], [ 156.002778, 50.1666667 ], [ 156.002778, 50.3333333 ], [ 155.752778, 50.3333333 ], [ 155.752778, 50.1666667 ] ] ] } },
{ "type": "Feature", "properties": { "Sheet_ID": "幌筵島 10", "label": "幌筵島 10", "call_short": "G7340 S50 .J36", "call_num": "G7340 S50 .J36 D-10", "recid": "wb934vj9756", "websiteUrl": "https://purl.stanford.edu/wb934vj9756", "title": "五万分一地形図 千島列島", "ckey": 9714174, "available": true, "iiifUrl": "https://purl.stanford.edu/wb934vj9756/iiif/manifest" }, "geometry": { "type": "Polygon", "coordinates": [ [ [ 155.252778, 50.3333333 ], [ 155.502778, 50.3333333 ], [ 155.502778, 50.5 ], [ 155.252778, 50.5 ], [ 155.252778, 50.3333333 ] ] ] } },
{ "type": "Feature", "properties": { "Sheet_ID": "幌筵島 6", "label": "幌筵島 6", "call_short": "G7340 S50 .J36", "call_num": "G7340 S50 .J36 D-6", "recid": "qn953tm9804", "websiteUrl": "https://purl.stanford.edu/qn953tm9804", "title": "五万分一地形図 千島列島", "ckey": 9714174, "available": true, "iiifUrl": "https://purl.stanford.edu/qn953tm9804/iiif/manifest" }, "geometry": { "type": "Polygon", "coordinates": [ [ [ 155.502778, 50.3333333 ], [ 155.752778, 50.3333333 ], [ 155.752778, 50.5 ], [ 155.502778, 50.5 ], [ 155.502778, 50.3333333 ] ] ] } },
{ "type": "Feature", "properties": { "Sheet_ID": "幌筵島 2", "label": "幌筵島 2", "call_short": "G7340 S50 .J36", "call_num": "G7340 S50 .J36 D-2", "recid": "cy583fc2267", "websiteUrl": "https://purl.stanford.edu/cy583fc2267", "title": "五万分一地形図 千島列島", "ckey": 9714174, "available": true, "iiifUrl": "https://purl.stanford.edu/cy583fc2267/iiif/manifest" }, "geometry": { "type": "Polygon", "coordinates": [ [ [ 155.752778, 50.3333333 ], [ 156.002778, 50.3333333 ], [ 156.002778, 50.5 ], [ 155.752778, 50.5 ], [ 155.752778, 50.3333333 ] ] ] } },
{ "type": "Feature", "properties": { "Sheet_ID": "朝日灣 14", "label": "朝日灣 14", "call_short": "G7340 S50 .J36", "call_num": "G7340 S50 .J36 B-14", "recid": "zc322jd8254", "websiteUrl": "https://purl.stanford.edu/zc322jd8254", "title": "五万分一地形図 千島列島", "ckey": 9714174, "available": true, "iiifUrl": "https://purl.stanford.edu/zc322jd8254/iiif/manifest" }, "geometry": { "type": "Polygon", "coordinates": [ [ [ 156.002778, 50.3333333 ], [ 156.252778, 50.3333333 ], [ 156.252778, 50.5 ], [ 156.002778, 50.5 ], [ 156.002778, 50.3333333 ] ] ] } },
{ "type": "Feature", "properties": { "Sheet_ID": "幌筵島 1", "label": "幌筵島 1", "call_short": "G7340 S50 .J36", "call_num": "G7340 S50 .J36 D-1", "recid": "qz514bn4437", "websiteUrl": "https://purl.stanford.edu/qz514bn4437", "title": "五万分一地形図 千島列島", "ckey": 9714174, "available": true, "iiifUrl": "https://purl.stanford.edu/qz514bn4437/iiif/manifest" }, "geometry": { "type": "Polygon", "coordinates": [ [ [ 155.752778, 50.5 ], [ 156.002778, 50.5 ], [ 156.002778, 50.6666667 ], [ 155.752778, 50.6666667 ], [ 155.752778, 50.5 ] ] ] } },
{ "type": "Feature", "properties": { "Sheet_ID": "朝日灣 13", "label": "朝日灣 13", "call_short": "G7340 S50 .J36", "call_num": "G7340 S50 .J36 B-13", "recid": "tm933bj0281", "websiteUrl": "https://purl.stanford.edu/tm933bj0281", "title": "五万分一地形図 千島列島", "ckey": 9714174, "available": true, "iiifUrl": "https://purl.stanford.edu/tm933bj0281/iiif/manifest" }, "geometry": { "type": "Polygon", "coordinates": [ [ [ 156.002778, 50.5 ], [ 156.252778, 50.5 ], [ 156.252778, 50.6666667 ], [ 156.002778, 50.6666667 ], [ 156.002778, 50.5 ] ] ] } },
{ "type": "Feature", "properties": { "Sheet_ID": "朝日灣 9", "label": "朝日灣 9", "call_short": "G7340 S50 .J36", "call_num": "G7340 S50 .J36 B-9", "recid": "qm876qb4831", "websiteUrl": "https://purl.stanford.edu/qm876qb4831", "title": "五万分一地形図 千島列島", "ckey": 9714174, "available": true, "iiifUrl": "https://purl.stanford.edu/qm876qb4831/iiif/manifest" }, "geometry": { "type": "Polygon", "coordinates": [ [ [ 156.252778, 50.483333 ], [ 156.502778, 50.483333 ], [ 156.502778, 50.6666667 ], [ 156.252778, 50.6666667 ], [ 156.252778, 50.483333 ] ] ] } },
{ "type": "Feature", "properties": { "Sheet_ID": "阿頼度島 8", "label": "阿頼度島 8", "call_short": "G7340 S50 .J36", "call_num": "G7340 S50 .J36 C-8", "recid": "qq889rj3953", "websiteUrl": "https://purl.stanford.edu/qq889rj3953", "title": "五万分一地形図 千島列島", "ckey": 9714174, "available": true, "iiifUrl": "https://purl.stanford.edu/qq889rj3953/iiif/manifest" }, "geometry": { "type": "Polygon", "coordinates": [ [ [ 155.452778, 50.6666667 ], [ 155.752778, 50.6666667 ], [ 155.752778, 50.8333333 ], [ 155.452778, 50.8333333 ], [ 155.452778, 50.6666667 ] ] ] } },
{ "type": "Feature", "properties": { "Sheet_ID": "阿頼度島 4", "label": "阿頼度島 4", "call_short": "G7340 S50 .J36", "call_num": "G7340 S50 .J36 C-4", "recid": "yy914gw2962", "websiteUrl": "https://purl.stanford.edu/yy914gw2962", "title": "五万分一地形図 千島列島", "ckey": 9714174, "available": true, "iiifUrl": "https://purl.stanford.edu/yy914gw2962/iiif/manifest" }, "geometry": { "type": "Polygon", "coordinates": [ [ [ 155.752778, 50.6666667 ], [ 156.002778, 50.6666667 ], [ 156.002778, 50.8333333 ], [ 155.752778, 50.8333333 ], [ 155.752778, 50.6666667 ] ] ] } },
{ "type": "Feature", "properties": { "Sheet_ID": "占守島 16", "label": "占守島 16", "call_short": "G7340 S50 .J36", "call_num": "G7340 S50 .J36 A-16", "recid": "rf127gq1103", "websiteUrl": "https://purl.stanford.edu/rf127gq1103", "title": "五万分一地形図 千島列島", "ckey": 9714174, "available": true, "iiifUrl": "https://purl.stanford.edu/rf127gq1103/iiif/manifest" }, "geometry": { "type": "Polygon", "coordinates": [ [ [ 156.002778, 50.6666667 ], [ 156.252778, 50.6666667 ], [ 156.252778, 50.8333333 ], [ 156.002778, 50.8333333 ], [ 156.002778, 50.6666667 ] ] ] } },
{ "type": "Feature", "properties": { "Sheet_ID": "占守島 12", "label": "占守島 12", "call_short": "G7340 S50 .J36", "call_num": "G7340 S50 .J36 A-12", "recid": "xw807yb9561", "websiteUrl": "https://purl.stanford.edu/xw807yb9561", "title": "五万分一地形図 千島列島", "ckey": 9714174, "available": true, "iiifUrl": "https://purl.stanford.edu/xw807yb9561/iiif/manifest" }, "geometry": { "type": "Polygon", "coordinates": [ [ [ 156.252778, 50.6666667 ], [ 156.519444, 50.6666667 ], [ 156.519444, 50.8333333 ], [ 156.252778, 50.8333333 ], [ 156.252778, 50.6666667 ] ] ] } },
{ "type": "Feature", "properties": { "Sheet_ID": "阿頼度島 7", "label": "阿頼度島 7", "call_short": "G7340 S50 .J36", "call_num": "G7340 S50 .J36 C-7", "recid": "qz733zh0006", "websiteUrl": "https://purl.stanford.edu/qz733zh0006", "title": "五万分一地形図 千島列島", "ckey": 9714174, "available": true, "iiifUrl": "https://purl.stanford.edu/qz733zh0006/iiif/manifest" }, "geometry": { "type": "Polygon", "coordinates": [ [ [ 155.452778, 50.8333333 ], [ 155.752778, 50.8333333 ], [ 155.752778, 51.0 ], [ 155.452778, 51.0 ], [ 155.452778, 50.8333333 ] ] ] } },
{ "type": "Feature", "properties": { "Sheet_ID": "占守島 11", "label": "占守島 11", "call_short": "G7340 S50 .J36", "call_num": "G7340 S50 .J36 A-11", "recid": "xv709cs6965", "websiteUrl": "https://purl.stanford.edu/xv709cs6965", "title": "五万分一地形図 千島列島", "ckey": 9714174, "available": true, "iiifUrl": "https://purl.stanford.edu/xv709cs6965/iiif/manifest" }, "geometry": { "type": "Polygon", "coordinates": [ [ [ 156.252778, 50.8333333 ], [ 156.519444, 50.8333333 ], [ 156.519444, 51.0 ], [ 156.252778, 51.0 ], [ 156.252778, 50.8333333 ] ] ] } },
{ "type": "Feature", "properties": { "Sheet_ID": "松輪嶋 1", "label": "松輪嶋 1", "call_short": "G7340 S50 .J36", "call_num": "G7340 S50 .J36 H-1", "recid": "wt533dw1793", "websiteUrl": "https://purl.stanford.edu/wt533dw1793", "title": "五万分一地形図 千島列島", "ckey": 9714174, "available": true, "iiifUrl": "https://purl.stanford.edu/wt533dw1793/iiif/manifest" }, "geometry": { "type": "Polygon", "coordinates": [ [ [ 153.752778, 48.5 ], [ 154.002778, 48.5 ], [ 154.002778, 48.6666666 ], [ 153.752778, 48.6666666 ], [ 153.752778, 48.5 ] ] ] } },
{ "type": "Feature", "properties": { "Sheet_ID": "捨子古丹島 16", "label": "捨子古丹島 16", "call_short": "G7340 S50 .J36", "call_num": "G7340 S50 .J36 F-16", "recid": "wh462vj8967", "websiteUrl": "https://purl.stanford.edu/wh462vj8967", "title": "五万分一地形図 千島列島", "ckey": 9714174, "available": true, "iiifUrl": "https://purl.stanford.edu/wh462vj8967/iiif/manifest" }, "geometry": { "type": "Polygon", "coordinates": [ [ [ 153.952778, 48.6666666 ], [ 154.252778, 48.6666666 ], [ 154.252778, 48.8333333 ], [ 153.952778, 48.8333333 ], [ 153.952778, 48.6666666 ] ] ] } },
{ "type": "Feature", "properties": { "Sheet_ID": "知林古丹嶋 11", "label": "知林古丹嶋 11", "call_short": "G7340 S50 .J36", "call_num": "G7340 S50 .J36 G-11", "recid": "rv016px1793", "websiteUrl": "https://purl.stanford.edu/rv016px1793", "title": "五万分一地形図 千島列島", "ckey": 9714174, "available": true, "iiifUrl": "https://purl.stanford.edu/rv016px1793/iiif/manifest" }, "geometry": { "type": "Polygon", "coordinates": [ [ [ 153.252778, 48.8333333 ], [ 153.519444, 48.8333333 ], [ 153.519444, 48.9999999 ], [ 153.252778, 48.9999999 ], [ 153.252778, 48.8333333 ] ] ] } },
{ "type": "Feature", "properties": { "Sheet_ID": "知林古丹嶋 3", "label": "知林古丹嶋 3", "call_short": "G7340 S50 .J36", "call_num": "G7340 S50 .J36 G-3", "recid": "gs620rp2542", "websiteUrl": "https://purl.stanford.edu/gs620rp2542", "title": "五万分一地形図 千島列島", "ckey": 9714174, "available": true, "iiifUrl": "https://purl.stanford.edu/gs620rp2542/iiif/manifest" }, "geometry": { "type": "Polygon", "coordinates": [ [ [ 153.752778, 48.8333333 ], [ 154.002778, 48.8333333 ], [ 154.002778, 48.9999999 ], [ 153.752778, 48.9999999 ], [ 153.752778, 48.8333333 ] ] ] } },
{ "type": "Feature", "properties": { "Sheet_ID": "捨子古丹島 15", "label": "捨子古丹島 15", "call_short": "G7340 S50 .J36", "call_num": "G7340 S50 .J36 F-15", "recid": "bh759fj0970", "websiteUrl": "https://purl.stanford.edu/bh759fj0970", "title": "五万分一地形図 千島列島", "ckey": 9714174, "available": true, "iiifUrl": "https://purl.stanford.edu/bh759fj0970/iiif/manifest" }, "geometry": { "type": "Polygon", "coordinates": [ [ [ 154.002778, 48.8333333 ], [ 154.252778, 48.8333333 ], [ 154.252778, 48.9999999 ], [ 154.002778, 48.9999999 ], [ 154.002778, 48.8333333 ] ] ] } },
{ "type": "Feature", "properties": { "Sheet_ID": "捨子古丹島 10", "label": "捨子古丹島 10", "call_short": "G7340 S50 .J36", "call_num": "G7340 S50 .J36 F-10", "recid": "zq353mr8539", "websiteUrl": "https://purl.stanford.edu/zq353mr8539", "title": "五万分一地形図 千島列島", "ckey": 9714174, "available": true, "iiifUrl": "https://purl.stanford.edu/zq353mr8539/iiif/manifest" }, "geometry": { "type": "Polygon", "coordinates": [ [ [ 154.252778, 48.9999999 ], [ 154.502778, 48.9999999 ], [ 154.502778, 49.183333 ], [ 154.252778, 49.183333 ], [ 154.252778, 48.9999999 ] ] ] } },
{ "type": "Feature", "properties": { "Sheet_ID": "捨子古丹島 6", "label": "捨子古丹島 6", "call_short": "G7340 S50 .J36", "call_num": "G7340 S50 .J36 F-6", "recid": "jj066pn3206", "websiteUrl": "https://purl.stanford.edu/jj066pn3206", "title": "五万分一地形図 千島列島", "ckey": 9714174, "available": true, "iiifUrl": "https://purl.stanford.edu/jj066pn3206/iiif/manifest" }, "geometry": { "type": "Polygon", "coordinates": [ [ [ 154.502778, 48.9999999 ], [ 154.752778, 48.9999999 ], [ 154.752778, 49.1666665 ], [ 154.502778, 49.1666665 ], [ 154.502778, 48.9999999 ] ] ] } },
{ "type": "Feature", "properties": { "Sheet_ID": "捨子古丹島 5", "label": "捨子古丹島 5", "call_short": "G7340 S50 .J36", "call_num": "G7340 S50 .J36 F-5", "recid": "ck208mw6084", "websiteUrl": "https://purl.stanford.edu/ck208mw6084", "title": "五万分一地形図 千島列島", "ckey": 9714174, "available": true, "iiifUrl": "https://purl.stanford.edu/ck208mw6084/iiif/manifest" }, "geometry": { "type": "Polygon", "coordinates": [ [ [ 154.502778, 49.1666665 ], [ 154.752778, 49.1666665 ], [ 154.752778, 49.3333331 ], [ 154.502778, 49.3333331 ], [ 154.502778, 49.1666665 ] ] ] } },
{ "type": "Feature", "properties": { "Sheet_ID": "捨子古丹島 1", "label": "捨子古丹島 1", "call_short": "G7340 S50 .J36", "call_num": "G7340 S50 .J36 F-1", "recid": "vj228gb3712", "websiteUrl": "https://purl.stanford.edu/vj228gb3712", "title": "五万分一地形図 千島列島", "ckey": 9714174, "available": true, "iiifUrl": "https://purl.stanford.edu/vj228gb3712/iiif/manifest" }, "geometry": { "type": "Polygon", "coordinates": [ [ [ 154.752778, 49.1666665 ], [ 155.002778, 49.1666665 ], [ 155.002778, 49.3333331 ], [ 154.752778, 49.3333331 ], [ 154.752778, 49.1666665 ] ] ] } },
{ "type": "Feature", "properties": { "Sheet_ID": "温禰古丹島 8", "label": "温禰古丹島 8", "call_short": "G7340 S50 .J36", "call_num": "G7340 S50 .J36 E-8", "recid": "dv613hv6296", "websiteUrl": "https://purl.stanford.edu/dv613hv6296", "title": "五万分一地形図 千島列島", "ckey": 9714174, "available": true, "iiifUrl": "https://purl.stanford.edu/dv613hv6296/iiif/manifest" }, "geometry": { "type": "Polygon", "coordinates": [ [ [ 154.502778, 49.3333331 ], [ 154.752778, 49.3333331 ], [ 154.752778, 49.4999998 ], [ 154.502778, 49.4999998 ], [ 154.502778, 49.3333331 ] ] ] } },
{ "type": "Feature", "properties": { "Sheet_ID": "温禰古丹島 4", "label": "温禰古丹島 4", "call_short": "G7340 S50 .J36", "call_num": "G7340 S50 .J36 E-4", "recid": "xc972fb6163", "websiteUrl": "https://purl.stanford.edu/xc972fb6163", "title": "五万分一地形図 千島列島", "ckey": 9714174, "available": true, "iiifUrl": "https://purl.stanford.edu/xc972fb6163/iiif/manifest" }, "geometry": { "type": "Polygon", "coordinates": [ [ [ 154.752778, 49.3333331 ], [ 155.002778, 49.3333331 ], [ 155.002778, 49.4999998 ], [ 154.752778, 49.4999998 ], [ 154.752778, 49.3333331 ] ] ] } },
{ "type": "Feature", "properties": { "Sheet_ID": "温禰古丹島 3", "label": "温禰古丹島 3", "call_short": "G7340 S50 .J36", "call_num": "G7340 S50 .J36 E-3", "recid": "vf844pc9780", "websiteUrl": "https://purl.stanford.edu/vf844pc9780", "title": "五万分一地形図 千島列島", "ckey": 9714174, "available": true, "iiifUrl": "https://purl.stanford.edu/vf844pc9780/iiif/manifest" }, "geometry": { "type": "Polygon", "coordinates": [ [ [ 154.719444, 49.4999998 ], [ 155.002778, 49.4999998 ], [ 155.002778, 49.6666664 ], [ 154.719444, 49.6666664 ], [ 154.719444, 49.4999998 ] ] ] } },
{ "type": "Feature", "properties": { "Sheet_ID": "温禰古丹島 14", "label": "温禰古丹島 14", "call_short": "G7340 S50 .J36", "call_num": "G7340 S50 .J36 E-14", "recid": "zq214pn4789", "websiteUrl": "https://purl.stanford.edu/zq214pn4789", "title": "五万分一地形図 千島列島", "ckey": 9714174, "available": true, "iiifUrl": "https://purl.stanford.edu/zq214pn4789/iiif/manifest" }, "geometry": { "type": "Polygon", "coordinates": [ [ [ 154.002778, 49.6666664 ], [ 154.252778, 49.6666664 ], [ 154.252778, 49.833333 ], [ 154.002778, 49.833333 ], [ 154.002778, 49.6666664 ] ] ] } },
{ "type": "Feature", "properties": { "Sheet_ID": "温禰古丹島 10", "label": "温禰古丹島 10", "call_short": "G7340 S50 .J36", "call_num": "G7340 S50 .J36 E-10", "recid": "mq437dp1500", "websiteUrl": "https://purl.stanford.edu/mq437dp1500", "title": "五万分一地形図 千島列島", "ckey": 9714174, "available": true, "iiifUrl": "https://purl.stanford.edu/mq437dp1500/iiif/manifest" }, "geometry": { "type": "Polygon", "coordinates": [ [ [ 154.252778, 49.6666664 ], [ 154.502778, 49.6666664 ], [ 154.502778, 49.833333 ], [ 154.252778, 49.833333 ], [ 154.252778, 49.6666664 ] ] ] } },
{ "type": "Feature", "properties": { "Sheet_ID": "處和島 3", "label": "處和島 3", "call_short": "G7340 S50 .J36", "call_num": "G7340 S50 .J36 I-3", "recid": "df098tc7808", "websiteUrl": "https://purl.stanford.edu/df098tc7808", "title": "五万分一地形図 千島列島", "ckey": 9714174, "available": true, "iiifUrl": "https://purl.stanford.edu/df098tc7808/iiif/manifest" }, "geometry": { "type": "Polygon", "coordinates": [ [ [ 152.752778, 47.5 ], [ 153.002778, 47.5 ], [ 153.002778, 47.6666666 ], [ 152.752778, 47.6666666 ], [ 152.752778, 47.5 ] ] ] } },
{ "type": "Feature", "properties": { "Sheet_ID": "處和島 2", "label": "處和島 2", "call_short": "G7340 S50 .J36", "call_num": "G7340 S50 .J36 I-2", "recid": "bc544ts4056", "websiteUrl": "https://purl.stanford.edu/bc544ts4056", "title": "五万分一地形図 千島列島", "ckey": 9714174, "available": true, "iiifUrl": "https://purl.stanford.edu/bc544ts4056/iiif/manifest" }, "geometry": { "type": "Polygon", "coordinates": [ [ [ 152.752778, 47.6666666 ], [ 153.086111, 47.6666666 ], [ 153.086111, 47.8333332 ], [ 152.752778, 47.8333332 ], [ 152.752778, 47.6666666 ] ] ] } },
{ "type": "Feature", "properties": { "Sheet_ID": "松輪嶋 16", "label": "松輪嶋 16", "call_short": "G7340 S50 .J36", "call_num": "G7340 S50 .J36 H-16", "recid": "mh283vp6575", "websiteUrl": "https://purl.stanford.edu/mh283vp6575", "title": "五万分一地形図 千島列島", "ckey": 9714174, "available": true, "iiifUrl": "https://purl.stanford.edu/mh283vp6575/iiif/manifest" }, "geometry": { "type": "Polygon", "coordinates": [ [ [ 153.002778, 47.9999998 ], [ 153.302778, 47.9999998 ], [ 153.302778, 48.1666664 ], [ 153.002778, 48.1666664 ], [ 153.002778, 47.9999998 ] ] ] } },
{ "type": "Feature", "properties": { "Sheet_ID": "松輪嶋 15", "label": "松輪嶋 15", "call_short": "G7340 S50 .J36", "call_num": "G7340 S50 .J36 H-15", "recid": "bz548ch1926", "websiteUrl": "https://purl.stanford.edu/bz548ch1926", "title": "五万分一地形図 千島列島", "ckey": 9714174, "available": true, "iiifUrl": "https://purl.stanford.edu/bz548ch1926/iiif/manifest" }, "geometry": { "type": "Polygon", "coordinates": [ [ [ 153.002778, 48.1666664 ], [ 153.302778, 48.1666664 ], [ 153.302778, 48.333333 ], [ 153.002778, 48.333333 ], [ 153.002778, 48.1666664 ] ] ] } },
{ "type": "Feature", "properties": { "Sheet_ID": "新知嶋 12", "label": "新知嶋 12", "call_short": "G7340 S50 .J36", "call_num": "G7340 S50 .J36 J-12", "recid": "xb150bc7209", "websiteUrl": "https://purl.stanford.edu/xb150bc7209", "title": "五万分一地形図 千島列島", "ckey": 9714174, "available": true, "iiifUrl": "https://purl.stanford.edu/xb150bc7209/iiif/manifest" }, "geometry": { "type": "Polygon", "coordinates": [ [ [ 151.7, 46.666667 ], [ 152.002778, 46.666667 ], [ 152.002778, 46.8333337 ], [ 151.7, 46.8333337 ], [ 151.7, 46.666667 ] ] ] } },
{ "type": "Feature", "properties": { "Sheet_ID": "新知嶋 11", "label": "新知嶋 11", "call_short": "G7340 S50 .J36", "call_num": "G7340 S50 .J36 J-11", "recid": "hn641vv6810", "websiteUrl": "https://purl.stanford.edu/hn641vv6810", "title": "五万分一地形図 千島列島", "ckey": 9714174, "available": true, "iiifUrl": "https://purl.stanford.edu/hn641vv6810/iiif/manifest" }, "geometry": { "type": "Polygon", "coordinates": [ [ [ 151.7, 46.8333337 ], [ 152.002778, 46.8333337 ], [ 152.002778, 47.0000003 ], [ 151.7, 47.0000003 ], [ 151.7, 46.8333337 ] ] ] } },
{ "type": "Feature", "properties": { "Sheet_ID": "新知嶋 7", "label": "新知嶋 7", "call_short": "G7340 S50 .J36", "call_num": "G7340 S50 .J36 J-7", "recid": "jn789qx1934", "websiteUrl": "https://purl.stanford.edu/jn789qx1934", "title": "五万分一地形図 千島列島", "ckey": 9714174, "available": true, "iiifUrl": "https://purl.stanford.edu/jn789qx1934/iiif/manifest" }, "geometry": { "type": "Polygon", "coordinates": [ [ [ 152.002778, 46.8333337 ], [ 152.252778, 46.8333337 ], [ 152.252778, 47.0000003 ], [ 152.002778, 47.0000003 ], [ 152.002778, 46.8333337 ] ] ] } },
{ "type": "Feature", "properties": { "Sheet_ID": "處和島 8/12, 新知嶋 1", "label": "處和島 8/12, 新知嶋 1", "call_short": "G7340 S50 .J36", "call_num": "G7340 S50 .J36 I-8/12, J-1", "recid": "gd984bk8543", "websiteUrl": "https://purl.stanford.edu/gd984bk8543", "title": "五万分一地形図 千島列島", "ckey": 9714174, "available": true, "iiifUrl": "https://purl.stanford.edu/gd984bk8543/iiif/manifest" }, "geometry": { "type": "Polygon", "coordinates": [ [ [ 152.377778, 47.25 ], [ 152.627778, 47.25 ], [ 152.627778, 47.416667 ], [ 152.377778, 47.416667 ], [ 152.377778, 47.25 ] ] ] } },
{ "type": "Feature", "properties": { "Sheet_ID": "新知嶋 6", "label": "新知嶋 6", "call_short": "G7340 S50 .J36", "call_num": "G7340 S50 .J36 J-6", "recid": "bt071pk2537", "websiteUrl": "https://purl.stanford.edu/bt071pk2537", "title": "五万分一地形図 千島列島", "ckey": 9714174, "available": true, "iiifUrl": "https://purl.stanford.edu/bt071pk2537/iiif/manifest" }, "geometry": { "type": "Polygon", "coordinates": [ [ [ 152.002778, 47.0000003 ], [ 152.3, 47.0000003 ], [ 152.3, 47.183333 ], [ 152.002778, 47.183333 ], [ 152.002778, 47.0000003 ] ] ] } },
{ "type": "Feature", "properties": { "Sheet_ID": "得撫嶋 11", "label": "得撫嶋 11", "call_short": "G7340 S50 .J36", "call_num": "G7340 S50 .J36 L-11", "recid": "ny257nc3685", "websiteUrl": "https://purl.stanford.edu/ny257nc3685", "title": "五万分一地形図 千島列島", "ckey": 9714174, "available": true, "iiifUrl": "https://purl.stanford.edu/ny257nc3685/iiif/manifest" }, "geometry": { "type": "Polygon", "coordinates": [ [ [ 149.252778, 45.5 ], [ 149.502778, 45.5 ], [ 149.502778, 45.683333 ], [ 149.252778, 45.683333 ], [ 149.252778, 45.5 ] ] ] } },
{ "type": "Feature", "properties": { "Sheet_ID": "得撫嶋 7", "label": "得撫嶋 7", "call_short": "G7340 S50 .J36", "call_num": "G7340 S50 .J36 L-7", "recid": "dg820fb8909", "websiteUrl": "https://purl.stanford.edu/dg820fb8909", "title": "五万分一地形図 千島列島", "ckey": 9714174, "available": true, "iiifUrl": "https://purl.stanford.edu/dg820fb8909/iiif/manifest" }, "geometry": { "type": "Polygon", "coordinates": [ [ [ 149.502778, 45.5 ], [ 149.752778, 45.5 ], [ 149.752778, 45.6666666 ], [ 149.502778, 45.6666666 ], [ 149.502778, 45.5 ] ] ] } },
{ "type": "Feature", "properties": { "Sheet_ID": "得撫嶋 6", "label": "得撫嶋 6", "call_short": "G7340 S50 .J36", "call_num": "G7340 S50 .J36 L-6", "recid": "qg926dt9863", "websiteUrl": "https://purl.stanford.edu/qg926dt9863", "title": "五万分一地形図 千島列島", "ckey": 9714174, "available": true, "iiifUrl": "https://purl.stanford.edu/qg926dt9863/iiif/manifest" }, "geometry": { "type": "Polygon", "coordinates": [ [ [ 149.502778, 45.6666666 ], [ 149.752778, 45.6666666 ], [ 149.752778, 45.8333332 ], [ 149.502778, 45.8333332 ], [ 149.502778, 45.6666666 ] ] ] } },
{ "type": "Feature", "properties": { "Sheet_ID": "得撫嶋 2", "label": "得撫嶋 2", "call_short": "G7340 S50 .J36", "call_num": "G7340 S50 .J36 L-2", "recid": "nr323qz5075", "websiteUrl": "https://purl.stanford.edu/nr323qz5075", "title": "五万分一地形図 千島列島", "ckey": 9714174, "available": true, "iiifUrl": "https://purl.stanford.edu/nr323qz5075/iiif/manifest" }, "geometry": { "type": "Polygon", "coordinates": [ [ [ 149.752778, 45.6666666 ], [ 150.002778, 45.6666666 ], [ 150.002778, 45.8333332 ], [ 149.752778, 45.8333332 ], [ 149.752778, 45.6666666 ] ] ] } },
{ "type": "Feature", "properties": { "Sheet_ID": "得撫嶋 5", "label": "得撫嶋 5", "call_short": "G7340 S50 .J36", "call_num": "G7340 S50 .J36 L-5", "recid": "bx924hy4613", "websiteUrl": "https://purl.stanford.edu/bx924hy4613", "title": "五万分一地形図 千島列島", "ckey": 9714174, "available": true, "iiifUrl": "https://purl.stanford.edu/bx924hy4613/iiif/manifest" }, "geometry": { "type": "Polygon", "coordinates": [ [ [ 149.502778, 45.8333333 ], [ 149.752778, 45.8333333 ], [ 149.752778, 45.9999999 ], [ 149.502778, 45.9999999 ], [ 149.502778, 45.8333333 ] ] ] } },
{ "type": "Feature", "properties": { "Sheet_ID": "得撫嶋 1", "label": "得撫嶋 1", "call_short": "G7340 S50 .J36", "call_num": "G7340 S50 .J36 L-1", "recid": "wn407kb5431", "websiteUrl": "https://purl.stanford.edu/wn407kb5431", "title": "五万分一地形図 千島列島", "ckey": 9714174, "available": true, "iiifUrl": "https://purl.stanford.edu/wn407kb5431/iiif/manifest" }, "geometry": { "type": "Polygon", "coordinates": [ [ [ 149.752778, 45.8333333 ], [ 150.002778, 45.8333333 ], [ 150.002778, 45.9999999 ], [ 149.752778, 45.9999999 ], [ 149.752778, 45.8333333 ] ] ] } },
{ "type": "Feature", "properties": { "Sheet_ID": "得撫嶋 1 東部", "label": "得撫嶋 1 東部", "call_short": "G7340 S50 .J36", "call_num": "G7340 S50 .J36 L-1 E", "recid": "cs660pz7215", "websiteUrl": "https://purl.stanford.edu/cs660pz7215", "title": "五万分一地形図 千島列島", "ckey": 9714174, "available": true, "iiifUrl": "https://purl.stanford.edu/cs660pz7215/iiif/manifest" }, "geometry": { "type": "Polygon", "coordinates": [ [ [ 150.002778, 45.816667 ], [ 150.252778, 45.816667 ], [ 150.252778, 45.9999999 ], [ 150.002778, 45.9999999 ], [ 150.002778, 45.816667 ] ] ] } },
{ "type": "Feature", "properties": { "Sheet_ID": "知理保以嶋 16 西部", "label": "知理保以嶋 16 西部", "call_short": "G7340 S50 .J36", "call_num": "G7340 S50 .J36 K-16 W", "recid": "yd727vp9889", "websiteUrl": "https://purl.stanford.edu/yd727vp9889", "title": "五万分一地形図 千島列島", "ckey": 9714174, "available": true, "iiifUrl": "https://purl.stanford.edu/yd727vp9889/iiif/manifest" }, "geometry": { "type": "Polygon", "coordinates": [ [ [ 149.752778, 45.9999999 ], [ 150.002778, 45.9999999 ], [ 150.002778, 46.1666665 ], [ 149.752778, 46.1666665 ], [ 149.752778, 45.9999999 ] ] ] } },
{ "type": "Feature", "properties": { "Sheet_ID": "知理保以嶋 16", "label": "知理保以嶋 16", "call_short": "G7340 S50 .J36", "call_num": "G7340 S50 .J36 K-16", "recid": "zr750tq8099", "websiteUrl": "https://purl.stanford.edu/zr750tq8099", "title": "五万分一地形図 千島列島", "ckey": 9714174, "available": true, "iiifUrl": "https://purl.stanford.edu/zr750tq8099/iiif/manifest" }, "geometry": { "type": "Polygon", "coordinates": [ [ [ 150.002778, 45.9999999 ], [ 150.252778, 45.9999999 ], [ 150.252778, 46.1666665 ], [ 150.002778, 46.1666665 ], [ 150.002778, 45.9999999 ] ] ] } },
{ "type": "Feature", "properties": { "Sheet_ID": "知理保以嶋 12", "label": "知理保以嶋 12", "call_short": "G7340 S50 .J36", "call_num": "G7340 S50 .J36 K-12", "recid": "pd333rz1333", "websiteUrl": "https://purl.stanford.edu/pd333rz1333", "title": "五万分一地形図 千島列島", "ckey": 9714174, "available": true, "iiifUrl": "https://purl.stanford.edu/pd333rz1333/iiif/manifest" }, "geometry": { "type": "Polygon", "coordinates": [ [ [ 150.252778, 45.9999999 ], [ 150.502778, 45.9999999 ], [ 150.502778, 46.1666665 ], [ 150.252778, 46.1666665 ], [ 150.252778, 45.9999999 ] ] ] } },
{ "type": "Feature", "properties": { "Sheet_ID": "知理保以嶋 15", "label": "知理保以嶋 15", "call_short": "G7340 S50 .J36", "call_num": "G7340 S50 .J36 K-15", "recid": "gf520xd4249", "websiteUrl": "https://purl.stanford.edu/gf520xd4249", "title": "五万分一地形図 千島列島", "ckey": 9714174, "available": true, "iiifUrl": "https://purl.stanford.edu/gf520xd4249/iiif/manifest" }, "geometry": { "type": "Polygon", "coordinates": [ [ [ 150.002778, 46.1666665 ], [ 150.252778, 46.1666665 ], [ 150.252778, 46.3333331 ], [ 150.002778, 46.3333331 ], [ 150.002778, 46.1666665 ] ] ] } },
{ "type": "Feature", "properties": { "Sheet_ID": "知理保以嶋 11", "label": "知理保以嶋 11", "call_short": "G7340 S50 .J36", "call_num": "G7340 S50 .J36 K-11", "recid": "xs716vw2331", "websiteUrl": "https://purl.stanford.edu/xs716vw2331", "title": "五万分一地形図 千島列島", "ckey": 9714174, "available": true, "iiifUrl": "https://purl.stanford.edu/xs716vw2331/iiif/manifest" }, "geometry": { "type": "Polygon", "coordinates": [ [ [ 150.252778, 46.1666665 ], [ 150.502778, 46.1666665 ], [ 150.502778, 46.3333331 ], [ 150.252778, 46.3333331 ], [ 150.252778, 46.1666665 ] ] ] } },
{ "type": "Feature", "properties": { "Sheet_ID": "知理保以嶋 7", "label": "知理保以嶋 7", "call_short": "G7340 S50 .J36", "call_num": "G7340 S50 .J36 K-7", "recid": "nb933kv2162", "websiteUrl": "https://purl.stanford.edu/nb933kv2162", "title": "五万分一地形図 千島列島", "ckey": 9714174, "available": true, "iiifUrl": "https://purl.stanford.edu/nb933kv2162/iiif/manifest" }, "geometry": { "type": "Polygon", "coordinates": [ [ [ 150.502778, 46.1666665 ], [ 150.752778, 46.1666665 ], [ 150.752778, 46.3333331 ], [ 150.502778, 46.3333331 ], [ 150.502778, 46.1666665 ] ] ] } },
{ "type": "Feature", "properties": { "Sheet_ID": "知理保以嶋 2", "label": "知理保以嶋 2", "call_short": "G7340 S50 .J36", "call_num": "G7340 S50 .J36 K-2", "recid": "tr738wp2582", "websiteUrl": "https://purl.stanford.edu/tr738wp2582", "title": "五万分一地形図 千島列島", "ckey": 9714174, "available": true, "iiifUrl": "https://purl.stanford.edu/tr738wp2582/iiif/manifest" }, "geometry": { "type": "Polygon", "coordinates": [ [ [ 150.752778, 46.3333331 ], [ 151.002778, 46.3333331 ], [ 151.002778, 46.4999998 ], [ 150.752778, 46.4999998 ], [ 150.752778, 46.3333331 ] ] ] } },
{ "type": "Feature", "properties": { "Sheet_ID": "知理保以嶋 1", "label": "知理保以嶋 1", "call_short": "G7340 S50 .J36", "call_num": "G7340 S50 .J36 K-1", "recid": "kv303dv1293", "websiteUrl": "https://purl.stanford.edu/kv303dv1293", "title": "五万分一地形図 千島列島", "ckey": 9714174, "available": true, "iiifUrl": "https://purl.stanford.edu/kv303dv1293/iiif/manifest" }, "geometry": { "type": "Polygon", "coordinates": [ [ [ 150.752778, 46.4999998 ], [ 151.002778, 46.4999998 ], [ 151.002778, 46.6666664 ], [ 150.752778, 46.6666664 ], [ 150.752778, 46.4999998 ] ] ] } },
{ "type": "Feature", "properties": { "Sheet_ID": "知理保以嶋 1 北西部", "label": "知理保以嶋 1 北西部", "call_short": "G7340 S50 .J36", "call_num": "G7340 S50 .J36 K-1 NW", "recid": "pc497qb5588", "websiteUrl": "https://purl.stanford.edu/pc497qb5588", "title": "五万分一地形図 千島列島", "ckey": 9714174, "available": true, "iiifUrl": "https://purl.stanford.edu/pc497qb5588/iiif/manifest" }, "geometry": { "type": "Polygon", "coordinates": [ [ [ 150.502778, 46.6666664 ], [ 150.766667, 46.6666664 ], [ 150.766667, 46.833333 ], [ 150.502778, 46.833333 ], [ 150.502778, 46.6666664 ] ] ] } },
{ "type": "Feature", "properties": { "Sheet_ID": "蘂取 12", "label": "蘂取 12", "call_short": "0", "call_num": "0", "recid": "0", "websiteUrl": "0", "title": "0", "ckey": 0, "available": false, "iiifUrl": "0" }, "geometry": { "type": "Polygon", "coordinates": [ [ [ 148.25, 45.333333 ], [ 148.5, 45.333333 ], [ 148.5, 45.4999998 ], [ 148.25, 45.4999998 ], [ 148.25, 45.333333 ] ] ] } },
{ "type": "Feature", "properties": { "Sheet_ID": "蘂取 8", "label": "蘂取 8", "call_short": "0", "call_num": "0", "recid": "0", "websiteUrl": "0", "title": "0", "ckey": 0, "available": false, "iiifUrl": "0" }, "geometry": { "type": "Polygon", "coordinates": [ [ [ 148.5, 45.333333 ], [ 148.75, 45.333333 ], [ 148.75, 45.4999998 ], [ 148.5, 45.4999998 ], [ 148.5, 45.333333 ] ] ] } },
{ "type": "Feature", "properties": { "Sheet_ID": "蘂取 4", "label": "蘂取 4", "call_short": "0", "call_num": "0", "recid": "0", "websiteUrl": "0", "title": "0", "ckey": 0, "available": false, "iiifUrl": "0" }, "geometry": { "type": "Polygon", "coordinates": [ [ [ 148.75, 45.315 ], [ 149.0, 45.315 ], [ 149.0, 45.4999998 ], [ 148.75, 45.4999998 ], [ 148.75, 45.315 ] ] ] } },
{ "type": "Feature", "properties": { "Sheet_ID": "蘂取 7", "label": "蘂取 7", "call_short": "0", "call_num": "0", "recid": "0", "websiteUrl": "0", "title": "0", "ckey": 0, "available": false, "iiifUrl": "0" }, "geometry": { "type": "Polygon", "coordinates": [ [ [ 148.5, 45.4999998 ], [ 148.75, 45.4999998 ], [ 148.75, 45.6666665 ], [ 148.5, 45.6666665 ], [ 148.5, 45.4999998 ] ] ] } },
{ "type": "Feature", "properties": { "Sheet_ID": "蘂取 3", "label": "蘂取 3", "call_short": "0", "call_num": "0", "recid": "0", "websiteUrl": "0", "title": "0", "ckey": 0, "available": false, "iiifUrl": "0" }, "geometry": { "type": "Polygon", "coordinates": [ [ [ 148.75, 45.4999998 ], [ 149.0, 45.4999998 ], [ 149.0, 45.6666665 ], [ 148.75, 45.6666665 ], [ 148.75, 45.4999998 ] ] ] } },
{ "type": "Feature", "properties": { "Sheet_ID": "別飛 14", "label": "別飛 14", "call_short": "0", "call_num": "0", "recid": "0", "websiteUrl": "0", "title": "0", "ckey": 0, "available": false, "iiifUrl": "0" }, "geometry": { "type": "Polygon", "coordinates": [ [ [ 148.0, 45.0 ], [ 148.25, 45.0 ], [ 148.25, 45.1666665 ], [ 148.0, 45.1666665 ], [ 148.0, 45.0 ] ] ] } },
{ "type": "Feature", "properties": { "Sheet_ID": "別飛 13", "label": "別飛 13", "call_short": "0", "call_num": "0", "recid": "0", "websiteUrl": "0", "title": "0", "ckey": 0, "available": false, "iiifUrl": "0" }, "geometry": { "type": "Polygon", "coordinates": [ [ [ 148.0, 45.1666665 ], [ 148.25, 45.1666665 ], [ 148.25, 45.333333 ], [ 148.0, 45.333333 ], [ 148.0, 45.1666665 ] ] ] } },
{ "type": "Feature", "properties": { "Sheet_ID": "別飛 9", "label": "別飛 9", "call_short": "0", "call_num": "0", "recid": "0", "websiteUrl": "0", "title": "0", "ckey": 0, "available": false, "iiifUrl": "0" }, "geometry": { "type": "Polygon", "coordinates": [ [ [ 148.25, 45.1666665 ], [ 148.5, 45.1666665 ], [ 148.5, 45.333333 ], [ 148.25, 45.333333 ], [ 148.25, 45.1666665 ] ] ] } },
{ "type": "Feature", "properties": { "Sheet_ID": "別飛 5", "label": "別飛 5", "call_short": "0", "call_num": "0", "recid": "0", "websiteUrl": "0", "title": "0", "ckey": 0, "available": false, "iiifUrl": "0" }, "geometry": { "type": "Polygon", "coordinates": [ [ [ 148.5, 45.1666665 ], [ 148.75, 45.1666665 ], [ 148.75, 45.333333 ], [ 148.5, 45.333333 ], [ 148.5, 45.1666665 ] ] ] } },
{ "type": "Feature", "properties": { "Sheet_ID": "紗那 16", "label": "紗那 16", "call_short": "G7340 S50 .J36", "call_num": "G7340 S50 .J36 O-16", "recid": "dy974dt5290", "websiteUrl": "https://purl.stanford.edu/dy974dt5290", "title": "五万分一地形図 千島列島", "ckey": 9714174, "available": true, "iiifUrl": "https://purl.stanford.edu/dy974dt5290/iiif/manifest" }, "geometry": { "type": "Polygon", "coordinates": [ [ [ 147.0, 44.666667 ], [ 147.25, 44.666667 ], [ 147.25, 44.8333335 ], [ 147.0, 44.8333335 ], [ 147.0, 44.666667 ] ] ] } },
{ "type": "Feature", "properties": { "Sheet_ID": "紗那 12", "label": "紗那 12", "call_short": "0", "call_num": "0", "recid": "0", "websiteUrl": "0", "title": "0", "ckey": 0, "available": false, "iiifUrl": "0" }, "geometry": { "type": "Polygon", "coordinates": [ [ [ 147.25, 44.666667 ], [ 147.5, 44.666667 ], [ 147.5, 44.8333335 ], [ 147.25, 44.8333335 ], [ 147.25, 44.666667 ] ] ] } },
{ "type": "Feature", "properties": { "Sheet_ID": "紗那 8", "label": "紗那 8", "call_short": "0", "call_num": "0", "recid": "0", "websiteUrl": "0", "title": "0", "ckey": 0, "available": false, "iiifUrl": "0" }, "geometry": { "type": "Polygon", "coordinates": [ [ [ 147.5, 44.666667 ], [ 147.75, 44.666667 ], [ 147.75, 44.8333335 ], [ 147.5, 44.8333335 ], [ 147.5, 44.666667 ] ] ] } },
{ "type": "Feature", "properties": { "Sheet_ID": "紗那 11", "label": "紗那 11", "call_short": "0", "call_num": "0", "recid": "0", "websiteUrl": "0", "title": "0", "ckey": 0, "available": false, "iiifUrl": "0" }, "geometry": { "type": "Polygon", "coordinates": [ [ [ 147.25, 44.8333335 ], [ 147.5, 44.8333335 ], [ 147.5, 45.0 ], [ 147.25, 45.0 ], [ 147.25, 44.8333335 ] ] ] } },
{ "type": "Feature", "properties": { "Sheet_ID": "紗那 7", "label": "紗那 7", "call_short": "0", "call_num": "0", "recid": "0", "websiteUrl": "0", "title": "0", "ckey": 0, "available": false, "iiifUrl": "0" }, "geometry": { "type": "Polygon", "coordinates": [ [ [ 147.5, 44.8333335 ], [ 147.75, 44.8333335 ], [ 147.75, 45.0 ], [ 147.5, 45.0 ], [ 147.5, 44.8333335 ] ] ] } },
{ "type": "Feature", "properties": { "Sheet_ID": "紗那 3", "label": "紗那 3", "call_short": "0", "call_num": "0", "recid": "0", "websiteUrl": "0", "title": "0", "ckey": 0, "available": false, "iiifUrl": "0" }, "geometry": { "type": "Polygon", "coordinates": [ [ [ 147.75, 44.8333335 ], [ 148.0, 44.8333335 ], [ 148.0, 45.0 ], [ 147.75, 45.0 ], [ 147.75, 44.8333335 ] ] ] } },
{ "type": "Feature", "properties": { "Sheet_ID": "紗那 6", "label": "紗那 6", "call_short": "0", "call_num": "0", "recid": "0", "websiteUrl": "0", "title": "0", "ckey": 0, "available": false, "iiifUrl": "0" }, "geometry": { "type": "Polygon", "coordinates": [ [ [ 147.49, 45.0 ], [ 147.75, 45.0 ], [ 147.75, 45.1666665 ], [ 147.49, 45.1666665 ], [ 147.49, 45.0 ] ] ] } },
{ "type": "Feature", "properties": { "Sheet_ID": "紗那 2", "label": "紗那 2", "call_short": "0", "call_num": "0", "recid": "0", "websiteUrl": "0", "title": "0", "ckey": 0, "available": false, "iiifUrl": "0" }, "geometry": { "type": "Polygon", "coordinates": [ [ [ 147.75, 45.0 ], [ 148.0, 45.0 ], [ 148.0, 45.1666665 ], [ 147.75, 45.1666665 ], [ 147.75, 45.0 ] ] ] } },
{ "type": "Feature", "properties": { "Sheet_ID": "紗那 1", "label": "紗那 1", "call_short": "0", "call_num": "0", "recid": "0", "websiteUrl": "0", "title": "0", "ckey": 0, "available": false, "iiifUrl": "0" }, "geometry": { "type": "Polygon", "coordinates": [ [ [ 147.7, 45.1666665 ], [ 148.0, 45.1666665 ], [ 148.0, 45.333333 ], [ 147.7, 45.333333 ], [ 147.7, 45.1666665 ] ] ] } },
{ "type": "Feature", "properties": { "Sheet_ID": "蘂取 16 西部", "label": "蘂取 16 西部", "call_short": "0", "call_num": "0", "recid": "0", "websiteUrl": "0", "title": "0", "ckey": 0, "available": false, "iiifUrl": "0" }, "geometry": { "type": "Polygon", "coordinates": [ [ [ 147.75, 45.5 ], [ 147.75, 45.333333 ], [ 148.01, 45.333333 ], [ 148.01, 45.5 ], [ 147.75, 45.5 ] ] ] } },
{ "type": "Feature", "properties": { "Sheet_ID": "得茂別湖 13", "label": "得茂別湖 13", "call_short": "0", "call_num": "0", "recid": "0", "websiteUrl": "0", "title": "0", "ckey": 0, "available": false, "iiifUrl": "0" }, "geometry": { "type": "Polygon", "coordinates": [ [ [ 147.0, 44.5000002 ], [ 147.25, 44.5000002 ], [ 147.25, 44.666667 ], [ 147.0, 44.666667 ], [ 147.0, 44.5000002 ] ] ] } },
{ "type": "Feature", "properties": { "Sheet_ID": "得茂別湖 9", "label": "得茂別湖 9", "call_short": "0", "call_num": "0", "recid": "0", "websiteUrl": "0", "title": "0", "ckey": 0, "available": false, "iiifUrl": "0" }, "geometry": { "type": "Polygon", "coordinates": [ [ [ 147.25, 44.5000002 ], [ 147.5, 44.5000002 ], [ 147.5, 44.666667 ], [ 147.25, 44.666667 ], [ 147.25, 44.5000002 ] ] ] } },
{ "type": "Feature", "properties": { "Sheet_ID": "安渡移矢岬 15", "label": "安渡移矢岬 15", "call_short": "0", "call_num": "0", "recid": "0", "websiteUrl": "0", "title": "0", "ckey": 0, "available": false, "iiifUrl": "0" }, "geometry": { "type": "Polygon", "coordinates": [ [ [ 146.0, 44.1666667 ], [ 146.25, 44.1666667 ], [ 146.25, 44.3333335 ], [ 146.0, 44.3333335 ], [ 146.0, 44.1666667 ] ] ] } },
{ "type": "Feature", "properties": { "Sheet_ID": "安渡移矢岬 11", "label": "安渡移矢岬 11", "call_short": "G7340 S50 .J36", "call_num": "G7340 S50 .J36 P-11", "recid": "zp862kw2830", "websiteUrl": "https://purl.stanford.edu/zp862kw2830", "title": "五万分一地形図 千島列島", "ckey": 9714174, "available": true, "iiifUrl": "https://purl.stanford.edu/zp862kw2830/iiif/manifest" }, "geometry": { "type": "Polygon", "coordinates": [ [ [ 146.25, 44.1666667 ], [ 146.5, 44.1666667 ], [ 146.5, 44.3333335 ], [ 146.25, 44.3333335 ], [ 146.25, 44.1666667 ] ] ] } },
{ "type": "Feature", "properties": { "Sheet_ID": "安渡移矢岬 14", "label": "安渡移矢岬 14", "call_short": "0", "call_num": "0", "recid": "0", "websiteUrl": "0", "title": "0", "ckey": 0, "available": false, "iiifUrl": "0" }, "geometry": { "type": "Polygon", "coordinates": [ [ [ 146.0, 44.3333335 ], [ 146.25, 44.3333335 ], [ 146.25, 44.52 ], [ 146.0, 44.52 ], [ 146.0, 44.3333335 ] ] ] } },
{ "type": "Feature", "properties": { "Sheet_ID": "安渡移矢岬 10", "label": "安渡移矢岬 10", "call_short": "0", "call_num": "0", "recid": "0", "websiteUrl": "0", "title": "0", "ckey": 0, "available": false, "iiifUrl": "0" }, "geometry": { "type": "Polygon", "coordinates": [ [ [ 146.25, 44.3333335 ], [ 146.5, 44.3333335 ], [ 146.5, 44.5000002 ], [ 146.25, 44.5000002 ], [ 146.25, 44.3333335 ] ] ] } },
{ "type": "Feature", "properties": { "Sheet_ID": "安渡移矢岬 6", "label": "安渡移矢岬 6", "call_short": "0", "call_num": "0", "recid": "0", "websiteUrl": "0", "title": "0", "ckey": 0, "available": false, "iiifUrl": "0" }, "geometry": { "type": "Polygon", "coordinates": [ [ [ 146.5, 44.3333335 ], [ 146.75, 44.3333335 ], [ 146.75, 44.5000002 ], [ 146.5, 44.5000002 ], [ 146.5, 44.3333335 ] ] ] } },
{ "type": "Feature", "properties": { "Sheet_ID": "安渡移矢岬 2", "label": "安渡移矢岬 2", "call_short": "0", "call_num": "0", "recid": "0", "websiteUrl": "0", "title": "0", "ckey": 0, "available": false, "iiifUrl": "0" }, "geometry": { "type": "Polygon", "coordinates": [ [ [ 146.75, 44.3333335 ], [ 147.02, 44.3333335 ], [ 147.02, 44.5000002 ], [ 146.75, 44.5000002 ], [ 146.75, 44.3333335 ] ] ] } },
{ "type": "Feature", "properties": { "Sheet_ID": "安渡移矢岬 1", "label": "安渡移矢岬 1", "call_short": "0", "call_num": "0", "recid": "0", "websiteUrl": "0", "title": "0", "ckey": 0, "available": false, "iiifUrl": "0" }, "geometry": { "type": "Polygon", "coordinates": [ [ [ 146.75, 44.5000002 ], [ 147.0, 44.5000002 ], [ 147.0, 44.666667 ], [ 146.75, 44.666667 ], [ 146.75, 44.5000002 ] ] ] } },
{ "type": "Feature", "properties": { "Sheet_ID": "色丹島 16", "label": "色丹島 16", "call_short": "0", "call_num": "0", "recid": "0", "websiteUrl": "0", "title": "0", "ckey": 0, "available": false, "iiifUrl": "0" }, "geometry": { "type": "Polygon", "coordinates": [ [ [ 146.0, 43.333333 ], [ 146.25, 43.333333 ], [ 146.25, 43.4999998 ], [ 146.0, 43.4999998 ], [ 146.0, 43.333333 ] ] ] } },
{ "type": "Feature", "properties": { "Sheet_ID": "色丹島 15", "label": "色丹島 15", "call_short": "0", "call_num": "0", "recid": "0", "websiteUrl": "0", "title": "0", "ckey": 0, "available": false, "iiifUrl": "0" }, "geometry": { "type": "Polygon", "coordinates": [ [ [ 146.0, 43.4999998 ], [ 146.25, 43.4999998 ], [ 146.25, 43.6666665 ], [ 146.0, 43.6666665 ], [ 146.0, 43.4999998 ] ] ] } },
{ "type": "Feature", "properties": { "Sheet_ID": "色丹島 11", "label": "色丹島 11", "call_short": "0", "call_num": "0", "recid": "0", "websiteUrl": "0", "title": "0", "ckey": 0, "available": false, "iiifUrl": "0" }, "geometry": { "type": "Polygon", "coordinates": [ [ [ 146.25, 43.4999998 ], [ 146.5, 43.4999998 ], [ 146.5, 43.6666665 ], [ 146.25, 43.6666665 ], [ 146.25, 43.4999998 ] ] ] } },
{ "type": "Feature", "properties": { "Sheet_ID": "色丹島 6", "label": "色丹島 6", "call_short": "0", "call_num": "0", "recid": "0", "websiteUrl": "0", "title": "0", "ckey": 0, "available": false, "iiifUrl": "0" }, "geometry": { "type": "Polygon", "coordinates": [ [ [ 146.5, 43.6666665 ], [ 146.75, 43.6666665 ], [ 146.75, 43.8333333 ], [ 146.5, 43.8333333 ], [ 146.5, 43.6666665 ] ] ] } },
{ "type": "Feature", "properties": { "Sheet_ID": "色丹島 2", "label": "色丹島 2", "call_short": "0", "call_num": "0", "recid": "0", "websiteUrl": "0", "title": "0", "ckey": 0, "available": false, "iiifUrl": "0" }, "geometry": { "type": "Polygon", "coordinates": [ [ [ 146.75, 43.6666665 ], [ 147.0, 43.6666665 ], [ 147.0, 43.8333333 ], [ 146.75, 43.8333333 ], [ 146.75, 43.6666665 ] ] ] } },
{ "type": "Feature", "properties": { "Sheet_ID": "色丹島 1", "label": "色丹島 1", "call_short": "0", "call_num": "0", "recid": "0", "websiteUrl": "0", "title": "0", "ckey": 0, "available": false, "iiifUrl": "0" }, "geometry": { "type": "Polygon", "coordinates": [ [ [ 146.72, 43.8333333 ], [ 147.0, 43.8333333 ], [ 147.0, 44.0 ], [ 146.72, 44.0 ], [ 146.72, 43.8333333 ] ] ] } },
{ "type": "Feature", "properties": { "Sheet_ID": "知床岬 8", "label": "知床岬 8", "call_short": "G7340 S50 .J36", "call_num": "G7340 S50 .J36 R-8", "recid": "td541nx4976", "websiteUrl": "https://purl.stanford.edu/td541nx4976", "title": "五万分一地形図 千島列島", "ckey": 9714174, "available": true, "iiifUrl": "https://purl.stanford.edu/td541nx4976/iiif/manifest" }, "geometry": { "type": "Polygon", "coordinates": [ [ [ 145.5, 44.0 ], [ 145.75, 44.0 ], [ 145.75, 44.1666667 ], [ 145.5, 44.1666667 ], [ 145.5, 44.0 ] ] ] } },
{ "type": "Feature", "properties": { "Sheet_ID": "知床岬 4", "label": "知床岬 4", "call_short": "G7340 S50 .J36", "call_num": "G7340 S50 .J36 R-4", "recid": "jn272gs3319", "websiteUrl": "https://purl.stanford.edu/jn272gs3319", "title": "五万分一地形図 千島列島", "ckey": 9714174, "available": true, "iiifUrl": "https://purl.stanford.edu/jn272gs3319/iiif/manifest" }, "geometry": { "type": "Polygon", "coordinates": [ [ [ 145.75, 44.0 ], [ 146.0, 44.0 ], [ 146.0, 44.1666667 ], [ 145.75, 44.1666667 ], [ 145.75, 44.0 ] ] ] } },
{ "type": "Feature", "properties": { "Sheet_ID": "知床岬 3", "label": "知床岬 3", "call_short": "G7340 S50 .J36", "call_num": "G7340 S50 .J36 R-3", "recid": "gh175dc4875", "websiteUrl": "https://purl.stanford.edu/gh175dc4875", "title": "五万分一地形図 千島列島", "ckey": 9714174, "available": true, "iiifUrl": "https://purl.stanford.edu/gh175dc4875/iiif/manifest" }, "geometry": { "type": "Polygon", "coordinates": [ [ [ 145.75, 44.1666667 ], [ 146.0, 44.1666667 ], [ 146.0, 44.3333335 ], [ 145.75, 44.3333335 ], [ 145.75, 44.1666667 ] ] ] } },
{ "type": "Feature", "properties": { "Sheet_ID": "標津 10", "label": "標津 10", "call_short": "G7340 S50 .J36", "call_num": "G7340 S50 .J36 S-10", "recid": "hc989qx1047", "websiteUrl": "https://purl.stanford.edu/hc989qx1047", "title": "五万分一地形図 千島列島", "ckey": 9714174, "available": true, "iiifUrl": "https://purl.stanford.edu/hc989qx1047/iiif/manifest" }, "geometry": { "type": "Polygon", "coordinates": [ [ [ 145.25, 43.6666665 ], [ 145.5, 43.6666665 ], [ 145.5, 43.8333333 ], [ 145.25, 43.8333333 ], [ 145.25, 43.6666665 ] ] ] } },
{ "type": "Feature", "properties": { "Sheet_ID": "標津 6", "label": "標津 6", "call_short": "0", "call_num": "0", "recid": "0", "websiteUrl": "0", "title": "0", "ckey": 0, "available": false, "iiifUrl": "0" }, "geometry": { "type": "Polygon", "coordinates": [ [ [ 145.5, 43.65 ], [ 145.75, 43.65 ], [ 145.75, 43.8333333 ], [ 145.5, 43.8333333 ], [ 145.5, 43.65 ] ] ] } },
{ "type": "Feature", "properties": { "Sheet_ID": "標津 9", "label": "標津 9", "call_short": "0", "call_num": "0", "recid": "0", "websiteUrl": "0", "title": "0", "ckey": 0, "available": false, "iiifUrl": "0" }, "geometry": { "type": "Polygon", "coordinates": [ [ [ 145.25, 43.8333333 ], [ 145.5, 43.8333333 ], [ 145.5, 44.0 ], [ 145.25, 44.0 ], [ 145.25, 43.8333333 ] ] ] } },
{ "type": "Feature", "properties": { "Sheet_ID": "標津 5", "label": "標津 5", "call_short": "G7340 S50 .J36", "call_num": "G7340 S50 .J36 S-5", "recid": "zh951wt8334", "websiteUrl": "https://purl.stanford.edu/zh951wt8334", "title": "五万分一地形図 千島列島", "ckey": 9714174, "available": true, "iiifUrl": "https://purl.stanford.edu/zh951wt8334/iiif/manifest" }, "geometry": { "type": "Polygon", "coordinates": [ [ [ 145.5, 43.8333333 ], [ 145.75, 43.8333333 ], [ 145.75, 44.0 ], [ 145.5, 44.0 ], [ 145.5, 43.8333333 ] ] ] } },
{ "type": "Feature", "properties": { "Sheet_ID": "標津 1", "label": "標津 1", "call_short": "0", "call_num": "0", "recid": "0", "websiteUrl": "0", "title": "0", "ckey": 0, "available": false, "iiifUrl": "0" }, "geometry": { "type": "Polygon", "coordinates": [ [ [ 145.75, 43.8333333 ], [ 146.0, 43.8333333 ], [ 146.0, 44.0 ], [ 145.75, 44.0 ], [ 145.75, 43.8333333 ] ] ] } }
]
}
