{
"type": "FeatureCollection",
"name": "index_map",
"xy_coordinate_resolution": 1e-07,
"features": [
{ "type": "Feature", "properties": { "Id": 0, "Sheet_ID": "25. 賈嶺集", "label": "25. 賈嶺集", "call_short": "G7824 .X8 A1 S100 .J3", "call_num": "G7824 .X8 A1 S100 .J3 SHEET 25", "recid": "fx804tn1859", "websiteUrl": "https://purl.stanford.edu/fx804tn1859", "title": "假製 北支那十万分一圖 徐州", "ckey": 10475228, "available": true, "iiifUrl": "https://purl.stanford.edu/fx804tn1859/iiif/manifest" }, "geometry": { "type": "Polygon", "coordinates": [ [ [ 114.8333333, 32.8833337 ], [ 115.3333333, 32.8833337 ], [ 115.3333333, 33.2166669 ], [ 114.8333333, 33.2166669 ], [ 114.8333333, 32.8833337 ] ] ] } },
{ "type": "Feature", "properties": { "Id": 0, "Sheet_ID": "20. 大和縣", "label": "20. 大和縣", "call_short": "G7824 .X8 A1 S100 .J3", "call_num": "G7824 .X8 A1 S100 .J3 SHEET 20", "recid": "ct252nw8519", "websiteUrl": "https://purl.stanford.edu/ct252nw8519", "title": "假製 北支那十万分一圖 徐州", "ckey": 10475228, "available": true, "iiifUrl": "https://purl.stanford.edu/ct252nw8519/iiif/manifest" }, "geometry": { "type": "Polygon", "coordinates": [ [ [ 115.3333333, 32.8833337 ], [ 115.8333333, 32.8833337 ], [ 115.8333333, 33.2166669 ], [ 115.3333333, 33.2166669 ], [ 115.3333333, 32.8833337 ] ] ] } },
{ "type": "Feature", "properties": { "Id": 0, "Sheet_ID": "15. 挿花廟", "label": "15. 挿花廟", "call_short": "0", "call_num": "0", "recid": "0", "websiteUrl": "0", "title": "0", "ckey": 0, "available": false, "iiifUrl": "0" }, "geometry": { "type": "Polygon", "coordinates": [ [ [ 115.8333333, 32.8833337 ], [ 116.3333333, 32.8833337 ], [ 116.3333333, 33.2166669 ], [ 115.8333333, 33.2166669 ], [ 115.8333333, 32.8833337 ] ] ] } },
{ "type": "Feature", "properties": { "Id": 0, "Sheet_ID": "10. 駱鴕集", "label": "10. 駱鴕集", "call_short": "G7824 .X8 A1 S100 .J3", "call_num": "G7824 .X8 A1 S100 .J3 SHEET 10", "recid": "bd368hk2795", "websiteUrl": "https://purl.stanford.edu/bd368hk2795", "title": "假製 北支那十万分一圖 徐州", "ckey": 10475228, "available": true, "iiifUrl": "https://purl.stanford.edu/bd368hk2795/iiif/manifest" }, "geometry": { "type": "Polygon", "coordinates": [ [ [ 116.3333333, 32.8833337 ], [ 116.8333333, 32.8833337 ], [ 116.8333333, 33.2166669 ], [ 116.3333333, 33.2166669 ], [ 116.3333333, 32.8833337 ] ] ] } },
{ "type": "Feature", "properties": { "Id": 0, "Sheet_ID": "5. 蚌埠", "label": "5. 蚌埠", "call_short": "G7824 .X8 A1 S100 .J3", "call_num": "G7824 .X8 A1 S100 .J3 SHEET 5", "recid": "wc236xq6350", "websiteUrl": "https://purl.stanford.edu/wc236xq6350", "title": "假製 北支那十万分一圖 徐州", "ckey": 10475228, "available": true, "iiifUrl": "https://purl.stanford.edu/wc236xq6350/iiif/manifest" }, "geometry": { "type": "Polygon", "coordinates": [ [ [ 116.8333333, 32.8833337 ], [ 117.3333333, 32.8833337 ], [ 117.3333333, 33.2166669 ], [ 116.8333333, 33.2166669 ], [ 116.8333333, 32.8833337 ] ] ] } },
{ "type": "Feature", "properties": { "Id": 0, "Sheet_ID": "24. 項城縣", "label": "24. 項城縣", "call_short": "G7824 .X8 A1 S100 .J3", "call_num": "G7824 .X8 A1 S100 .J3 SHEET 24", "recid": "wr904cm7589", "websiteUrl": "https://purl.stanford.edu/wr904cm7589", "title": "假製 北支那十万分一圖 徐州", "ckey": 10475228, "available": true, "iiifUrl": "https://purl.stanford.edu/wr904cm7589/iiif/manifest" }, "geometry": { "type": "Polygon", "coordinates": [ [ [ 114.8333333, 33.2166669 ], [ 115.3333333, 33.2166669 ], [ 115.3333333, 33.5500001 ], [ 114.8333333, 33.5500001 ], [ 114.8333333, 33.2166669 ] ] ] } },
{ "type": "Feature", "properties": { "Id": 0, "Sheet_ID": "19. 倪邱集", "label": "19. 倪邱集", "call_short": "G7824 .X8 A1 S100 .J3", "call_num": "G7824 .X8 A1 S100 .J3 SHEET 19", "recid": "vx386vh4588", "websiteUrl": "https://purl.stanford.edu/vx386vh4588", "title": "假製 北支那十万分一圖 徐州", "ckey": 10475228, "available": true, "iiifUrl": "https://purl.stanford.edu/vx386vh4588/iiif/manifest" }, "geometry": { "type": "Polygon", "coordinates": [ [ [ 115.3333333, 33.2166669 ], [ 115.8333333, 33.2166669 ], [ 115.8333333, 33.5500001 ], [ 115.3333333, 33.5500001 ], [ 115.3333333, 33.2166669 ] ] ] } },
{ "type": "Feature", "properties": { "Id": 0, "Sheet_ID": "14. 渦陽", "label": "14. 渦陽", "call_short": "G7824 .X8 A1 S100 .J3", "call_num": "G7824 .X8 A1 S100 .J3 SHEET 14", "recid": "mq978gm3355", "websiteUrl": "https://purl.stanford.edu/mq978gm3355", "title": "假製 北支那十万分一圖 徐州", "ckey": 10475228, "available": true, "iiifUrl": "https://purl.stanford.edu/mq978gm3355/iiif/manifest" }, "geometry": { "type": "Polygon", "coordinates": [ [ [ 115.8333333, 33.2166669 ], [ 116.3333333, 33.2166669 ], [ 116.3333333, 33.5500001 ], [ 115.8333333, 33.5500001 ], [ 115.8333333, 33.2166669 ] ] ] } },
{ "type": "Feature", "properties": { "Id": 0, "Sheet_ID": "9. 蒙城", "label": "9. 蒙城", "call_short": "G7824 .X8 A1 S100 .J3", "call_num": "G7824 .X8 A1 S100 .J3 SHEET 9", "recid": "hf752pw3229", "websiteUrl": "https://purl.stanford.edu/hf752pw3229", "title": "假製 北支那十万分一圖 徐州", "ckey": 10475228, "available": true, "iiifUrl": "https://purl.stanford.edu/hf752pw3229/iiif/manifest" }, "geometry": { "type": "Polygon", "coordinates": [ [ [ 116.3333333, 33.2166669 ], [ 116.8333333, 33.2166669 ], [ 116.8333333, 33.5500001 ], [ 116.3333333, 33.5500001 ], [ 116.3333333, 33.2166669 ] ] ] } },
{ "type": "Feature", "properties": { "Id": 0, "Sheet_ID": "4. 固鎭", "label": "4. 固鎭", "call_short": "G7824 .X8 A1 S100 .J3", "call_num": "G7824 .X8 A1 S100 .J3 SHEET 4", "recid": "zk434kd6297", "websiteUrl": "https://purl.stanford.edu/zk434kd6297", "title": "假製 北支那十万分一圖 徐州", "ckey": 10475228, "available": true, "iiifUrl": "https://purl.stanford.edu/zk434kd6297/iiif/manifest" }, "geometry": { "type": "Polygon", "coordinates": [ [ [ 116.8333333, 33.2166669 ], [ 117.3333333, 33.2166669 ], [ 117.3333333, 33.5500001 ], [ 116.8333333, 33.5500001 ], [ 116.8333333, 33.2166669 ] ] ] } },
{ "type": "Feature", "properties": { "Id": 0, "Sheet_ID": "23. 周家口", "label": "23. 周家口", "call_short": "0", "call_num": "0", "recid": "0", "websiteUrl": "0", "title": "0", "ckey": 0, "available": false, "iiifUrl": "0" }, "geometry": { "type": "Polygon", "coordinates": [ [ [ 114.8333333, 33.5500001 ], [ 115.3333333, 33.5500001 ], [ 115.3333333, 33.8833333 ], [ 114.8333333, 33.8833333 ], [ 114.8333333, 33.5500001 ] ] ] } },
{ "type": "Feature", "properties": { "Id": 0, "Sheet_ID": "18. 鹿邑縣", "label": "18. 鹿邑縣", "call_short": "G7824 .X8 A1 S100 .J3", "call_num": "G7824 .X8 A1 S100 .J3 SHEET 18", "recid": "hv930xm3732", "websiteUrl": "https://purl.stanford.edu/hv930xm3732", "title": "假製 北支那十万分一圖 徐州", "ckey": 10475228, "available": true, "iiifUrl": "https://purl.stanford.edu/hv930xm3732/iiif/manifest" }, "geometry": { "type": "Polygon", "coordinates": [ [ [ 115.3333333, 33.5500001 ], [ 115.8333333, 33.5500001 ], [ 115.8333333, 33.8833333 ], [ 115.3333333, 33.8833333 ], [ 115.3333333, 33.5500001 ] ] ] } },
{ "type": "Feature", "properties": { "Id": 0, "Sheet_ID": "13. 亳州", "label": "13. 亳州", "call_short": "G7824 .X8 A1 S100 .J3", "call_num": "G7824 .X8 A1 S100 .J3 SHEET 13", "recid": "xn539rh1950", "websiteUrl": "https://purl.stanford.edu/xn539rh1950", "title": "假製 北支那十万分一圖 徐州", "ckey": 10475228, "available": true, "iiifUrl": "https://purl.stanford.edu/xn539rh1950/iiif/manifest" }, "geometry": { "type": "Polygon", "coordinates": [ [ [ 115.8333333, 33.5500001 ], [ 116.3333333, 33.5500001 ], [ 116.3333333, 33.8833333 ], [ 115.8333333, 33.8833333 ], [ 115.8333333, 33.5500001 ] ] ] } },
{ "type": "Feature", "properties": { "Id": 0, "Sheet_ID": "8. 臨渙集", "label": "8. 臨渙集", "call_short": "0", "call_num": "0", "recid": "0", "websiteUrl": "0", "title": "0", "ckey": 0, "available": false, "iiifUrl": "0" }, "geometry": { "type": "Polygon", "coordinates": [ [ [ 116.3333333, 33.5500001 ], [ 116.8333333, 33.5500001 ], [ 116.8333333, 33.8833333 ], [ 116.3333333, 33.8833333 ], [ 116.3333333, 33.5500001 ] ] ] } },
{ "type": "Feature", "properties": { "Id": 0, "Sheet_ID": "3. 宿縣", "label": "3. 宿縣", "call_short": "G7824 .X8 A1 S100 .J3", "call_num": "G7824 .X8 A1 S100 .J3 SHEET 3", "recid": "ns557ct6425", "websiteUrl": "https://purl.stanford.edu/ns557ct6425", "title": "假製 北支那十万分一圖 徐州", "ckey": 10475228, "available": true, "iiifUrl": "https://purl.stanford.edu/ns557ct6425/iiif/manifest" }, "geometry": { "type": "Polygon", "coordinates": [ [ [ 116.8333333, 33.5500001 ], [ 117.3333333, 33.5500001 ], [ 117.3333333, 33.8833333 ], [ 116.8333333, 33.8833333 ], [ 116.8333333, 33.5500001 ] ] ] } },
{ "type": "Feature", "properties": { "Id": 0, "Sheet_ID": "22. 太康縣", "label": "22. 太康縣", "call_short": "0", "call_num": "0", "recid": "0", "websiteUrl": "0", "title": "0", "ckey": 0, "available": false, "iiifUrl": "0" }, "geometry": { "type": "Polygon", "coordinates": [ [ [ 114.8333333, 33.8833333 ], [ 115.3333333, 33.8833333 ], [ 115.3333333, 34.2166665 ], [ 114.8333333, 34.2166665 ], [ 114.8333333, 33.8833333 ] ] ] } },
{ "type": "Feature", "properties": { "Id": 0, "Sheet_ID": "17. 柘城", "label": "17. 柘城", "call_short": "G7824 .X8 A1 S100 .J3", "call_num": "G7824 .X8 A1 S100 .J3 SHEET 17", "recid": "hn467gf7168", "websiteUrl": "https://purl.stanford.edu/hn467gf7168", "title": "假製 北支那十万分一圖 徐州", "ckey": 10475228, "available": true, "iiifUrl": "https://purl.stanford.edu/hn467gf7168/iiif/manifest" }, "geometry": { "type": "Polygon", "coordinates": [ [ [ 115.3333333, 33.8833333 ], [ 115.8333333, 33.8833333 ], [ 115.8333333, 34.2166665 ], [ 115.3333333, 34.2166665 ], [ 115.3333333, 33.8833333 ] ] ] } },
{ "type": "Feature", "properties": { "Id": 0, "Sheet_ID": "12. 會亭集", "label": "12. 會亭集", "call_short": "G7824 .X8 A1 S100 .J3", "call_num": "G7824 .X8 A1 S100 .J3 SHEET 12", "recid": "gz467xc3156", "websiteUrl": "https://purl.stanford.edu/gz467xc3156", "title": "假製 北支那十万分一圖 徐州", "ckey": 10475228, "available": true, "iiifUrl": "https://purl.stanford.edu/gz467xc3156/iiif/manifest" }, "geometry": { "type": "Polygon", "coordinates": [ [ [ 115.8333333, 33.8833333 ], [ 116.3333333, 33.8833333 ], [ 116.3333333, 34.2166665 ], [ 115.8333333, 34.2166665 ], [ 115.8333333, 33.8833333 ] ] ] } },
{ "type": "Feature", "properties": { "Id": 0, "Sheet_ID": "7. 永城", "label": "7. 永城", "call_short": "G7824 .X8 A1 S100 .J3", "call_num": "G7824 .X8 A1 S100 .J3 SHEET 7", "recid": "yb903qy9949", "websiteUrl": "https://purl.stanford.edu/yb903qy9949", "title": "假製 北支那十万分一圖 徐州", "ckey": 10475228, "available": true, "iiifUrl": "https://purl.stanford.edu/yb903qy9949/iiif/manifest" }, "geometry": { "type": "Polygon", "coordinates": [ [ [ 116.3333333, 33.8833333 ], [ 116.8333333, 33.8833333 ], [ 116.8333333, 34.2166665 ], [ 116.3333333, 34.2166665 ], [ 116.3333333, 33.8833333 ] ] ] } },
{ "type": "Feature", "properties": { "Id": 0, "Sheet_ID": "2. 珠蘭", "label": "2. 珠蘭", "call_short": "G7824 .X8 A1 S100 .J3", "call_num": "G7824 .X8 A1 S100 .J3 SHEET 2", "recid": "ym467zc8025", "websiteUrl": "https://purl.stanford.edu/ym467zc8025", "title": "假製 北支那十万分一圖 徐州", "ckey": 10475228, "available": true, "iiifUrl": "https://purl.stanford.edu/ym467zc8025/iiif/manifest" }, "geometry": { "type": "Polygon", "coordinates": [ [ [ 116.8333333, 33.8833333 ], [ 117.3333333, 33.8833333 ], [ 117.3333333, 34.2166665 ], [ 116.8333333, 34.2166665 ], [ 116.8333333, 33.8833333 ] ] ] } },
{ "type": "Feature", "properties": { "Id": 0, "Sheet_ID": "21. 睢縣", "label": "21. 睢縣", "call_short": "G7824 .X8 A1 S100 .J3", "call_num": "G7824 .X8 A1 S100 .J3 SHEET 21", "recid": "tm526gr4509", "websiteUrl": "https://purl.stanford.edu/tm526gr4509", "title": "假製 北支那十万分一圖 徐州", "ckey": 10475228, "available": true, "iiifUrl": "https://purl.stanford.edu/tm526gr4509/iiif/manifest" }, "geometry": { "type": "Polygon", "coordinates": [ [ [ 114.8333333, 34.2166665 ], [ 115.3333333, 34.2166665 ], [ 115.3333333, 34.5499997 ], [ 114.8333333, 34.5499997 ], [ 114.8333333, 34.2166665 ] ] ] } },
{ "type": "Feature", "properties": { "Id": 0, "Sheet_ID": "16. 歸徳", "label": "16. 歸徳", "call_short": "G7824 .X8 A1 S100 .J3", "call_num": "G7824 .X8 A1 S100 .J3 SHEET 16", "recid": "yt372bg0716", "websiteUrl": "https://purl.stanford.edu/yt372bg0716", "title": "假製 北支那十万分一圖 徐州", "ckey": 10475228, "available": true, "iiifUrl": "https://purl.stanford.edu/yt372bg0716/iiif/manifest" }, "geometry": { "type": "Polygon", "coordinates": [ [ [ 115.3333333, 34.2166665 ], [ 115.8333333, 34.2166665 ], [ 115.8333333, 34.5499997 ], [ 115.3333333, 34.5499997 ], [ 115.3333333, 34.2166665 ] ] ] } },
{ "type": "Feature", "properties": { "Id": 0, "Sheet_ID": "11. 夏邑", "label": "11. 夏邑", "call_short": "G7824 .X8 A1 S100 .J3", "call_num": "G7824 .X8 A1 S100 .J3 SHEET 11", "recid": "kd479bg7081", "websiteUrl": "https://purl.stanford.edu/kd479bg7081", "title": "假製 北支那十万分一圖 徐州", "ckey": 10475228, "available": true, "iiifUrl": "https://purl.stanford.edu/kd479bg7081/iiif/manifest" }, "geometry": { "type": "Polygon", "coordinates": [ [ [ 115.8333333, 34.2166665 ], [ 116.3333333, 34.2166665 ], [ 116.3333333, 34.5499997 ], [ 115.8333333, 34.5499997 ], [ 115.8333333, 34.2166665 ] ] ] } },
{ "type": "Feature", "properties": { "Id": 0, "Sheet_ID": "6 .碭山", "label": "6 .碭山", "call_short": "0", "call_num": "0", "recid": "0", "websiteUrl": "0", "title": "0", "ckey": 0, "available": false, "iiifUrl": "0" }, "geometry": { "type": "Polygon", "coordinates": [ [ [ 116.3333333, 34.2166665 ], [ 116.8333333, 34.2166665 ], [ 116.8333333, 34.5499997 ], [ 116.3333333, 34.5499997 ], [ 116.3333333, 34.2166665 ] ] ] } },
{ "type": "Feature", "properties": { "Id": 0, "Sheet_ID": "1. 徐州", "label": "1. 徐州", "call_short": "G7824 .X8 A1 S100 .J3", "call_num": "G7824 .X8 A1 S100 .J3 SHEET 1", "recid": "hr412vw3270", "websiteUrl": "https://purl.stanford.edu/hr412vw3270", "title": "假製 北支那十万分一圖 徐州", "ckey": 10475228, "available": true, "iiifUrl": "https://purl.stanford.edu/hr412vw3270/iiif/manifest" }, "geometry": { "type": "Polygon", "coordinates": [ [ [ 116.8333333, 34.2166665 ], [ 117.3333333, 34.2166665 ], [ 117.3333333, 34.5499997 ], [ 116.8333333, 34.5499997 ], [ 116.8333333, 34.2166665 ] ] ] } }
]
}
