{"type":"FeatureCollection","features":[{"type":"Feature","properties":{"Id":0,"Sheet_ID":"惠山鎮 13. 小白山","label":"惠山鎮 13. 小白山","call_short":"G7901 .P1 S50 .J3","call_num":"G7901 .P1 S50 .J3 G13","recid":"df324df2172","websiteUrl":"https://purl.stanford.edu/df324df2172","title":"朝鮮交通圖","ckey":9752477,"web_map":"","available":"true","iiifUrl":"https://purl.stanford.edu/df324df2172/iiif/manifest"},"geometry":{"bbox":[128.002778,41.833333,128.252778,41.99999975],"type":"Polygon","coordinates":[[[128.002778,41.833333],[128.002778,41.99999975],[128.252778,41.99999975],[128.252778,41.833333],[128.002778,41.833333]]]}},{"type":"Feature","properties":{"Id":0,"Sheet_ID":"惠山鎮 9. 神武城","label":"惠山鎮 9. 神武城","call_short":"","call_num":"","recid":"","websiteUrl":"","title":"","ckey":0,"web_map":"","available":"false","iiifUrl":""},"geometry":{"bbox":[128.252778,41.833333,128.502778,41.99999975],"type":"Polygon","coordinates":[[[128.252778,41.833333],[128.252778,41.99999975],[128.502778,41.99999975],[128.502778,41.833333],[128.252778,41.833333]]]}},{"type":"Feature","properties":{"Id":0,"Sheet_ID":"惠山鎮 5. 甑山","label":"惠山鎮 5. 甑山","call_short":"G7901 .P1 S50 .J3","call_num":"G7901 .P1 S50 .J3 G5","recid":"ry698tv6412","websiteUrl":"https://purl.stanford.edu/ry698tv6412","title":"朝鮮交通圖","ckey":9752477,"web_map":"","available":"true","iiifUrl":"https://purl.stanford.edu/ry698tv6412/iiif/manifest"},"geometry":{"bbox":[128.502778,41.833333,128.752778,41.99999975],"type":"Polygon","coordinates":[[[128.502778,41.833333],[128.502778,41.99999975],[128.752778,41.99999975],[128.752778,41.833333],[128.502778,41.833333]]]}},{"type":"Feature","properties":{"Id":0,"Sheet_ID":"羅南 13. 四芝洞","label":"羅南 13. 四芝洞","call_short":"","call_num":"","recid":"","websiteUrl":"","title":"","ckey":0,"web_map":"","available":"false","iiifUrl":""},"geometry":{"bbox":[129.002778,41.833333,129.252778,41.99999975],"type":"Polygon","coordinates":[[[129.002778,41.833333],[129.002778,41.99999975],[129.252778,41.99999975],[129.252778,41.833333],[129.002778,41.833333]]]}},{"type":"Feature","properties":{"Id":0,"Sheet_ID":"白頭山 16. 白頭山","label":"白頭山 16. 白頭山","call_short":"G7901 .P1 S50 .J3","call_num":"G7901 .P1 S50 .J3 E16","recid":"zd225xz9708","websiteUrl":"https://purl.stanford.edu/zd225xz9708","title":"朝鮮交通圖","ckey":9752477,"web_map":"","available":"true","iiifUrl":"https://purl.stanford.edu/zd225xz9708/iiif/manifest"},"geometry":{"bbox":[128.002778,41.99999975,128.252778,42.1666665],"type":"Polygon","coordinates":[[[128.002778,41.99999975],[128.002778,42.1666665],[128.252778,42.1666665],[128.252778,41.99999975],[128.002778,41.99999975]]]}},{"type":"Feature","properties":{"Id":0,"Sheet_ID":"白頭山 12. 圓池","label":"白頭山 12. 圓池","call_short":"G7901 .P1 S50 .J3","call_num":"G7901 .P1 S50 .J3 E12","recid":"vd013zx6506","websiteUrl":"https://purl.stanford.edu/vd013zx6506","title":"朝鮮交通圖","ckey":9752477,"web_map":"","available":"true","iiifUrl":"https://purl.stanford.edu/vd013zx6506/iiif/manifest"},"geometry":{"bbox":[128.252778,41.99999975,128.502778,42.1666665],"type":"Polygon","coordinates":[[[128.252778,41.99999975],[128.252778,42.1666665],[128.502778,42.1666665],[128.502778,41.99999975],[128.252778,41.99999975]]]}},{"type":"Feature","properties":{"Id":0,"Sheet_ID":"白頭山 8. 長山嶺","label":"白頭山 8. 長山嶺","call_short":"G7901 .P1 S50 .J3","call_num":"G7901 .P1 S50 .J3 E8","recid":"px203vy5547","websiteUrl":"https://purl.stanford.edu/px203vy5547","title":"朝鮮交通圖","ckey":9752477,"web_map":"","available":"true","iiifUrl":"https://purl.stanford.edu/px203vy5547/iiif/manifest"},"geometry":{"bbox":[128.502778,41.99999975,128.752778,42.1666665],"type":"Polygon","coordinates":[[[128.502778,41.99999975],[128.502778,42.1666665],[128.752778,42.1666665],[128.752778,41.99999975],[128.502778,41.99999975]]]}},{"type":"Feature","properties":{"Id":0,"Sheet_ID":"白頭山 4. 農事洞","label":"白頭山 4. 農事洞","call_short":"G7901 .P1 S50 .J3","call_num":"G7901 .P1 S50 .J3 E4","recid":"tt782cq0865","websiteUrl":"https://purl.stanford.edu/tt782cq0865","title":"朝鮮交通圖","ckey":9752477,"web_map":"","available":"true","iiifUrl":"https://purl.stanford.edu/tt782cq0865/iiif/manifest"},"geometry":{"bbox":[128.752778,41.99999975,129.002778,42.1666665],"type":"Polygon","coordinates":[[[128.752778,41.99999975],[128.752778,42.1666665],[129.002778,42.1666665],[129.002778,41.99999975],[128.752778,41.99999975]]]}},{"type":"Feature","properties":{"Id":0,"Sheet_ID":"會寧 16. 上倉坪","label":"會寧 16. 上倉坪","call_short":"G7901 .P1 S50 .J3","call_num":"G7901 .P1 S50 .J3 D16","recid":"qm304mb8209","websiteUrl":"https://purl.stanford.edu/qm304mb8209","title":"朝鮮交通圖","ckey":9752477,"web_map":"","available":"true","iiifUrl":"https://purl.stanford.edu/qm304mb8209/iiif/manifest"},"geometry":{"bbox":[129.002778,41.99999975,129.252778,42.1666665],"type":"Polygon","coordinates":[[[129.002778,41.99999975],[129.002778,42.1666665],[129.252778,42.1666665],[129.252778,41.99999975],[129.002778,41.99999975]]]}},{"type":"Feature","properties":{"Id":0,"Sheet_ID":"會寧 12. 豐山洞","label":"會寧 12. 豐山洞","call_short":"","call_num":"","recid":"","websiteUrl":"","title":"","ckey":0,"web_map":"","available":"false","iiifUrl":""},"geometry":{"bbox":[129.252778,41.99999975,129.502778,42.1666665],"type":"Polygon","coordinates":[[[129.252778,41.99999975],[129.252778,42.1666665],[129.502778,42.1666665],[129.502778,41.99999975],[129.252778,41.99999975]]]}},{"type":"Feature","properties":{"Id":0,"Sheet_ID":"會寧 8. 富寧","label":"會寧 8. 富寧","call_short":"","call_num":"","recid":"","websiteUrl":"","title":"","ckey":0,"web_map":"","available":"false","iiifUrl":""},"geometry":{"bbox":[129.502778,41.99999975,129.752778,42.1666665],"type":"Polygon","coordinates":[[[129.502778,41.99999975],[129.502778,42.1666665],[129.752778,42.1666665],[129.752778,41.99999975],[129.502778,41.99999975]]]}},{"type":"Feature","properties":{"Id":0,"Sheet_ID":"會寧 4. 富居","label":"會寧 4. 富居","call_short":"","call_num":"","recid":"","websiteUrl":"","title":"","ckey":0,"web_map":"","available":"false","iiifUrl":""},"geometry":{"bbox":[129.752778,41.99999975,130.002778,42.1666665],"type":"Polygon","coordinates":[[[129.752778,41.99999975],[129.752778,42.1666665],[130.002778,42.1666665],[130.002778,41.99999975],[129.752778,41.99999975]]]}},{"type":"Feature","properties":{"Id":0,"Sheet_ID":"慶興 16. 梨津","label":"慶興 16. 梨津","call_short":"","call_num":"","recid":"","websiteUrl":"","title":"","ckey":0,"web_map":"","available":"false","iiifUrl":""},"geometry":{"bbox":[130.002778,41.99999975,130.252778,42.1666665],"type":"Polygon","coordinates":[[[130.002778,41.99999975],[130.002778,42.1666665],[130.252778,42.1666665],[130.252778,41.99999975],[130.002778,41.99999975]]]}},{"type":"Feature","properties":{"Id":0,"Sheet_ID":"會寧 15. 茂山","label":"會寧 15. 茂山","call_short":"G7901 .P1 S50 .J3","call_num":"G7901 .P1 S50 .J3 D15","recid":"tx207qw3536","websiteUrl":"https://purl.stanford.edu/tx207qw3536","title":"朝鮮交通圖","ckey":9752477,"web_map":"","available":"true","iiifUrl":"https://purl.stanford.edu/tx207qw3536/iiif/manifest"},"geometry":{"bbox":[129.002778,42.166666500000005,129.252778,42.33333325000001],"type":"Polygon","coordinates":[[[129.002778,42.166666500000005],[129.002778,42.33333325000001],[129.252778,42.33333325000001],[129.252778,42.166666500000005],[129.002778,42.166666500000005]]]}},{"type":"Feature","properties":{"Id":0,"Sheet_ID":"會寧 11. 珍貨洞","label":"會寧 11. 珍貨洞","call_short":"","call_num":"","recid":"","websiteUrl":"","title":"","ckey":0,"web_map":"","available":"false","iiifUrl":""},"geometry":{"bbox":[129.252778,42.166666500000005,129.502778,42.33333325000001],"type":"Polygon","coordinates":[[[129.252778,42.166666500000005],[129.252778,42.33333325000001],[129.502778,42.33333325000001],[129.502778,42.166666500000005],[129.252778,42.166666500000005]]]}},{"type":"Feature","properties":{"Id":0,"Sheet_ID":"會寧 7. 蒼坪","label":"會寧 7. 蒼坪","call_short":"","call_num":"","recid":"","websiteUrl":"","title":"","ckey":0,"web_map":"","available":"false","iiifUrl":""},"geometry":{"bbox":[129.502778,42.166666500000005,129.752778,42.33333325000001],"type":"Polygon","coordinates":[[[129.502778,42.166666500000005],[129.502778,42.33333325000001],[129.752778,42.33333325000001],[129.752778,42.166666500000005],[129.502778,42.166666500000005]]]}},{"type":"Feature","properties":{"Id":0,"Sheet_ID":"會寧 3. 古豐山","label":"會寧 3. 古豐山","call_short":"","call_num":"","recid":"","websiteUrl":"","title":"","ckey":0,"web_map":"","available":"false","iiifUrl":""},"geometry":{"bbox":[129.752778,42.166666500000005,130.002778,42.33333325000001],"type":"Polygon","coordinates":[[[129.752778,42.166666500000005],[129.752778,42.33333325000001],[130.002778,42.33333325000001],[130.002778,42.166666500000005],[129.752778,42.166666500000005]]]}},{"type":"Feature","properties":{"Id":0,"Sheet_ID":"慶興 15. 新洞","label":"慶興 15. 新洞","call_short":"","call_num":"","recid":"","websiteUrl":"","title":"","ckey":0,"web_map":"","available":"false","iiifUrl":""},"geometry":{"bbox":[130.002778,42.166666500000005,130.252778,42.33333325000001],"type":"Polygon","coordinates":[[[130.002778,42.166666500000005],[130.002778,42.33333325000001],[130.252778,42.33333325000001],[130.252778,42.166666500000005],[130.002778,42.166666500000005]]]}},{"type":"Feature","properties":{"Id":0,"Sheet_ID":"慶興 11. 羅津","label":"慶興 11. 羅津","call_short":"","call_num":"","recid":"","websiteUrl":"","title":"","ckey":0,"web_map":"","available":"false","iiifUrl":""},"geometry":{"bbox":[130.252778,42.166666500000005,130.502778,42.33333325000001],"type":"Polygon","coordinates":[[[130.252778,42.166666500000005],[130.252778,42.33333325000001],[130.502778,42.33333325000001],[130.502778,42.166666500000005],[130.252778,42.166666500000005]]]}},{"type":"Feature","properties":{"Id":0,"Sheet_ID":"慶興 7. 西水羅","label":"慶興 7. 西水羅","call_short":"","call_num":"","recid":"","websiteUrl":"","title":"","ckey":0,"web_map":"","available":"false","iiifUrl":""},"geometry":{"bbox":[130.502778,42.166666500000005,130.752778,42.33333325000001],"type":"Polygon","coordinates":[[[130.502778,42.166666500000005],[130.502778,42.33333325000001],[130.752778,42.33333325000001],[130.752778,42.166666500000005],[130.502778,42.166666500000005]]]}},{"type":"Feature","properties":{"Id":0,"Sheet_ID":"會寧 14. 芝草洞","label":"會寧 14. 芝草洞","call_short":"G7901 .P1 S50 .J3","call_num":"G7901 .P1 S50 .J3 D14","recid":"xp623qb2976","websiteUrl":"https://purl.stanford.edu/xp623qb2976","title":"朝鮮交通圖","ckey":9752477,"web_map":"","available":"true","iiifUrl":"https://purl.stanford.edu/xp623qb2976/iiif/manifest"},"geometry":{"bbox":[129.002778,42.33333325000001,129.252778,42.5],"type":"Polygon","coordinates":[[[129.002778,42.33333325000001],[129.002778,42.5],[129.252778,42.5],[129.252778,42.33333325000001],[129.002778,42.33333325000001]]]}},{"type":"Feature","properties":{"Id":0,"Sheet_ID":"會寧 10. 西湖洞","label":"會寧 10. 西湖洞","call_short":"","call_num":"","recid":"","websiteUrl":"","title":"","ckey":0,"web_map":"","available":"false","iiifUrl":""},"geometry":{"bbox":[129.252778,42.33333325000001,129.502778,42.5],"type":"Polygon","coordinates":[[[129.252778,42.33333325000001],[129.252778,42.5],[129.502778,42.5],[129.502778,42.33333325000001],[129.252778,42.33333325000001]]]}},{"type":"Feature","properties":{"Id":0,"Sheet_ID":"會寧 6. 雲淵洞","label":"會寧 6. 雲淵洞","call_short":"","call_num":"","recid":"","websiteUrl":"","title":"","ckey":0,"web_map":"","available":"false","iiifUrl":""},"geometry":{"bbox":[129.502778,42.33333325000001,129.752778,42.5],"type":"Polygon","coordinates":[[[129.502778,42.33333325000001],[129.502778,42.5],[129.752778,42.5],[129.752778,42.33333325000001],[129.502778,42.33333325000001]]]}},{"type":"Feature","properties":{"Id":0,"Sheet_ID":"會寧 2. 會寧","label":"會寧 2. 會寧","call_short":"","call_num":"","recid":"","websiteUrl":"","title":"","ckey":0,"web_map":"","available":"false","iiifUrl":""},"geometry":{"bbox":[129.752778,42.33333325000001,130.002778,42.5],"type":"Polygon","coordinates":[[[129.752778,42.33333325000001],[129.752778,42.5],[130.002778,42.5],[130.002778,42.33333325000001],[129.752778,42.33333325000001]]]}},{"type":"Feature","properties":{"Id":0,"Sheet_ID":"慶興 14. 徳明","label":"慶興 14. 徳明","call_short":"","call_num":"","recid":"","websiteUrl":"","title":"","ckey":0,"web_map":"","available":"false","iiifUrl":""},"geometry":{"bbox":[130.002778,42.33333325000001,130.252778,42.5],"type":"Polygon","coordinates":[[[130.002778,42.33333325000001],[130.002778,42.5],[130.252778,42.5],[130.252778,42.33333325000001],[130.002778,42.33333325000001]]]}},{"type":"Feature","properties":{"Id":0,"Sheet_ID":"慶興 10. 雄基","label":"慶興 10. 雄基","call_short":"","call_num":"","recid":"","websiteUrl":"","title":"","ckey":0,"web_map":"","available":"false","iiifUrl":""},"geometry":{"bbox":[130.252778,42.33333325000001,130.502778,42.5],"type":"Polygon","coordinates":[[[130.252778,42.33333325000001],[130.252778,42.5],[130.502778,42.5],[130.502778,42.33333325000001],[130.252778,42.33333325000001]]]}},{"type":"Feature","properties":{"Id":0,"Sheet_ID":"慶興 6. 古邑洞","label":"慶興 6. 古邑洞","call_short":"G7901 .P1 S50 .J3","call_num":"G7901 .P1 S50 .J3 C6","recid":"nh921gx1819","websiteUrl":"https://purl.stanford.edu/nh921gx1819","title":"朝鮮交通圖","ckey":9752477,"web_map":"","available":"true","iiifUrl":"https://purl.stanford.edu/nh921gx1819/iiif/manifest"},"geometry":{"bbox":[130.502778,42.33333325000001,130.752778,42.5],"type":"Polygon","coordinates":[[[130.502778,42.33333325000001],[130.502778,42.5],[130.752778,42.5],[130.752778,42.33333325000001],[130.502778,42.33333325000001]]]}},{"type":"Feature","properties":{"Id":0,"Sheet_ID":"會寧 5. 行營西部","label":"會寧 5. 行營西部","call_short":"G7901 .P1 S50 .J3","call_num":"G7901 .P1 S50 .J3 D5","recid":"jw864sy3364","websiteUrl":"https://purl.stanford.edu/jw864sy3364","title":"朝鮮交通圖","ckey":9752477,"web_map":"","available":"true","iiifUrl":"https://purl.stanford.edu/jw864sy3364/iiif/manifest"},"geometry":{"bbox":[129.502778,42.5,129.752778,42.66666675],"type":"Polygon","coordinates":[[[129.502778,42.5],[129.502778,42.66666675],[129.752778,42.66666675],[129.752778,42.5],[129.502778,42.5]]]}},{"type":"Feature","properties":{"Id":0,"Sheet_ID":"會寧 1. 行營","label":"會寧 1. 行營","call_short":"","call_num":"","recid":"","websiteUrl":"","title":"","ckey":0,"web_map":"","available":"false","iiifUrl":""},"geometry":{"bbox":[129.752778,42.5,130.002778,42.66666675],"type":"Polygon","coordinates":[[[129.752778,42.5],[129.752778,42.66666675],[130.002778,42.66666675],[130.002778,42.5],[129.752778,42.5]]]}},{"type":"Feature","properties":{"Id":0,"Sheet_ID":"慶興 13. 古乾原","label":"慶興 13. 古乾原","call_short":"","call_num":"","recid":"","websiteUrl":"","title":"","ckey":0,"web_map":"","available":"false","iiifUrl":""},"geometry":{"bbox":[130.002778,42.5,130.252778,42.66666675],"type":"Polygon","coordinates":[[[130.002778,42.5],[130.002778,42.66666675],[130.252778,42.66666675],[130.252778,42.5],[130.002778,42.5]]]}},{"type":"Feature","properties":{"Id":0,"Sheet_ID":"慶興 9. 新阿山","label":"慶興 9. 新阿山","call_short":"G7901 .P1 S50 .J3","call_num":"G7901 .P1 S50 .J3 C9","recid":"mb480df7098","websiteUrl":"https://purl.stanford.edu/mb480df7098","title":"朝鮮交通圖","ckey":9752477,"web_map":"","available":"true","iiifUrl":"https://purl.stanford.edu/mb480df7098/iiif/manifest"},"geometry":{"bbox":[130.252778,42.5,130.502778,42.66666675],"type":"Polygon","coordinates":[[[130.252778,42.5],[130.252778,42.66666675],[130.502778,42.66666675],[130.502778,42.5],[130.252778,42.5]]]}},{"type":"Feature","properties":{"Id":0,"Sheet_ID":"慶興 5. 慶興","label":"慶興 5. 慶興","call_short":"","call_num":"","recid":"","websiteUrl":"","title":"","ckey":0,"web_map":"","available":"false","iiifUrl":""},"geometry":{"bbox":[130.502778,42.5,130.752778,42.66666675],"type":"Polygon","coordinates":[[[130.502778,42.5],[130.502778,42.66666675],[130.752778,42.66666675],[130.752778,42.5],[130.502778,42.5]]]}},{"type":"Feature","properties":{"Id":0,"Sheet_ID":"鍾城 4. 鍾城","label":"鍾城 4. 鍾城","call_short":"","call_num":"","recid":"","websiteUrl":"","title":"","ckey":0,"web_map":"","available":"false","iiifUrl":""},"geometry":{"bbox":[129.752778,42.66666675,130.002778,42.833333499999995],"type":"Polygon","coordinates":[[[129.752778,42.66666675],[129.752778,42.833333499999995],[130.002778,42.833333499999995],[130.002778,42.66666675],[129.752778,42.66666675]]]}},{"type":"Feature","properties":{"Id":0,"Sheet_ID":"慶源 16. 慶源","label":"慶源 16. 慶源","call_short":"","call_num":"","recid":"","websiteUrl":"","title":"","ckey":0,"web_map":"","available":"false","iiifUrl":""},"geometry":{"bbox":[130.002778,42.66666675,130.252778,42.833333499999995],"type":"Polygon","coordinates":[[[130.002778,42.66666675],[130.002778,42.833333499999995],[130.252778,42.833333499999995],[130.252778,42.66666675],[130.002778,42.66666675]]]}},{"type":"Feature","properties":{"Id":0,"Sheet_ID":"慶源 12. 新乾洞","label":"慶源 12. 新乾洞","call_short":"","call_num":"","recid":"","websiteUrl":"","title":"","ckey":0,"web_map":"","available":"false","iiifUrl":""},"geometry":{"bbox":[130.252778,42.66666675,130.502778,42.833333499999995],"type":"Polygon","coordinates":[[[130.252778,42.66666675],[130.252778,42.833333499999995],[130.502778,42.833333499999995],[130.502778,42.66666675],[130.252778,42.66666675]]]}},{"type":"Feature","properties":{"Id":0,"Sheet_ID":"鍾城 3. 穩城","label":"鍾城 3. 穩城","call_short":"","call_num":"","recid":"","websiteUrl":"","title":"","ckey":0,"web_map":"","available":"false","iiifUrl":""},"geometry":{"bbox":[129.752778,42.833333499999995,130.002778,43.00000024999999],"type":"Polygon","coordinates":[[[129.752778,42.833333499999995],[129.752778,43.00000024999999],[130.002778,43.00000024999999],[130.002778,42.833333499999995],[129.752778,42.833333499999995]]]}},{"type":"Feature","properties":{"Id":0,"Sheet_ID":"慶源 15. 訓戎","label":"慶源 15. 訓戎","call_short":"","call_num":"","recid":"","websiteUrl":"","title":"","ckey":0,"web_map":"","available":"false","iiifUrl":""},"geometry":{"bbox":[130.002778,42.833333499999995,130.252778,43.00000024999999],"type":"Polygon","coordinates":[[[130.002778,42.833333499999995],[130.002778,43.00000024999999],[130.252778,43.00000024999999],[130.252778,42.833333499999995],[130.002778,42.833333499999995]]]}},{"type":"Feature","properties":{"Id":0,"Sheet_ID":"慶源 11. 訓戎東部","label":"慶源 11. 訓戎東部","call_short":"","call_num":"","recid":"","websiteUrl":"","title":"","ckey":0,"web_map":"","available":"false","iiifUrl":""},"geometry":{"bbox":[130.252778,42.833333499999995,130.502778,43.00000024999999],"type":"Polygon","coordinates":[[[130.252778,42.833333499999995],[130.252778,43.00000024999999],[130.502778,43.00000024999999],[130.502778,42.833333499999995],[130.252778,42.833333499999995]]]}},{"type":"Feature","properties":{"Id":0,"Sheet_ID":"鍾城 2. 柔遠鎭","label":"鍾城 2. 柔遠鎭","call_short":"","call_num":"","recid":"","websiteUrl":"","title":"","ckey":0,"web_map":"","available":"false","iiifUrl":""},"geometry":{"bbox":[129.752778,43.00000025,130.002778,43.166667000000004],"type":"Polygon","coordinates":[[[129.752778,43.00000025],[129.752778,43.166667000000004],[130.002778,43.166667000000004],[130.002778,43.00000025],[129.752778,43.00000025]]]}},{"type":"Feature","properties":{"Id":0,"Sheet_ID":"元山 14. 馬轉里","label":"元山 14. 馬轉里","call_short":"G7901 .P1 S50 .J3","call_num":"G7901 .P1 S50 .J3 I14","recid":"rg671dr1167","websiteUrl":"https://purl.stanford.edu/rg671dr1167","title":"朝鮮交通圖","ckey":9752477,"web_map":"","available":"true","iiifUrl":"https://purl.stanford.edu/rg671dr1167/iiif/manifest"},"geometry":{"bbox":[127.002778,39,127.25277800000002,39.16666675],"type":"Polygon","coordinates":[[[127.002778,39],[127.002778,39.16666675],[127.25277800000002,39.16666675],[127.25277800000002,39],[127.002778,39]]]}},{"type":"Feature","properties":{"Id":0,"Sheet_ID":"元山 10. 元山府外南部","label":"元山 10. 元山府外南部","call_short":"G7901 .P1 S50 .J3","call_num":"G7901 .P1 S50 .J3 I10","recid":"wx979hk3078","websiteUrl":"https://purl.stanford.edu/wx979hk3078","title":"朝鮮交通圖","ckey":9752477,"web_map":"","available":"true","iiifUrl":"https://purl.stanford.edu/wx979hk3078/iiif/manifest"},"geometry":{"bbox":[127.25277800000002,39,127.502778,39.16666675],"type":"Polygon","coordinates":[[[127.25277800000002,39],[127.25277800000002,39.16666675],[127.502778,39.16666675],[127.502778,39],[127.25277800000002,39]]]}},{"type":"Feature","properties":{"Id":0,"Sheet_ID":"元山 6. 安邊","label":"元山 6. 安邊","call_short":"G7901 .P1 S50 .J3","call_num":"G7901 .P1 S50 .J3 I6","recid":"xz033zy0547","websiteUrl":"https://purl.stanford.edu/xz033zy0547","title":"朝鮮交通圖","ckey":9752477,"web_map":"","available":"true","iiifUrl":"https://purl.stanford.edu/xz033zy0547/iiif/manifest"},"geometry":{"bbox":[127.502778,39,127.752778,39.16666675],"type":"Polygon","coordinates":[[[127.502778,39],[127.502778,39.16666675],[127.752778,39.16666675],[127.752778,39],[127.502778,39]]]}},{"type":"Feature","properties":{"Id":0,"Sheet_ID":"元山 13. 頭流山","label":"元山 13. 頭流山","call_short":"G7901 .P1 S50 .J3","call_num":"G7901 .P1 S50 .J3 I13","recid":"gp223fy4247","websiteUrl":"https://purl.stanford.edu/gp223fy4247","title":"朝鮮交通圖","ckey":9752477,"web_map":"","available":"true","iiifUrl":"https://purl.stanford.edu/gp223fy4247/iiif/manifest"},"geometry":{"bbox":[127.002778,39.16666675,127.25277800000002,39.333333499999995],"type":"Polygon","coordinates":[[[127.002778,39.16666675],[127.002778,39.333333499999995],[127.25277800000002,39.333333499999995],[127.25277800000002,39.16666675],[127.002778,39.16666675]]]}},{"type":"Feature","properties":{"Id":0,"Sheet_ID":"元山 9. 元山府外北部","label":"元山 9. 元山府外北部","call_short":"G7901 .P1 S50 .J3","call_num":"G7901 .P1 S50 .J3 I9","recid":"mx163rm1255","websiteUrl":"https://purl.stanford.edu/mx163rm1255","title":"朝鮮交通圖","ckey":9752477,"web_map":"","available":"true","iiifUrl":"https://purl.stanford.edu/mx163rm1255/iiif/manifest"},"geometry":{"bbox":[127.25277800000002,39.16666675,127.502778,39.333333499999995],"type":"Polygon","coordinates":[[[127.25277800000002,39.16666675],[127.25277800000002,39.333333499999995],[127.502778,39.333333499999995],[127.502778,39.16666675],[127.25277800000002,39.16666675]]]}},{"type":"Feature","properties":{"Id":0,"Sheet_ID":"咸興 16. 高原","label":"咸興 16. 高原","call_short":"","call_num":"","recid":"","websiteUrl":"","title":"","ckey":0,"web_map":"","available":"false","iiifUrl":""},"geometry":{"bbox":[127.002778,39.333333499999995,127.25277800000002,39.50000024999999],"type":"Polygon","coordinates":[[[127.002778,39.333333499999995],[127.002778,39.50000024999999],[127.25277800000002,39.50000024999999],[127.25277800000002,39.333333499999995],[127.002778,39.333333499999995]]]}},{"type":"Feature","properties":{"Id":0,"Sheet_ID":"咸興 12. 鎭興里","label":"咸興 12. 鎭興里","call_short":"","call_num":"","recid":"","websiteUrl":"","title":"","ckey":0,"web_map":"","available":"false","iiifUrl":""},"geometry":{"bbox":[127.25277800000002,39.333333499999995,127.502778,39.50000024999999],"type":"Polygon","coordinates":[[[127.25277800000002,39.333333499999995],[127.25277800000002,39.50000024999999],[127.502778,39.50000024999999],[127.502778,39.333333499999995],[127.25277800000002,39.333333499999995]]]}},{"type":"Feature","properties":{"Id":0,"Sheet_ID":"咸興 15. 永興","label":"咸興 15. 永興","call_short":"","call_num":"","recid":"","websiteUrl":"","title":"","ckey":0,"web_map":"","available":"false","iiifUrl":""},"geometry":{"bbox":[127.002778,39.50000025,127.25277800000002,39.666667],"type":"Polygon","coordinates":[[[127.002778,39.50000025],[127.002778,39.666667],[127.25277800000002,39.666667],[127.25277800000002,39.50000025],[127.002778,39.50000025]]]}},{"type":"Feature","properties":{"Id":0,"Sheet_ID":"咸興 11. 播春場","label":"咸興 11. 播春場","call_short":"","call_num":"","recid":"","websiteUrl":"","title":"","ckey":0,"web_map":"","available":"false","iiifUrl":""},"geometry":{"bbox":[127.25277800000002,39.50000025,127.502778,39.666667],"type":"Polygon","coordinates":[[[127.25277800000002,39.50000025],[127.25277800000002,39.666667],[127.502778,39.666667],[127.502778,39.50000025],[127.25277800000002,39.50000025]]]}},{"type":"Feature","properties":{"Id":0,"Sheet_ID":"咸興 7. 三峰里","label":"咸興 7. 三峰里","call_short":"","call_num":"","recid":"","websiteUrl":"","title":"","ckey":0,"web_map":"","available":"false","iiifUrl":""},"geometry":{"bbox":[127.502778,39.50000025,127.752778,39.666667],"type":"Polygon","coordinates":[[[127.502778,39.50000025],[127.502778,39.666667],[127.752778,39.666667],[127.752778,39.50000025],[127.502778,39.50000025]]]}},{"type":"Feature","properties":{"Id":0,"Sheet_ID":"白翎島 6. 大青島","label":"白翎島 6. 大青島","call_short":"G7901 .P1 S50 .J3","call_num":"G7901 .P1 S50 .J3 K6","recid":"qm281qn0509","websiteUrl":"https://purl.stanford.edu/qm281qn0509","title":"朝鮮交通圖","ckey":9752477,"web_map":"","available":"true","iiifUrl":"https://purl.stanford.edu/qm281qn0509/iiif/manifest"},"geometry":{"bbox":[124.502778,37.666667,124.75277800000002,37.833333499999995],"type":"Polygon","coordinates":[[[124.502778,37.666667],[124.502778,37.833333499999995],[124.75277800000002,37.833333499999995],[124.75277800000002,37.666667],[124.502778,37.666667]]]}},{"type":"Feature","properties":{"Id":0,"Sheet_ID":"白翎島 2. 小青島","label":"白翎島 2. 小青島","call_short":"G7901 .P1 S50 .J3","call_num":"G7901 .P1 S50 .J3 K2","recid":"hj398md9481","websiteUrl":"https://purl.stanford.edu/hj398md9481","title":"朝鮮交通圖","ckey":9752477,"web_map":"","available":"true","iiifUrl":"https://purl.stanford.edu/hj398md9481/iiif/manifest"},"geometry":{"bbox":[124.75277800000002,37.666667,125.002778,37.833333499999995],"type":"Polygon","coordinates":[[[124.75277800000002,37.666667],[124.75277800000002,37.833333499999995],[125.002778,37.833333499999995],[125.002778,37.666667],[124.75277800000002,37.666667]]]}},{"type":"Feature","properties":{"Id":0,"Sheet_ID":"甕津 14. 昌麟島","label":"甕津 14. 昌麟島","call_short":"G7901 .P1 S50 .J3","call_num":"G7901 .P1 S50 .J3 J14","recid":"by005fm8166","websiteUrl":"https://purl.stanford.edu/by005fm8166","title":"朝鮮交通圖","ckey":9752477,"web_map":"","available":"true","iiifUrl":"https://purl.stanford.edu/by005fm8166/iiif/manifest"},"geometry":{"bbox":[125.002778,37.666667,125.252778,37.833333499999995],"type":"Polygon","coordinates":[[[125.002778,37.666667],[125.002778,37.833333499999995],[125.252778,37.833333499999995],[125.252778,37.666667],[125.002778,37.666667]]]}},{"type":"Feature","properties":{"Id":0,"Sheet_ID":"甕津 10. 龍湖島","label":"甕津 10. 龍湖島","call_short":"G7901 .P1 S50 .J3","call_num":"G7901 .P1 S50 .J3 J10","recid":"cj956xt9084","websiteUrl":"https://purl.stanford.edu/cj956xt9084","title":"朝鮮交通圖","ckey":9752477,"web_map":"","available":"true","iiifUrl":"https://purl.stanford.edu/cj956xt9084/iiif/manifest"},"geometry":{"bbox":[125.252778,37.666667,125.50277799999999,37.833333499999995],"type":"Polygon","coordinates":[[[125.252778,37.666667],[125.252778,37.833333499999995],[125.50277799999999,37.833333499999995],[125.50277799999999,37.666667],[125.252778,37.666667]]]}},{"type":"Feature","properties":{"Id":0,"Sheet_ID":"甕津 6. 釜浦","label":"甕津 6. 釜浦","call_short":"G7901 .P1 S50 .J3","call_num":"G7901 .P1 S50 .J3 J6","recid":"hq525mh7751","websiteUrl":"https://purl.stanford.edu/hq525mh7751","title":"朝鮮交通圖","ckey":9752477,"web_map":"","available":"true","iiifUrl":"https://purl.stanford.edu/hq525mh7751/iiif/manifest"},"geometry":{"bbox":[125.50277799999999,37.666667,125.752778,37.833333499999995],"type":"Polygon","coordinates":[[[125.50277799999999,37.666667],[125.50277799999999,37.833333499999995],[125.752778,37.833333499999995],[125.752778,37.666667],[125.50277799999999,37.666667]]]}},{"type":"Feature","properties":{"Id":0,"Sheet_ID":"甕津 2. 龍媒島","label":"甕津 2. 龍媒島","call_short":"G7901 .P1 S50 .J3","call_num":"G7901 .P1 S50 .J3 J2","recid":"db866ht4814","websiteUrl":"https://purl.stanford.edu/db866ht4814","title":"朝鮮交通圖","ckey":9752477,"web_map":"","available":"true","iiifUrl":"https://purl.stanford.edu/db866ht4814/iiif/manifest"},"geometry":{"bbox":[125.752778,37.666667,126.00277800000002,37.833333499999995],"type":"Polygon","coordinates":[[[125.752778,37.666667],[125.752778,37.833333499999995],[126.00277800000002,37.833333499999995],[126.00277800000002,37.666667],[125.752778,37.666667]]]}},{"type":"Feature","properties":{"Id":0,"Sheet_ID":"白翎島 5. 白翎島","label":"白翎島 5. 白翎島","call_short":"G7901 .P1 S50 .J3","call_num":"G7901 .P1 S50 .J3 K5","recid":"dk499ss9006","websiteUrl":"https://purl.stanford.edu/dk499ss9006","title":"朝鮮交通圖","ckey":9752477,"web_map":"","available":"true","iiifUrl":"https://purl.stanford.edu/dk499ss9006/iiif/manifest"},"geometry":{"bbox":[124.502778,37.833333499999995,124.75277800000002,38],"type":"Polygon","coordinates":[[[124.502778,37.833333499999995],[124.502778,38],[124.75277800000002,38],[124.75277800000002,37.833333499999995],[124.502778,37.833333499999995]]]}},{"type":"Feature","properties":{"Id":0,"Sheet_ID":"白翎島 1. 麻蛤島","label":"白翎島 1. 麻蛤島","call_short":"G7901 .P1 S50 .J3","call_num":"G7901 .P1 S50 .J3 K1","recid":"mv678kn5949","websiteUrl":"https://purl.stanford.edu/mv678kn5949","title":"朝鮮交通圖","ckey":9752477,"web_map":"","available":"true","iiifUrl":"https://purl.stanford.edu/mv678kn5949/iiif/manifest"},"geometry":{"bbox":[124.75277800000002,37.833333499999995,125.002778,38],"type":"Polygon","coordinates":[[[124.75277800000002,37.833333499999995],[124.75277800000002,38],[125.002778,38],[125.002778,37.833333499999995],[124.75277800000002,37.833333499999995]]]}},{"type":"Feature","properties":{"Id":0,"Sheet_ID":"甕津 13. 甕津港","label":"甕津 13. 甕津港","call_short":"G7901 .P1 S50 .J3","call_num":"G7901 .P1 S50 .J3 J13","recid":"gn995zg2696","websiteUrl":"https://purl.stanford.edu/gn995zg2696","title":"朝鮮交通圖","ckey":9752477,"web_map":"","available":"true","iiifUrl":"https://purl.stanford.edu/gn995zg2696/iiif/manifest"},"geometry":{"bbox":[125.002778,37.833333499999995,125.252778,38],"type":"Polygon","coordinates":[[[125.002778,37.833333499999995],[125.002778,38],[125.252778,38],[125.252778,37.833333499999995],[125.002778,37.833333499999995]]]}},{"type":"Feature","properties":{"Id":0,"Sheet_ID":"甕津 9. 馬山","label":"甕津 9. 馬山","call_short":"G7901 .P1 S50 .J3","call_num":"G7901 .P1 S50 .J3 J9","recid":"bb035tx5910","websiteUrl":"https://purl.stanford.edu/bb035tx5910","title":"朝鮮交通圖","ckey":9752477,"web_map":"","available":"true","iiifUrl":"https://purl.stanford.edu/bb035tx5910/iiif/manifest"},"geometry":{"bbox":[125.252778,37.833333499999995,125.50277799999999,38],"type":"Polygon","coordinates":[[[125.252778,37.833333499999995],[125.252778,38],[125.50277799999999,38],[125.50277799999999,37.833333499999995],[125.252778,37.833333499999995]]]}},{"type":"Feature","properties":{"Id":0,"Sheet_ID":"甕津 5. 康翎","label":"甕津 5. 康翎","call_short":"","call_num":"","recid":"","websiteUrl":"","title":"","ckey":0,"web_map":"","available":"false","iiifUrl":""},"geometry":{"bbox":[125.50277799999999,37.833333499999995,125.752778,38],"type":"Polygon","coordinates":[[[125.50277799999999,37.833333499999995],[125.50277799999999,38],[125.752778,38],[125.752778,37.833333499999995],[125.50277799999999,37.833333499999995]]]}},{"type":"Feature","properties":{"Id":0,"Sheet_ID":"甕津 1. 青丹","label":"甕津 1. 青丹","call_short":"G7901 .P1 S50 .J3","call_num":"G7901 .P1 S50 .J3 J1","recid":"np318gs0555","websiteUrl":"https://purl.stanford.edu/np318gs0555","title":"朝鮮交通圖","ckey":9752477,"web_map":"","available":"true","iiifUrl":"https://purl.stanford.edu/np318gs0555/iiif/manifest"},"geometry":{"bbox":[125.752778,37.833333499999995,126.00277800000002,38],"type":"Polygon","coordinates":[[[125.752778,37.833333499999995],[125.752778,38],[126.00277800000002,38],[126.00277800000002,37.833333499999995],[125.752778,37.833333499999995]]]}},{"type":"Feature","properties":{"Id":0,"Sheet_ID":"馬山 12. 彌勒島","label":"馬山 12. 彌勒島","call_short":"","call_num":"","recid":"","websiteUrl":"","title":"","ckey":0,"web_map":"","available":"false","iiifUrl":""},"geometry":{"bbox":[128.252778,34.666667,128.502778,34.833333499999995],"type":"Polygon","coordinates":[[[128.252778,34.666667],[128.252778,34.833333499999995],[128.502778,34.833333499999995],[128.502778,34.666667],[128.252778,34.666667]]]}},{"type":"Feature","properties":{"Id":0,"Sheet_ID":"馬山 8. 舊助羅","label":"馬山 8. 舊助羅","call_short":"","call_num":"","recid":"","websiteUrl":"","title":"","ckey":0,"web_map":"","available":"false","iiifUrl":""},"geometry":{"bbox":[128.502778,34.666667,128.752778,34.833333499999995],"type":"Polygon","coordinates":[[[128.502778,34.666667],[128.502778,34.833333499999995],[128.752778,34.833333499999995],[128.752778,34.666667],[128.502778,34.666667]]]}},{"type":"Feature","properties":{"Id":0,"Sheet_ID":"馬山 11. 統營","label":"馬山 11. 統營","call_short":"","call_num":"","recid":"","websiteUrl":"","title":"","ckey":0,"web_map":"","available":"false","iiifUrl":""},"geometry":{"bbox":[128.252778,34.833333499999995,128.502778,35],"type":"Polygon","coordinates":[[[128.252778,34.833333499999995],[128.252778,35],[128.502778,35],[128.502778,34.833333499999995],[128.252778,34.833333499999995]]]}},{"type":"Feature","properties":{"Id":0,"Sheet_ID":"馬山 7. 巨濟島","label":"馬山 7. 巨濟島","call_short":"","call_num":"","recid":"","websiteUrl":"","title":"","ckey":0,"web_map":"","available":"false","iiifUrl":""},"geometry":{"bbox":[128.502778,34.833333499999995,128.752778,35],"type":"Polygon","coordinates":[[[128.502778,34.833333499999995],[128.502778,35],[128.752778,35],[128.752778,34.833333499999995],[128.502778,34.833333499999995]]]}},{"type":"Feature","properties":{"Id":0,"Sheet_ID":"馬山 10. 鎭東","label":"馬山 10. 鎭東","call_short":"","call_num":"","recid":"","websiteUrl":"","title":"","ckey":0,"web_map":"","available":"false","iiifUrl":""},"geometry":{"bbox":[128.252778,35,128.502778,35.166666500000005],"type":"Polygon","coordinates":[[[128.252778,35],[128.252778,35.166666500000005],[128.502778,35.166666500000005],[128.502778,35],[128.252778,35]]]}},{"type":"Feature","properties":{"Id":0,"Sheet_ID":"馬山 6. 鎭海","label":"馬山 6. 鎭海","call_short":"","call_num":"","recid":"","websiteUrl":"","title":"","ckey":0,"web_map":"","available":"false","iiifUrl":""},"geometry":{"bbox":[128.502778,35,128.752778,35.166666500000005],"type":"Polygon","coordinates":[[[128.502778,35],[128.502778,35.166666500000005],[128.752778,35.166666500000005],[128.752778,35],[128.502778,35]]]}},{"type":"Feature","properties":{"Id":0,"Sheet_ID":"馬山 9. 宜寧","label":"馬山 9. 宜寧","call_short":"","call_num":"","recid":"","websiteUrl":"","title":"","ckey":0,"web_map":"","available":"false","iiifUrl":""},"geometry":{"bbox":[128.252778,35.166666500000005,128.502778,35.33333300000001],"type":"Polygon","coordinates":[[[128.252778,35.166666500000005],[128.252778,35.33333300000001],[128.502778,35.33333300000001],[128.502778,35.166666500000005],[128.252778,35.166666500000005]]]}},{"type":"Feature","properties":{"Id":0,"Sheet_ID":"馬山 5. 馬山","label":"馬山 5. 馬山","call_short":"","call_num":"","recid":"","websiteUrl":"","title":"","ckey":0,"web_map":"","available":"false","iiifUrl":""},"geometry":{"bbox":[128.502778,35.166666500000005,128.752778,35.33333300000001],"type":"Polygon","coordinates":[[[128.502778,35.166666500000005],[128.502778,35.33333300000001],[128.752778,35.33333300000001],[128.752778,35.166666500000005],[128.502778,35.166666500000005]]]}},{"type":"Feature","properties":{"Id":0,"Sheet_ID":"馬山 1. 金海","label":"馬山 1. 金海","call_short":"","call_num":"","recid":"","websiteUrl":"","title":"","ckey":0,"web_map":"","available":"false","iiifUrl":""},"geometry":{"bbox":[128.752778,35.166666500000005,129.002778,35.33333300000001],"type":"Polygon","coordinates":[[[128.752778,35.166666500000005],[128.752778,35.33333300000001],[129.002778,35.33333300000001],[129.002778,35.166666500000005],[128.752778,35.166666500000005]]]}},{"type":"Feature","properties":{"Id":0,"Sheet_ID":"釜山 13. 東莱","label":"釜山 13. 東莱","call_short":"","call_num":"","recid":"","websiteUrl":"","title":"","ckey":0,"web_map":"","available":"false","iiifUrl":""},"geometry":{"bbox":[129.002778,35.166666500000005,129.252778,35.33333300000001],"type":"Polygon","coordinates":[[[129.002778,35.166666500000005],[129.002778,35.33333300000001],[129.252778,35.33333300000001],[129.252778,35.166666500000005],[129.002778,35.166666500000005]]]}},{"type":"Feature","properties":{"Id":0,"Sheet_ID":"釜山 9. 月内里","label":"釜山 9. 月内里","call_short":"","call_num":"","recid":"","websiteUrl":"","title":"","ckey":0,"web_map":"","available":"false","iiifUrl":""},"geometry":{"bbox":[129.252778,35.166666500000005,129.502778,35.33333300000001],"type":"Polygon","coordinates":[[[129.252778,35.166666500000005],[129.252778,35.33333300000001],[129.502778,35.33333300000001],[129.502778,35.166666500000005],[129.252778,35.166666500000005]]]}},{"type":"Feature","properties":{"Id":0,"Sheet_ID":"黒山島 1. 牛耳島","label":"黒山島 1. 牛耳島","call_short":"","call_num":"","recid":"","websiteUrl":"","title":"","ckey":0,"web_map":"","available":"false","iiifUrl":""},"geometry":{"bbox":[125.752778,34.5,126.00277800000002,34.666666666666664],"type":"Polygon","coordinates":[[[125.752778,34.5],[125.752778,34.666666666666664],[126.00277800000002,34.666666666666664],[126.00277800000002,34.5],[125.752778,34.5]]]}},{"type":"Feature","properties":{"Id":0,"Sheet_ID":"珍島 13. 荷衣島","label":"珍島 13. 荷衣島","call_short":"","call_num":"","recid":"","websiteUrl":"","title":"","ckey":0,"web_map":"","available":"false","iiifUrl":""},"geometry":{"bbox":[126.00277800000002,34.5,126.252778,34.666666666666664],"type":"Polygon","coordinates":[[[126.00277800000002,34.5],[126.00277800000002,34.666666666666664],[126.252778,34.666666666666664],[126.252778,34.5],[126.00277800000002,34.5]]]}},{"type":"Feature","properties":{"Id":0,"Sheet_ID":"梅加島 4. 飛禽島","label":"梅加島 4. 飛禽島","call_short":"G7901 .P1 S50 .J3","call_num":"G7901 .P1 S50 .J3 O4","recid":"jg143mc7024","websiteUrl":"https://purl.stanford.edu/jg143mc7024","title":"朝鮮交通圖","ckey":9752477,"web_map":"","available":"true","iiifUrl":"https://purl.stanford.edu/jg143mc7024/iiif/manifest"},"geometry":{"bbox":[125.752778,34.666666666666664,126.00277800000002,34.83333333333333],"type":"Polygon","coordinates":[[[125.752778,34.666666666666664],[125.752778,34.83333333333333],[126.00277800000002,34.83333333333333],[126.00277800000002,34.666666666666664],[125.752778,34.666666666666664]]]}},{"type":"Feature","properties":{"Id":0,"Sheet_ID":"木浦 16. 箕佐島","label":"木浦 16. 箕佐島","call_short":"","call_num":"","recid":"","websiteUrl":"","title":"","ckey":0,"web_map":"","available":"false","iiifUrl":""},"geometry":{"bbox":[126.00277800000002,34.666666666666664,126.252778,34.83333333333333],"type":"Polygon","coordinates":[[[126.00277800000002,34.666666666666664],[126.00277800000002,34.83333333333333],[126.252778,34.83333333333333],[126.252778,34.666666666666664],[126.00277800000002,34.666666666666664]]]}},{"type":"Feature","properties":{"Id":0,"Sheet_ID":"梅加島 3. 慈恩島西部","label":"梅加島 3. 慈恩島西部","call_short":"G7901 .P1 S50 .J3","call_num":"G7901 .P1 S50 .J3 O3","recid":"mt330km3319","websiteUrl":"https://purl.stanford.edu/mt330km3319","title":"朝鮮交通圖","ckey":9752477,"web_map":"","available":"true","iiifUrl":"https://purl.stanford.edu/mt330km3319/iiif/manifest"},"geometry":{"bbox":[125.752778,34.833333333333336,126.00277800000002,35],"type":"Polygon","coordinates":[[[125.752778,34.833333333333336],[125.752778,35],[126.00277800000002,35],[126.00277800000002,34.833333333333336],[125.752778,34.833333333333336]]]}},{"type":"Feature","properties":{"Id":0,"Sheet_ID":"木浦 15. 慈恩島","label":"木浦 15. 慈恩島","call_short":"","call_num":"","recid":"","websiteUrl":"","title":"","ckey":0,"web_map":"","available":"false","iiifUrl":""},"geometry":{"bbox":[126.00277800000002,34.833333333333336,126.252778,35],"type":"Polygon","coordinates":[[[126.00277800000002,34.833333333333336],[126.00277800000002,35],[126.252778,35],[126.252778,34.833333333333336],[126.00277800000002,34.833333333333336]]]}}],"name":"index_9752477"}
