{
"type": "FeatureCollection",
"name": "index_map",
"features": [
{ "type": "Feature", "properties": { "Id": 0, "Sheet_ID": "彭佳嶼 16西. 花瓶嶼", "label": "彭佳嶼 16西. 花瓶嶼", "call_short": null, "call_num": null, "recid": null, "websiteUrl": null, "title": null, "ckey": 0, "available": false, "iiifUrl": null }, "geometry": { "type": "Polygon", "coordinates": [ [ [ 121.75, 25.333333 ], [ 122.0, 25.333333 ], [ 122.0, 25.5 ], [ 121.75, 25.5 ], [ 121.75, 25.333333 ] ] ] } },
{ "type": "Feature", "properties": { "Id": 0, "Sheet_ID": "彭佳嶼 16. 棉花嶼", "label": "彭佳嶼 16. 棉花嶼", "call_short": "G7910 S50 .J3", "call_num": "G7910 S50 .J3 A-16", "recid": "tc342wf0500", "websiteUrl": "https://purl.stanford.edu/tc342wf0500", "title": "五万分一地形圖", "ckey": 9687013, "available": true, "iiifUrl": "https://purl.stanford.edu/tc342wf0500/iiif/manifest" }, "geometry": { "type": "Polygon", "coordinates": [ [ [ 122.0, 25.333333 ], [ 122.25, 25.333333 ], [ 122.25, 25.5 ], [ 122.0, 25.5 ], [ 122.0, 25.333333 ] ] ] } },
{ "type": "Feature", "properties": { "Id": 0, "Sheet_ID": "彭佳嶼 15. 彭佳嶼", "label": "彭佳嶼 15. 彭佳嶼", "call_short": "G7910 S50 .J3", "call_num": "G7910 S50 .J3 A-15", "recid": "xs166wv7163", "websiteUrl": "https://purl.stanford.edu/xs166wv7163", "title": "五万分一地形圖", "ckey": 9687013, "available": true, "iiifUrl": "https://purl.stanford.edu/xs166wv7163/iiif/manifest" }, "geometry": { "type": "Polygon", "coordinates": [ [ [ 122.0, 25.5 ], [ 122.25, 25.5 ], [ 122.25, 25.666667 ], [ 122.0, 25.666667 ], [ 122.0, 25.5 ] ] ] } },
{ "type": "Feature", "properties": { "Id": 0, "Sheet_ID": "大嶼 9. 大嶼", "label": "大嶼 9. 大嶼", "call_short": null, "call_num": null, "recid": null, "websiteUrl": null, "title": null, "ckey": 0, "available": false, "iiifUrl": null }, "geometry": { "type": "Polygon", "coordinates": [ [ [ 119.25, 23.166667 ], [ 119.5, 23.166667 ], [ 119.5, 23.3333335 ], [ 119.25, 23.3333335 ], [ 119.25, 23.166667 ] ] ] } },
{ "type": "Feature", "properties": { "Id": 0, "Sheet_ID": "大嶼 5. 東吉嶼", "label": "大嶼 5. 東吉嶼", "call_short": null, "call_num": null, "recid": null, "websiteUrl": null, "title": null, "ckey": 0, "available": false, "iiifUrl": null }, "geometry": { "type": "Polygon", "coordinates": [ [ [ 119.5, 23.166667 ], [ 119.75, 23.166667 ], [ 119.75, 23.3333335 ], [ 119.5, 23.3333335 ], [ 119.5, 23.166667 ] ] ] } },
{ "type": "Feature", "properties": { "Id": 0, "Sheet_ID": "澎湖嶋12. 花嶼", "label": "澎湖嶋12. 花嶼", "call_short": null, "call_num": null, "recid": null, "websiteUrl": null, "title": null, "ckey": 0, "available": false, "iiifUrl": null }, "geometry": { "type": "Polygon", "coordinates": [ [ [ 119.25, 23.3333335 ], [ 119.5, 23.3333335 ], [ 119.5, 23.5 ], [ 119.25, 23.5 ], [ 119.25, 23.3333335 ] ] ] } },
{ "type": "Feature", "properties": { "Id": 0, "Sheet_ID": "澎湖嶋要塞近傍 3. 八罩嶋", "label": "澎湖嶋要塞近傍 3. 八罩嶋", "call_short": "G7910 S50 .J3", "call_num": "G7910 S50 .J3 M-8", "recid": "wg312yr5280", "websiteUrl": "https://purl.stanford.edu/wg312yr5280", "title": "臺灣 五万分一地形圖", "ckey": 9687013, "available": true, "iiifUrl": "https://purl.stanford.edu/wg312yr5280/iiif/manifest" }, "geometry": { "type": "Polygon", "coordinates": [ [ [ 119.5, 23.3333335 ], [ 119.75, 23.3333335 ], [ 119.75, 23.5 ], [ 119.5, 23.5 ], [ 119.5, 23.3333335 ] ] ] } },
{ "type": "Feature", "properties": { "Id": 0, "Sheet_ID": "澎湖嶋要塞近傍 4. 漁翁嶋西部", "label": "澎湖嶋要塞近傍 4. 漁翁嶋西部", "call_short": "G7910 S50 .J3", "call_num": "G7910 S50 .J3 M-11", "recid": "rr134qk7703", "websiteUrl": "https://purl.stanford.edu/rr134qk7703", "title": "臺灣 五万分一地形圖", "ckey": 9687013, "available": true, "iiifUrl": "https://purl.stanford.edu/rr134qk7703/iiif/manifest" }, "geometry": { "type": "Polygon", "coordinates": [ [ [ 119.25, 23.5 ], [ 119.5, 23.5 ], [ 119.5, 23.6666665 ], [ 119.25, 23.6666665 ], [ 119.25, 23.5 ] ] ] } },
{ "type": "Feature", "properties": { "Id": 0, "Sheet_ID": "澎湖嶋要塞近傍 2. 澎湖嶋", "label": "澎湖嶋要塞近傍 2. 澎湖嶋", "call_short": "G7910 S50 .J3", "call_num": "G7910 S50 .J3 M-7", "recid": "wj527vv2012", "websiteUrl": "https://purl.stanford.edu/wj527vv2012", "title": "臺灣 五万分一地形圖", "ckey": 9687013, "available": true, "iiifUrl": "https://purl.stanford.edu/wj527vv2012/iiif/manifest" }, "geometry": { "type": "Polygon", "coordinates": [ [ [ 119.5, 23.5 ], [ 119.75, 23.5 ], [ 119.75, 23.6666665 ], [ 119.5, 23.6666665 ], [ 119.5, 23.5 ] ] ] } },
{ "type": "Feature", "properties": { "Id": 0, "Sheet_ID": "澎湖嶋要塞近傍 1. 吉貝嶼", "label": "澎湖嶋要塞近傍 1. 吉貝嶼", "call_short": "G7910 S50 .J3", "call_num": "G7910 S50 .J3 M-6", "recid": "tb623bn0565", "websiteUrl": "https://purl.stanford.edu/tb623bn0565", "title": "臺灣 五万分一地形圖", "ckey": 9687013, "available": true, "iiifUrl": "https://purl.stanford.edu/tb623bn0565/iiif/manifest" }, "geometry": { "type": "Polygon", "coordinates": [ [ [ 119.5, 23.6666665 ], [ 119.75, 23.6666665 ], [ 119.75, 23.833333 ], [ 119.5, 23.833333 ], [ 119.5, 23.6666665 ] ] ] } },
{ "type": "Feature", "properties": { "Id": 0, "Sheet_ID": "鵝鑾鼻 2. 七星岩", "label": "鵝鑾鼻 2. 七星岩", "call_short": null, "call_num": null, "recid": null, "websiteUrl": null, "title": null, "ckey": 0, "available": false, "iiifUrl": null }, "geometry": { "type": "Polygon", "coordinates": [ [ [ 120.75, 21.666667 ], [ 121.0, 21.666667 ], [ 121.0, 21.8333337 ], [ 120.75, 21.8333337 ], [ 120.75, 21.666667 ] ] ] } },
{ "type": "Feature", "properties": { "Id": 0, "Sheet_ID": "鵝鑾鼻 5. 猫鼻頭", "label": "鵝鑾鼻 5. 猫鼻頭", "call_short": null, "call_num": null, "recid": null, "websiteUrl": null, "title": null, "ckey": 0, "available": false, "iiifUrl": null }, "geometry": { "type": "Polygon", "coordinates": [ [ [ 120.5, 21.8333337 ], [ 120.75, 21.8333337 ], [ 120.75, 22.0000003 ], [ 120.5, 22.0000003 ], [ 120.5, 21.8333337 ] ] ] } },
{ "type": "Feature", "properties": { "Id": 0, "Sheet_ID": "鵝鑾鼻 1. 鵞鑾鼻", "label": "鵝鑾鼻 1. 鵞鑾鼻", "call_short": "G7910 S50 .J3", "call_num": "G7910 S50 .J3 L-1", "recid": "vt075hk6680", "websiteUrl": "https://purl.stanford.edu/vt075hk6680", "title": "五万分一地形圖", "ckey": 9687013, "available": true, "iiifUrl": "https://purl.stanford.edu/vt075hk6680/iiif/manifest" }, "geometry": { "type": "Polygon", "coordinates": [ [ [ 120.75, 21.8333337 ], [ 121.0, 21.8333337 ], [ 121.0, 22.0000003 ], [ 120.75, 22.0000003 ], [ 120.75, 21.8333337 ] ] ] } },
{ "type": "Feature", "properties": { "Id": 0, "Sheet_ID": "高雄 8. 恒春", "label": "高雄 8. 恒春", "call_short": "G7910 S50 .J3", "call_num": "G7910 S50 .J3 K-8", "recid": "by176gc9465", "websiteUrl": "https://purl.stanford.edu/by176gc9465", "title": "五万分一地形圖", "ckey": 9687013, "available": true, "iiifUrl": "https://purl.stanford.edu/by176gc9465/iiif/manifest" }, "geometry": { "type": "Polygon", "coordinates": [ [ [ 120.5, 22.0000003 ], [ 120.75, 22.0000003 ], [ 120.75, 22.166667 ], [ 120.5, 22.166667 ], [ 120.5, 22.0000003 ] ] ] } },
{ "type": "Feature", "properties": { "Id": 0, "Sheet_ID": "高雄 4. 高士佛", "label": "高雄 4. 高士佛", "call_short": "G7910 S50 .J3", "call_num": "G7910 S50 .J3 K-4", "recid": "nb630zm4730", "websiteUrl": "https://purl.stanford.edu/nb630zm4730", "title": "五万分一地形圖", "ckey": 9687013, "available": true, "iiifUrl": "https://purl.stanford.edu/nb630zm4730/iiif/manifest" }, "geometry": { "type": "Polygon", "coordinates": [ [ [ 120.75, 22.0000003 ], [ 121.0, 22.0000003 ], [ 121.0, 22.166667 ], [ 120.75, 22.166667 ], [ 120.75, 22.0000003 ] ] ] } },
{ "type": "Feature", "properties": { "Id": 0, "Sheet_ID": "高雄 7. 枋山", "label": "高雄 7. 枋山", "call_short": "G7910 S50 .J3", "call_num": "G7910 S50 .J3 K-7", "recid": "jm696xn1247", "websiteUrl": "https://purl.stanford.edu/jm696xn1247", "title": "五万分一地形圖", "ckey": 9687013, "available": true, "iiifUrl": "https://purl.stanford.edu/jm696xn1247/iiif/manifest" }, "geometry": { "type": "Polygon", "coordinates": [ [ [ 120.5, 22.166667 ], [ 120.75, 22.166667 ], [ 120.75, 22.3333337 ], [ 120.5, 22.3333337 ], [ 120.5, 22.166667 ] ] ] } },
{ "type": "Feature", "properties": { "Id": 0, "Sheet_ID": "高雄 3. 觀音鼻", "label": "高雄 3. 觀音鼻", "call_short": "G7910 S50 .J3", "call_num": "G7910 S50 .J3 K-3", "recid": "tz663kp8741", "websiteUrl": "https://purl.stanford.edu/tz663kp8741", "title": "五万分一地形圖", "ckey": 9687013, "available": true, "iiifUrl": "https://purl.stanford.edu/tz663kp8741/iiif/manifest" }, "geometry": { "type": "Polygon", "coordinates": [ [ [ 120.75, 22.166667 ], [ 121.0, 22.166667 ], [ 121.0, 22.3333337 ], [ 120.75, 22.3333337 ], [ 120.75, 22.166667 ] ] ] } },
{ "type": "Feature", "properties": { "Id": 0, "Sheet_ID": "高雄 10. 東港", "label": "高雄 10. 東港", "call_short": null, "call_num": null, "recid": null, "websiteUrl": null, "title": null, "ckey": 0, "available": false, "iiifUrl": null }, "geometry": { "type": "Polygon", "coordinates": [ [ [ 120.25, 22.3333337 ], [ 120.5, 22.3333337 ], [ 120.5, 22.5000003 ], [ 120.25, 22.5000003 ], [ 120.25, 22.3333337 ] ] ] } },
{ "type": "Feature", "properties": { "Id": 0, "Sheet_ID": "高雄 6. 大樹林山", "label": "高雄 6. 大樹林山", "call_short": "G7910 S50 .J3", "call_num": "G7910 S50 .J3 K-6", "recid": "ks488fc9463", "websiteUrl": "https://purl.stanford.edu/ks488fc9463", "title": "五万分一地形圖", "ckey": 9687013, "available": true, "iiifUrl": "https://purl.stanford.edu/ks488fc9463/iiif/manifest" }, "geometry": { "type": "Polygon", "coordinates": [ [ [ 120.5, 22.3333337 ], [ 120.75, 22.3333337 ], [ 120.75, 22.5000003 ], [ 120.5, 22.5000003 ], [ 120.5, 22.3333337 ] ] ] } },
{ "type": "Feature", "properties": { "Id": 0, "Sheet_ID": "高雄 2. 大武", "label": "高雄 2. 大武", "call_short": "G7910 S50 .J3", "call_num": "G7910 S50 .J3 K-2", "recid": "vc761nn7830", "websiteUrl": "https://purl.stanford.edu/vc761nn7830", "title": "五万分一地形圖", "ckey": 9687013, "available": true, "iiifUrl": "https://purl.stanford.edu/vc761nn7830/iiif/manifest" }, "geometry": { "type": "Polygon", "coordinates": [ [ [ 120.75, 22.3333337 ], [ 121.0, 22.3333337 ], [ 121.0, 22.5000003 ], [ 120.75, 22.5000003 ], [ 120.75, 22.3333337 ] ] ] } },
{ "type": "Feature", "properties": { "Id": 0, "Sheet_ID": "高雄 9. 高雄", "label": "高雄 9. 高雄", "call_short": null, "call_num": null, "recid": null, "websiteUrl": null, "title": null, "ckey": 0, "available": false, "iiifUrl": null }, "geometry": { "type": "Polygon", "coordinates": [ [ [ 120.25, 22.5000003 ], [ 120.5, 22.5000003 ], [ 120.5, 22.666667 ], [ 120.25, 22.666667 ], [ 120.25, 22.5000003 ] ] ] } },
{ "type": "Feature", "properties": { "Id": 0, "Sheet_ID": "枋寮 3. 南大武山", "label": "枋寮 3. 南大武山", "call_short": "G7910 S50 .J3", "call_num": "G7910 S50 .J3 K-5", "recid": "gc027fh9298", "websiteUrl": "https://purl.stanford.edu/gc027fh9298", "title": "五万分一蕃地地形圖", "ckey": 9687013, "available": true, "iiifUrl": "https://purl.stanford.edu/gc027fh9298/iiif/manifest" }, "geometry": { "type": "Polygon", "coordinates": [ [ [ 120.5, 22.5000003 ], [ 120.75, 22.5000003 ], [ 120.75, 22.666667 ], [ 120.5, 22.666667 ], [ 120.5, 22.5000003 ] ] ] } },
{ "type": "Feature", "properties": { "Id": 0, "Sheet_ID": "高雄 1. 太麻里 ED. 2", "label": "高雄 1. 太麻里 ED. 2", "call_short": "G7910 S50 .J3", "call_num": "G7910 S50 .J3 K-1 ED.2", "recid": "dz404xv7135", "websiteUrl": "https://purl.stanford.edu/dz404xv7135", "title": "五万分一地形圖", "ckey": 9687013, "available": true, "iiifUrl": "https://purl.stanford.edu/dz404xv7135/iiif/manifest" }, "geometry": { "type": "Polygon", "coordinates": [ [ [ 120.75, 22.5000003 ], [ 121.0, 22.5000003 ], [ 121.0, 22.666667 ], [ 120.75, 22.666667 ], [ 120.75, 22.5000003 ] ] ] } },
{ "type": "Feature", "properties": { "Id": 0, "Sheet_ID": "高雄 1. 太麻里", "label": "高雄 1. 太麻里", "call_short": "G7910 S50 .J3", "call_num": "G7910 S50 .J3 K-1", "recid": "pj440zh0281", "websiteUrl": "https://purl.stanford.edu/pj440zh0281", "title": "五万分一編纂地形圖", "ckey": 9687013, "available": true, "iiifUrl": "https://purl.stanford.edu/pj440zh0281/iiif/manifest" }, "geometry": { "type": "Polygon", "coordinates": [ [ [ 120.75, 22.5000003 ], [ 121.0, 22.5000003 ], [ 121.0, 22.666667 ], [ 120.75, 22.666667 ], [ 120.75, 22.5000003 ] ] ] } },
{ "type": "Feature", "properties": { "Id": 0, "Sheet_ID": "臺南 16. 彌陀", "label": "臺南 16. 彌陀", "call_short": null, "call_num": null, "recid": null, "websiteUrl": null, "title": null, "ckey": 0, "available": false, "iiifUrl": null }, "geometry": { "type": "Polygon", "coordinates": [ [ [ 120.0, 22.666667 ], [ 120.25, 22.666667 ], [ 120.25, 22.8333335 ], [ 120.0, 22.8333335 ], [ 120.0, 22.666667 ] ] ] } },
{ "type": "Feature", "properties": { "Id": 0, "Sheet_ID": "臺南 12. 屏東", "label": "臺南 12. 屏東", "call_short": null, "call_num": null, "recid": null, "websiteUrl": null, "title": null, "ckey": 0, "available": false, "iiifUrl": null }, "geometry": { "type": "Polygon", "coordinates": [ [ [ 120.25, 22.666667 ], [ 120.5, 22.666667 ], [ 120.5, 22.8333335 ], [ 120.25, 22.8333335 ], [ 120.25, 22.666667 ] ] ] } },
{ "type": "Feature", "properties": { "Id": 0, "Sheet_ID": "西瓜園", "label": "西瓜園", "call_short": "G7910 S50 .J3", "call_num": "G7910 S50 .J3 J-8", "recid": "dx667mq6965", "websiteUrl": "https://purl.stanford.edu/dx667mq6965", "title": null, "ckey": 9687013, "available": true, "iiifUrl": "https://purl.stanford.edu/dx667mq6965/iiif/manifest" }, "geometry": { "type": "Polygon", "coordinates": [ [ [ 120.5, 22.666667 ], [ 120.75, 22.666667 ], [ 120.75, 22.8333335 ], [ 120.5, 22.8333335 ], [ 120.5, 22.666667 ] ] ] } },
{ "type": "Feature", "properties": { "Id": 0, "Sheet_ID": "臺南 4. ケンドオウル山", "label": "臺南 4. ケンドオウル山", "call_short": "G7910 S50 .J3", "call_num": "G7910 S50 .J3 J-4", "recid": "hx299gq0758", "websiteUrl": "https://purl.stanford.edu/hx299gq0758", "title": "五万分一編纂地形圖", "ckey": 9687013, "available": true, "iiifUrl": "https://purl.stanford.edu/hx299gq0758/iiif/manifest" }, "geometry": { "type": "Polygon", "coordinates": [ [ [ 120.75, 22.666667 ], [ 121.0, 22.666667 ], [ 121.0, 22.8333335 ], [ 120.75, 22.8333335 ], [ 120.75, 22.666667 ] ] ] } },
{ "type": "Feature", "properties": { "Id": 0, "Sheet_ID": "臺南 15. 臺南南部", "label": "臺南 15. 臺南南部", "call_short": null, "call_num": null, "recid": null, "websiteUrl": null, "title": null, "ckey": 0, "available": false, "iiifUrl": null }, "geometry": { "type": "Polygon", "coordinates": [ [ [ 120.0, 22.8333335 ], [ 120.25, 22.8333335 ], [ 120.25, 23.0 ], [ 120.0, 23.0 ], [ 120.0, 22.8333335 ] ] ] } },
{ "type": "Feature", "properties": { "Id": 0, "Sheet_ID": "臺南 11. 旗山", "label": "臺南 11. 旗山", "call_short": "G7910 S50 .J3", "call_num": "G7910 S50 .J3 J-11", "recid": "rx629jj2313", "websiteUrl": "https://purl.stanford.edu/rx629jj2313", "title": "五万分一地形圖", "ckey": 9687013, "available": true, "iiifUrl": "https://purl.stanford.edu/rx629jj2313/iiif/manifest" }, "geometry": { "type": "Polygon", "coordinates": [ [ [ 120.25, 22.8333335 ], [ 120.5, 22.8333335 ], [ 120.5, 23.0 ], [ 120.25, 23.0 ], [ 120.25, 22.8333335 ] ] ] } },
{ "type": "Feature", "properties": { "Id": 0, "Sheet_ID": "臺南 7. 美濃 ED. 2", "label": "臺南 7. 美濃 ED. 2", "call_short": "G7910 S50 .J3", "call_num": "G7910 S50 .J3 J-7 ED.2", "recid": "bx977nf3839", "websiteUrl": "https://purl.stanford.edu/bx977nf3839", "title": "五万分一地形圖", "ckey": 9687013, "available": true, "iiifUrl": "https://purl.stanford.edu/bx977nf3839/iiif/manifest" }, "geometry": { "type": "Polygon", "coordinates": [ [ [ 120.5, 22.8333335 ], [ 120.75, 22.8333335 ], [ 120.75, 23.0 ], [ 120.5, 23.0 ], [ 120.5, 22.8333335 ] ] ] } },
{ "type": "Feature", "properties": { "Id": 0, "Sheet_ID": "臺南 3. 出雲山", "label": "臺南 3. 出雲山", "call_short": "G7910 S50 .J3", "call_num": "G7910 S50 .J3 J-3", "recid": "kd826xh6796", "websiteUrl": "https://purl.stanford.edu/kd826xh6796", "title": "五万分一編纂地形圖", "ckey": 9687013, "available": true, "iiifUrl": "https://purl.stanford.edu/kd826xh6796/iiif/manifest" }, "geometry": { "type": "Polygon", "coordinates": [ [ [ 120.75, 22.8333335 ], [ 121.0, 22.8333335 ], [ 121.0, 23.0 ], [ 120.75, 23.0 ], [ 120.75, 22.8333335 ] ] ] } },
{ "type": "Feature", "properties": { "Id": 0, "Sheet_ID": "臺南 14. 臺南北部", "label": "臺南 14. 臺南北部", "call_short": "G7910 S50 .J3", "call_num": "G7910 S50 .J3 J-14", "recid": "cd600mj1493", "websiteUrl": "https://purl.stanford.edu/cd600mj1493", "title": "五万分一地形圖", "ckey": 9687013, "available": true, "iiifUrl": "https://purl.stanford.edu/cd600mj1493/iiif/manifest" }, "geometry": { "type": "Polygon", "coordinates": [ [ [ 120.0, 23.0 ], [ 120.25, 23.0 ], [ 120.25, 23.1666665 ], [ 120.0, 23.1666665 ], [ 120.0, 23.0 ] ] ] } },
{ "type": "Feature", "properties": { "Id": 0, "Sheet_ID": "臺南 10. 新化", "label": "臺南 10. 新化", "call_short": "G7910 S50 .J3", "call_num": "G7910 S50 .J3 J-10", "recid": "rz289cz8556", "websiteUrl": "https://purl.stanford.edu/rz289cz8556", "title": "五万分一地形圖", "ckey": 9687013, "available": true, "iiifUrl": "https://purl.stanford.edu/rz289cz8556/iiif/manifest" }, "geometry": { "type": "Polygon", "coordinates": [ [ [ 120.25, 23.0 ], [ 120.5, 23.0 ], [ 120.5, 23.1666665 ], [ 120.25, 23.1666665 ], [ 120.25, 23.0 ] ] ] } },
{ "type": "Feature", "properties": { "Id": 0, "Sheet_ID": "臺南 6. 甲仙 ED. 2", "label": "臺南 6. 甲仙 ED. 2", "call_short": "G7910 S50 .J3", "call_num": "G7910 S50 .J3 J-6 ED.2", "recid": "ty933gz2354", "websiteUrl": "https://purl.stanford.edu/ty933gz2354", "title": "五万分一地形圖", "ckey": 9687013, "available": true, "iiifUrl": "https://purl.stanford.edu/ty933gz2354/iiif/manifest" }, "geometry": { "type": "Polygon", "coordinates": [ [ [ 120.5, 23.0 ], [ 120.75, 23.0 ], [ 120.75, 23.1666665 ], [ 120.5, 23.1666665 ], [ 120.5, 23.0 ] ] ] } },
{ "type": "Feature", "properties": { "Id": 0, "Sheet_ID": "臺南 2. 卑南主山", "label": "臺南 2. 卑南主山", "call_short": "G7910 S50 .J3", "call_num": "G7910 S50 .J3 J-2", "recid": "vy140qg9031", "websiteUrl": "https://purl.stanford.edu/vy140qg9031", "title": "五万分一編纂地形圖", "ckey": 9687013, "available": true, "iiifUrl": "https://purl.stanford.edu/vy140qg9031/iiif/manifest" }, "geometry": { "type": "Polygon", "coordinates": [ [ [ 120.75, 23.0 ], [ 121.0, 23.0 ], [ 121.0, 23.1666665 ], [ 120.75, 23.1666665 ], [ 120.75, 23.0 ] ] ] } },
{ "type": "Feature", "properties": { "Id": 0, "Sheet_ID": "臺南 13. 麻豆", "label": "臺南 13. 麻豆", "call_short": "G7910 S50 .J3", "call_num": "G7910 S50 .J3 J-13", "recid": "pn907sg5114", "websiteUrl": "https://purl.stanford.edu/pn907sg5114", "title": "五万分一地形圖", "ckey": 9687013, "available": true, "iiifUrl": "https://purl.stanford.edu/pn907sg5114/iiif/manifest" }, "geometry": { "type": "Polygon", "coordinates": [ [ [ 120.0, 23.1666665 ], [ 120.25, 23.1666665 ], [ 120.25, 23.333333 ], [ 120.0, 23.333333 ], [ 120.0, 23.1666665 ] ] ] } },
{ "type": "Feature", "properties": { "Id": 0, "Sheet_ID": "臺南 9. 新營", "label": "臺南 9. 新營", "call_short": "G7910 S50 .J3", "call_num": "G7910 S50 .J3 J-9", "recid": "by022vh3849", "websiteUrl": "https://purl.stanford.edu/by022vh3849", "title": "五万分一地形圖", "ckey": 9687013, "available": true, "iiifUrl": "https://purl.stanford.edu/by022vh3849/iiif/manifest" }, "geometry": { "type": "Polygon", "coordinates": [ [ [ 120.25, 23.1666665 ], [ 120.5, 23.1666665 ], [ 120.5, 23.333333 ], [ 120.25, 23.333333 ], [ 120.25, 23.1666665 ] ] ] } },
{ "type": "Feature", "properties": { "Id": 0, "Sheet_ID": "臺南 5. 大埔", "label": "臺南 5. 大埔", "call_short": "G7910 S50 .J3", "call_num": "G7910 S50 .J3 J-5", "recid": "vm328yh4443", "websiteUrl": "https://purl.stanford.edu/vm328yh4443", "title": "五万分一地形圖", "ckey": 9687013, "available": true, "iiifUrl": "https://purl.stanford.edu/vm328yh4443/iiif/manifest" }, "geometry": { "type": "Polygon", "coordinates": [ [ [ 120.5, 23.1666665 ], [ 120.75, 23.1666665 ], [ 120.75, 23.333333 ], [ 120.5, 23.333333 ], [ 120.5, 23.1666665 ] ] ] } },
{ "type": "Feature", "properties": { "Id": 0, "Sheet_ID": "臺南 1. 関山", "label": "臺南 1. 関山", "call_short": null, "call_num": null, "recid": null, "websiteUrl": null, "title": null, "ckey": 0, "available": false, "iiifUrl": null }, "geometry": { "type": "Polygon", "coordinates": [ [ [ 120.75, 23.1666665 ], [ 121.0, 23.1666665 ], [ 121.0, 23.333333 ], [ 120.75, 23.333333 ], [ 120.75, 23.1666665 ] ] ] } },
{ "type": "Feature", "properties": { "Id": 0, "Sheet_ID": "臺南 6. 甲仙", "label": "臺南 6. 甲仙", "call_short": "G7910 S50 .J3", "call_num": "G7910 S50 .J3 J-6", "recid": "xg930jz7353", "websiteUrl": "https://purl.stanford.edu/xg930jz7353", "title": "五万分一編纂地形圖", "ckey": 9687013, "available": true, "iiifUrl": "https://purl.stanford.edu/xg930jz7353/iiif/manifest" }, "geometry": { "type": "Polygon", "coordinates": [ [ [ 120.5, 23.0 ], [ 120.75, 23.0 ], [ 120.75, 23.1666665 ], [ 120.5, 23.1666665 ], [ 120.5, 23.0 ] ] ] } },
{ "type": "Feature", "properties": { "Id": 0, "Sheet_ID": "臺南 7. 美濃", "label": "臺南 7. 美濃", "call_short": "G7910 S50 .J3", "call_num": "G7910 S50 .J3 J-7", "recid": "wq259th6969", "websiteUrl": "https://purl.stanford.edu/wq259th6969", "title": "五万分一編纂地形圖", "ckey": 9687013, "available": true, "iiifUrl": "https://purl.stanford.edu/wq259th6969/iiif/manifest" }, "geometry": { "type": "Polygon", "coordinates": [ [ [ 120.5, 22.8333335 ], [ 120.75, 22.8333335 ], [ 120.75, 23.0 ], [ 120.5, 23.0 ], [ 120.5, 22.8333335 ] ] ] } },
{ "type": "Feature", "properties": { "Id": 0, "Sheet_ID": "高雄要塞近傍 1. 鹽埔", "label": "高雄要塞近傍 1. 鹽埔", "call_short": "G7910 S50 .J3", "call_num": "G7910 S50 .J3 J-8 ED.2", "recid": "qq062tk9832", "websiteUrl": "https://purl.stanford.edu/qq062tk9832", "title": "五万分一地形圖", "ckey": 9687013, "available": true, "iiifUrl": "https://purl.stanford.edu/qq062tk9832/iiif/manifest" }, "geometry": { "type": "Polygon", "coordinates": [ [ [ 120.5, 22.666667 ], [ 120.75, 22.666667 ], [ 120.75, 22.8333335 ], [ 120.5, 22.8333335 ], [ 120.5, 22.666667 ] ] ] } },
{ "type": "Feature", "properties": { "Id": 0, "Sheet_ID": "嘉義 16. 朴子", "label": "嘉義 16. 朴子", "call_short": "G7910 S50 .J3", "call_num": "G7910 S50 .J3 I-16", "recid": "xg876qy1071", "websiteUrl": "https://purl.stanford.edu/xg876qy1071", "title": "五万分一地形圖", "ckey": 9687013, "available": true, "iiifUrl": "https://purl.stanford.edu/xg876qy1071/iiif/manifest" }, "geometry": { "type": "Polygon", "coordinates": [ [ [ 120.0, 23.333333 ], [ 120.25, 23.333333 ], [ 120.25, 23.4999998 ], [ 120.0, 23.4999998 ], [ 120.0, 23.333333 ] ] ] } },
{ "type": "Feature", "properties": { "Id": 0, "Sheet_ID": "嘉義 12. 嘉義", "label": "嘉義 12. 嘉義", "call_short": "G7910 S50 .J3", "call_num": "G7910 S50 .J3 I-12", "recid": "hc624wj6097", "websiteUrl": "https://purl.stanford.edu/hc624wj6097", "title": "五万分一地形圖", "ckey": 9687013, "available": true, "iiifUrl": "https://purl.stanford.edu/hc624wj6097/iiif/manifest" }, "geometry": { "type": "Polygon", "coordinates": [ [ [ 120.25, 23.333333 ], [ 120.5, 23.333333 ], [ 120.5, 23.4999998 ], [ 120.25, 23.4999998 ], [ 120.25, 23.333333 ] ] ] } },
{ "type": "Feature", "properties": { "Id": 0, "Sheet_ID": "嘉義 8. 中埔", "label": "嘉義 8. 中埔", "call_short": "G7910 S50 .J3", "call_num": "G7910 S50 .J3 I-8", "recid": "yh445ps3497", "websiteUrl": "https://purl.stanford.edu/yh445ps3497", "title": "五万分一地形圖", "ckey": 9687013, "available": true, "iiifUrl": "https://purl.stanford.edu/yh445ps3497/iiif/manifest" }, "geometry": { "type": "Polygon", "coordinates": [ [ [ 120.5, 23.333333 ], [ 120.75, 23.333333 ], [ 120.75, 23.4999998 ], [ 120.5, 23.4999998 ], [ 120.5, 23.333333 ] ] ] } },
{ "type": "Feature", "properties": { "Id": 0, "Sheet_ID": "嘉義 4. 新高山", "label": "嘉義 4. 新高山", "call_short": "G7910 S50 .J3", "call_num": "G7910 S50 .J3 I-4", "recid": "tm228rw4804", "websiteUrl": "https://purl.stanford.edu/tm228rw4804", "title": "五万分一編纂地形圖", "ckey": 9687013, "available": true, "iiifUrl": "https://purl.stanford.edu/tm228rw4804/iiif/manifest" }, "geometry": { "type": "Polygon", "coordinates": [ [ [ 120.75, 23.333333 ], [ 121.0, 23.333333 ], [ 121.0, 23.4999998 ], [ 120.75, 23.4999998 ], [ 120.75, 23.333333 ] ] ] } },
{ "type": "Feature", "properties": { "Id": 0, "Sheet_ID": "嘉義 15. 水林", "label": "嘉義 15. 水林", "call_short": "G7910 S50 .J3", "call_num": "G7910 S50 .J3 I-15", "recid": "tk843ws6906", "websiteUrl": "https://purl.stanford.edu/tk843ws6906", "title": "五万分一地形圖", "ckey": 9687013, "available": true, "iiifUrl": "https://purl.stanford.edu/tk843ws6906/iiif/manifest" }, "geometry": { "type": "Polygon", "coordinates": [ [ [ 120.0, 23.4999998 ], [ 120.25, 23.4999998 ], [ 120.25, 23.6666665 ], [ 120.0, 23.6666665 ], [ 120.0, 23.4999998 ] ] ] } },
{ "type": "Feature", "properties": { "Id": 0, "Sheet_ID": "嘉義 11. 北港", "label": "嘉義 11. 北港", "call_short": "G7910 S50 .J3", "call_num": "G7910 S50 .J3 I-11", "recid": "ww372tz1797", "websiteUrl": "https://purl.stanford.edu/ww372tz1797", "title": "五万分一地形圖", "ckey": 9687013, "available": true, "iiifUrl": "https://purl.stanford.edu/ww372tz1797/iiif/manifest" }, "geometry": { "type": "Polygon", "coordinates": [ [ [ 120.25, 23.4999998 ], [ 120.5, 23.4999998 ], [ 120.5, 23.6666665 ], [ 120.25, 23.6666665 ], [ 120.25, 23.4999998 ] ] ] } },
{ "type": "Feature", "properties": { "Id": 0, "Sheet_ID": "嘉義 7. 竹崎", "label": "嘉義 7. 竹崎", "call_short": "G7910 S50 .J3", "call_num": "G7910 S50 .J3 I-7", "recid": "ty690wc9183", "websiteUrl": "https://purl.stanford.edu/ty690wc9183", "title": "五万分一地形圖", "ckey": 9687013, "available": true, "iiifUrl": "https://purl.stanford.edu/ty690wc9183/iiif/manifest" }, "geometry": { "type": "Polygon", "coordinates": [ [ [ 120.5, 23.4999998 ], [ 120.75, 23.4999998 ], [ 120.75, 23.6666665 ], [ 120.5, 23.6666665 ], [ 120.5, 23.4999998 ] ] ] } },
{ "type": "Feature", "properties": { "Id": 0, "Sheet_ID": "嘉義 3. 阿里山", "label": "嘉義 3. 阿里山", "call_short": "G7910 S50 .J3", "call_num": "G7910 S50 .J3 I-3", "recid": "rp232zm5694", "websiteUrl": "https://purl.stanford.edu/rp232zm5694", "title": "五万分一地形圖", "ckey": 9687013, "available": true, "iiifUrl": "https://purl.stanford.edu/rp232zm5694/iiif/manifest" }, "geometry": { "type": "Polygon", "coordinates": [ [ [ 120.75, 23.4999998 ], [ 121.0, 23.4999998 ], [ 121.0, 23.6666665 ], [ 120.75, 23.6666665 ], [ 120.75, 23.4999998 ] ] ] } },
{ "type": "Feature", "properties": { "Id": 0, "Sheet_ID": "嘉義 14. 海口", "label": "嘉義 14. 海口", "call_short": "G7910 S50 .J3", "call_num": "G7910 S50 .J3 I-14", "recid": "kp047qn4325", "websiteUrl": "https://purl.stanford.edu/kp047qn4325", "title": "五万分一地形圖", "ckey": 9687013, "available": true, "iiifUrl": "https://purl.stanford.edu/kp047qn4325/iiif/manifest" }, "geometry": { "type": "Polygon", "coordinates": [ [ [ 120.0, 23.6666665 ], [ 120.25, 23.6666665 ], [ 120.25, 23.8333333 ], [ 120.0, 23.8333333 ], [ 120.0, 23.6666665 ] ] ] } },
{ "type": "Feature", "properties": { "Id": 0, "Sheet_ID": "嘉義 10. 虎尾", "label": "嘉義 10. 虎尾", "call_short": "G7910 S50 .J3", "call_num": "G7910 S50 .J3 I-10", "recid": "jt964wd6281", "websiteUrl": "https://purl.stanford.edu/jt964wd6281", "title": "五万分一地形圖", "ckey": 9687013, "available": true, "iiifUrl": "https://purl.stanford.edu/jt964wd6281/iiif/manifest" }, "geometry": { "type": "Polygon", "coordinates": [ [ [ 120.25, 23.6666665 ], [ 120.5, 23.6666665 ], [ 120.5, 23.8333333 ], [ 120.25, 23.8333333 ], [ 120.25, 23.6666665 ] ] ] } },
{ "type": "Feature", "properties": { "Id": 0, "Sheet_ID": "嘉義 6. 斗六", "label": "嘉義 6. 斗六", "call_short": "G7910 S50 .J3", "call_num": "G7910 S50 .J3 I-6", "recid": "vc052jk8499", "websiteUrl": "https://purl.stanford.edu/vc052jk8499", "title": "五万分一地形圖", "ckey": 9687013, "available": true, "iiifUrl": "https://purl.stanford.edu/vc052jk8499/iiif/manifest" }, "geometry": { "type": "Polygon", "coordinates": [ [ [ 120.5, 23.6666665 ], [ 120.75, 23.6666665 ], [ 120.75, 23.8333333 ], [ 120.5, 23.8333333 ], [ 120.5, 23.6666665 ] ] ] } },
{ "type": "Feature", "properties": { "Id": 0, "Sheet_ID": "嘉義 2. 集集 ED. 2", "label": "嘉義 2. 集集 ED. 2", "call_short": "G7910 S50 .J3", "call_num": "G7910 S50 .J3 I-2 ED.2", "recid": "vb424nn0780", "websiteUrl": "https://purl.stanford.edu/vb424nn0780", "title": "五万分一地形圖", "ckey": 9687013, "available": true, "iiifUrl": "https://purl.stanford.edu/vb424nn0780/iiif/manifest" }, "geometry": { "type": "Polygon", "coordinates": [ [ [ 120.75, 23.6666665 ], [ 121.0, 23.6666665 ], [ 121.0, 23.8333333 ], [ 120.75, 23.8333333 ], [ 120.75, 23.6666665 ] ] ] } },
{ "type": "Feature", "properties": { "Id": 0, "Sheet_ID": "嘉義 13. 西螺溪口", "label": "嘉義 13. 西螺溪口", "call_short": "G7910 S50 .J3", "call_num": "G7910 S50 .J3 I-13", "recid": "vf240py6701", "websiteUrl": "https://purl.stanford.edu/vf240py6701", "title": "五万分一地形圖", "ckey": 9687013, "available": true, "iiifUrl": "https://purl.stanford.edu/vf240py6701/iiif/manifest" }, "geometry": { "type": "Polygon", "coordinates": [ [ [ 120.0, 23.8333332 ], [ 120.25, 23.8333332 ], [ 120.25, 24.0 ], [ 120.0, 24.0 ], [ 120.0, 23.8333332 ] ] ] } },
{ "type": "Feature", "properties": { "Id": 0, "Sheet_ID": "嘉義 9. 溪州", "label": "嘉義 9. 溪州", "call_short": "G7910 S50 .J3", "call_num": "G7910 S50 .J3 I-9", "recid": "xh421wy6103", "websiteUrl": "https://purl.stanford.edu/xh421wy6103", "title": "五万分一地形圖", "ckey": 9687013, "available": true, "iiifUrl": "https://purl.stanford.edu/xh421wy6103/iiif/manifest" }, "geometry": { "type": "Polygon", "coordinates": [ [ [ 120.25, 23.8333332 ], [ 120.5, 23.8333332 ], [ 120.5, 24.0 ], [ 120.25, 24.0 ], [ 120.25, 23.8333332 ] ] ] } },
{ "type": "Feature", "properties": { "Id": 0, "Sheet_ID": "嘉義 5. 南投", "label": "嘉義 5. 南投", "call_short": "G7910 S50 .J3", "call_num": "G7910 S50 .J3 I-5", "recid": "gm323kv7948", "websiteUrl": "https://purl.stanford.edu/gm323kv7948", "title": "五万分一地形圖", "ckey": 9687013, "available": true, "iiifUrl": "https://purl.stanford.edu/gm323kv7948/iiif/manifest" }, "geometry": { "type": "Polygon", "coordinates": [ [ [ 120.5, 23.8333332 ], [ 120.75, 23.8333332 ], [ 120.75, 24.0 ], [ 120.5, 24.0 ], [ 120.5, 23.8333332 ] ] ] } },
{ "type": "Feature", "properties": { "Id": 0, "Sheet_ID": "嘉義 1. 埔里", "label": "嘉義 1. 埔里", "call_short": "G7910 S50 .J3", "call_num": "G7910 S50 .J3 I-1", "recid": "qk200tw3602", "websiteUrl": "https://purl.stanford.edu/qk200tw3602", "title": "五万分一地形圖", "ckey": 9687013, "available": true, "iiifUrl": "https://purl.stanford.edu/qk200tw3602/iiif/manifest" }, "geometry": { "type": "Polygon", "coordinates": [ [ [ 120.75, 23.8333332 ], [ 121.0, 23.8333332 ], [ 121.0, 24.0 ], [ 120.75, 24.0 ], [ 120.75, 23.8333332 ] ] ] } },
{ "type": "Feature", "properties": { "Id": 0, "Sheet_ID": "嘉義 2. 集集", "label": "嘉義 2. 集集", "call_short": "G7910 S50 .J3", "call_num": "G7910 S50 .J3 I-2", "recid": "th090rn9952", "websiteUrl": "https://purl.stanford.edu/th090rn9952", "title": "五万分一編纂地形圖", "ckey": 9687013, "available": true, "iiifUrl": "https://purl.stanford.edu/th090rn9952/iiif/manifest" }, "geometry": { "type": "Polygon", "coordinates": [ [ [ 120.75, 23.6666665 ], [ 121.0, 23.6666665 ], [ 121.0, 23.8333333 ], [ 120.75, 23.8333333 ], [ 120.75, 23.6666665 ] ] ] } },
{ "type": "Feature", "properties": { "Id": 0, "Sheet_ID": "臺中 12. 鹿港", "label": "臺中 12. 鹿港", "call_short": "G7910 S50 .J3", "call_num": "G7910 S50 .J3 H-12", "recid": "bn590tt7165", "websiteUrl": "https://purl.stanford.edu/bn590tt7165", "title": "五万分一地形圖", "ckey": 9687013, "available": true, "iiifUrl": "https://purl.stanford.edu/bn590tt7165/iiif/manifest" }, "geometry": { "type": "Polygon", "coordinates": [ [ [ 120.25, 24.0 ], [ 120.5, 24.0 ], [ 120.5, 24.1666668 ], [ 120.25, 24.1666668 ], [ 120.25, 24.0 ] ] ] } },
{ "type": "Feature", "properties": { "Id": 0, "Sheet_ID": "臺中 8. 臺中", "label": "臺中 8. 臺中", "call_short": "G7910 S50 .J3", "call_num": "G7910 S50 .J3 H-8", "recid": "cq668sr9937", "websiteUrl": "https://purl.stanford.edu/cq668sr9937", "title": "五万分一地形圖", "ckey": 9687013, "available": true, "iiifUrl": "https://purl.stanford.edu/cq668sr9937/iiif/manifest" }, "geometry": { "type": "Polygon", "coordinates": [ [ [ 120.5, 24.0 ], [ 120.75, 24.0 ], [ 120.75, 24.1666668 ], [ 120.5, 24.1666668 ], [ 120.5, 24.0 ] ] ] } },
{ "type": "Feature", "properties": { "Id": 0, "Sheet_ID": "臺中 4. 國姓", "label": "臺中 4. 國姓", "call_short": "G7910 S50 .J3", "call_num": "G7910 S50 .J3 H-4", "recid": "mm549cm5923", "websiteUrl": "https://purl.stanford.edu/mm549cm5923", "title": "五万分一地形圖", "ckey": 9687013, "available": true, "iiifUrl": "https://purl.stanford.edu/mm549cm5923/iiif/manifest" }, "geometry": { "type": "Polygon", "coordinates": [ [ [ 120.75, 24.0 ], [ 121.0, 24.0 ], [ 121.0, 24.1666668 ], [ 120.75, 24.1666668 ], [ 120.75, 24.0 ] ] ] } },
{ "type": "Feature", "properties": { "Id": 0, "Sheet_ID": "臺中 11. 塗葛堀", "label": "臺中 11. 塗葛堀", "call_short": "G7910 S50 .J3", "call_num": "G7910 S50 .J3 H-11", "recid": "cf934xn7703", "websiteUrl": "https://purl.stanford.edu/cf934xn7703", "title": "五万分一地形圖", "ckey": 9687013, "available": true, "iiifUrl": "https://purl.stanford.edu/cf934xn7703/iiif/manifest" }, "geometry": { "type": "Polygon", "coordinates": [ [ [ 120.25, 24.1666668 ], [ 120.5, 24.1666668 ], [ 120.5, 24.3333335 ], [ 120.25, 24.3333335 ], [ 120.25, 24.1666668 ] ] ] } },
{ "type": "Feature", "properties": { "Id": 0, "Sheet_ID": "臺中 7. 臺湾豐原", "label": "臺中 7. 臺湾豐原", "call_short": "G7910 S50 .J3", "call_num": "G7910 S50 .J3 H-7", "recid": "yr436ny6090", "websiteUrl": "https://purl.stanford.edu/yr436ny6090", "title": "五万分一地形圖", "ckey": 9687013, "available": true, "iiifUrl": "https://purl.stanford.edu/yr436ny6090/iiif/manifest" }, "geometry": { "type": "Polygon", "coordinates": [ [ [ 120.5, 24.1666668 ], [ 120.75, 24.1666668 ], [ 120.75, 24.3333335 ], [ 120.5, 24.3333335 ], [ 120.5, 24.1666668 ] ] ] } },
{ "type": "Feature", "properties": { "Id": 0, "Sheet_ID": "臺中 3. 東勢", "label": "臺中 3. 東勢", "call_short": "G7910 S50 .J3", "call_num": "G7910 S50 .J3 H-3", "recid": "dw592gf2682", "websiteUrl": "https://purl.stanford.edu/dw592gf2682", "title": "五万分一地形圖", "ckey": 9687013, "available": true, "iiifUrl": "https://purl.stanford.edu/dw592gf2682/iiif/manifest" }, "geometry": { "type": "Polygon", "coordinates": [ [ [ 120.75, 24.1666668 ], [ 121.0, 24.1666668 ], [ 121.0, 24.3333335 ], [ 120.75, 24.3333335 ], [ 120.75, 24.1666668 ] ] ] } },
{ "type": "Feature", "properties": { "Id": 0, "Sheet_ID": "臺中 6. 大甲", "label": "臺中 6. 大甲", "call_short": "G7910 S50 .J3", "call_num": "G7910 S50 .J3 H-6", "recid": "kh426cr0294", "websiteUrl": "https://purl.stanford.edu/kh426cr0294", "title": "五万分一地形圖", "ckey": 9687013, "available": true, "iiifUrl": "https://purl.stanford.edu/kh426cr0294/iiif/manifest" }, "geometry": { "type": "Polygon", "coordinates": [ [ [ 120.5, 24.3333335 ], [ 120.75, 24.3333335 ], [ 120.75, 24.5000003 ], [ 120.5, 24.5000003 ], [ 120.5, 24.3333335 ] ] ] } },
{ "type": "Feature", "properties": { "Id": 0, "Sheet_ID": "臺中 2. 大湖", "label": "臺中 2. 大湖", "call_short": "G7910 S50 .J3", "call_num": "G7910 S50 .J3 H-2", "recid": "jj818fh4151", "websiteUrl": "https://purl.stanford.edu/jj818fh4151", "title": "五万分一地形圖", "ckey": 9687013, "available": true, "iiifUrl": "https://purl.stanford.edu/jj818fh4151/iiif/manifest" }, "geometry": { "type": "Polygon", "coordinates": [ [ [ 120.75, 24.3333335 ], [ 121.0, 24.3333335 ], [ 121.0, 24.5000003 ], [ 120.75, 24.5000003 ], [ 120.75, 24.3333335 ] ] ] } },
{ "type": "Feature", "properties": { "Id": 0, "Sheet_ID": "臺中 5. 白沙屯", "label": "臺中 5. 白沙屯", "call_short": "G7910 S50 .J3", "call_num": "G7910 S50 .J3 H-5", "recid": "gz350cv4161", "websiteUrl": "https://purl.stanford.edu/gz350cv4161", "title": "五万分一地形圖", "ckey": 9687013, "available": true, "iiifUrl": "https://purl.stanford.edu/gz350cv4161/iiif/manifest" }, "geometry": { "type": "Polygon", "coordinates": [ [ [ 120.5, 24.5000002 ], [ 120.75, 24.5000002 ], [ 120.75, 24.666667 ], [ 120.5, 24.666667 ], [ 120.5, 24.5000002 ] ] ] } },
{ "type": "Feature", "properties": { "Id": 0, "Sheet_ID": "臺中 1. 苗栗 ED. 2", "label": "臺中 1. 苗栗 ED. 2", "call_short": "G7910 S50 .J3", "call_num": "G7910 S50 .J3 H-1 ED.2", "recid": "zj967qt0697", "websiteUrl": "https://purl.stanford.edu/zj967qt0697", "title": "五万分一地形圖", "ckey": 9687013, "available": true, "iiifUrl": "https://purl.stanford.edu/zj967qt0697/iiif/manifest" }, "geometry": { "type": "Polygon", "coordinates": [ [ [ 120.75, 24.5000002 ], [ 121.0, 24.5000002 ], [ 121.0, 24.666667 ], [ 120.75, 24.666667 ], [ 120.75, 24.5000002 ] ] ] } },
{ "type": "Feature", "properties": { "Id": 0, "Sheet_ID": "臺中 1. 苗栗", "label": "臺中 1. 苗栗", "call_short": "G7910 S50 .J3", "call_num": "G7910 S50 .J3 H-1", "recid": "dd489jb9247", "websiteUrl": "https://purl.stanford.edu/dd489jb9247", "title": "五万分一地形圖", "ckey": 9687013, "available": true, "iiifUrl": "https://purl.stanford.edu/dd489jb9247/iiif/manifest" }, "geometry": { "type": "Polygon", "coordinates": [ [ [ 120.75, 24.5000003 ], [ 121.0, 24.5000003 ], [ 121.0, 24.666667 ], [ 120.75, 24.666667 ], [ 120.75, 24.5000003 ] ] ] } },
{ "type": "Feature", "properties": { "Id": 0, "Sheet_ID": "紅頭嶼 13. 太麻里東部", "label": "紅頭嶼 13. 太麻里東部", "call_short": "G7910 S50 .J3", "call_num": "G7910 S50 .J3 F-13", "recid": "pr331bv6862", "websiteUrl": "https://purl.stanford.edu/pr331bv6862", "title": "五万分一地形圖", "ckey": 9687013, "available": true, "iiifUrl": "https://purl.stanford.edu/pr331bv6862/iiif/manifest" }, "geometry": { "type": "Polygon", "coordinates": [ [ [ 121.0, 22.5 ], [ 121.25, 22.5 ], [ 121.25, 22.6666666 ], [ 121.0, 22.6666666 ], [ 121.0, 22.5 ] ] ] } },
{ "type": "Feature", "properties": { "Id": 0, "Sheet_ID": "紅頭嶼 9. 火燒島", "label": "紅頭嶼 9. 火燒島", "call_short": null, "call_num": null, "recid": null, "websiteUrl": null, "title": null, "ckey": 0, "available": false, "iiifUrl": null }, "geometry": { "type": "Polygon", "coordinates": [ [ [ 121.2666667, 22.5166667 ], [ 121.5166667, 22.5166667 ], [ 121.5166667, 22.6833333 ], [ 121.2666667, 22.6833333 ], [ 121.2666667, 22.5166667 ] ] ] } },
{ "type": "Feature", "properties": { "Id": 0, "Sheet_ID": "臺東 16. 臺東", "label": "臺東 16. 臺東", "call_short": "G7910 S50 .J3", "call_num": "G7910 S50 .J3 E-16", "recid": "jw444wp8289", "websiteUrl": "https://purl.stanford.edu/jw444wp8289", "title": "五万分一地形圖", "ckey": 9687013, "available": true, "iiifUrl": "https://purl.stanford.edu/jw444wp8289/iiif/manifest" }, "geometry": { "type": "Polygon", "coordinates": [ [ [ 121.0, 22.6666666 ], [ 121.25, 22.6666666 ], [ 121.25, 22.8333332 ], [ 121.0, 22.8333332 ], [ 121.0, 22.6666666 ] ] ] } },
{ "type": "Feature", "properties": { "Id": 0, "Sheet_ID": "臺東 15. 都鑾山", "label": "臺東 15. 都鑾山", "call_short": "G7910 S50 .J3", "call_num": "G7910 S50 .J3 E-15", "recid": "pq486tk2806", "websiteUrl": "https://purl.stanford.edu/pq486tk2806", "title": "五万分一地形圖", "ckey": 9687013, "available": true, "iiifUrl": "https://purl.stanford.edu/pq486tk2806/iiif/manifest" }, "geometry": { "type": "Polygon", "coordinates": [ [ [ 121.0, 22.8333332 ], [ 121.25, 22.8333332 ], [ 121.25, 22.9999998 ], [ 121.0, 22.9999998 ], [ 121.0, 22.8333332 ] ] ] } },
{ "type": "Feature", "properties": { "Id": 0, "Sheet_ID": "臺東 11. 馬武窟", "label": "臺東 11. 馬武窟", "call_short": null, "call_num": null, "recid": null, "websiteUrl": null, "title": "五万分一地形圖", "ckey": 0, "available": false, "iiifUrl": null }, "geometry": { "type": "Polygon", "coordinates": [ [ [ 121.25, 22.8333332 ], [ 121.5, 22.8333332 ], [ 121.5, 22.9999998 ], [ 121.25, 22.9999998 ], [ 121.25, 22.8333332 ] ] ] } },
{ "type": "Feature", "properties": { "Id": 0, "Sheet_ID": "臺東 14. 里壠 ED. 2", "label": "臺東 14. 里壠 ED. 2", "call_short": "G7910 S50 .J3", "call_num": "G7910 S50 .J3 E-14 ED.2", "recid": "vg627vs4282", "websiteUrl": "https://purl.stanford.edu/vg627vs4282", "title": "五万分一地形圖", "ckey": 9687013, "available": true, "iiifUrl": "https://purl.stanford.edu/vg627vs4282/iiif/manifest" }, "geometry": { "type": "Polygon", "coordinates": [ [ [ 121.0, 22.9999998 ], [ 121.25, 22.9999998 ], [ 121.25, 23.1666664 ], [ 121.0, 23.1666664 ], [ 121.0, 22.9999998 ] ] ] } },
{ "type": "Feature", "properties": { "Id": 0, "Sheet_ID": "臺東 10. 新港", "label": "臺東 10. 新港", "call_short": "G7910 S50 .J3", "call_num": "G7910 S50 .J3 E-10", "recid": "xb057cm5453", "websiteUrl": "https://purl.stanford.edu/xb057cm5453", "title": "五万分一地形圖", "ckey": 9687013, "available": true, "iiifUrl": "https://purl.stanford.edu/xb057cm5453/iiif/manifest" }, "geometry": { "type": "Polygon", "coordinates": [ [ [ 121.25, 22.9999998 ], [ 121.5, 22.9999998 ], [ 121.5, 23.1666664 ], [ 121.25, 23.1666664 ], [ 121.25, 22.9999998 ] ] ] } },
{ "type": "Feature", "properties": { "Id": 0, "Sheet_ID": "臺東 13. 公埔", "label": "臺東 13. 公埔", "call_short": "G7910 S50 .J3", "call_num": "G7910 S50 .J3 E-13", "recid": "vm630xr8860", "websiteUrl": "https://purl.stanford.edu/vm630xr8860", "title": "五万分一地形圖", "ckey": 9687013, "available": true, "iiifUrl": "https://purl.stanford.edu/vm630xr8860/iiif/manifest" }, "geometry": { "type": "Polygon", "coordinates": [ [ [ 121.0, 23.1666664 ], [ 121.25, 23.1666664 ], [ 121.25, 23.333333 ], [ 121.0, 23.333333 ], [ 121.0, 23.1666664 ] ] ] } },
{ "type": "Feature", "properties": { "Id": 0, "Sheet_ID": "臺東 9. 加走灣", "label": "臺東 9. 加走灣", "call_short": "G7910 S50 .J3", "call_num": "G7910 S50 .J3 E-9", "recid": "fp987yj1616", "websiteUrl": "https://purl.stanford.edu/fp987yj1616", "title": "五万分一地形圖", "ckey": 9687013, "available": true, "iiifUrl": "https://purl.stanford.edu/fp987yj1616/iiif/manifest" }, "geometry": { "type": "Polygon", "coordinates": [ [ [ 121.25, 23.1666664 ], [ 121.5, 23.1666664 ], [ 121.5, 23.333333 ], [ 121.25, 23.333333 ], [ 121.25, 23.1666664 ] ] ] } },
{ "type": "Feature", "properties": { "Id": 0, "Sheet_ID": "紅頭嶼 8. 紅頭嶼", "label": "紅頭嶼 8. 紅頭嶼", "call_short": "G7910 S50 .J3", "call_num": "G7910 S50 .J3 F-8", "recid": "hz303dh4510", "websiteUrl": "https://purl.stanford.edu/hz303dh4510", "title": "五万分一地形圖", "ckey": 9687013, "available": true, "iiifUrl": "https://purl.stanford.edu/hz303dh4510/iiif/manifest" }, "geometry": { "type": "Polygon", "coordinates": [ [ [ 121.75, 21.916667 ], [ 121.75, 22.09 ], [ 121.4902961, 22.09 ], [ 121.49, 21.916667 ], [ 121.75, 21.916667 ] ] ] } },
{ "type": "Feature", "properties": { "Id": 0, "Sheet_ID": "臺東 14. 里壠", "label": "臺東 14. 里壠", "call_short": "G7910 S50 .J3", "call_num": "G7910 S50 .J3 E-14", "recid": "jh227cy3079", "websiteUrl": "https://purl.stanford.edu/jh227cy3079", "title": "五万分一編纂地形圖", "ckey": 9687013, "available": true, "iiifUrl": "https://purl.stanford.edu/jh227cy3079/iiif/manifest" }, "geometry": { "type": "Polygon", "coordinates": [ [ [ 121.0, 22.9999998 ], [ 121.25, 22.9999998 ], [ 121.25, 23.1666664 ], [ 121.0, 23.1666664 ], [ 121.0, 22.9999998 ] ] ] } },
{ "type": "Feature", "properties": { "Id": 0, "Sheet_ID": "花蓮港 16. 玉里山 ED. 2", "label": "花蓮港 16. 玉里山 ED. 2", "call_short": "G7910 S50 .J3", "call_num": "G7910 S50 .J3 D-16 ED.2", "recid": "rf940jf9483", "websiteUrl": "https://purl.stanford.edu/rf940jf9483", "title": "五万分一地形圖", "ckey": 9687013, "available": true, "iiifUrl": "https://purl.stanford.edu/rf940jf9483/iiif/manifest" }, "geometry": { "type": "Polygon", "coordinates": [ [ [ 121.0, 23.333333 ], [ 121.25, 23.333333 ], [ 121.25, 23.4999998 ], [ 121.0, 23.4999998 ], [ 121.0, 23.333333 ] ] ] } },
{ "type": "Feature", "properties": { "Id": 0, "Sheet_ID": "花蓮港 12. 玉里", "label": "花蓮港 12. 玉里", "call_short": "G7910 S50 .J3", "call_num": "G7910 S50 .J3 D-12", "recid": "cf564cp6223", "websiteUrl": "https://purl.stanford.edu/cf564cp6223", "title": "五万分一地形圖", "ckey": 9687013, "available": true, "iiifUrl": "https://purl.stanford.edu/cf564cp6223/iiif/manifest" }, "geometry": { "type": "Polygon", "coordinates": [ [ [ 121.25, 23.333333 ], [ 121.52, 23.333333 ], [ 121.52, 23.4999997 ], [ 121.25, 23.4999997 ], [ 121.25, 23.333333 ] ] ] } },
{ "type": "Feature", "properties": { "Id": 0, "Sheet_ID": "花蓮港 15. 郡大社", "label": "花蓮港 15. 郡大社", "call_short": "G7910 S50 .J3", "call_num": "G7910 S50 .J3 D-15", "recid": "tr151dx5827", "websiteUrl": "https://purl.stanford.edu/tr151dx5827", "title": "五万分一編纂地形圖", "ckey": 9687013, "available": true, "iiifUrl": "https://purl.stanford.edu/tr151dx5827/iiif/manifest" }, "geometry": { "type": "Polygon", "coordinates": [ [ [ 121.0, 23.4999998 ], [ 121.25, 23.4999998 ], [ 121.25, 23.6666665 ], [ 121.0, 23.6666665 ], [ 121.0, 23.4999998 ] ] ] } },
{ "type": "Feature", "properties": { "Id": 0, "Sheet_ID": "花蓮港 11. 抜子 ED. 2", "label": "花蓮港 11. 抜子 ED. 2", "call_short": "G7910 S50 .J3", "call_num": "G7910 S50 .J3 D-11 ED.2", "recid": "hk113rg5135", "websiteUrl": "https://purl.stanford.edu/hk113rg5135", "title": "五万分一地形圖", "ckey": 9687013, "available": true, "iiifUrl": "https://purl.stanford.edu/hk113rg5135/iiif/manifest" }, "geometry": { "type": "Polygon", "coordinates": [ [ [ 121.25, 23.4999998 ], [ 121.5, 23.4999998 ], [ 121.5, 23.6666665 ], [ 121.25, 23.6666665 ], [ 121.25, 23.4999998 ] ] ] } },
{ "type": "Feature", "properties": { "Id": 0, "Sheet_ID": "花蓮港 7. 貓公", "label": "花蓮港 7. 貓公", "call_short": "G7910 S50 .J3", "call_num": "G7910 S50 .J3 D-7", "recid": "sz618bb1165", "websiteUrl": "https://purl.stanford.edu/sz618bb1165", "title": "五万分一地形圖", "ckey": 9687013, "available": true, "iiifUrl": "https://purl.stanford.edu/sz618bb1165/iiif/manifest" }, "geometry": { "type": "Polygon", "coordinates": [ [ [ 121.5, 23.4999998 ], [ 121.75, 23.4999998 ], [ 121.75, 23.6666665 ], [ 121.5, 23.6666665 ], [ 121.5, 23.4999998 ] ] ] } },
{ "type": "Feature", "properties": { "Id": 0, "Sheet_ID": "花蓮港 14. 丹大社", "label": "花蓮港 14. 丹大社", "call_short": "G7910 S50 .J3", "call_num": "G7910 S50 .J3 D-14", "recid": "hq904kd1479", "websiteUrl": "https://purl.stanford.edu/hq904kd1479", "title": "五万分一編纂地形圖", "ckey": 9687013, "available": true, "iiifUrl": "https://purl.stanford.edu/hq904kd1479/iiif/manifest" }, "geometry": { "type": "Polygon", "coordinates": [ [ [ 121.0, 23.6666665 ], [ 121.25, 23.6666665 ], [ 121.25, 23.8333333 ], [ 121.0, 23.8333333 ], [ 121.0, 23.6666665 ] ] ] } },
{ "type": "Feature", "properties": { "Id": 0, "Sheet_ID": "花蓮港 10. 鳳林 ED. 2", "label": "花蓮港 10. 鳳林 ED. 2", "call_short": "G7910 S50 .J3", "call_num": "G7910 S50 .J3 D-10 ED.2", "recid": "qd939rt2658", "websiteUrl": "https://purl.stanford.edu/qd939rt2658", "title": "五万分一地形圖", "ckey": 9687013, "available": true, "iiifUrl": "https://purl.stanford.edu/qd939rt2658/iiif/manifest" }, "geometry": { "type": "Polygon", "coordinates": [ [ [ 121.25, 23.6666665 ], [ 121.5, 23.6666665 ], [ 121.5, 23.8333333 ], [ 121.25, 23.8333333 ], [ 121.25, 23.6666665 ] ] ] } },
{ "type": "Feature", "properties": { "Id": 0, "Sheet_ID": "花蓮港 6. 水璉尾", "label": "花蓮港 6. 水璉尾", "call_short": "G7910 S50 .J3", "call_num": "G7910 S50 .J3 D-6", "recid": "bs622gr0500", "websiteUrl": "https://purl.stanford.edu/bs622gr0500", "title": "五万分一地形圖", "ckey": 9687013, "available": true, "iiifUrl": "https://purl.stanford.edu/bs622gr0500/iiif/manifest" }, "geometry": { "type": "Polygon", "coordinates": [ [ [ 121.5, 23.6666665 ], [ 121.75, 23.6666665 ], [ 121.75, 23.8333333 ], [ 121.5, 23.8333333 ], [ 121.5, 23.6666665 ] ] ] } },
{ "type": "Feature", "properties": { "Id": 0, "Sheet_ID": "花蓮港 13. バンダイ", "label": "花蓮港 13. バンダイ", "call_short": "G7910 S50 .J3", "call_num": "G7910 S50 .J3 D-13", "recid": "zx190ny6925", "websiteUrl": "https://purl.stanford.edu/zx190ny6925", "title": "五万分一地形圖", "ckey": 9687013, "available": true, "iiifUrl": "https://purl.stanford.edu/zx190ny6925/iiif/manifest" }, "geometry": { "type": "Polygon", "coordinates": [ [ [ 121.0, 23.8333332 ], [ 121.25, 23.8333332 ], [ 121.25, 24.0 ], [ 121.0, 24.0 ], [ 121.0, 23.8333332 ] ] ] } },
{ "type": "Feature", "properties": { "Id": 0, "Sheet_ID": "花蓮港 9. 能高山", "label": "花蓮港 9. 能高山", "call_short": "G7910 S50 .J3", "call_num": "G7910 S50 .J3 D-9", "recid": "rn355vk6798", "websiteUrl": "https://purl.stanford.edu/rn355vk6798", "title": "五万分一地形圖", "ckey": 9687013, "available": true, "iiifUrl": "https://purl.stanford.edu/rn355vk6798/iiif/manifest" }, "geometry": { "type": "Polygon", "coordinates": [ [ [ 121.25, 23.8333332 ], [ 121.5, 23.8333332 ], [ 121.5, 24.0 ], [ 121.25, 24.0 ], [ 121.25, 23.8333332 ] ] ] } },
{ "type": "Feature", "properties": { "Id": 0, "Sheet_ID": "花蓮港 5. 花蓮港", "label": "花蓮港 5. 花蓮港", "call_short": "G7910 S50 .J3", "call_num": "G7910 S50 .J3 D-5", "recid": "xp552rz2338", "websiteUrl": "https://purl.stanford.edu/xp552rz2338", "title": "五万分一地形圖", "ckey": 9687013, "available": true, "iiifUrl": "https://purl.stanford.edu/xp552rz2338/iiif/manifest" }, "geometry": { "type": "Polygon", "coordinates": [ [ [ 121.5, 23.8333332 ], [ 121.75, 23.8333332 ], [ 121.75, 24.0 ], [ 121.5, 24.0 ], [ 121.5, 23.8333332 ] ] ] } },
{ "type": "Feature", "properties": { "Id": 0, "Sheet_ID": "花蓮港 10. 鳳林", "label": "花蓮港 10. 鳳林", "call_short": "G7910 S50 .J3", "call_num": "G7910 S50 .J3 D-10", "recid": "rw640nn3587", "websiteUrl": "https://purl.stanford.edu/rw640nn3587", "title": "五万分一編纂地形圖", "ckey": 9687013, "available": true, "iiifUrl": "https://purl.stanford.edu/rw640nn3587/iiif/manifest" }, "geometry": { "type": "Polygon", "coordinates": [ [ [ 121.25, 23.6666665 ], [ 121.5, 23.6666665 ], [ 121.5, 23.8333333 ], [ 121.25, 23.8333333 ], [ 121.25, 23.6666665 ] ] ] } },
{ "type": "Feature", "properties": { "Id": 0, "Sheet_ID": "花蓮港 11. 抜子", "label": "花蓮港 11. 抜子", "call_short": "G7910 S50 .J3", "call_num": "G7910 S50 .J3 D-11", "recid": "hj755yr8416", "websiteUrl": "https://purl.stanford.edu/hj755yr8416", "title": "五万分一編纂地形圖", "ckey": 9687013, "available": true, "iiifUrl": "https://purl.stanford.edu/hj755yr8416/iiif/manifest" }, "geometry": { "type": "Polygon", "coordinates": [ [ [ 121.25, 23.4999997 ], [ 121.5, 23.4999997 ], [ 121.5, 23.6666665 ], [ 121.25, 23.6666665 ], [ 121.25, 23.4999997 ] ] ] } },
{ "type": "Feature", "properties": { "Id": 0, "Sheet_ID": "花蓮港 16. 玉里山", "label": "花蓮港 16. 玉里山", "call_short": "G7910 S50 .J3", "call_num": "G7910 S50 .J3 D-16", "recid": "qz946tx4287", "websiteUrl": "https://purl.stanford.edu/qz946tx4287", "title": "五万分一編纂地形圖", "ckey": 9687013, "available": true, "iiifUrl": "https://purl.stanford.edu/qz946tx4287/iiif/manifest" }, "geometry": { "type": "Polygon", "coordinates": [ [ [ 121.0, 23.333333 ], [ 121.25, 23.333333 ], [ 121.25, 23.4999997 ], [ 121.0, 23.4999997 ], [ 121.0, 23.333333 ] ] ] } },
{ "type": "Feature", "properties": { "Id": 0, "Sheet_ID": "蘇澳 16. 霧社", "label": "蘇澳 16. 霧社", "call_short": "G7910 S50 .J3", "call_num": "G7910 S50 .J3 C-16", "recid": "xd288vf6650", "websiteUrl": "https://purl.stanford.edu/xd288vf6650", "title": "五万分一地形圖", "ckey": 9687013, "available": true, "iiifUrl": "https://purl.stanford.edu/xd288vf6650/iiif/manifest" }, "geometry": { "type": "Polygon", "coordinates": [ [ [ 121.0, 24.0 ], [ 121.25, 24.0 ], [ 121.25, 24.1666668 ], [ 121.0, 24.1666668 ], [ 121.0, 24.0 ] ] ] } },
{ "type": "Feature", "properties": { "Id": 0, "Sheet_ID": "蘇澳 12. 合歓山", "label": "蘇澳 12. 合歓山", "call_short": "G7910 S50 .J3", "call_num": "G7910 S50 .J3 C-12", "recid": "cw847sm4673", "websiteUrl": "https://purl.stanford.edu/cw847sm4673", "title": "五万分一地形圖", "ckey": 9687013, "available": true, "iiifUrl": "https://purl.stanford.edu/cw847sm4673/iiif/manifest" }, "geometry": { "type": "Polygon", "coordinates": [ [ [ 121.25, 24.0 ], [ 121.5, 24.0 ], [ 121.5, 24.1666668 ], [ 121.25, 24.1666668 ], [ 121.25, 24.0 ] ] ] } },
{ "type": "Feature", "properties": { "Id": 0, "Sheet_ID": "蘇澳 8. 新城", "label": "蘇澳 8. 新城", "call_short": "G7910 S50 .J3", "call_num": "G7910 S50 .J3 C-8", "recid": "nj303xf2311", "websiteUrl": "https://purl.stanford.edu/nj303xf2311", "title": "五万分一地形圖", "ckey": 9687013, "available": true, "iiifUrl": "https://purl.stanford.edu/nj303xf2311/iiif/manifest" }, "geometry": { "type": "Polygon", "coordinates": [ [ [ 121.5, 24.0 ], [ 121.75, 24.0 ], [ 121.75, 24.1666668 ], [ 121.5, 24.1666668 ], [ 121.5, 24.0 ] ] ] } },
{ "type": "Feature", "properties": { "Id": 0, "Sheet_ID": "蘇澳 15. 白狗大山", "label": "蘇澳 15. 白狗大山", "call_short": "G7910 S50 .J3", "call_num": "G7910 S50 .J3 C-15", "recid": "wz430wt0420", "websiteUrl": "https://purl.stanford.edu/wz430wt0420", "title": "五万分一地形圖", "ckey": 9687013, "available": true, "iiifUrl": "https://purl.stanford.edu/wz430wt0420/iiif/manifest" }, "geometry": { "type": "Polygon", "coordinates": [ [ [ 121.0, 24.1666668 ], [ 121.25, 24.1666668 ], [ 121.25, 24.3333335 ], [ 121.0, 24.3333335 ], [ 121.0, 24.1666668 ] ] ] } },
{ "type": "Feature", "properties": { "Id": 0, "Sheet_ID": "蘇澳 11. タビト", "label": "蘇澳 11. タビト", "call_short": "G7910 S50 .J3", "call_num": "G7910 S50 .J3 C-11", "recid": "kb950wz5985", "websiteUrl": "https://purl.stanford.edu/kb950wz5985", "title": "五万分一地形圖", "ckey": 9687013, "available": true, "iiifUrl": "https://purl.stanford.edu/kb950wz5985/iiif/manifest" }, "geometry": { "type": "Polygon", "coordinates": [ [ [ 121.25, 24.1666668 ], [ 121.5, 24.1666668 ], [ 121.5, 24.3333335 ], [ 121.25, 24.3333335 ], [ 121.25, 24.1666668 ] ] ] } },
{ "type": "Feature", "properties": { "Id": 0, "Sheet_ID": "蘇澳 7. グウクツ", "label": "蘇澳 7. グウクツ", "call_short": "G7910 S50 .J3", "call_num": "G7910 S50 .J3 C-7", "recid": "dy342dj1152", "websiteUrl": "https://purl.stanford.edu/dy342dj1152", "title": "五万分一地形圖", "ckey": 9687013, "available": true, "iiifUrl": "https://purl.stanford.edu/dy342dj1152/iiif/manifest" }, "geometry": { "type": "Polygon", "coordinates": [ [ [ 121.5, 24.1666668 ], [ 121.78, 24.1666668 ], [ 121.78, 24.3333335 ], [ 121.5, 24.3333335 ], [ 121.5, 24.1666668 ] ] ] } },
{ "type": "Feature", "properties": { "Id": 0, "Sheet_ID": "蘇澳 14. 次高山", "label": "蘇澳 14. 次高山", "call_short": "G7910 S50 .J3", "call_num": "G7910 S50 .J3 C-14", "recid": "jm844yv4626", "websiteUrl": "https://purl.stanford.edu/jm844yv4626", "title": "五万分一地形圖", "ckey": 9687013, "available": true, "iiifUrl": "https://purl.stanford.edu/jm844yv4626/iiif/manifest" }, "geometry": { "type": "Polygon", "coordinates": [ [ [ 121.0, 24.3333335 ], [ 121.25, 24.3333335 ], [ 121.25, 24.5000003 ], [ 121.0, 24.5000003 ], [ 121.0, 24.3333335 ] ] ] } },
{ "type": "Feature", "properties": { "Id": 0, "Sheet_ID": "蘇澳 10. 南湖大山", "label": "蘇澳 10. 南湖大山", "call_short": "G7910 S50 .J3", "call_num": "G7910 S50 .J3 C-10", "recid": "jf490cb1385", "websiteUrl": "https://purl.stanford.edu/jf490cb1385", "title": "五万分一地形圖", "ckey": 9687013, "available": true, "iiifUrl": "https://purl.stanford.edu/jf490cb1385/iiif/manifest" }, "geometry": { "type": "Polygon", "coordinates": [ [ [ 121.25, 24.3333335 ], [ 121.5, 24.3333335 ], [ 121.5, 24.5000003 ], [ 121.25, 24.5000003 ], [ 121.25, 24.3333335 ] ] ] } },
{ "type": "Feature", "properties": { "Id": 0, "Sheet_ID": "蘇澳 6. ブタ社", "label": "蘇澳 6. ブタ社", "call_short": "G7910 S50 .J3", "call_num": "G7910 S50 .J3 C-6", "recid": "xt999ns5168", "websiteUrl": "https://purl.stanford.edu/xt999ns5168", "title": "五万分一地形圖", "ckey": 9687013, "available": true, "iiifUrl": "https://purl.stanford.edu/xt999ns5168/iiif/manifest" }, "geometry": { "type": "Polygon", "coordinates": [ [ [ 121.5, 24.3333335 ], [ 121.75, 24.3333335 ], [ 121.75, 24.5000003 ], [ 121.5, 24.5000003 ], [ 121.5, 24.3333335 ] ] ] } },
{ "type": "Feature", "properties": { "Id": 0, "Sheet_ID": "蘇澳 2. 南澳", "label": "蘇澳 2. 南澳", "call_short": "G7910 S50 .J3", "call_num": "G7910 S50 .J3 C-2", "recid": "vk069sk9325", "websiteUrl": "https://purl.stanford.edu/vk069sk9325", "title": "五万分一地形圖", "ckey": 9687013, "available": true, "iiifUrl": "https://purl.stanford.edu/vk069sk9325/iiif/manifest" }, "geometry": { "type": "Polygon", "coordinates": [ [ [ 121.75, 24.3333335 ], [ 122.0, 24.3333335 ], [ 122.0, 24.5000003 ], [ 121.75, 24.5000003 ], [ 121.75, 24.3333335 ] ] ] } },
{ "type": "Feature", "properties": { "Id": 0, "Sheet_ID": "蘇澳 13. 五指山 ED. 2", "label": "蘇澳 13. 五指山 ED. 2", "call_short": "G7910 S50 .J3", "call_num": "G7910 S50 .J3 C-13 ED.2", "recid": "hv817xb3301", "websiteUrl": "https://purl.stanford.edu/hv817xb3301", "title": "五万分一地形圖", "ckey": 9687013, "available": true, "iiifUrl": "https://purl.stanford.edu/hv817xb3301/iiif/manifest" }, "geometry": { "type": "Polygon", "coordinates": [ [ [ 121.0, 24.5000002 ], [ 121.25, 24.5000002 ], [ 121.25, 24.666667 ], [ 121.0, 24.666667 ], [ 121.0, 24.5000002 ] ] ] } },
{ "type": "Feature", "properties": { "Id": 0, "Sheet_ID": "蘇澳 9. ボンボン山 ED. 2", "label": "蘇澳 9. ボンボン山 ED. 2", "call_short": "G7910 S50 .J3", "call_num": "G7910 S50 .J3 C-9 ED.2", "recid": "fv052ky7422", "websiteUrl": "https://purl.stanford.edu/fv052ky7422", "title": "五万分一地形圖", "ckey": 9687013, "available": true, "iiifUrl": "https://purl.stanford.edu/fv052ky7422/iiif/manifest" }, "geometry": { "type": "Polygon", "coordinates": [ [ [ 121.25, 24.5000002 ], [ 121.5, 24.5000002 ], [ 121.5, 24.666667 ], [ 121.25, 24.666667 ], [ 121.25, 24.5000002 ] ] ] } },
{ "type": "Feature", "properties": { "Id": 0, "Sheet_ID": "蘇澳 5. 濁水", "label": "蘇澳 5. 濁水", "call_short": "G7910 S50 .J3", "call_num": "G7910 S50 .J3 C-5", "recid": "sn234ts0634", "websiteUrl": "https://purl.stanford.edu/sn234ts0634", "title": "五万分一地形圖", "ckey": 9687013, "available": true, "iiifUrl": "https://purl.stanford.edu/sn234ts0634/iiif/manifest" }, "geometry": { "type": "Polygon", "coordinates": [ [ [ 121.5, 24.5000002 ], [ 121.75, 24.5000002 ], [ 121.75, 24.666667 ], [ 121.5, 24.666667 ], [ 121.5, 24.5000002 ] ] ] } },
{ "type": "Feature", "properties": { "Id": 0, "Sheet_ID": "蘇澳 1. 蘇澳", "label": "蘇澳 1. 蘇澳", "call_short": "G7910 S50 .J3", "call_num": "G7910 S50 .J3 C-1", "recid": "sq509rs5985", "websiteUrl": "https://purl.stanford.edu/sq509rs5985", "title": "五万分一地形圖", "ckey": 9687013, "available": true, "iiifUrl": "https://purl.stanford.edu/sq509rs5985/iiif/manifest" }, "geometry": { "type": "Polygon", "coordinates": [ [ [ 121.75, 24.5000002 ], [ 122.0, 24.5000002 ], [ 122.0, 24.666667 ], [ 121.75, 24.666667 ], [ 121.75, 24.5000002 ] ] ] } },
{ "type": "Feature", "properties": { "Id": 0, "Sheet_ID": "蘇澳 9. ボンボン山", "label": "蘇澳 9. ボンボン山", "call_short": "G7910 S50 .J3", "call_num": "G7910 S50 .J3 C-9", "recid": "xf546tr1692", "websiteUrl": "https://purl.stanford.edu/xf546tr1692", "title": "五万分一地形圖", "ckey": 9687013, "available": true, "iiifUrl": "https://purl.stanford.edu/xf546tr1692/iiif/manifest" }, "geometry": { "type": "Polygon", "coordinates": [ [ [ 121.25, 24.5000003 ], [ 121.5, 24.5000003 ], [ 121.5, 24.666667 ], [ 121.25, 24.666667 ], [ 121.25, 24.5000003 ] ] ] } },
{ "type": "Feature", "properties": { "Id": 0, "Sheet_ID": "蘇澳 13. 五指山", "label": "蘇澳 13. 五指山", "call_short": "G7910 S50 .J3", "call_num": "G7910 S50 .J3 C-13", "recid": "yn462sb9252", "websiteUrl": "https://purl.stanford.edu/yn462sb9252", "title": "五万分一地形圖", "ckey": 9687013, "available": true, "iiifUrl": "https://purl.stanford.edu/yn462sb9252/iiif/manifest" }, "geometry": { "type": "Polygon", "coordinates": [ [ [ 121.0, 24.5000003 ], [ 121.25, 24.5000003 ], [ 121.25, 24.666667 ], [ 121.0, 24.666667 ], [ 121.0, 24.5000003 ] ] ] } },
{ "type": "Feature", "properties": { "Id": 0, "Sheet_ID": "新竹 4. 新竹", "label": "新竹 4. 新竹", "call_short": "G7910 S50 .J3", "call_num": "G7910 S50 .J3 G-4", "recid": "bk767qf5273", "websiteUrl": "https://purl.stanford.edu/bk767qf5273", "title": "五万分一地形圖", "ckey": 9687013, "available": true, "iiifUrl": "https://purl.stanford.edu/bk767qf5273/iiif/manifest" }, "geometry": { "type": "Polygon", "coordinates": [ [ [ 120.75, 24.666667 ], [ 121.0, 24.666667 ], [ 121.0, 24.8333335 ], [ 120.75, 24.8333335 ], [ 120.75, 24.666667 ] ] ] } },
{ "type": "Feature", "properties": { "Id": 0, "Sheet_ID": "臺北 16. 竹東", "label": "臺北 16. 竹東", "call_short": "G7910 S50 .J3", "call_num": "G7910 S50 .J3 B-16", "recid": "jq413hw5494", "websiteUrl": "https://purl.stanford.edu/jq413hw5494", "title": "五万分一地形圖", "ckey": 9687013, "available": true, "iiifUrl": "https://purl.stanford.edu/jq413hw5494/iiif/manifest" }, "geometry": { "type": "Polygon", "coordinates": [ [ [ 121.0, 24.666667 ], [ 121.25, 24.666667 ], [ 121.25, 24.8333335 ], [ 121.0, 24.8333335 ], [ 121.0, 24.666667 ] ] ] } },
{ "type": "Feature", "properties": { "Id": 0, "Sheet_ID": "臺北 12. 角板山", "label": "臺北 12. 角板山", "call_short": "G7910 S50 .J3", "call_num": "G7910 S50 .J3 B-12", "recid": "kn607nb9742", "websiteUrl": "https://purl.stanford.edu/kn607nb9742", "title": "五万分一地形圖", "ckey": 9687013, "available": true, "iiifUrl": "https://purl.stanford.edu/kn607nb9742/iiif/manifest" }, "geometry": { "type": "Polygon", "coordinates": [ [ [ 121.25, 24.666667 ], [ 121.5, 24.666667 ], [ 121.5, 24.8333335 ], [ 121.25, 24.8333335 ], [ 121.25, 24.666667 ] ] ] } },
{ "type": "Feature", "properties": { "Id": 0, "Sheet_ID": "臺北 8. 宜蘭", "label": "臺北 8. 宜蘭", "call_short": "G7910 S50 .J3", "call_num": "G7910 S50 .J3 B-8", "recid": "yr124qx1564", "websiteUrl": "https://purl.stanford.edu/yr124qx1564", "title": "五万分一地形圖", "ckey": 9687013, "available": true, "iiifUrl": "https://purl.stanford.edu/yr124qx1564/iiif/manifest" }, "geometry": { "type": "Polygon", "coordinates": [ [ [ 121.5, 24.666667 ], [ 121.75, 24.666667 ], [ 121.75, 24.8333335 ], [ 121.5, 24.8333335 ], [ 121.5, 24.666667 ] ] ] } },
{ "type": "Feature", "properties": { "Id": 0, "Sheet_ID": "臺北 4. 羅東", "label": "臺北 4. 羅東", "call_short": null, "call_num": null, "recid": null, "websiteUrl": null, "title": null, "ckey": 0, "available": false, "iiifUrl": null }, "geometry": { "type": "Polygon", "coordinates": [ [ [ 121.75, 24.666667 ], [ 122.0, 24.666667 ], [ 122.0, 24.8333335 ], [ 121.75, 24.8333335 ], [ 121.75, 24.666667 ] ] ] } },
{ "type": "Feature", "properties": { "Id": 0, "Sheet_ID": "新竹 3. 舊港", "label": "新竹 3. 舊港", "call_short": "G7910 S50 .J3", "call_num": "G7910 S50 .J3 G-3", "recid": "xb246sg1235", "websiteUrl": "https://purl.stanford.edu/xb246sg1235", "title": "五万分一地形圖", "ckey": 9687013, "available": true, "iiifUrl": "https://purl.stanford.edu/xb246sg1235/iiif/manifest" }, "geometry": { "type": "Polygon", "coordinates": [ [ [ 120.75, 24.8333335 ], [ 121.0, 24.8333335 ], [ 121.0, 25.0 ], [ 120.75, 25.0 ], [ 120.75, 24.8333335 ] ] ] } },
{ "type": "Feature", "properties": { "Id": 0, "Sheet_ID": "臺北 15. 中壢", "label": "臺北 15. 中壢", "call_short": "G7910 S50 .J3", "call_num": "G7910 S50 .J3 B-15", "recid": "pz448jh4211", "websiteUrl": "https://purl.stanford.edu/pz448jh4211", "title": "五万分一地形圖", "ckey": 9687013, "available": true, "iiifUrl": "https://purl.stanford.edu/pz448jh4211/iiif/manifest" }, "geometry": { "type": "Polygon", "coordinates": [ [ [ 121.0, 24.8333335 ], [ 121.25, 24.8333335 ], [ 121.25, 25.0 ], [ 121.0, 25.0 ], [ 121.0, 24.8333335 ] ] ] } },
{ "type": "Feature", "properties": { "Id": 0, "Sheet_ID": "臺北 11. 桃園", "label": "臺北 11. 桃園", "call_short": "G7910 S50 .J3", "call_num": "G7910 S50 .J3 B-11", "recid": "bp757jp0789", "websiteUrl": "https://purl.stanford.edu/bp757jp0789", "title": "五万分一地形圖", "ckey": 9687013, "available": true, "iiifUrl": "https://purl.stanford.edu/bp757jp0789/iiif/manifest" }, "geometry": { "type": "Polygon", "coordinates": [ [ [ 121.25, 24.8333335 ], [ 121.5, 24.8333335 ], [ 121.5, 25.0 ], [ 121.25, 25.0 ], [ 121.25, 24.8333335 ] ] ] } },
{ "type": "Feature", "properties": { "Id": 0, "Sheet_ID": "臺北 7. 新店", "label": "臺北 7. 新店", "call_short": "G7910 S50 .J3", "call_num": "G7910 S50 .J3 B-7", "recid": "qh482qt9461", "websiteUrl": "https://purl.stanford.edu/qh482qt9461", "title": "五万分一地形圖", "ckey": 9687013, "available": true, "iiifUrl": "https://purl.stanford.edu/qh482qt9461/iiif/manifest" }, "geometry": { "type": "Polygon", "coordinates": [ [ [ 121.5, 24.8333335 ], [ 121.75, 24.8333335 ], [ 121.75, 25.0 ], [ 121.5, 25.0 ], [ 121.5, 24.8333335 ] ] ] } },
{ "type": "Feature", "properties": { "Id": 0, "Sheet_ID": "臺北 3. 頭圍", "label": "臺北 3. 頭圍", "call_short": null, "call_num": null, "recid": null, "websiteUrl": null, "title": null, "ckey": 0, "available": false, "iiifUrl": null }, "geometry": { "type": "Polygon", "coordinates": [ [ [ 121.75, 24.8333335 ], [ 122.0, 24.8333335 ], [ 122.0, 25.0 ], [ 121.75, 25.0 ], [ 121.75, 24.8333335 ] ] ] } },
{ "type": "Feature", "properties": { "Id": 0, "Sheet_ID": "臺北 14. 大園 ED. 2", "label": "臺北 14. 大園 ED. 2", "call_short": "G7910 S50 .J3", "call_num": "G7910 S50 .J3 B-14 ED.2", "recid": "mt542nx5050", "websiteUrl": "https://purl.stanford.edu/mt542nx5050", "title": "五万分一地形圖", "ckey": 9687013, "available": true, "iiifUrl": "https://purl.stanford.edu/mt542nx5050/iiif/manifest" }, "geometry": { "type": "Polygon", "coordinates": [ [ [ 121.0, 25.0 ], [ 121.25, 25.0 ], [ 121.25, 25.1666665 ], [ 121.0, 25.1666665 ], [ 121.0, 25.0 ] ] ] } },
{ "type": "Feature", "properties": { "Id": 0, "Sheet_ID": "臺北 10. 臺北西部", "label": "臺北 10. 臺北西部", "call_short": "G7910 S50 .J3", "call_num": "G7910 S50 .J3 B-10", "recid": "nm471sc6147", "websiteUrl": "https://purl.stanford.edu/nm471sc6147", "title": "五万分一地形圖", "ckey": 9687013, "available": true, "iiifUrl": "https://purl.stanford.edu/nm471sc6147/iiif/manifest" }, "geometry": { "type": "Polygon", "coordinates": [ [ [ 121.25, 25.0 ], [ 121.5, 25.0 ], [ 121.5, 25.1666665 ], [ 121.25, 25.1666665 ], [ 121.25, 25.0 ] ] ] } },
{ "type": "Feature", "properties": { "Id": 0, "Sheet_ID": "臺北 6. 臺北東部", "label": "臺北 6. 臺北東部", "call_short": null, "call_num": null, "recid": null, "websiteUrl": null, "title": null, "ckey": 0, "available": false, "iiifUrl": null }, "geometry": { "type": "Polygon", "coordinates": [ [ [ 121.5, 25.0 ], [ 121.75, 25.0 ], [ 121.75, 25.1666665 ], [ 121.5, 25.1666665 ], [ 121.5, 25.0 ] ] ] } },
{ "type": "Feature", "properties": { "Id": 0, "Sheet_ID": "臺北 2. 雙渓", "label": "臺北 2. 雙渓", "call_short": null, "call_num": null, "recid": null, "websiteUrl": null, "title": null, "ckey": 0, "available": false, "iiifUrl": null }, "geometry": { "type": "Polygon", "coordinates": [ [ [ 121.75, 25.0 ], [ 122.01, 25.0 ], [ 122.01, 25.1666665 ], [ 121.75, 25.1666665 ], [ 121.75, 25.0 ] ] ] } },
{ "type": "Feature", "properties": { "Id": 0, "Sheet_ID": "臺北 9. 淡水", "label": "臺北 9. 淡水", "call_short": "G7910 S50 .J3", "call_num": "G7910 S50 .J3 B-9", "recid": "mp846sf2144", "websiteUrl": "https://purl.stanford.edu/mp846sf2144", "title": "五万分一地形圖", "ckey": 9687013, "available": true, "iiifUrl": "https://purl.stanford.edu/mp846sf2144/iiif/manifest" }, "geometry": { "type": "Polygon", "coordinates": [ [ [ 121.25, 25.1666665 ], [ 121.5, 25.1666665 ], [ 121.5, 25.333333 ], [ 121.25, 25.333333 ], [ 121.25, 25.1666665 ] ] ] } },
{ "type": "Feature", "properties": { "Id": 0, "Sheet_ID": "臺北 5. 富貴角", "label": "臺北 5. 富貴角", "call_short": "G7910 S50 .J3", "call_num": "G7910 S50 .J3 B-5", "recid": "ht898tf9592", "websiteUrl": "https://purl.stanford.edu/ht898tf9592", "title": "五万分一地形圖", "ckey": 9687013, "available": true, "iiifUrl": "https://purl.stanford.edu/ht898tf9592/iiif/manifest" }, "geometry": { "type": "Polygon", "coordinates": [ [ [ 121.5, 25.1666665 ], [ 121.75, 25.1666665 ], [ 121.75, 25.333333 ], [ 121.5, 25.333333 ], [ 121.5, 25.1666665 ] ] ] } },
{ "type": "Feature", "properties": { "Id": 0, "Sheet_ID": "臺北 1. 基隆島", "label": "臺北 1. 基隆島", "call_short": null, "call_num": null, "recid": null, "websiteUrl": null, "title": null, "ckey": 0, "available": false, "iiifUrl": null }, "geometry": { "type": "Polygon", "coordinates": [ [ [ 121.75, 25.1666665 ], [ 122.0, 25.1666665 ], [ 122.0, 25.333333 ], [ 121.75, 25.333333 ], [ 121.75, 25.1666665 ] ] ] } },
{ "type": "Feature", "properties": { "Id": 0, "Sheet_ID": "臺北 14. 大園", "label": "臺北 14. 大園", "call_short": "G7910 S50 .J3", "call_num": "G7910 S50 .J3 B-14", "recid": "dd417bn3489", "websiteUrl": "https://purl.stanford.edu/dd417bn3489", "title": "五万分一地形圖", "ckey": 9687013, "available": true, "iiifUrl": "https://purl.stanford.edu/dd417bn3489/iiif/manifest" }, "geometry": { "type": "Polygon", "coordinates": [ [ [ 121.0, 25.0 ], [ 121.25, 25.0 ], [ 121.25, 25.1666665 ], [ 121.0, 25.1666665 ], [ 121.0, 25.0 ] ] ] } }
]
}
