{
"type": "FeatureCollection",
"name": "index_map",
"xy_coordinate_resolution": 1e-07,
"features": [
{ "type": "Feature", "properties": { "Id": 0, "Sheet_ID": "八ヨ194. ソフガワニー", "label": "八ヨ194. ソフガワニー", "call_short": "G7320 S100 .J78", "call_num": "G7320 S100 .J78 8YO194", "recid": "jz475dk5732", "websiteUrl": "https://purl.stanford.edu/jz475dk5732", "title": "極東十万分一圖", "ckey": 12732952, "available": true, "iiifUrl": "https://purl.stanford.edu/jz475dk5732/iiif/manifest" }, "geometry": { "type": "Polygon", "coordinates": [ [ [ 140.0, 48.666667 ], [ 140.5, 48.666667 ], [ 140.5, 49.0000003 ], [ 140.0, 49.0000003 ], [ 140.0, 48.666667 ] ] ] } },
{ "type": "Feature", "properties": { "Id": 0, "Sheet_ID": "八ヨ193. ダータ", "label": "八ヨ193. ダータ", "call_short": "G7320 S100 .J78", "call_num": "G7320 S100 .J78 8YO193", "recid": "pk293tx1739", "websiteUrl": "https://purl.stanford.edu/pk293tx1739", "title": "極東十万分一圖", "ckey": 12732952, "available": true, "iiifUrl": "https://purl.stanford.edu/pk293tx1739/iiif/manifest" }, "geometry": { "type": "Polygon", "coordinates": [ [ [ 140.0, 49.0000003 ], [ 140.5, 49.0000003 ], [ 140.5, 49.3333336 ], [ 140.0, 49.3333336 ], [ 140.0, 49.0000003 ] ] ] } },
{ "type": "Feature", "properties": { "Id": 0, "Sheet_ID": "八ヨ191. ブイチイ岬", "label": "八ヨ191. ブイチイ岬", "call_short": "G7320 S100 .J78", "call_num": "G7320 S100 .J78 8YO191", "recid": "mt600rj2589", "websiteUrl": "https://purl.stanford.edu/mt600rj2589", "title": "極東十万分一圖", "ckey": 12732952, "available": true, "iiifUrl": "https://purl.stanford.edu/mt600rj2589/iiif/manifest" }, "geometry": { "type": "Polygon", "coordinates": [ [ [ 140.5, 50.0000002 ], [ 140.0, 50.0000002 ], [ 140.0, 49.6666669 ], [ 140.5, 49.6666669 ], [ 140.55, 49.6666669 ], [ 140.55, 49.8 ], [ 140.5, 49.8 ], [ 140.5, 50.0000002 ] ] ] } },
{ "type": "Feature", "properties": { "Id": 0, "Sheet_ID": "アノール南部", "label": "アノール南部", "call_short": "0", "call_num": "0", "recid": "0", "websiteUrl": "0", "title": "0", "ckey": 0, "available": false, "iiifUrl": "0" }, "geometry": { "type": "Polygon", "coordinates": [ [ [ 142.5, 49.6666669 ], [ 143.0, 49.6666669 ], [ 143.0, 50.0000002 ], [ 142.5, 50.0000002 ], [ 142.5, 49.6666669 ] ] ] } },
{ "type": "Feature", "properties": { "Id": 0, "Sheet_ID": "ワーリザ河南部", "label": "ワーリザ河南部", "call_short": "0", "call_num": "0", "recid": "0", "websiteUrl": "0", "title": "0", "ckey": 0, "available": false, "iiifUrl": "0" }, "geometry": { "type": "Polygon", "coordinates": [ [ [ 143.0, 49.6666669 ], [ 143.5, 49.6666669 ], [ 143.5, 50.0000002 ], [ 143.0, 50.0000002 ], [ 143.0, 49.6666669 ] ] ] } },
{ "type": "Feature", "properties": { "Id": 0, "Sheet_ID": "八タ200. オゴミー河", "label": "八タ200. オゴミー河", "call_short": "G7320 S100 .J78", "call_num": "G7320 S100 .J78 8TA200", "recid": "pq500xj4662", "websiteUrl": "https://purl.stanford.edu/pq500xj4662", "title": "極東十万分一圖", "ckey": 12732952, "available": true, "iiifUrl": "https://purl.stanford.edu/pq500xj4662/iiif/manifest" }, "geometry": { "type": "Polygon", "coordinates": [ [ [ 140.0, 50.0000002 ], [ 140.5, 50.0000002 ], [ 140.5, 50.3333335 ], [ 140.0, 50.3333335 ], [ 140.0, 50.0000002 ] ] ] } },
{ "type": "Feature", "properties": { "Id": 0, "Sheet_ID": "八タ190. スタルカ灣", "label": "八タ190. スタルカ灣", "call_short": "G7320 S100 .J78", "call_num": "G7320 S100 .J78 8TA190", "recid": "jf524fh7806", "websiteUrl": "https://purl.stanford.edu/jf524fh7806", "title": "極東十万分一圖", "ckey": 12732952, "available": true, "iiifUrl": "https://purl.stanford.edu/jf524fh7806/iiif/manifest" }, "geometry": { "type": "Polygon", "coordinates": [ [ [ 140.5, 50.0000002 ], [ 141.0, 50.0000002 ], [ 141.0, 50.3333335 ], [ 140.5, 50.3333335 ], [ 140.5, 50.0000002 ] ] ] } },
{ "type": "Feature", "properties": { "Id": 0, "Sheet_ID": "ビリーウォ", "label": "ビリーウォ", "call_short": "0", "call_num": "0", "recid": "0", "websiteUrl": "0", "title": "0", "ckey": 0, "available": false, "iiifUrl": "0" }, "geometry": { "type": "Polygon", "coordinates": [ [ [ 142.0, 50.0000002 ], [ 142.5, 50.0000002 ], [ 142.5, 50.3333335 ], [ 142.0, 50.3333335 ], [ 142.0, 50.0000002 ] ] ] } },
{ "type": "Feature", "properties": { "Id": 0, "Sheet_ID": "アノール", "label": "アノール", "call_short": "0", "call_num": "0", "recid": "0", "websiteUrl": "0", "title": "0", "ckey": 0, "available": false, "iiifUrl": "0" }, "geometry": { "type": "Polygon", "coordinates": [ [ [ 142.5, 50.0000002 ], [ 143.0, 50.0000002 ], [ 143.0, 50.3333335 ], [ 142.5, 50.3333335 ], [ 142.5, 50.0000002 ] ] ] } },
{ "type": "Feature", "properties": { "Id": 0, "Sheet_ID": "八タ140. ワーリザ河", "label": "八タ140. ワーリザ河", "call_short": "G7320 S100 .J78", "call_num": "G7320 S100 .J78 8TA140", "recid": "yy627rk9419", "websiteUrl": "https://purl.stanford.edu/yy627rk9419", "title": "極東十万分一圖", "ckey": 12732952, "available": true, "iiifUrl": "https://purl.stanford.edu/yy627rk9419/iiif/manifest" }, "geometry": { "type": "Polygon", "coordinates": [ [ [ 143.0, 50.0000002 ], [ 143.5, 50.0000002 ], [ 143.5, 50.3333335 ], [ 143.0, 50.3333335 ], [ 143.0, 50.0000002 ] ] ] } },
{ "type": "Feature", "properties": { "Id": 0, "Sheet_ID": "ピリンガー河", "label": "ピリンガー河", "call_short": "0", "call_num": "0", "recid": "0", "websiteUrl": "0", "title": "0", "ckey": 0, "available": false, "iiifUrl": "0" }, "geometry": { "type": "Polygon", "coordinates": [ [ [ 143.5, 50.0000002 ], [ 144.0, 50.0000002 ], [ 144.0, 50.3333335 ], [ 143.5, 50.3333335 ], [ 143.5, 50.0000002 ] ] ] } },
{ "type": "Feature", "properties": { "Id": 0, "Sheet_ID": "二十四號", "label": "二十四號", "call_short": "0", "call_num": "0", "recid": "0", "websiteUrl": "0", "title": "0", "ckey": 0, "available": false, "iiifUrl": "0" }, "geometry": { "type": "Polygon", "coordinates": [ [ [ 137.5, 50.3333335 ], [ 138.0, 50.3333335 ], [ 138.0, 50.6666668 ], [ 137.5, 50.6666668 ], [ 137.5, 50.3333335 ] ] ] } },
{ "type": "Feature", "properties": { "Id": 0, "Sheet_ID": "アグトアリー", "label": "アグトアリー", "call_short": "0", "call_num": "0", "recid": "0", "websiteUrl": "0", "title": "0", "ckey": 0, "available": false, "iiifUrl": "0" }, "geometry": { "type": "Polygon", "coordinates": [ [ [ 138.0, 50.3333335 ], [ 138.5, 50.3333335 ], [ 138.5, 50.6666668 ], [ 138.0, 50.6666668 ], [ 138.0, 50.3333335 ] ] ] } },
{ "type": "Feature", "properties": { "Id": 0, "Sheet_ID": "エポンサー山", "label": "エポンサー山", "call_short": "0", "call_num": "0", "recid": "0", "websiteUrl": "0", "title": "0", "ckey": 0, "available": false, "iiifUrl": "0" }, "geometry": { "type": "Polygon", "coordinates": [ [ [ 138.5, 50.3333335 ], [ 139.0, 50.3333335 ], [ 139.0, 50.6666668 ], [ 138.5, 50.6666668 ], [ 138.5, 50.3333335 ] ] ] } },
{ "type": "Feature", "properties": { "Id": 0, "Sheet_ID": "八タ199. セレブリャンカ河", "label": "八タ199. セレブリャンカ河", "call_short": "G7320 S100 .J78", "call_num": "G7320 S100 .J78 8TA199", "recid": "hy966ch0309", "websiteUrl": "https://purl.stanford.edu/hy966ch0309", "title": "極東十万分一圖", "ckey": 12732952, "available": true, "iiifUrl": "https://purl.stanford.edu/hy966ch0309/iiif/manifest" }, "geometry": { "type": "Polygon", "coordinates": [ [ [ 140.5, 50.6666668 ], [ 140.0, 50.6666668 ], [ 140.0, 50.3333335 ], [ 140.5, 50.3333335 ], [ 140.55, 50.3333335 ], [ 140.55, 50.4 ], [ 140.5, 50.4 ], [ 140.5, 50.6666668 ] ] ] } },
{ "type": "Feature", "properties": { "Id": 0, "Sheet_ID": "ナイナイ", "label": "ナイナイ", "call_short": "0", "call_num": "0", "recid": "0", "websiteUrl": "0", "title": "0", "ckey": 0, "available": false, "iiifUrl": "0" }, "geometry": { "type": "Polygon", "coordinates": [ [ [ 142.0, 50.3333335 ], [ 142.5, 50.3333335 ], [ 142.5, 50.6666668 ], [ 142.0, 50.6666668 ], [ 142.0, 50.3333335 ] ] ] } },
{ "type": "Feature", "properties": { "Id": 0, "Sheet_ID": "八タ149. パレーウォ", "label": "八タ149. パレーウォ", "call_short": "G7320 S100 .J78", "call_num": "G7320 S100 .J78 8TA149", "recid": "gq822qv2891", "websiteUrl": "https://purl.stanford.edu/gq822qv2891", "title": "極東十万分一圖", "ckey": 12732952, "available": true, "iiifUrl": "https://purl.stanford.edu/gq822qv2891/iiif/manifest" }, "geometry": { "type": "Polygon", "coordinates": [ [ [ 142.5, 50.3333335 ], [ 143.0, 50.3333335 ], [ 143.0, 50.6666668 ], [ 142.5, 50.6666668 ], [ 142.5, 50.3333335 ] ] ] } },
{ "type": "Feature", "properties": { "Id": 0, "Sheet_ID": "八タ139. 幌内河", "label": "八タ139. 幌内河", "call_short": "G7320 S100 .J78", "call_num": "G7320 S100 .J78 8TA139", "recid": "ym560bc6175", "websiteUrl": "https://purl.stanford.edu/ym560bc6175", "title": "極東十万分一圖", "ckey": 12732952, "available": true, "iiifUrl": "https://purl.stanford.edu/ym560bc6175/iiif/manifest" }, "geometry": { "type": "Polygon", "coordinates": [ [ [ 143.0, 50.3333335 ], [ 143.5, 50.3333335 ], [ 143.5, 50.6666668 ], [ 143.0, 50.6666668 ], [ 143.0, 50.3333335 ] ] ] } },
{ "type": "Feature", "properties": { "Id": 0, "Sheet_ID": "八タ129. ランガリー河", "label": "八タ129. ランガリー河", "call_short": "G7320 S100 .J78", "call_num": "G7320 S100 .J78 8TA129", "recid": "cx676yq7863", "websiteUrl": "https://purl.stanford.edu/cx676yq7863", "title": "極東十万分一圖", "ckey": 12732952, "available": true, "iiifUrl": "https://purl.stanford.edu/cx676yq7863/iiif/manifest" }, "geometry": { "type": "Polygon", "coordinates": [ [ [ 143.5, 50.3333335 ], [ 144.0, 50.3333335 ], [ 144.0, 50.6666668 ], [ 143.5, 50.6666668 ], [ 143.5, 50.3333335 ] ] ] } },
{ "type": "Feature", "properties": { "Id": 0, "Sheet_ID": "スレドニ・タムボフスカ", "label": "スレドニ・タムボフスカ", "call_short": "0", "call_num": "0", "recid": "0", "websiteUrl": "0", "title": "0", "ckey": 0, "available": false, "iiifUrl": "0" }, "geometry": { "type": "Polygon", "coordinates": [ [ [ 137.5, 50.6666668 ], [ 138.0, 50.6666668 ], [ 138.0, 51.0000001 ], [ 137.5, 51.0000001 ], [ 137.5, 50.6666668 ] ] ] } },
{ "type": "Feature", "properties": { "Id": 0, "Sheet_ID": "九タ138. ニジニ・タムボフスク", "label": "九タ138. ニジニ・タムボフスク", "call_short": "G7320 S100 .J78", "call_num": "G7320 S100 .J78 9TA138", "recid": "yz293rk9850", "websiteUrl": "https://purl.stanford.edu/yz293rk9850", "title": "極東十万分一圖", "ckey": 12732952, "available": true, "iiifUrl": "https://purl.stanford.edu/yz293rk9850/iiif/manifest" }, "geometry": { "type": "Polygon", "coordinates": [ [ [ 138.0, 50.6666668 ], [ 138.5, 50.6666668 ], [ 138.5, 51.0000001 ], [ 138.0, 51.0000001 ], [ 138.0, 50.6666668 ] ] ] } },
{ "type": "Feature", "properties": { "Id": 0, "Sheet_ID": "シゼミン", "label": "シゼミン", "call_short": "0", "call_num": "0", "recid": "0", "websiteUrl": "0", "title": "0", "ckey": 0, "available": false, "iiifUrl": "0" }, "geometry": { "type": "Polygon", "coordinates": [ [ [ 140.0, 50.6666668 ], [ 140.5, 50.6666668 ], [ 140.5, 51.0000001 ], [ 140.0, 51.0000001 ], [ 140.0, 50.6666668 ] ] ] } },
{ "type": "Feature", "properties": { "Id": 0, "Sheet_ID": "八タ188. ホイ岬", "label": "八タ188. ホイ岬", "call_short": "G7320 S100 .J78", "call_num": "G7320 S100 .J78 8TA188", "recid": "kq795fx1911", "websiteUrl": "https://purl.stanford.edu/kq795fx1911", "title": "極東十万分一圖", "ckey": 12732952, "available": true, "iiifUrl": "https://purl.stanford.edu/kq795fx1911/iiif/manifest" }, "geometry": { "type": "Polygon", "coordinates": [ [ [ 140.5, 50.6666668 ], [ 141.0, 50.6666668 ], [ 141.0, 51.0000001 ], [ 140.5, 51.0000001 ], [ 140.5, 50.6666668 ] ] ] } },
{ "type": "Feature", "properties": { "Id": 0, "Sheet_ID": "八タ158. アレクサンドゥロフスク", "label": "八タ158. アレクサンドゥロフスク", "call_short": "G7320 S100 .J78", "call_num": "G7320 S100 .J78 8TA158", "recid": "ff538rp4276", "websiteUrl": "https://purl.stanford.edu/ff538rp4276", "title": "極東十万分一圖", "ckey": 12732952, "available": true, "iiifUrl": "https://purl.stanford.edu/ff538rp4276/iiif/manifest" }, "geometry": { "type": "Polygon", "coordinates": [ [ [ 142.0, 50.6666668 ], [ 142.5, 50.6666668 ], [ 142.5, 51.0000001 ], [ 142.0, 51.0000001 ], [ 142.0, 50.6666668 ] ] ] } },
{ "type": "Feature", "properties": { "Id": 0, "Sheet_ID": "八タ148. ルイコフ", "label": "八タ148. ルイコフ", "call_short": "G7320 S100 .J78", "call_num": "G7320 S100 .J78 8TA148", "recid": "bc078nv2150", "websiteUrl": "https://purl.stanford.edu/bc078nv2150", "title": "極東十万分一圖", "ckey": 12732952, "available": true, "iiifUrl": "https://purl.stanford.edu/bc078nv2150/iiif/manifest" }, "geometry": { "type": "Polygon", "coordinates": [ [ [ 142.5, 50.6666668 ], [ 143.0, 50.6666668 ], [ 143.0, 51.0000001 ], [ 142.5, 51.0000001 ], [ 142.5, 50.6666668 ] ] ] } },
{ "type": "Feature", "properties": { "Id": 0, "Sheet_ID": "チァームグ河", "label": "チァームグ河", "call_short": "0", "call_num": "0", "recid": "0", "websiteUrl": "0", "title": "0", "ckey": 0, "available": false, "iiifUrl": "0" }, "geometry": { "type": "Polygon", "coordinates": [ [ [ 143.0, 50.6666668 ], [ 143.5, 50.6666668 ], [ 143.5, 51.0000001 ], [ 143.0, 51.0000001 ], [ 143.0, 50.6666668 ] ] ] } },
{ "type": "Feature", "properties": { "Id": 0, "Sheet_ID": "八タ128. チャームグ", "label": "八タ128. チャームグ", "call_short": "G7320 S100 .J78", "call_num": "G7320 S100 .J78 8TA128", "recid": "wk022cn5901", "websiteUrl": "https://purl.stanford.edu/wk022cn5901", "title": "極東十万分一圖", "ckey": 12732952, "available": true, "iiifUrl": "https://purl.stanford.edu/wk022cn5901/iiif/manifest" }, "geometry": { "type": "Polygon", "coordinates": [ [ [ 143.5, 50.6666668 ], [ 144.0, 50.6666668 ], [ 144.0, 51.0000001 ], [ 143.5, 51.0000001 ], [ 143.5, 50.6666668 ] ] ] } },
{ "type": "Feature", "properties": { "Id": 0, "Sheet_ID": "九タ137. シェレホボ", "label": "九タ137. シェレホボ", "call_short": "G7320 S100 .J78", "call_num": "G7320 S100 .J78 9TA137", "recid": "cv469th4572", "websiteUrl": "https://purl.stanford.edu/cv469th4572", "title": "極東十万分一圖", "ckey": 12732952, "available": true, "iiifUrl": "https://purl.stanford.edu/cv469th4572/iiif/manifest" }, "geometry": { "type": "Polygon", "coordinates": [ [ [ 138.0, 51.0000001 ], [ 138.5, 51.0000001 ], [ 138.5, 51.3333334 ], [ 138.0, 51.3333334 ], [ 138.0, 51.0000001 ] ] ] } },
{ "type": "Feature", "properties": { "Id": 0, "Sheet_ID": "九タ127. ゼレブツォーワ", "label": "九タ127. ゼレブツォーワ", "call_short": "G7320 S100 .J78", "call_num": "G7320 S100 .J78 9TA127", "recid": "tw860wk1104", "websiteUrl": "https://purl.stanford.edu/tw860wk1104", "title": "極東十万分一圖", "ckey": 12732952, "available": true, "iiifUrl": "https://purl.stanford.edu/tw860wk1104/iiif/manifest" }, "geometry": { "type": "Polygon", "coordinates": [ [ [ 138.5, 51.0000001 ], [ 139.0, 51.0000001 ], [ 139.0, 51.3333334 ], [ 138.5, 51.3333334 ], [ 138.5, 51.0000001 ] ] ] } },
{ "type": "Feature", "properties": { "Id": 0, "Sheet_ID": "チンメルマノフカ", "label": "チンメルマノフカ", "call_short": "0", "call_num": "0", "recid": "0", "websiteUrl": "0", "title": "0", "ckey": 0, "available": false, "iiifUrl": "0" }, "geometry": { "type": "Polygon", "coordinates": [ [ [ 139.0, 51.0000001 ], [ 139.5, 51.0000001 ], [ 139.5, 51.3333334 ], [ 139.0, 51.3333334 ], [ 139.0, 51.0000001 ] ] ] } },
{ "type": "Feature", "properties": { "Id": 0, "Sheet_ID": "アイ河", "label": "アイ河", "call_short": "0", "call_num": "0", "recid": "0", "websiteUrl": "0", "title": "0", "ckey": 0, "available": false, "iiifUrl": "0" }, "geometry": { "type": "Polygon", "coordinates": [ [ [ 139.5, 51.0000001 ], [ 140.0, 51.0000001 ], [ 140.0, 51.3333334 ], [ 139.5, 51.3333334 ], [ 139.5, 51.0000001 ] ] ] } },
{ "type": "Feature", "properties": { "Id": 0, "Sheet_ID": "八タ197. モソロワ河", "label": "八タ197. モソロワ河", "call_short": "G7320 S100 .J78", "call_num": "G7320 S100 .J78 8TA197", "recid": "ck332pn3378", "websiteUrl": "https://purl.stanford.edu/ck332pn3378", "title": "極東十万分一圖", "ckey": 12732952, "available": true, "iiifUrl": "https://purl.stanford.edu/ck332pn3378/iiif/manifest" }, "geometry": { "type": "Polygon", "coordinates": [ [ [ 140.0, 51.0000001 ], [ 140.5, 51.0000001 ], [ 140.5, 51.3333334 ], [ 140.0, 51.3333334 ], [ 140.0, 51.0000001 ] ] ] } },
{ "type": "Feature", "properties": { "Id": 0, "Sheet_ID": "八タ187. モソロワ灣", "label": "八タ187. モソロワ灣", "call_short": "G7320 S100 .J78", "call_num": "G7320 S100 .J78 8TA187", "recid": "sd087yb0419", "websiteUrl": "https://purl.stanford.edu/sd087yb0419", "title": "極東十万分一圖", "ckey": 12732952, "available": true, "iiifUrl": "https://purl.stanford.edu/sd087yb0419/iiif/manifest" }, "geometry": { "type": "Polygon", "coordinates": [ [ [ 140.5, 51.0000001 ], [ 141.0, 51.0000001 ], [ 141.0, 51.3333334 ], [ 140.5, 51.3333334 ], [ 140.5, 51.0000001 ] ] ] } },
{ "type": "Feature", "properties": { "Id": 0, "Sheet_ID": "マーチ", "label": "マーチ", "call_short": "0", "call_num": "0", "recid": "0", "websiteUrl": "0", "title": "0", "ckey": 0, "available": false, "iiifUrl": "0" }, "geometry": { "type": "Polygon", "coordinates": [ [ [ 142.0, 51.0000001 ], [ 142.5, 51.0000001 ], [ 142.5, 51.3333334 ], [ 142.0, 51.3333334 ], [ 142.0, 51.0000001 ] ] ] } },
{ "type": "Feature", "properties": { "Id": 0, "Sheet_ID": "八タ147. アドトゥイム", "label": "八タ147. アドトゥイム", "call_short": "G7320 S100 .J78", "call_num": "G7320 S100 .J78 8TA147", "recid": "hb107bf7330", "websiteUrl": "https://purl.stanford.edu/hb107bf7330", "title": "極東十万分一圖", "ckey": 12732952, "available": true, "iiifUrl": "https://purl.stanford.edu/hb107bf7330/iiif/manifest" }, "geometry": { "type": "Polygon", "coordinates": [ [ [ 142.5, 51.0000001 ], [ 143.0, 51.0000001 ], [ 143.0, 51.3333334 ], [ 142.5, 51.3333334 ], [ 142.5, 51.0000001 ] ] ] } },
{ "type": "Feature", "properties": { "Id": 0, "Sheet_ID": "八タ137. マスカリウォ", "label": "八タ137. マスカリウォ", "call_short": "G7320 S100 .J78", "call_num": "G7320 S100 .J78 8TA137", "recid": "jz142sx7612", "websiteUrl": "https://purl.stanford.edu/jz142sx7612", "title": "極東十万分一圖", "ckey": 12732952, "available": true, "iiifUrl": "https://purl.stanford.edu/jz142sx7612/iiif/manifest" }, "geometry": { "type": "Polygon", "coordinates": [ [ [ 143.0, 51.0000001 ], [ 143.5, 51.0000001 ], [ 143.5, 51.3333334 ], [ 143.0, 51.3333334 ], [ 143.0, 51.0000001 ] ] ] } },
{ "type": "Feature", "properties": { "Id": 0, "Sheet_ID": "八タ127. ピリングウォ", "label": "八タ127. ピリングウォ", "call_short": "G7320 S100 .J78", "call_num": "G7320 S100 .J78 8TA127", "recid": "jj091gx6479", "websiteUrl": "https://purl.stanford.edu/jj091gx6479", "title": "極東十万分一圖", "ckey": 12732952, "available": true, "iiifUrl": "https://purl.stanford.edu/jj091gx6479/iiif/manifest" }, "geometry": { "type": "Polygon", "coordinates": [ [ [ 143.5, 51.0000001 ], [ 144.0, 51.0000001 ], [ 144.0, 51.3333334 ], [ 143.5, 51.3333334 ], [ 143.5, 51.0000001 ] ] ] } },
{ "type": "Feature", "properties": { "Id": 0, "Sheet_ID": "九タ126. キシリョーフカ", "label": "九タ126. キシリョーフカ", "call_short": "G7320 S100 .J78", "call_num": "G7320 S100 .J78 9TA126", "recid": "gh913cw1029", "websiteUrl": "https://purl.stanford.edu/gh913cw1029", "title": "極東十万分一圖", "ckey": 12732952, "available": true, "iiifUrl": "https://purl.stanford.edu/gh913cw1029/iiif/manifest" }, "geometry": { "type": "Polygon", "coordinates": [ [ [ 138.5, 51.3333334 ], [ 139.0, 51.3333334 ], [ 139.0, 51.6666666 ], [ 138.5, 51.6666666 ], [ 138.5, 51.3333334 ] ] ] } },
{ "type": "Feature", "properties": { "Id": 0, "Sheet_ID": "九タ116. スハノフカ", "label": "九タ116. スハノフカ", "call_short": "G7320 S100 .J78", "call_num": "G7320 S100 .J78 9TA116", "recid": "yx710vm7142", "websiteUrl": "https://purl.stanford.edu/yx710vm7142", "title": "極東十万分一圖", "ckey": 12732952, "available": true, "iiifUrl": "https://purl.stanford.edu/yx710vm7142/iiif/manifest" }, "geometry": { "type": "Polygon", "coordinates": [ [ [ 139.0, 51.3333334 ], [ 139.5, 51.3333334 ], [ 139.5, 51.6666666 ], [ 139.0, 51.6666666 ], [ 139.0, 51.3333334 ] ] ] } },
{ "type": "Feature", "properties": { "Id": 0, "Sheet_ID": "九タ106. ソフィスコエ", "label": "九タ106. ソフィスコエ", "call_short": "G7320 S100 .J78", "call_num": "G7320 S100 .J78 9TA106", "recid": "sv104xt4653", "websiteUrl": "https://purl.stanford.edu/sv104xt4653", "title": "極東十万分一圖", "ckey": 12732952, "available": true, "iiifUrl": "https://purl.stanford.edu/sv104xt4653/iiif/manifest" }, "geometry": { "type": "Polygon", "coordinates": [ [ [ 139.5, 51.3333334 ], [ 140.0, 51.3333334 ], [ 140.0, 51.6666666 ], [ 139.5, 51.6666666 ], [ 139.5, 51.3333334 ] ] ] } },
{ "type": "Feature", "properties": { "Id": 0, "Sheet_ID": "八タ196. コマロフカ", "label": "八タ196. コマロフカ", "call_short": "G7320 S100 .J78", "call_num": "G7320 S100 .J78 8TA196", "recid": "cy826xm7544", "websiteUrl": "https://purl.stanford.edu/cy826xm7544", "title": "極東十万分一圖", "ckey": 12732952, "available": true, "iiifUrl": "https://purl.stanford.edu/cy826xm7544/iiif/manifest" }, "geometry": { "type": "Polygon", "coordinates": [ [ [ 140.0, 51.3333334 ], [ 140.5, 51.3333334 ], [ 140.5, 51.6666666 ], [ 140.0, 51.6666666 ], [ 140.0, 51.3333334 ] ] ] } },
{ "type": "Feature", "properties": { "Id": 0, "Sheet_ID": "八タ186. デ・カストゥリ", "label": "八タ186. デ・カストゥリ", "call_short": "G7320 S100 .J78", "call_num": "G7320 S100 .J78 8TA186", "recid": "vr971xt9370", "websiteUrl": "https://purl.stanford.edu/vr971xt9370", "title": "極東十万分一圖", "ckey": 12732952, "available": true, "iiifUrl": "https://purl.stanford.edu/vr971xt9370/iiif/manifest" }, "geometry": { "type": "Polygon", "coordinates": [ [ [ 140.5, 51.3333334 ], [ 141.0, 51.3333334 ], [ 141.0, 51.6666666 ], [ 140.5, 51.6666666 ], [ 140.5, 51.3333334 ] ] ] } },
{ "type": "Feature", "properties": { "Id": 0, "Sheet_ID": "ウィアフトゥ", "label": "ウィアフトゥ", "call_short": "0", "call_num": "0", "recid": "0", "websiteUrl": "0", "title": "0", "ckey": 0, "available": false, "iiifUrl": "0" }, "geometry": { "type": "Polygon", "coordinates": [ [ [ 141.5, 51.3333334 ], [ 142.0, 51.3333334 ], [ 142.0, 51.6666666 ], [ 141.5, 51.6666666 ], [ 141.5, 51.3333334 ] ] ] } },
{ "type": "Feature", "properties": { "Id": 0, "Sheet_ID": "ウアンディ", "label": "ウアンディ", "call_short": "0", "call_num": "0", "recid": "0", "websiteUrl": "0", "title": "0", "ckey": 0, "available": false, "iiifUrl": "0" }, "geometry": { "type": "Polygon", "coordinates": [ [ [ 142.0, 51.3333334 ], [ 142.5, 51.3333334 ], [ 142.5, 51.6666666 ], [ 142.0, 51.6666666 ], [ 142.0, 51.3333334 ] ] ] } },
{ "type": "Feature", "properties": { "Id": 0, "Sheet_ID": "八タ146. パルハタ驛舎", "label": "八タ146. パルハタ驛舎", "call_short": "G7320 S100 .J78", "call_num": "G7320 S100 .J78 8TA146", "recid": "ft852wh1071", "websiteUrl": "https://purl.stanford.edu/ft852wh1071", "title": "極東十万分一圖", "ckey": 12732952, "available": true, "iiifUrl": "https://purl.stanford.edu/ft852wh1071/iiif/manifest" }, "geometry": { "type": "Polygon", "coordinates": [ [ [ 142.5, 51.3333334 ], [ 143.0, 51.3333334 ], [ 143.0, 51.6666666 ], [ 142.5, 51.6666666 ], [ 142.5, 51.3333334 ] ] ] } },
{ "type": "Feature", "properties": { "Id": 0, "Sheet_ID": "八タ136. ナビーリスキイ灣", "label": "八タ136. ナビーリスキイ灣", "call_short": "G7320 S100 .J78", "call_num": "G7320 S100 .J78 8TA136", "recid": "sz497sq8182", "websiteUrl": "https://purl.stanford.edu/sz497sq8182", "title": "極東十万分一圖", "ckey": 12732952, "available": true, "iiifUrl": "https://purl.stanford.edu/sz497sq8182/iiif/manifest" }, "geometry": { "type": "Polygon", "coordinates": [ [ [ 143.0, 51.3333334 ], [ 143.5, 51.3333334 ], [ 143.5, 51.6666666 ], [ 143.0, 51.6666666 ], [ 143.0, 51.3333334 ] ] ] } },
{ "type": "Feature", "properties": { "Id": 0, "Sheet_ID": "ハラン湖", "label": "ハラン湖", "call_short": "0", "call_num": "0", "recid": "0", "websiteUrl": "0", "title": "0", "ckey": 0, "available": false, "iiifUrl": "0" }, "geometry": { "type": "Polygon", "coordinates": [ [ [ 139.5, 51.6666666 ], [ 140.0, 51.6666666 ], [ 140.0, 51.9999999 ], [ 139.5, 51.9999999 ], [ 139.5, 51.6666666 ] ] ] } },
{ "type": "Feature", "properties": { "Id": 0, "Sheet_ID": "マリンスコウスペンスコエ", "label": "マリンスコウスペンスコエ", "call_short": "0", "call_num": "0", "recid": "0", "websiteUrl": "0", "title": "0", "ckey": 0, "available": false, "iiifUrl": "0" }, "geometry": { "type": "Polygon", "coordinates": [ [ [ 140.0, 51.6666666 ], [ 140.5, 51.6666666 ], [ 140.5, 51.9999999 ], [ 140.0, 51.9999999 ], [ 140.0, 51.6666666 ] ] ] } },
{ "type": "Feature", "properties": { "Id": 0, "Sheet_ID": "カダ湖", "label": "カダ湖", "call_short": "0", "call_num": "0", "recid": "0", "websiteUrl": "0", "title": "0", "ckey": 0, "available": false, "iiifUrl": "0" }, "geometry": { "type": "Polygon", "coordinates": [ [ [ 140.5, 51.6666666 ], [ 141.0, 51.6666666 ], [ 141.0, 51.9999999 ], [ 140.5, 51.9999999 ], [ 140.5, 51.6666666 ] ] ] } },
{ "type": "Feature", "properties": { "Id": 0, "Sheet_ID": "八タ175. ネウェリスカウォ岬", "label": "八タ175. ネウェリスカウォ岬", "call_short": "G7320 S100 .J78", "call_num": "G7320 S100 .J78 8TA175", "recid": "zx600ds7215", "websiteUrl": "https://purl.stanford.edu/zx600ds7215", "title": "極東十万分一圖", "ckey": 12732952, "available": true, "iiifUrl": "https://purl.stanford.edu/zx600ds7215/iiif/manifest" }, "geometry": { "type": "Polygon", "coordinates": [ [ [ 141.0, 51.6666666 ], [ 141.5, 51.6666666 ], [ 141.5, 51.9999999 ], [ 141.0, 51.9999999 ], [ 141.0, 51.6666666 ] ] ] } },
{ "type": "Feature", "properties": { "Id": 0, "Sheet_ID": "トゥイク", "label": "トゥイク", "call_short": "0", "call_num": "0", "recid": "0", "websiteUrl": "0", "title": "0", "ckey": 0, "available": false, "iiifUrl": "0" }, "geometry": { "type": "Polygon", "coordinates": [ [ [ 141.5, 51.6666666 ], [ 142.0, 51.6666666 ], [ 142.0, 51.9999999 ], [ 141.5, 51.9999999 ], [ 141.5, 51.6666666 ] ] ] } },
{ "type": "Feature", "properties": { "Id": 0, "Sheet_ID": "ヌイシ", "label": "ヌイシ", "call_short": "0", "call_num": "0", "recid": "0", "websiteUrl": "0", "title": "0", "ckey": 0, "available": false, "iiifUrl": "0" }, "geometry": { "type": "Polygon", "coordinates": [ [ [ 142.0, 51.6666666 ], [ 142.5, 51.6666666 ], [ 142.5, 51.9999999 ], [ 142.0, 51.9999999 ], [ 142.0, 51.6666666 ] ] ] } },
{ "type": "Feature", "properties": { "Id": 0, "Sheet_ID": "八タ145. タタマフリエ山", "label": "八タ145. タタマフリエ山", "call_short": "G7320 S100 .J78", "call_num": "G7320 S100 .J78 8TA145", "recid": "mb366rs3160", "websiteUrl": "https://purl.stanford.edu/mb366rs3160", "title": "極東十万分一圖", "ckey": 12732952, "available": true, "iiifUrl": "https://purl.stanford.edu/mb366rs3160/iiif/manifest" }, "geometry": { "type": "Polygon", "coordinates": [ [ [ 142.5, 51.6666666 ], [ 143.0, 51.6666666 ], [ 143.0, 51.9999999 ], [ 142.5, 51.9999999 ], [ 142.5, 51.6666666 ] ] ] } },
{ "type": "Feature", "properties": { "Id": 0, "Sheet_ID": "八タ135. ヌイウォ", "label": "八タ135. ヌイウォ", "call_short": "G7320 S100 .J78", "call_num": "G7320 S100 .J78 8TA135", "recid": "fg640jq4149", "websiteUrl": "https://purl.stanford.edu/fg640jq4149", "title": "極東十万分一圖", "ckey": 12732952, "available": true, "iiifUrl": "https://purl.stanford.edu/fg640jq4149/iiif/manifest" }, "geometry": { "type": "Polygon", "coordinates": [ [ [ 143.0, 51.6666666 ], [ 143.5, 51.6666666 ], [ 143.5, 51.9999999 ], [ 143.0, 51.9999999 ], [ 143.0, 51.6666666 ] ] ] } },
{ "type": "Feature", "properties": { "Id": 0, "Sheet_ID": "ベーラヤ山", "label": "ベーラヤ山", "call_short": "0", "call_num": "0", "recid": "0", "websiteUrl": "0", "title": "0", "ckey": 0, "available": false, "iiifUrl": "0" }, "geometry": { "type": "Polygon", "coordinates": [ [ [ 140.5, 51.9999999 ], [ 141.0, 51.9999999 ], [ 141.0, 52.3333332 ], [ 140.5, 52.3333332 ], [ 140.5, 51.9999999 ] ] ] } },
{ "type": "Feature", "properties": { "Id": 0, "Sheet_ID": "ポロウィンカ", "label": "ポロウィンカ", "call_short": "0", "call_num": "0", "recid": "0", "websiteUrl": "0", "title": "0", "ckey": 0, "available": false, "iiifUrl": "0" }, "geometry": { "type": "Polygon", "coordinates": [ [ [ 141.0, 51.9999999 ], [ 141.5, 51.9999999 ], [ 141.5, 52.3333332 ], [ 141.0, 52.3333332 ], [ 141.0, 51.9999999 ] ] ] } },
{ "type": "Feature", "properties": { "Id": 0, "Sheet_ID": "ボギビー", "label": "ボギビー", "call_short": "0", "call_num": "0", "recid": "0", "websiteUrl": "0", "title": "0", "ckey": 0, "available": false, "iiifUrl": "0" }, "geometry": { "type": "Polygon", "coordinates": [ [ [ 141.5, 51.9999999 ], [ 142.0, 51.9999999 ], [ 142.0, 52.3333332 ], [ 141.5, 52.3333332 ], [ 141.5, 51.9999999 ] ] ] } },
{ "type": "Feature", "properties": { "Id": 0, "Sheet_ID": "トゥコイフリエ連山", "label": "トゥコイフリエ連山", "call_short": "0", "call_num": "0", "recid": "0", "websiteUrl": "0", "title": "0", "ckey": 0, "available": false, "iiifUrl": "0" }, "geometry": { "type": "Polygon", "coordinates": [ [ [ 142.0, 51.9999999 ], [ 142.5, 51.9999999 ], [ 142.5, 52.3333332 ], [ 142.0, 52.3333332 ], [ 142.0, 51.9999999 ] ] ] } },
{ "type": "Feature", "properties": { "Id": 0, "Sheet_ID": "ダギ河", "label": "ダギ河", "call_short": "0", "call_num": "0", "recid": "0", "websiteUrl": "0", "title": "0", "ckey": 0, "available": false, "iiifUrl": "0" }, "geometry": { "type": "Polygon", "coordinates": [ [ [ 142.5, 51.9999999 ], [ 143.0, 51.9999999 ], [ 143.0, 52.3333332 ], [ 142.5, 52.3333332 ], [ 142.5, 51.9999999 ] ] ] } },
{ "type": "Feature", "properties": { "Id": 0, "Sheet_ID": "ナリウォ", "label": "ナリウォ", "call_short": "0", "call_num": "0", "recid": "0", "websiteUrl": "0", "title": "0", "ckey": 0, "available": false, "iiifUrl": "0" }, "geometry": { "type": "Polygon", "coordinates": [ [ [ 143.0, 51.9999999 ], [ 143.5, 51.9999999 ], [ 143.5, 52.3333332 ], [ 143.0, 52.3333332 ], [ 143.0, 51.9999999 ] ] ] } },
{ "type": "Feature", "properties": { "Id": 0, "Sheet_ID": "ワール山", "label": "ワール山", "call_short": "0", "call_num": "0", "recid": "0", "websiteUrl": "0", "title": "0", "ckey": 0, "available": false, "iiifUrl": "0" }, "geometry": { "type": "Polygon", "coordinates": [ [ [ 142.5, 52.3333332 ], [ 143.0, 52.3333332 ], [ 143.0, 52.6666665 ], [ 142.5, 52.6666665 ], [ 142.5, 52.3333332 ] ] ] } },
{ "type": "Feature", "properties": { "Id": 0, "Sheet_ID": "チァイウォ", "label": "チァイウォ", "call_short": "0", "call_num": "0", "recid": "0", "websiteUrl": "0", "title": "0", "ckey": 0, "available": false, "iiifUrl": "0" }, "geometry": { "type": "Polygon", "coordinates": [ [ [ 143.0, 52.3333332 ], [ 143.5, 52.3333332 ], [ 143.5, 52.6666665 ], [ 143.0, 52.6666665 ], [ 143.0, 52.3333332 ] ] ] } },
{ "type": "Feature", "properties": { "Id": 0, "Sheet_ID": "ピリトゥン河", "label": "ピリトゥン河", "call_short": "0", "call_num": "0", "recid": "0", "websiteUrl": "0", "title": "0", "ckey": 0, "available": false, "iiifUrl": "0" }, "geometry": { "type": "Polygon", "coordinates": [ [ [ 142.5, 52.6666665 ], [ 143.0, 52.6666665 ], [ 143.0, 52.9999998 ], [ 142.5, 52.9999998 ], [ 142.5, 52.6666665 ] ] ] } },
{ "type": "Feature", "properties": { "Id": 0, "Sheet_ID": "八タ132. キャクルウォ", "label": "八タ132. キャクルウォ", "call_short": "G7320 S100 .J78", "call_num": "G7320 S100 .J78 8TA132", "recid": "cq134nt7791", "websiteUrl": "https://purl.stanford.edu/cq134nt7791", "title": "極東十万分一圖", "ckey": 12732952, "available": true, "iiifUrl": "https://purl.stanford.edu/cq134nt7791/iiif/manifest" }, "geometry": { "type": "Polygon", "coordinates": [ [ [ 143.0, 52.6666665 ], [ 143.5, 52.6666665 ], [ 143.5, 52.9999998 ], [ 143.0, 52.9999998 ], [ 143.0, 52.6666665 ] ] ] } },
{ "type": "Feature", "properties": { "Id": 0, "Sheet_ID": "サボ河上流", "label": "サボ河上流", "call_short": "0", "call_num": "0", "recid": "0", "websiteUrl": "0", "title": "0", "ckey": 0, "available": false, "iiifUrl": "0" }, "geometry": { "type": "Polygon", "coordinates": [ [ [ 142.5, 52.9999998 ], [ 143.0, 52.9999998 ], [ 143.0, 53.3333331 ], [ 142.5, 53.3333331 ], [ 142.5, 52.9999998 ] ] ] } },
{ "type": "Feature", "properties": { "Id": 0, "Sheet_ID": "八タ131. サボ", "label": "八タ131. サボ", "call_short": "G7320 S100 .J78", "call_num": "G7320 S100 .J78 8TA131", "recid": "zj875yt3817", "websiteUrl": "https://purl.stanford.edu/zj875yt3817", "title": "極東十万分一圖", "ckey": 12732952, "available": true, "iiifUrl": "https://purl.stanford.edu/zj875yt3817/iiif/manifest" }, "geometry": { "type": "Polygon", "coordinates": [ [ [ 143.0, 52.9999998 ], [ 143.5, 52.9999998 ], [ 143.5, 53.3333331 ], [ 143.0, 53.3333331 ], [ 143.0, 52.9999998 ] ] ] } },
{ "type": "Feature", "properties": { "Id": 0, "Sheet_ID": "バイカル灣", "label": "バイカル灣", "call_short": "0", "call_num": "0", "recid": "0", "websiteUrl": "0", "title": "0", "ckey": 0, "available": false, "iiifUrl": "0" }, "geometry": { "type": "Polygon", "coordinates": [ [ [ 142.0, 53.3333331 ], [ 142.5, 53.3333331 ], [ 142.5, 53.6666664 ], [ 142.0, 53.6666664 ], [ 142.0, 53.3333331 ] ] ] } },
{ "type": "Feature", "properties": { "Id": 0, "Sheet_ID": "オハ", "label": "オハ", "call_short": "0", "call_num": "0", "recid": "0", "websiteUrl": "0", "title": "0", "ckey": 0, "available": false, "iiifUrl": "0" }, "geometry": { "type": "Polygon", "coordinates": [ [ [ 142.5, 53.3333331 ], [ 143.0, 53.3333331 ], [ 143.0, 53.6666664 ], [ 142.5, 53.6666664 ], [ 142.5, 53.3333331 ] ] ] } },
{ "type": "Feature", "properties": { "Id": 0, "Sheet_ID": "エホビ灣", "label": "エホビ灣", "call_short": "0", "call_num": "0", "recid": "0", "websiteUrl": "0", "title": "0", "ckey": 0, "available": false, "iiifUrl": "0" }, "geometry": { "type": "Polygon", "coordinates": [ [ [ 143.0, 53.3333331 ], [ 143.5, 53.3333331 ], [ 143.5, 53.6666664 ], [ 143.0, 53.6666664 ], [ 143.0, 53.3333331 ] ] ] } },
{ "type": "Feature", "properties": { "Id": 0, "Sheet_ID": "八レ149. プロンゲ灣", "label": "八レ149. プロンゲ灣", "call_short": "G7320 S100 .J78", "call_num": "G7320 S100 .J78 8RE149", "recid": "mq754gn3930", "websiteUrl": "https://purl.stanford.edu/mq754gn3930", "title": "極東十万分一圖", "ckey": 12732952, "available": true, "iiifUrl": "https://purl.stanford.edu/mq754gn3930/iiif/manifest" }, "geometry": { "type": "Polygon", "coordinates": [ [ [ 142.5, 53.6666664 ], [ 143.0, 53.6666664 ], [ 143.0, 53.9999997 ], [ 142.5, 53.9999997 ], [ 142.5, 53.6666664 ] ] ] } },
{ "type": "Feature", "properties": { "Id": 0, "Sheet_ID": "マリイ岬", "label": "マリイ岬", "call_short": "0", "call_num": "0", "recid": "0", "websiteUrl": "0", "title": "0", "ckey": 0, "available": false, "iiifUrl": "0" }, "geometry": { "type": "Polygon", "coordinates": [ [ [ 142.0, 53.9999997 ], [ 142.5, 53.9999997 ], [ 142.5, 54.333333 ], [ 142.0, 54.333333 ], [ 142.0, 53.9999997 ] ] ] } },
{ "type": "Feature", "properties": { "Id": 0, "Sheet_ID": "ヌール", "label": "ヌール", "call_short": "0", "call_num": "0", "recid": "0", "websiteUrl": "0", "title": "0", "ckey": 0, "available": false, "iiifUrl": "0" }, "geometry": { "type": "Polygon", "coordinates": [ [ [ 142.5, 53.9999997 ], [ 143.0, 53.9999997 ], [ 143.0, 54.333333 ], [ 142.5, 54.333333 ], [ 142.5, 53.9999997 ] ] ] } },
{ "type": "Feature", "properties": { "Id": 0, "Sheet_ID": "八ヨ192. ナムシキ岬", "label": "八ヨ192. ナムシキ岬", "call_short": "G7320 S100 .J78", "call_num": "G7320 S100 .J78 8YO192", "recid": "st479yt2705", "websiteUrl": "https://purl.stanford.edu/st479yt2705", "title": "極東十万分一圖", "ckey": 12732952, "available": true, "iiifUrl": "https://purl.stanford.edu/st479yt2705/iiif/manifest" }, "geometry": { "type": "Polygon", "coordinates": [ [ [ 140.5, 49.3333336 ], [ 140.5, 49.45 ], [ 140.55, 49.45 ], [ 140.55, 49.6666669 ], [ 140.5, 49.6666669 ], [ 140.0, 49.6666669 ], [ 140.0, 49.3333336 ], [ 140.5, 49.3333336 ] ] ] } },
{ "type": "Feature", "properties": { "Id": 0, "Sheet_ID": "同江西部", "label": "同江西部", "call_short": "0", "call_num": "0", "recid": "0", "websiteUrl": "0", "title": "0", "ckey": 0, "available": false, "iiifUrl": "0" }, "geometry": { "type": "Polygon", "coordinates": [ [ [ 132.0, 47.333333 ], [ 132.5, 47.333333 ], [ 132.5, 47.6666664 ], [ 132.0, 47.6666664 ], [ 132.0, 47.333333 ] ] ] } },
{ "type": "Feature", "properties": { "Id": 0, "Sheet_ID": "同江東部", "label": "同江東部", "call_short": "0", "call_num": "0", "recid": "0", "websiteUrl": "0", "title": "0", "ckey": 0, "available": false, "iiifUrl": "0" }, "geometry": { "type": "Polygon", "coordinates": [ [ [ 132.5, 47.333333 ], [ 133.0, 47.333333 ], [ 133.0, 47.6666664 ], [ 132.5, 47.6666664 ], [ 132.5, 47.333333 ] ] ] } },
{ "type": "Feature", "properties": { "Id": 0, "Sheet_ID": "果勒根沼", "label": "果勒根沼", "call_short": "0", "call_num": "0", "recid": "0", "websiteUrl": "0", "title": "0", "ckey": 0, "available": false, "iiifUrl": "0" }, "geometry": { "type": "Polygon", "coordinates": [ [ [ 133.0, 47.333333 ], [ 133.5, 47.333333 ], [ 133.5, 47.6666664 ], [ 133.0, 47.6666664 ], [ 133.0, 47.333333 ] ] ] } },
{ "type": "Feature", "properties": { "Id": 0, "Sheet_ID": "興東鎮", "label": "興東鎮", "call_short": "0", "call_num": "0", "recid": "0", "websiteUrl": "0", "title": "0", "ckey": 0, "available": false, "iiifUrl": "0" }, "geometry": { "type": "Polygon", "coordinates": [ [ [ 130.5, 47.6666664 ], [ 131.0, 47.6666664 ], [ 131.0, 47.9999999 ], [ 130.5, 47.9999999 ], [ 130.5, 47.6666664 ] ] ] } },
{ "type": "Feature", "properties": { "Id": 0, "Sheet_ID": "蘿北", "label": "蘿北", "call_short": "0", "call_num": "0", "recid": "0", "websiteUrl": "0", "title": "0", "ckey": 0, "available": false, "iiifUrl": "0" }, "geometry": { "type": "Polygon", "coordinates": [ [ [ 131.0, 47.6666664 ], [ 131.5, 47.6666664 ], [ 131.5, 47.9999999 ], [ 131.0, 47.9999999 ], [ 131.0, 47.6666664 ] ] ] } },
{ "type": "Feature", "properties": { "Id": 0, "Sheet_ID": "ウェンツェレーウ", "label": "ウェンツェレーウ", "call_short": "0", "call_num": "0", "recid": "0", "websiteUrl": "0", "title": "0", "ckey": 0, "available": false, "iiifUrl": "0" }, "geometry": { "type": "Polygon", "coordinates": [ [ [ 131.5, 47.6666664 ], [ 132.0, 47.6666664 ], [ 132.0, 47.9999999 ], [ 131.5, 47.9999999 ], [ 131.5, 47.6666664 ] ] ] } },
{ "type": "Feature", "properties": { "Id": 0, "Sheet_ID": "クワシニーナ", "label": "クワシニーナ", "call_short": "0", "call_num": "0", "recid": "0", "websiteUrl": "0", "title": "0", "ckey": 0, "available": false, "iiifUrl": "0" }, "geometry": { "type": "Polygon", "coordinates": [ [ [ 132.0, 47.6666664 ], [ 132.5, 47.6666664 ], [ 132.5, 47.9999999 ], [ 132.0, 47.9999999 ], [ 132.0, 47.6666664 ] ] ] } },
{ "type": "Feature", "properties": { "Id": 0, "Sheet_ID": "壹〇ヨ147. 三屯", "label": "壹〇ヨ147. 三屯", "call_short": "G7320 S100 .J78", "call_num": "G7320 S100 .J78 10YO147", "recid": "bf709rn8902", "websiteUrl": "https://purl.stanford.edu/bf709rn8902", "title": "極東十万分一圖", "ckey": 12732952, "available": true, "iiifUrl": "https://purl.stanford.edu/bf709rn8902/iiif/manifest" }, "geometry": { "type": "Polygon", "coordinates": [ [ [ 132.5, 47.6666664 ], [ 133.0, 47.6666664 ], [ 133.0, 47.9999999 ], [ 132.5, 47.9999999 ], [ 132.5, 47.6666664 ] ] ] } },
{ "type": "Feature", "properties": { "Id": 0, "Sheet_ID": "崔連山", "label": "崔連山", "call_short": "0", "call_num": "0", "recid": "0", "websiteUrl": "0", "title": "0", "ckey": 0, "available": false, "iiifUrl": "0" }, "geometry": { "type": "Polygon", "coordinates": [ [ [ 133.0, 47.6666664 ], [ 133.5, 47.6666664 ], [ 133.5, 47.9999999 ], [ 133.0, 47.9999999 ], [ 133.0, 47.6666664 ] ] ] } },
{ "type": "Feature", "properties": { "Id": 0, "Sheet_ID": "海青", "label": "海青", "call_short": "0", "call_num": "0", "recid": "0", "websiteUrl": "0", "title": "0", "ckey": 0, "available": false, "iiifUrl": "0" }, "geometry": { "type": "Polygon", "coordinates": [ [ [ 134.5, 47.6666664 ], [ 135.0, 47.6666664 ], [ 135.0, 47.9999999 ], [ 134.5, 47.9999999 ], [ 134.5, 47.6666664 ] ] ] } },
{ "type": "Feature", "properties": { "Id": 0, "Sheet_ID": "ヴァリノー驛", "label": "ヴァリノー驛", "call_short": "0", "call_num": "0", "recid": "0", "websiteUrl": "0", "title": "0", "ckey": 0, "available": false, "iiifUrl": "0" }, "geometry": { "type": "Polygon", "coordinates": [ [ [ 135.0, 47.6666664 ], [ 135.5, 47.6666664 ], [ 135.5, 47.9999999 ], [ 135.0, 47.9999999 ], [ 135.0, 47.6666664 ] ] ] } },
{ "type": "Feature", "properties": { "Id": 0, "Sheet_ID": "太平溝", "label": "太平溝", "call_short": "0", "call_num": "0", "recid": "0", "websiteUrl": "0", "title": "0", "ckey": 0, "available": false, "iiifUrl": "0" }, "geometry": { "type": "Polygon", "coordinates": [ [ [ 130.5, 47.9999999 ], [ 131.0, 47.9999999 ], [ 131.0, 48.3333333 ], [ 130.5, 48.3333333 ], [ 130.5, 47.9999999 ] ] ] } },
{ "type": "Feature", "properties": { "Id": 0, "Sheet_ID": "壹〇ヨ176. バラガーン", "label": "壹〇ヨ176. バラガーン", "call_short": "G7320 S100 .J78", "call_num": "G7320 S100 .J78 10YO176", "recid": "cs148kf5667", "websiteUrl": "https://purl.stanford.edu/cs148kf5667", "title": "極東十万分一圖", "ckey": 12732952, "available": true, "iiifUrl": "https://purl.stanford.edu/cs148kf5667/iiif/manifest" }, "geometry": { "type": "Polygon", "coordinates": [ [ [ 131.0, 47.9999999 ], [ 131.5, 47.9999999 ], [ 131.5, 48.3333333 ], [ 131.0, 48.3333333 ], [ 131.0, 47.9999999 ] ] ] } },
{ "type": "Feature", "properties": { "Id": 0, "Sheet_ID": "フェルガニシキ山", "label": "フェルガニシキ山", "call_short": "0", "call_num": "0", "recid": "0", "websiteUrl": "0", "title": "0", "ckey": 0, "available": false, "iiifUrl": "0" }, "geometry": { "type": "Polygon", "coordinates": [ [ [ 131.5, 47.9999999 ], [ 132.0, 47.9999999 ], [ 132.0, 48.3333333 ], [ 131.5, 48.3333333 ], [ 131.5, 47.9999999 ] ] ] } },
{ "type": "Feature", "properties": { "Id": 0, "Sheet_ID": "バブストーワ", "label": "バブストーワ", "call_short": "0", "call_num": "0", "recid": "0", "websiteUrl": "0", "title": "0", "ckey": 0, "available": false, "iiifUrl": "0" }, "geometry": { "type": "Polygon", "coordinates": [ [ [ 132.0, 47.9999999 ], [ 132.5, 47.9999999 ], [ 132.5, 48.3333333 ], [ 132.0, 48.3333333 ], [ 132.0, 47.9999999 ] ] ] } },
{ "type": "Feature", "properties": { "Id": 0, "Sheet_ID": "ドミツリーエワ山", "label": "ドミツリーエワ山", "call_short": "0", "call_num": "0", "recid": "0", "websiteUrl": "0", "title": "0", "ckey": 0, "available": false, "iiifUrl": "0" }, "geometry": { "type": "Polygon", "coordinates": [ [ [ 132.5, 47.9999999 ], [ 133.0, 47.9999999 ], [ 133.0, 48.3333333 ], [ 132.5, 48.3333333 ], [ 132.5, 47.9999999 ] ] ] } },
{ "type": "Feature", "properties": { "Id": 0, "Sheet_ID": "泰得利", "label": "泰得利", "call_short": "0", "call_num": "0", "recid": "0", "websiteUrl": "0", "title": "0", "ckey": 0, "available": false, "iiifUrl": "0" }, "geometry": { "type": "Polygon", "coordinates": [ [ [ 133.0, 47.9999999 ], [ 133.5, 47.9999999 ], [ 133.5, 48.3333333 ], [ 133.0, 48.3333333 ], [ 133.0, 47.9999999 ] ] ] } },
{ "type": "Feature", "properties": { "Id": 0, "Sheet_ID": "抓古鎮", "label": "抓古鎮", "call_short": "0", "call_num": "0", "recid": "0", "websiteUrl": "0", "title": "0", "ckey": 0, "available": false, "iiifUrl": "0" }, "geometry": { "type": "Polygon", "coordinates": [ [ [ 134.5, 47.9999999 ], [ 135.0, 47.9999999 ], [ 135.0, 48.3333333 ], [ 134.5, 48.3333333 ], [ 134.5, 47.9999999 ] ] ] } },
{ "type": "Feature", "properties": { "Id": 0, "Sheet_ID": "9ヨ196. コルフォーフスカヤ驛", "label": "9ヨ196. コルフォーフスカヤ驛", "call_short": "G7320 S100 .J78", "call_num": "G7320 S100 .J78 9YO196", "recid": "gs804qr2882", "websiteUrl": "https://purl.stanford.edu/gs804qr2882", "title": "極東十万分一圖", "ckey": 12732952, "available": true, "iiifUrl": "https://purl.stanford.edu/gs804qr2882/iiif/manifest" }, "geometry": { "type": "Polygon", "coordinates": [ [ [ 135.0, 47.9999999 ], [ 135.5, 47.9999999 ], [ 135.5, 48.3333333 ], [ 135.0, 48.3333333 ], [ 135.0, 47.9999999 ] ] ] } },
{ "type": "Feature", "properties": { "Id": 0, "Sheet_ID": "十六號", "label": "十六號", "call_short": "0", "call_num": "0", "recid": "0", "websiteUrl": "0", "title": "0", "ckey": 0, "available": false, "iiifUrl": "0" }, "geometry": { "type": "Polygon", "coordinates": [ [ [ 135.5, 47.9999999 ], [ 136.0, 47.9999999 ], [ 136.0, 48.3333333 ], [ 135.5, 48.3333333 ], [ 135.5, 47.9999999 ] ] ] } },
{ "type": "Feature", "properties": { "Id": 0, "Sheet_ID": "馬連站", "label": "馬連站", "call_short": "0", "call_num": "0", "recid": "0", "websiteUrl": "0", "title": "0", "ckey": 0, "available": false, "iiifUrl": "0" }, "geometry": { "type": "Polygon", "coordinates": [ [ [ 130.5, 48.3333333 ], [ 131.0, 48.3333333 ], [ 131.0, 48.6666667 ], [ 130.5, 48.6666667 ], [ 130.5, 48.3333333 ] ] ] } },
{ "type": "Feature", "properties": { "Id": 0, "Sheet_ID": "ゲイリホフスキー", "label": "ゲイリホフスキー", "call_short": "0", "call_num": "0", "recid": "0", "websiteUrl": "0", "title": "0", "ckey": 0, "available": false, "iiifUrl": "0" }, "geometry": { "type": "Polygon", "coordinates": [ [ [ 131.0, 48.3333333 ], [ 131.5, 48.3333333 ], [ 131.5, 48.6666667 ], [ 131.0, 48.6666667 ], [ 131.0, 48.3333333 ] ] ] } },
{ "type": "Feature", "properties": { "Id": 0, "Sheet_ID": "ウルカーン山", "label": "ウルカーン山", "call_short": "0", "call_num": "0", "recid": "0", "websiteUrl": "0", "title": "0", "ckey": 0, "available": false, "iiifUrl": "0" }, "geometry": { "type": "Polygon", "coordinates": [ [ [ 131.5, 48.3333333 ], [ 132.0, 48.3333333 ], [ 132.0, 48.6666667 ], [ 131.5, 48.6666667 ], [ 131.5, 48.3333333 ] ] ] } },
{ "type": "Feature", "properties": { "Id": 0, "Sheet_ID": "オストラーヤ・マヤチナーヤ山", "label": "オストラーヤ・マヤチナーヤ山", "call_short": "0", "call_num": "0", "recid": "0", "websiteUrl": "0", "title": "0", "ckey": 0, "available": false, "iiifUrl": "0" }, "geometry": { "type": "Polygon", "coordinates": [ [ [ 132.0, 48.3333333 ], [ 132.5, 48.3333333 ], [ 132.5, 48.6666667 ], [ 132.0, 48.6666667 ], [ 132.0, 48.3333333 ] ] ] } },
{ "type": "Feature", "properties": { "Id": 0, "Sheet_ID": "ボンバー山", "label": "ボンバー山", "call_short": "0", "call_num": "0", "recid": "0", "websiteUrl": "0", "title": "0", "ckey": 0, "available": false, "iiifUrl": "0" }, "geometry": { "type": "Polygon", "coordinates": [ [ [ 132.5, 48.3333333 ], [ 133.0, 48.3333333 ], [ 133.0, 48.6666667 ], [ 132.5, 48.6666667 ], [ 132.5, 48.3333333 ] ] ] } },
{ "type": "Feature", "properties": { "Id": 0, "Sheet_ID": "クルートイヤール", "label": "クルートイヤール", "call_short": "0", "call_num": "0", "recid": "0", "websiteUrl": "0", "title": "0", "ckey": 0, "available": false, "iiifUrl": "0" }, "geometry": { "type": "Polygon", "coordinates": [ [ [ 133.0, 48.3333333 ], [ 133.5, 48.3333333 ], [ 133.5, 48.6666667 ], [ 133.0, 48.6666667 ], [ 133.0, 48.3333333 ] ] ] } },
{ "type": "Feature", "properties": { "Id": 0, "Sheet_ID": "黒瞎子島", "label": "黒瞎子島", "call_short": "0", "call_num": "0", "recid": "0", "websiteUrl": "0", "title": "0", "ckey": 0, "available": false, "iiifUrl": "0" }, "geometry": { "type": "Polygon", "coordinates": [ [ [ 134.5, 48.3333333 ], [ 135.0, 48.3333333 ], [ 135.0, 48.6666667 ], [ 134.5, 48.6666667 ], [ 134.5, 48.3333333 ] ] ] } },
{ "type": "Feature", "properties": { "Id": 0, "Sheet_ID": "ハバロフスク", "label": "ハバロフスク", "call_short": "0", "call_num": "0", "recid": "0", "websiteUrl": "0", "title": "0", "ckey": 0, "available": false, "iiifUrl": "0" }, "geometry": { "type": "Polygon", "coordinates": [ [ [ 135.0, 48.3333333 ], [ 135.5, 48.3333333 ], [ 135.5, 48.6666667 ], [ 135.0, 48.6666667 ], [ 135.0, 48.3333333 ] ] ] } },
{ "type": "Feature", "properties": { "Id": 0, "Sheet_ID": "アナスタセーフカ", "label": "アナスタセーフカ", "call_short": "0", "call_num": "0", "recid": "0", "websiteUrl": "0", "title": "0", "ckey": 0, "available": false, "iiifUrl": "0" }, "geometry": { "type": "Polygon", "coordinates": [ [ [ 135.5, 48.3333333 ], [ 136.0, 48.3333333 ], [ 136.0, 48.6666667 ], [ 135.5, 48.6666667 ], [ 135.5, 48.3333333 ] ] ] } },
{ "type": "Feature", "properties": { "Id": 0, "Sheet_ID": "ロンドーコ山", "label": "ロンドーコ山", "call_short": "0", "call_num": "0", "recid": "0", "websiteUrl": "0", "title": "0", "ckey": 0, "available": false, "iiifUrl": "0" }, "geometry": { "type": "Polygon", "coordinates": [ [ [ 131.5, 48.6666667 ], [ 132.0, 48.6666667 ], [ 132.0, 49.0000001 ], [ 131.5, 49.0000001 ], [ 131.5, 48.6666667 ] ] ] } },
{ "type": "Feature", "properties": { "Id": 0, "Sheet_ID": "トゥルーク山", "label": "トゥルーク山", "call_short": "0", "call_num": "0", "recid": "0", "websiteUrl": "0", "title": "0", "ckey": 0, "available": false, "iiifUrl": "0" }, "geometry": { "type": "Polygon", "coordinates": [ [ [ 132.0, 48.6666667 ], [ 132.5, 48.6666667 ], [ 132.5, 49.0000001 ], [ 132.0, 49.0000001 ], [ 132.0, 48.6666667 ] ] ] } },
{ "type": "Feature", "properties": { "Id": 0, "Sheet_ID": "壹〇ヨ144. ティホニカーヤ山", "label": "壹〇ヨ144. ティホニカーヤ山", "call_short": "G7320 S100 .J78", "call_num": "G7320 S100 .J78 10YO144", "recid": "rx233hn7462", "websiteUrl": "https://purl.stanford.edu/rx233hn7462", "title": "極東十万分一圖", "ckey": 12732952, "available": true, "iiifUrl": "https://purl.stanford.edu/rx233hn7462/iiif/manifest" }, "geometry": { "type": "Polygon", "coordinates": [ [ [ 132.5, 48.6666667 ], [ 133.0, 48.6666667 ], [ 133.0, 49.0000001 ], [ 132.5, 49.0000001 ], [ 132.5, 48.6666667 ] ] ] } },
{ "type": "Feature", "properties": { "Id": 0, "Sheet_ID": "十九號", "label": "十九號", "call_short": "0", "call_num": "0", "recid": "0", "websiteUrl": "0", "title": "0", "ckey": 0, "available": false, "iiifUrl": "0" }, "geometry": { "type": "Polygon", "coordinates": [ [ [ 133.0, 48.6666667 ], [ 133.5, 48.6666667 ], [ 133.5, 49.0000001 ], [ 133.0, 49.0000001 ], [ 133.0, 48.6666667 ] ] ] } },
{ "type": "Feature", "properties": { "Id": 0, "Sheet_ID": "トロキーラク山", "label": "トロキーラク山", "call_short": "0", "call_num": "0", "recid": "0", "websiteUrl": "0", "title": "0", "ckey": 0, "available": false, "iiifUrl": "0" }, "geometry": { "type": "Polygon", "coordinates": [ [ [ 131.5, 49.0000001 ], [ 132.0, 49.0000001 ], [ 132.0, 49.3333336 ], [ 131.5, 49.3333336 ], [ 131.5, 49.0000001 ] ] ] } },
{ "type": "Feature", "properties": { "Id": 0, "Sheet_ID": "壹〇ヨ153. カメヌシカ", "label": "壹〇ヨ153. カメヌシカ", "call_short": "G7320 S100 .J78", "call_num": "G7320 S100 .J78 10YO153", "recid": "bj928sh1472", "websiteUrl": "https://purl.stanford.edu/bj928sh1472", "title": "極東十万分一圖", "ckey": 12732952, "available": true, "iiifUrl": "https://purl.stanford.edu/bj928sh1472/iiif/manifest" }, "geometry": { "type": "Polygon", "coordinates": [ [ [ 132.0, 49.0000001 ], [ 132.5, 49.0000001 ], [ 132.5, 49.3333336 ], [ 132.0, 49.3333336 ], [ 132.0, 49.0000001 ] ] ] } },
{ "type": "Feature", "properties": { "Id": 0, "Sheet_ID": "ザグドィビラ河源", "label": "ザグドィビラ河源", "call_short": "0", "call_num": "0", "recid": "0", "websiteUrl": "0", "title": "0", "ckey": 0, "available": false, "iiifUrl": "0" }, "geometry": { "type": "Polygon", "coordinates": [ [ [ 132.5, 49.0000001 ], [ 133.0, 49.0000001 ], [ 133.0, 49.3333336 ], [ 132.5, 49.3333336 ], [ 132.5, 49.0000001 ] ] ] } },
{ "type": "Feature", "properties": { "Id": 0, "Sheet_ID": "クパードィ", "label": "クパードィ", "call_short": "0", "call_num": "0", "recid": "0", "websiteUrl": "0", "title": "0", "ckey": 0, "available": false, "iiifUrl": "0" }, "geometry": { "type": "Polygon", "coordinates": [ [ [ 133.0, 49.0000001 ], [ 133.5, 49.0000001 ], [ 133.5, 49.3333336 ], [ 133.0, 49.3333336 ], [ 133.0, 49.0000001 ] ] ] } },
{ "type": "Feature", "properties": { "Id": 0, "Sheet_ID": "エヒルカーン河", "label": "エヒルカーン河", "call_short": "0", "call_num": "0", "recid": "0", "websiteUrl": "0", "title": "0", "ckey": 0, "available": false, "iiifUrl": "0" }, "geometry": { "type": "Polygon", "coordinates": [ [ [ 131.5, 49.3333336 ], [ 132.0, 49.3333336 ], [ 132.0, 49.666667 ], [ 131.5, 49.666667 ], [ 131.5, 49.3333336 ] ] ] } },
{ "type": "Feature", "properties": { "Id": 0, "Sheet_ID": "二號", "label": "二號", "call_short": "0", "call_num": "0", "recid": "0", "websiteUrl": "0", "title": "0", "ckey": 0, "available": false, "iiifUrl": "0" }, "geometry": { "type": "Polygon", "coordinates": [ [ [ 132.0, 49.3333336 ], [ 132.5, 49.3333336 ], [ 132.5, 49.666667 ], [ 132.0, 49.666667 ], [ 132.0, 49.3333336 ] ] ] } },
{ "type": "Feature", "properties": { "Id": 0, "Sheet_ID": "メーナ河", "label": "メーナ河", "call_short": "0", "call_num": "0", "recid": "0", "websiteUrl": "0", "title": "0", "ckey": 0, "available": false, "iiifUrl": "0" }, "geometry": { "type": "Polygon", "coordinates": [ [ [ 132.5, 49.3333336 ], [ 133.0, 49.3333336 ], [ 133.0, 49.666667 ], [ 132.5, 49.666667 ], [ 132.5, 49.3333336 ] ] ] } }
]
}
