{"type":"FeatureCollection","features":[{"type":"Feature","properties":{"Id":0,"Sheet_ID":"1. クサイ島","label":"1. クサイ島","call_short":"G9422 .P6 S100 .J3","call_num":"G9422 .P6 S100 .J3 SHEET 1","recid":"ks931gx1697","websiteUrl":"https://purl.stanford.edu/ks931gx1697","title":"十万分一ポナペ島附近","ckey":10648660,"web_map":"","available":"true","iiifUrl":"https://purl.stanford.edu/ks931gx1697/iiif/manifest"},"geometry":{"bbox":[162.75,5.166667000000018,163.16666700000007,5.500000000000057],"type":"Polygon","coordinates":[[[162.75,5.166667000000018],[162.75,5.500000000000057],[163.16666700000007,5.500000000000057],[163.16666700000007,5.166667000000018],[162.75,5.166667000000018]]]}},{"type":"Feature","properties":{"Id":0,"Sheet_ID":"6. ナチック島","label":"6. ナチック島","call_short":"G9422 .P6 S100 .J3","call_num":"G9422 .P6 S100 .J3 SHEET 2","recid":"gy526zz1113","websiteUrl":"https://purl.stanford.edu/gy526zz1113","title":"十万分一ポナペ島附近","ckey":10648660,"web_map":"","available":"true","iiifUrl":"https://purl.stanford.edu/gy526zz1113/iiif/manifest"},"geometry":{"bbox":[157.1333330000001,5.766667000000041,157.4000000000001,5.916667000000018],"type":"Polygon","coordinates":[[[157.4000000000001,5.766667000000041],[157.1333330000001,5.766667000000041],[157.1333330000001,5.916667000000018],[157.4000000000001,5.916667000000018],[157.4000000000001,5.766667000000041]]]}},{"type":"Feature","properties":{"Id":0,"Sheet_ID":"2. ピンゲラップ諸島","label":"2. ピンゲラップ諸島","call_short":"G9422 .P6 S100 .J3","call_num":"G9422 .P6 S100 .J3 SHEET 1","recid":"ks931gx1697","websiteUrl":"https://purl.stanford.edu/ks931gx1697","title":"十万分一ポナペ島附近","ckey":10648660,"web_map":"","available":"true","iiifUrl":"https://purl.stanford.edu/ks931gx1697/iiif/manifest"},"geometry":{"bbox":[160.66666699999996,6.166666999999961,160.75000000000014,6.250000000000058],"type":"Polygon","coordinates":[[[160.66666699999996,6.166666999999961],[160.66666699999996,6.250000000000058],[160.75000000000014,6.250000000000058],[160.75000000000014,6.166666999999961],[160.66666699999996,6.166666999999961]]]}},{"type":"Feature","properties":{"Id":0,"Sheet_ID":"3. モキール諸島","label":"3. モキール諸島","call_short":"G9422 .P6 S100 .J3","call_num":"G9422 .P6 S100 .J3 SHEET 1","recid":"ks931gx1697","websiteUrl":"https://purl.stanford.edu/ks931gx1697","title":"十万分一ポナペ島附近","ckey":10648660,"web_map":"","available":"true","iiifUrl":"https://purl.stanford.edu/ks931gx1697/iiif/manifest"},"geometry":{"bbox":[159.71666700000026,6.633332999999993,159.79999999999995,6.7166669999999735],"type":"Polygon","coordinates":[[[159.71666700000026,6.633332999999993],[159.71666700000026,6.7166669999999735],[159.79999999999995,6.7166669999999735],[159.79999999999995,6.633332999999993],[159.71666700000026,6.633332999999993]]]}},{"type":"Feature","properties":{"Id":0,"Sheet_ID":"4. ポナペ島","label":"4. ポナペ島","call_short":"G9422 .P6 S100 .J3","call_num":"G9422 .P6 S100 .J3 SHEET 1","recid":"ks931gx1697","websiteUrl":"https://purl.stanford.edu/ks931gx1697","title":"十万分一ポナペ島附近","ckey":10648660,"web_map":"","available":"true","iiifUrl":"https://purl.stanford.edu/ks931gx1697/iiif/manifest"},"geometry":{"bbox":[157.75,6.666667000000075,158.41666699999996,7.166667000000131],"type":"Polygon","coordinates":[[[157.75,6.666667000000075],[157.75,7.166667000000131],[158.41666699999996,7.166667000000131],[158.41666699999996,6.666667000000075],[157.75,6.666667000000075]]]}},{"type":"Feature","properties":{"Id":0,"Sheet_ID":"7. オロルック諸島","label":"7. オロルック諸島","call_short":"G9422 .P6 S100 .J3","call_num":"G9422 .P6 S100 .J3 SHEET 2","recid":"gy526zz1113","websiteUrl":"https://purl.stanford.edu/gy526zz1113","title":"十万分一ポナペ島附近","ckey":10648660,"web_map":"","available":"true","iiifUrl":"https://purl.stanford.edu/gy526zz1113/iiif/manifest"},"geometry":{"bbox":[155.1333330000001,7.400000000000034,155.41666699999996,7.633332999999937],"type":"Polygon","coordinates":[[[155.41666699999996,7.633332999999937],[155.41666699999996,7.400000000000034],[155.1333330000001,7.400000000000034],[155.1333330000001,7.633332999999937],[155.41666699999996,7.633332999999937]]]}},{"type":"Feature","properties":{"Id":0,"Sheet_ID":"8. ローソップ島","label":"8. ローソップ島","call_short":"G9422 .P6 S100 .J3","call_num":"G9422 .P6 S100 .J3 SHEET 2","recid":"gy526zz1113","websiteUrl":"https://purl.stanford.edu/gy526zz1113","title":"十万分一ポナペ島附近","ckey":10648660,"web_map":"","available":"true","iiifUrl":"https://purl.stanford.edu/gy526zz1113/iiif/manifest"},"geometry":{"bbox":[152.53333299999997,6.808333000000118,152.78333300000008,7.025000000000034],"type":"Polygon","coordinates":[[[152.78333300000008,6.808333000000118],[152.53333299999997,6.808333000000118],[152.53333299999997,7.025000000000034],[152.78333300000008,7.025000000000034],[152.78333300000008,6.808333000000118]]]}},{"type":"Feature","properties":{"Id":0,"Sheet_ID":"9. ナモールック島","label":"9. ナモールック島","call_short":"G9422 .P6 S100 .J3","call_num":"G9422 .P6 S100 .J3 SHEET 2","recid":"gy526zz1113","websiteUrl":"https://purl.stanford.edu/gy526zz1113","title":"十万分一ポナペ島附近","ckey":10648660,"web_map":"","available":"true","iiifUrl":"https://purl.stanford.edu/gy526zz1113/iiif/manifest"},"geometry":{"bbox":[153.08333300000004,5.86666699999995,153.17499999999995,5.9500000000000455],"type":"Polygon","coordinates":[[[153.17499999999995,5.86666699999995],[153.08333300000004,5.86666699999995],[153.08333300000004,5.9500000000000455],[153.17499999999995,5.9500000000000455],[153.17499999999995,5.86666699999995]]]}},{"type":"Feature","properties":{"Id":0,"Sheet_ID":"10. モートロック諸島","label":"10. モートロック諸島","call_short":"G9422 .P6 S100 .J3","call_num":"G9422 .P6 S100 .J3 SHEET 2","recid":"gy526zz1113","websiteUrl":"https://purl.stanford.edu/gy526zz1113","title":"十万分一ポナペ島附近","ckey":10648660,"web_map":"","available":"true","iiifUrl":"https://purl.stanford.edu/gy526zz1113/iiif/manifest"},"geometry":{"bbox":[153.41666700000007,5.250000000000057,153.85000000000002,5.666667000000075],"type":"Polygon","coordinates":[[[153.85000000000002,5.250000000000057],[153.41666700000007,5.250000000000057],[153.41666700000007,5.666667000000075],[153.85000000000002,5.666667000000075],[153.85000000000002,5.250000000000057]]]}},{"type":"Feature","properties":{"Id":0,"Sheet_ID":"11. ヌゴール島","label":"11. ヌゴール島","call_short":"G9422 .P6 S100 .J3","call_num":"G9422 .P6 S100 .J3 SHEET 2","recid":"gy526zz1113","websiteUrl":"https://purl.stanford.edu/gy526zz1113","title":"十万分一ポナペ島附近","ckey":10648660,"web_map":"","available":"true","iiifUrl":"https://purl.stanford.edu/gy526zz1113/iiif/manifest"},"geometry":{"bbox":[154.89999999999998,3.808333000000004,155,3.8916669999999844],"type":"Polygon","coordinates":[[[155,3.808333000000004],[154.89999999999998,3.808333000000004],[154.89999999999998,3.8916669999999844],[155,3.8916669999999844],[155,3.808333000000004]]]}},{"type":"Feature","properties":{"Id":0,"Sheet_ID":"12. グリーニッチ島","label":"12. グリーニッチ島","call_short":"G9422 .P6 S100 .J3","call_num":"G9422 .P6 S100 .J3 SHEET 2","recid":"gy526zz1113","websiteUrl":"https://purl.stanford.edu/gy526zz1113","title":"十万分一ポナペ島附近","ckey":10648660,"web_map":"","available":"true","iiifUrl":"https://purl.stanford.edu/gy526zz1113/iiif/manifest"},"geometry":{"bbox":[154.7000000000002,1.0000000000000568,154.83333300000015,1.1250000000001137],"type":"Polygon","coordinates":[[[154.83333300000015,1.0000000000000568],[154.7000000000002,1.0000000000000568],[154.7000000000002,1.1250000000001137],[154.83333300000015,1.1250000000001137],[154.83333300000015,1.0000000000000568]]]}}],"name":"index_10648660"}
