{"type":"FeatureCollection","features":[{"type":"Feature","properties":{"Id":0,"Sheet_ID":"15. アノール","label":"15. アノール","call_short":"","call_num":"","recid":"","websiteUrl":"","title":"","ckey":0,"web_map":"","available":"false","iiifUrl":""},"geometry":{"bbox":[142,50,143,50.6666666],"type":"Polygon","coordinates":[[[142,50],[142,50.6666666],[143,50.6666666],[143,50],[142,50]]]}},{"type":"Feature","properties":{"Id":0,"Sheet_ID":"10. ランガリー河","label":"10. ランガリー河","call_short":"","call_num":"","recid":"","websiteUrl":"","title":"","ckey":0,"web_map":"","available":"false","iiifUrl":""},"geometry":{"bbox":[143,50,144,50.6666666],"type":"Polygon","coordinates":[[[143,50],[143,50.6666666],[144,50.6666666],[144,50],[143,50]]]}},{"type":"Feature","properties":{"Id":0,"Sheet_ID":"24. モソロフ湾","label":"24. モソロフ湾","call_short":"","call_num":"","recid":"","websiteUrl":"","title":"","ckey":0,"web_map":"","available":"false","iiifUrl":""},"geometry":{"bbox":[140,50.6666666,141,51.3333332],"type":"Polygon","coordinates":[[[140,50.6666666],[140,51.3333332],[141,51.3333332],[141,50.6666666],[140,50.6666666]]]}},{"type":"Feature","properties":{"Id":0,"Sheet_ID":"14. アレクサンドロフスク","label":"14. アレクサンドロフスク","call_short":"G7330 S100 .J36","call_num":"G7330 S100 .J36 SHEET 14","recid":"fr169yb6416","websiteUrl":"https://purl.stanford.edu/fr169yb6416","title":"北樺太十万分一圖 北樺太及黑龍江下流","ckey":12372267,"web_map":"","available":"true","iiifUrl":"https://purl.stanford.edu/fr169yb6416/iiif/manifest"},"geometry":{"bbox":[142,50.6666666,143,51.3333332],"type":"Polygon","coordinates":[[[142,50.6666666],[142,51.3333332],[143,51.3333332],[143,50.6666666],[142,50.6666666]]]}},{"type":"Feature","properties":{"Id":0,"Sheet_ID":"9. コンギ","label":"9. コンギ","call_short":"G7330 S100 .J36","call_num":"G7330 S100 .J36 SHEET 9","recid":"tk773fk1555","websiteUrl":"https://purl.stanford.edu/tk773fk1555","title":"北樺太十万分一圖 北樺太及黑龍江下流","ckey":12372267,"web_map":"","available":"true","iiifUrl":"https://purl.stanford.edu/tk773fk1555/iiif/manifest"},"geometry":{"bbox":[143,50.6666666,144,51.3333332],"type":"Polygon","coordinates":[[[143,50.6666666],[143,51.3333332],[144,51.3333332],[144,50.6666666],[143,50.6666666]]]}},{"type":"Feature","properties":{"Id":0,"Sheet_ID":"23. デカストリー","label":"23. デカストリー","call_short":"G7330 S100 .J36","call_num":"G7330 S100 .J36 SHEET 23","recid":"sr502pr9857","websiteUrl":"https://purl.stanford.edu/sr502pr9857","title":"西伯利十万分一圖 北樺太及黑龍江下流","ckey":12372267,"web_map":"","available":"true","iiifUrl":"https://purl.stanford.edu/sr502pr9857/iiif/manifest"},"geometry":{"bbox":[140,51.3333332,141,51.999999800000005],"type":"Polygon","coordinates":[[[140,51.3333332],[140,51.999999800000005],[141,51.999999800000005],[141,51.3333332],[140,51.3333332]]]}},{"type":"Feature","properties":{"Id":0,"Sheet_ID":"18. 間宮海峡南部","label":"18. 間宮海峡南部","call_short":"G7330 S100 .J36","call_num":"G7330 S100 .J36 SHEET 18","recid":"jm483rb1777","websiteUrl":"https://purl.stanford.edu/jm483rb1777","title":"西伯利十万分一圖 北樺太及黑龍江下流","ckey":12372267,"web_map":"","available":"true","iiifUrl":"https://purl.stanford.edu/jm483rb1777/iiif/manifest"},"geometry":{"bbox":[141,51.3333332,142,51.999999800000005],"type":"Polygon","coordinates":[[[141,51.3333332],[141,51.999999800000005],[142,51.999999800000005],[142,51.3333332],[141,51.3333332]]]}},{"type":"Feature","properties":{"Id":0,"Sheet_ID":"13. ヌイシ","label":"13. ヌイシ","call_short":"G7330 S100 .J36","call_num":"G7330 S100 .J36 SHEET 13","recid":"jg554vb3291","websiteUrl":"https://purl.stanford.edu/jg554vb3291","title":"北樺太十万分一圖 北樺太及黑龍江下流","ckey":12372267,"web_map":"","available":"true","iiifUrl":"https://purl.stanford.edu/jg554vb3291/iiif/manifest"},"geometry":{"bbox":[142,51.3333332,143,51.999999800000005],"type":"Polygon","coordinates":[[[142,51.3333332],[142,51.999999800000005],[143,51.999999800000005],[143,51.3333332],[142,51.3333332]]]}},{"type":"Feature","properties":{"Id":0,"Sheet_ID":"8. カタングリ","label":"8. カタングリ","call_short":"","call_num":"","recid":"","websiteUrl":"","title":"","ckey":0,"web_map":"","available":"false","iiifUrl":""},"geometry":{"bbox":[143,51.333333200000084,143.5000000000001,51.99999980000001],"type":"Polygon","coordinates":[[[143,51.333333200000084],[143,51.99999980000001],[143.5000000000001,51.99999980000001],[143.5000000000001,51.333333200000084],[143,51.333333200000084]]]}},{"type":"Feature","properties":{"Id":0,"Sheet_ID":"22. ボゴロドスコエ","label":"22. ボゴロドスコエ","call_short":"G7330 S100 .J36","call_num":"G7330 S100 .J36 SHEET 22","recid":"wz049mc9746","websiteUrl":"https://purl.stanford.edu/wz049mc9746","title":"西伯利十万分一圖 北樺太及黑龍江下流","ckey":12372267,"web_map":"","available":"true","iiifUrl":"https://purl.stanford.edu/wz049mc9746/iiif/manifest"},"geometry":{"bbox":[140,51.999999800000005,141,52.66666640000001],"type":"Polygon","coordinates":[[[140,51.999999800000005],[140,52.66666640000001],[141,52.66666640000001],[141,51.999999800000005],[140,51.999999800000005]]]}},{"type":"Feature","properties":{"Id":0,"Sheet_ID":"17. 間宮海峡中部","label":"17. 間宮海峡中部","call_short":"G7330 S100 .J36","call_num":"G7330 S100 .J36 SHEET 17","recid":"tj684sr7611","websiteUrl":"https://purl.stanford.edu/tj684sr7611","title":"西伯利十万分一圖 北樺太及黑龍江下流","ckey":12372267,"web_map":"","available":"true","iiifUrl":"https://purl.stanford.edu/tj684sr7611/iiif/manifest"},"geometry":{"bbox":[141,51.999999800000005,142,52.66666640000001],"type":"Polygon","coordinates":[[[141,51.999999800000005],[141,52.66666640000001],[142,52.66666640000001],[142,51.999999800000005],[141,51.999999800000005]]]}},{"type":"Feature","properties":{"Id":0,"Sheet_ID":"12. ワール河","label":"12. ワール河","call_short":"G7330 S100 .J36","call_num":"G7330 S100 .J36 SHEET 12","recid":"fq353jz7414","websiteUrl":"https://purl.stanford.edu/fq353jz7414","title":"北樺太十万分一圖 北樺太及黑龍江下流","ckey":12372267,"web_map":"","available":"true","iiifUrl":"https://purl.stanford.edu/fq353jz7414/iiif/manifest"},"geometry":{"bbox":[142,51.999999800000005,143,52.66666640000001],"type":"Polygon","coordinates":[[[142,51.999999800000005],[142,52.66666640000001],[143,52.66666640000001],[143,51.999999800000005],[142,51.999999800000005]]]}},{"type":"Feature","properties":{"Id":0,"Sheet_ID":"7. チァイウォ","label":"7. チァイウォ","call_short":"G7330 S100 .J36","call_num":"G7330 S100 .J36 SHEET 7","recid":"fw596qv0468","websiteUrl":"https://purl.stanford.edu/fw596qv0468","title":"北樺太十万分一圖 北樺太及黑龍江下流","ckey":12372267,"web_map":"","available":"true","iiifUrl":"https://purl.stanford.edu/fw596qv0468/iiif/manifest"},"geometry":{"bbox":[143,51.99999980000001,143.5000000000001,52.66666640000011],"type":"Polygon","coordinates":[[[143,51.99999980000001],[143,52.66666640000011],[143.5000000000001,52.66666640000011],[143.5000000000001,51.99999980000001],[143,51.99999980000001]]]}},{"type":"Feature","properties":{"Id":0,"Sheet_ID":"21. ニコラエフスク","label":"21. ニコラエフスク","call_short":"G7330 S100 .J36","call_num":"G7330 S100 .J36 SHEET 21","recid":"fm111xg5714","websiteUrl":"https://purl.stanford.edu/fm111xg5714","title":"西伯利十万分一圖 北樺太及黑龍江下流","ckey":12372267,"web_map":"","available":"true","iiifUrl":"https://purl.stanford.edu/fm111xg5714/iiif/manifest"},"geometry":{"bbox":[140,52.66666640000001,141,53.333333],"type":"Polygon","coordinates":[[[140,52.66666640000001],[140,53.333333],[141,53.333333],[141,52.66666640000001],[140,52.66666640000001]]]}},{"type":"Feature","properties":{"Id":0,"Sheet_ID":"16. 間宮海峡北部","label":"16. 間宮海峡北部","call_short":"G7330 S100 .J36","call_num":"G7330 S100 .J36 SHEET 16","recid":"np067nk1030","websiteUrl":"https://purl.stanford.edu/np067nk1030","title":"西伯利十万分一圖 北樺太及黑龍江下流","ckey":12372267,"web_map":"","available":"true","iiifUrl":"https://purl.stanford.edu/np067nk1030/iiif/manifest"},"geometry":{"bbox":[141,52.66666640000001,142,53.333333],"type":"Polygon","coordinates":[[[141,52.66666640000001],[141,53.333333],[142,53.333333],[142,52.66666640000001],[141,52.66666640000001]]]}},{"type":"Feature","properties":{"Id":0,"Sheet_ID":"11. ピーヤ高地","label":"11. ピーヤ高地","call_short":"G7330 S100 .J36","call_num":"G7330 S100 .J36 SHEET 11","recid":"td179vp2764","websiteUrl":"https://purl.stanford.edu/td179vp2764","title":"北樺太十万分一圖 北樺太及黑龍江下流","ckey":12372267,"web_map":"","available":"true","iiifUrl":"https://purl.stanford.edu/td179vp2764/iiif/manifest"},"geometry":{"bbox":[142,52.66666640000001,143,53.333333],"type":"Polygon","coordinates":[[[142,52.66666640000001],[142,53.333333],[143,53.333333],[143,52.66666640000001],[142,52.66666640000001]]]}},{"type":"Feature","properties":{"Id":0,"Sheet_ID":"6. キヤクル湾","label":"6. キヤクル湾","call_short":"","call_num":"","recid":"","websiteUrl":"","title":"","ckey":0,"web_map":"","available":"false","iiifUrl":""},"geometry":{"bbox":[143,52.66666640000011,143.5000000000001,53.33333300000004],"type":"Polygon","coordinates":[[[143,52.66666640000011],[143,53.33333300000004],[143.5000000000001,53.33333300000004],[143.5000000000001,52.66666640000011],[143,52.66666640000011]]]}}],"name":"index_12372267"}
