{
"type": "FeatureCollection",
"name": "index_map",
"features": [
{ "type": "Feature", "properties": { "Id": 0, "Sheet_ID": "津市", "label": "津市", "call_short": "G7964 .T87 1947 .N4", "call_num": "G7964 .T87 1947 .N4", "recid": "nw380zf1798", "websiteUrl": "https://purl.stanford.edu/nw380zf1798", "title": "津市航空寫眞測量圖", "ckey": 10429432, "available": true, "iiifUrl": "https://purl.stanford.edu/nw380zf1798/iiif/manifest" }, "geometry": { "type": "Polygon", "coordinates": [ [ [ 136.490278, 34.694444 ], [ 136.530556, 34.694444 ], [ 136.530556, 34.738889 ], [ 136.490278, 34.738889 ], [ 136.490278, 34.694444 ] ] ] } }
]
}
