{"type":"FeatureCollection","features":[{"type":"Feature","properties":{"Id":0,"Sheet_ID":"3745. 鵞鑾鼻","label":"3745. 鵞鑾鼻","call_short":"G7910 S200 .J3","call_num":"G7910 S200 .J3 1932 3745","recid":"xj268zn0225","websiteUrl":"https://purl.stanford.edu/xj268zn0225","title":"二十万分一帝國圖 [台湾]","ckey":12714734,"web_map":"","available":"true","iiifUrl":"https://purl.stanford.edu/xj268zn0225/iiif/manifest"},"geometry":{"bbox":[119.99999999999999,21.333333,121,21.999999714285714],"type":"Polygon","coordinates":[[[119.99999999999999,21.333333],[119.99999999999999,21.999999714285714],[121,21.999999714285714],[121,21.333333],[119.99999999999999,21.333333]]]}},{"type":"Feature","properties":{"Id":0,"Sheet_ID":"3744. 髙雄","label":"3744. 髙雄","call_short":"G7910 S200 .J3","call_num":"G7910 S200 .J3 1932 3744","recid":"ds589cm3941","websiteUrl":"https://purl.stanford.edu/ds589cm3941","title":"二十万分一帝國圖 [台湾]","ckey":12714734,"web_map":"","available":"true","iiifUrl":"https://purl.stanford.edu/ds589cm3941/iiif/manifest"},"geometry":{"bbox":[119.99999999999999,21.999999714285714,121,22.66666642857143],"type":"Polygon","coordinates":[[[119.99999999999999,21.999999714285714],[119.99999999999999,22.66666642857143],[121,22.66666642857143],[121,21.999999714285714],[119.99999999999999,21.999999714285714]]]}},{"type":"Feature","properties":{"Id":0,"Sheet_ID":"3644. 紅頭嶼","label":"3644. 紅頭嶼","call_short":"G7910 S200 .J3","call_num":"G7910 S200 .J3 1932 3644","recid":"by350nq5204","websiteUrl":"https://purl.stanford.edu/by350nq5204","title":"二十万分一帝國圖 [台湾]","ckey":12714734,"web_map":"","available":"true","iiifUrl":"https://purl.stanford.edu/by350nq5204/iiif/manifest"},"geometry":{"bbox":[121,21.999999714285714,122,22.66666642857143],"type":"Polygon","coordinates":[[[121,21.999999714285714],[121,22.66666642857143],[122,22.66666642857143],[122,21.999999714285714],[121,21.999999714285714]]]}},{"type":"Feature","properties":{"Id":0,"Sheet_ID":"3843. 大嶼","label":"3843. 大嶼","call_short":"G7910 S200 .J3","call_num":"G7910 S200 .J3 1932 3843","recid":"mc260kj7323","websiteUrl":"https://purl.stanford.edu/mc260kj7323","title":"二十万分一帝國圖 [台湾]","ckey":12714734,"web_map":"","available":"true","iiifUrl":"https://purl.stanford.edu/mc260kj7323/iiif/manifest"},"geometry":{"bbox":[119,22.66666642857143,119.99999999999999,23.333333142857143],"type":"Polygon","coordinates":[[[119,22.66666642857143],[119,23.333333142857143],[119.99999999999999,23.333333142857143],[119.99999999999999,22.66666642857143],[119,22.66666642857143]]]}},{"type":"Feature","properties":{"Id":0,"Sheet_ID":"3743. 臺南","label":"3743. 臺南","call_short":"G7910 S200 .J3","call_num":"G7910 S200 .J3 1932 3743","recid":"np810mn7913","websiteUrl":"https://purl.stanford.edu/np810mn7913","title":"二十万分一帝國圖 [台湾]","ckey":12714734,"web_map":"","available":"true","iiifUrl":"https://purl.stanford.edu/np810mn7913/iiif/manifest"},"geometry":{"bbox":[119.99999999999999,22.66666642857143,121,23.333333142857143],"type":"Polygon","coordinates":[[[119.99999999999999,22.66666642857143],[119.99999999999999,23.333333142857143],[121,23.333333142857143],[121,22.66666642857143],[119.99999999999999,22.66666642857143]]]}},{"type":"Feature","properties":{"Id":0,"Sheet_ID":"3643. 臺東","label":"3643. 臺東","call_short":"G7910 S200 .J3","call_num":"G7910 S200 .J3 1932 3643","recid":"fk472zr5286","websiteUrl":"https://purl.stanford.edu/fk472zr5286","title":"二十万分一帝國圖 [台湾]","ckey":12714734,"web_map":"","available":"true","iiifUrl":"https://purl.stanford.edu/fk472zr5286/iiif/manifest"},"geometry":{"bbox":[121,22.66666642857143,122,23.333333142857143],"type":"Polygon","coordinates":[[[121,22.66666642857143],[121,23.333333142857143],[122,23.333333142857143],[122,22.66666642857143],[121,22.66666642857143]]]}},{"type":"Feature","properties":{"Id":0,"Sheet_ID":"3842. 澎湖島","label":"3842. 澎湖島","call_short":"G7910 S200 .J3","call_num":"G7910 S200 .J3 1932 3842","recid":"gk930yy8201","websiteUrl":"https://purl.stanford.edu/gk930yy8201","title":"二十万分一帝國圖 [台湾]","ckey":12714734,"web_map":"","available":"true","iiifUrl":"https://purl.stanford.edu/gk930yy8201/iiif/manifest"},"geometry":{"bbox":[119,23.333333142857143,119.99999999999999,23.999999857142857],"type":"Polygon","coordinates":[[[119,23.333333142857143],[119,23.999999857142857],[119.99999999999999,23.999999857142857],[119.99999999999999,23.333333142857143],[119,23.333333142857143]]]}},{"type":"Feature","properties":{"Id":0,"Sheet_ID":"3742. 嘉義","label":"3742. 嘉義","call_short":"G7910 S200 .J3","call_num":"G7910 S200 .J3 1932 3742","recid":"qf800sb4953","websiteUrl":"https://purl.stanford.edu/qf800sb4953","title":"二十万分一帝國圖 [台湾]","ckey":12714734,"web_map":"","available":"true","iiifUrl":"https://purl.stanford.edu/qf800sb4953/iiif/manifest"},"geometry":{"bbox":[119.99999999999999,23.333333142857143,121,23.999999857142857],"type":"Polygon","coordinates":[[[119.99999999999999,23.333333142857143],[119.99999999999999,23.999999857142857],[121,23.999999857142857],[121,23.333333142857143],[119.99999999999999,23.333333142857143]]]}},{"type":"Feature","properties":{"Id":0,"Sheet_ID":"3642. 花蓮港","label":"3642. 花蓮港","call_short":"G7910 S200 .J3","call_num":"G7910 S200 .J3 1932 3642","recid":"nj863df6145","websiteUrl":"https://purl.stanford.edu/nj863df6145","title":"二十万分一帝國圖 [台湾]","ckey":12714734,"web_map":"","available":"true","iiifUrl":"https://purl.stanford.edu/nj863df6145/iiif/manifest"},"geometry":{"bbox":[121,23.333333142857143,122,23.999999857142857],"type":"Polygon","coordinates":[[[121,23.333333142857143],[121,23.999999857142857],[122,23.999999857142857],[122,23.333333142857143],[121,23.333333142857143]]]}},{"type":"Feature","properties":{"Id":0,"Sheet_ID":"3741. 臺中","label":"3741. 臺中","call_short":"G7910 S200 .J3","call_num":"G7910 S200 .J3 1932 3741","recid":"gm669dm1154","websiteUrl":"https://purl.stanford.edu/gm669dm1154","title":"二十万分一帝國圖 [台湾]","ckey":12714734,"web_map":"","available":"true","iiifUrl":"https://purl.stanford.edu/gm669dm1154/iiif/manifest"},"geometry":{"bbox":[119.99999999999999,23.999999857142857,121,24.66666657142857],"type":"Polygon","coordinates":[[[119.99999999999999,23.999999857142857],[119.99999999999999,24.66666657142857],[121,24.66666657142857],[121,23.999999857142857],[119.99999999999999,23.999999857142857]]]}},{"type":"Feature","properties":{"Id":0,"Sheet_ID":"3641. 蘇澳","label":"3641. 蘇澳","call_short":"G7910 S200 .J3","call_num":"G7910 S200 .J3 1932 3641","recid":"ct392mn5372","websiteUrl":"https://purl.stanford.edu/ct392mn5372","title":"二十万分一帝國圖 [台湾]","ckey":12714734,"web_map":"","available":"true","iiifUrl":"https://purl.stanford.edu/ct392mn5372/iiif/manifest"},"geometry":{"bbox":[121,23.999999857142857,122,24.66666657142857],"type":"Polygon","coordinates":[[[121,23.999999857142857],[121,24.66666657142857],[122,24.66666657142857],[122,23.999999857142857],[121,23.999999857142857]]]}},{"type":"Feature","properties":{"Id":0,"Sheet_ID":"3740. 新竹","label":"3740. 新竹","call_short":"G7910 S200 .J3","call_num":"G7910 S200 .J3 1932 3740","recid":"md499qy1267","websiteUrl":"https://purl.stanford.edu/md499qy1267","title":"二十万分一帝國圖 [台湾]","ckey":12714734,"web_map":"","available":"true","iiifUrl":"https://purl.stanford.edu/md499qy1267/iiif/manifest"},"geometry":{"bbox":[119.99999999999999,24.66666657142857,121,25.333333285714286],"type":"Polygon","coordinates":[[[119.99999999999999,24.66666657142857],[119.99999999999999,25.333333285714286],[121,25.333333285714286],[121,24.66666657142857],[119.99999999999999,24.66666657142857]]]}},{"type":"Feature","properties":{"Id":0,"Sheet_ID":"3640. 臺北","label":"3640. 臺北","call_short":"G7910 S200 .J3","call_num":"G7910 S200 .J3 1932 3640","recid":"yx509tr5558","websiteUrl":"https://purl.stanford.edu/yx509tr5558","title":"二十万分一帝國圖 [台湾]","ckey":12714734,"web_map":"","available":"true","iiifUrl":"https://purl.stanford.edu/yx509tr5558/iiif/manifest"},"geometry":{"bbox":[121,24.66666657142857,122,25.333333285714286],"type":"Polygon","coordinates":[[[121,24.66666657142857],[121,25.333333285714286],[122,25.333333285714286],[122,24.66666657142857],[121,24.66666657142857]]]}},{"type":"Feature","properties":{"Id":0,"Sheet_ID":"3539. 彭佳嶼","label":"3539. 彭佳嶼","call_short":"G7910 S200 .J3","call_num":"G7910 S200 .J3 1932 3539","recid":"kx286fj3400","websiteUrl":"https://purl.stanford.edu/kx286fj3400","title":"二十万分一帝國圖 [台湾]","ckey":12714734,"web_map":"","available":"true","iiifUrl":"https://purl.stanford.edu/kx286fj3400/iiif/manifest"},"geometry":{"bbox":[122,25.333333285714286,123.00000000000001,26],"type":"Polygon","coordinates":[[[122,25.333333285714286],[122,26],[123.00000000000001,26],[123.00000000000001,25.333333285714286],[122,25.333333285714286]]]}}],"name":"index_12714734"}
