{
"type": "FeatureCollection",
"name": "index_map",
"xy_coordinate_resolution": 1e-07,
"features": [
{ "type": "Feature", "properties": { "Id": 0, "Sheet_ID": "15. 網戸屯", "label": "15. 網戸屯", "call_short": "G7823 .X617 1923 .J3", "call_num": "G7823 .X617 1923 .J3 SHEET 15", "recid": "vq265nb9528", "websiteUrl": "https://purl.stanford.edu/vq265nb9528", "title": "二万五千分一圖新民縣近傍", "ckey": 12124174, "available": true, "iiifUrl": "https://purl.stanford.edu/vq265nb9528/iiif/manifest" }, "geometry": { "type": "Polygon", "coordinates": [ [ [ 122.7, 41.783333 ], [ 122.85, 41.783333 ], [ 122.85, 41.858333 ], [ 122.7, 41.858333 ], [ 122.7, 41.783333 ] ] ] } },
{ "type": "Feature", "properties": { "Id": 0, "Sheet_ID": "11. 大民屯", "label": "11. 大民屯", "call_short": "G7823 .X617 1923 .J3", "call_num": "G7823 .X617 1923 .J3 SHEET 11", "recid": "gg050cr0948", "websiteUrl": "https://purl.stanford.edu/gg050cr0948", "title": "二万五千分一圖新民縣近傍", "ckey": 12124174, "available": true, "iiifUrl": "https://purl.stanford.edu/gg050cr0948/iiif/manifest" }, "geometry": { "type": "Polygon", "coordinates": [ [ [ 122.85, 41.783333 ], [ 123.0, 41.783333 ], [ 123.0, 41.858333 ], [ 122.85, 41.858333 ], [ 122.85, 41.783333 ] ] ] } },
{ "type": "Feature", "properties": { "Id": 0, "Sheet_ID": "14. 趙家屯", "label": "14. 趙家屯", "call_short": "G7823 .X617 1923 .J3", "call_num": "G7823 .X617 1923 .J3 SHEET 14", "recid": "kd158dv3103", "websiteUrl": "https://purl.stanford.edu/kd158dv3103", "title": "二万五千分一圖新民縣近傍", "ckey": 12124174, "available": true, "iiifUrl": "https://purl.stanford.edu/kd158dv3103/iiif/manifest" }, "geometry": { "type": "Polygon", "coordinates": [ [ [ 122.7, 41.858333 ], [ 122.85, 41.858333 ], [ 122.85, 41.933333 ], [ 122.7, 41.933333 ], [ 122.7, 41.858333 ] ] ] } },
{ "type": "Feature", "properties": { "Id": 0, "Sheet_ID": "10. 一半台", "label": "10. 一半台", "call_short": "G7823 .X617 1923 .J3", "call_num": "G7823 .X617 1923 .J3 SHEET 10", "recid": "ch484pt4911", "websiteUrl": "https://purl.stanford.edu/ch484pt4911", "title": "二万五千分一圖新民縣近傍", "ckey": 12124174, "available": true, "iiifUrl": "https://purl.stanford.edu/ch484pt4911/iiif/manifest" }, "geometry": { "type": "Polygon", "coordinates": [ [ [ 122.85, 41.858333 ], [ 123.0, 41.858333 ], [ 123.0, 41.933333 ], [ 122.85, 41.933333 ], [ 122.85, 41.858333 ] ] ] } },
{ "type": "Feature", "properties": { "Id": 0, "Sheet_ID": "13. 新民縣", "label": "13. 新民縣", "call_short": "G7823 .X617 1923 .J3", "call_num": "G7823 .X617 1923 .J3 SHEET 13", "recid": "bg902wn1033", "websiteUrl": "https://purl.stanford.edu/bg902wn1033", "title": "二万五千分一圖新民縣近傍", "ckey": 12124174, "available": true, "iiifUrl": "https://purl.stanford.edu/bg902wn1033/iiif/manifest" }, "geometry": { "type": "Polygon", "coordinates": [ [ [ 122.7, 41.933333 ], [ 122.85, 41.933333 ], [ 122.85, 42.008333 ], [ 122.7, 42.008333 ], [ 122.7, 41.933333 ] ] ] } },
{ "type": "Feature", "properties": { "Id": 0, "Sheet_ID": "9. 敖多牛彔", "label": "9. 敖多牛彔", "call_short": "G7823 .X617 1923 .J3", "call_num": "G7823 .X617 1923 .J3 SHEET 9", "recid": "fw006fg3132", "websiteUrl": "https://purl.stanford.edu/fw006fg3132", "title": "二万五千分一圖新民縣近傍", "ckey": 12124174, "available": true, "iiifUrl": "https://purl.stanford.edu/fw006fg3132/iiif/manifest" }, "geometry": { "type": "Polygon", "coordinates": [ [ [ 122.85, 41.933333 ], [ 123.0, 41.933333 ], [ 123.0, 42.008333 ], [ 122.85, 42.008333 ], [ 122.85, 41.933333 ] ] ] } },
{ "type": "Feature", "properties": { "Id": 0, "Sheet_ID": "6. 五十家子", "label": "6. 五十家子", "call_short": "G7823 .X617 1923 .J3", "call_num": "G7823 .X617 1923 .J3 SHEET 6", "recid": "hz427vq4751", "websiteUrl": "https://purl.stanford.edu/hz427vq4751", "title": "二万五千分一圖新民縣近傍", "ckey": 12124174, "available": true, "iiifUrl": "https://purl.stanford.edu/hz427vq4751/iiif/manifest" }, "geometry": { "type": "Polygon", "coordinates": [ [ [ 123.0, 41.933333 ], [ 123.15, 41.933333 ], [ 123.15, 42.008333 ], [ 123.0, 42.008333 ], [ 123.0, 41.933333 ] ] ] } },
{ "type": "Feature", "properties": { "Id": 0, "Sheet_ID": "12. 西高台子", "label": "12. 西高台子", "call_short": "G7823 .X617 1923 .J3", "call_num": "G7823 .X617 1923 .J3 SHEET 12", "recid": "dt032fn3333", "websiteUrl": "https://purl.stanford.edu/dt032fn3333", "title": "二万五千分一圖新民縣近傍", "ckey": 12124174, "available": true, "iiifUrl": "https://purl.stanford.edu/dt032fn3333/iiif/manifest" }, "geometry": { "type": "Polygon", "coordinates": [ [ [ 122.7, 42.008333 ], [ 122.85, 42.008333 ], [ 122.85, 42.083333 ], [ 122.7, 42.083333 ], [ 122.7, 42.008333 ] ] ] } },
{ "type": "Feature", "properties": { "Id": 0, "Sheet_ID": "8. 巨流河", "label": "8. 巨流河", "call_short": "G7823 .X617 1923 .J3", "call_num": "G7823 .X617 1923 .J3 SHEET 8", "recid": "mq155ht5371", "websiteUrl": "https://purl.stanford.edu/mq155ht5371", "title": "二万五千分一圖新民縣近傍", "ckey": 12124174, "available": true, "iiifUrl": "https://purl.stanford.edu/mq155ht5371/iiif/manifest" }, "geometry": { "type": "Polygon", "coordinates": [ [ [ 122.85, 42.008333 ], [ 123.0, 42.008333 ], [ 123.0, 42.083333 ], [ 122.85, 42.083333 ], [ 122.85, 42.008333 ] ] ] } },
{ "type": "Feature", "properties": { "Id": 0, "Sheet_ID": "5. 孤家子", "label": "5. 孤家子", "call_short": "G7823 .X617 1923 .J3", "call_num": "G7823 .X617 1923 .J3 SHEET 5", "recid": "bn044fk6818", "websiteUrl": "https://purl.stanford.edu/bn044fk6818", "title": "二万五千分一圖新民縣近傍", "ckey": 12124174, "available": true, "iiifUrl": "https://purl.stanford.edu/bn044fk6818/iiif/manifest" }, "geometry": { "type": "Polygon", "coordinates": [ [ [ 123.0, 42.008333 ], [ 123.15, 42.008333 ], [ 123.15, 42.083333 ], [ 123.0, 42.083333 ], [ 123.0, 42.008333 ] ] ] } },
{ "type": "Feature", "properties": { "Id": 0, "Sheet_ID": "2. 平安堡", "label": "2. 平安堡", "call_short": "G7823 .X617 1923 .J3", "call_num": "G7823 .X617 1923 .J3 SHEET 2", "recid": "xg072km0547", "websiteUrl": "https://purl.stanford.edu/xg072km0547", "title": "二万五千分一圖新民縣近傍", "ckey": 12124174, "available": true, "iiifUrl": "https://purl.stanford.edu/xg072km0547/iiif/manifest" }, "geometry": { "type": "Polygon", "coordinates": [ [ [ 123.15, 42.008333 ], [ 123.3, 42.008333 ], [ 123.3, 42.083333 ], [ 123.15, 42.083333 ], [ 123.15, 42.008333 ] ] ] } },
{ "type": "Feature", "properties": { "Id": 0, "Sheet_ID": "7. 黄家山", "label": "7. 黄家山", "call_short": "G7823 .X617 1923 .J3", "call_num": "G7823 .X617 1923 .J3 SHEET 7", "recid": "bt775pw9117", "websiteUrl": "https://purl.stanford.edu/bt775pw9117", "title": "二万五千分一圖新民縣近傍", "ckey": 12124174, "available": true, "iiifUrl": "https://purl.stanford.edu/bt775pw9117/iiif/manifest" }, "geometry": { "type": "Polygon", "coordinates": [ [ [ 122.85, 42.083333 ], [ 123.0, 42.083333 ], [ 123.0, 42.158333 ], [ 122.85, 42.158333 ], [ 122.85, 42.083333 ] ] ] } },
{ "type": "Feature", "properties": { "Id": 0, "Sheet_ID": "4. 遼濱塔", "label": "4. 遼濱塔", "call_short": "G7823 .X617 1923 .J3", "call_num": "G7823 .X617 1923 .J3 SHEET 4", "recid": "hx209rr1051", "websiteUrl": "https://purl.stanford.edu/hx209rr1051", "title": "二万五千分一圖新民縣近傍", "ckey": 12124174, "available": true, "iiifUrl": "https://purl.stanford.edu/hx209rr1051/iiif/manifest" }, "geometry": { "type": "Polygon", "coordinates": [ [ [ 123.0, 42.083333 ], [ 123.15, 42.083333 ], [ 123.15, 42.158333 ], [ 123.0, 42.158333 ], [ 123.0, 42.083333 ] ] ] } },
{ "type": "Feature", "properties": { "Id": 0, "Sheet_ID": "1. 小房身", "label": "1. 小房身", "call_short": "G7823 .X617 1923 .J3", "call_num": "G7823 .X617 1923 .J3 SHEET 1", "recid": "bv655py4101", "websiteUrl": "https://purl.stanford.edu/bv655py4101", "title": "二万五千分一圖新民縣近傍", "ckey": 12124174, "available": true, "iiifUrl": "https://purl.stanford.edu/bv655py4101/iiif/manifest" }, "geometry": { "type": "Polygon", "coordinates": [ [ [ 123.15, 42.083333 ], [ 123.3, 42.083333 ], [ 123.3, 42.158333 ], [ 123.15, 42.158333 ], [ 123.15, 42.083333 ] ] ] } },
{ "type": "Feature", "properties": { "Id": 0, "Sheet_ID": "3. 公主屯", "label": "3. 公主屯", "call_short": "G7823 .X617 1923 .J3", "call_num": "G7823 .X617 1923 .J3 SHEET 3", "recid": "rx333rn4323", "websiteUrl": "https://purl.stanford.edu/rx333rn4323", "title": "二万五千分一圖新民縣近傍", "ckey": 12124174, "available": true, "iiifUrl": "https://purl.stanford.edu/rx333rn4323/iiif/manifest" }, "geometry": { "type": "Polygon", "coordinates": [ [ [ 123.0, 42.158333 ], [ 123.15, 42.158333 ], [ 123.15, 42.233333 ], [ 123.0, 42.233333 ], [ 123.0, 42.158333 ] ] ] } }
]
}
