{
"type": "FeatureCollection",
"name": "index_map",
"xy_coordinate_resolution": 1e-07,
"features": [
{ "type": "Feature", "properties": { "Id": 0, "Sheet_ID": "交通略圖 / INSET", "label": "交通略圖 / INSET", "call_short": "G7904 .P987 1934 .K6", "call_num": "G7904 .P987 1934 .K6 NORTH", "recid": "ws322bv7348", "websiteUrl": "https://purl.stanford.edu/ws322bv7348", "title": "一萬分一地形圖 釜山", "ckey": 11349573, "available": true, "iiifUrl": "https://purl.stanford.edu/ws322bv7348/iiif/manifest" }, "geometry": { "type": "Polygon", "coordinates": [ [ [ 126.6, 34.55 ], [ 129.6, 34.55 ], [ 129.6, 36.483333 ], [ 126.6, 36.483333 ], [ 126.6, 34.55 ] ] ] } },
{ "type": "Feature", "properties": { "Id": 0, "Sheet_ID": "南部 / SOUTH", "label": "南部 / SOUTH", "call_short": "G7904 .P987 1934 .K6", "call_num": "G7904 .P987 1934 .K6 SOUTH", "recid": "sr417vx5336", "websiteUrl": "https://purl.stanford.edu/sr417vx5336", "title": "一萬分一地形圖 釜山", "ckey": 11349573, "available": true, "iiifUrl": "https://purl.stanford.edu/sr417vx5336/iiif/manifest" }, "geometry": { "type": "Polygon", "coordinates": [ [ [ 128.985556, 35.072222 ], [ 129.085556, 35.072222 ], [ 129.085556, 35.122222 ], [ 128.985556, 35.122222 ], [ 128.985556, 35.072222 ] ] ] } },
{ "type": "Feature", "properties": { "Id": 0, "Sheet_ID": "北部 / NORTH", "label": "北部 / NORTH", "call_short": "G7904 .P987 1934 .K6", "call_num": "G7904 .P987 1934 .K6 NORTH", "recid": "ws322bv7348", "websiteUrl": "https://purl.stanford.edu/ws322bv7348", "title": "一萬分一地形圖 釜山", "ckey": 11349573, "available": true, "iiifUrl": "https://purl.stanford.edu/ws322bv7348/iiif/manifest" }, "geometry": { "type": "Polygon", "coordinates": [ [ [ 128.985556, 35.122222 ], [ 129.085556, 35.122222 ], [ 129.085556, 35.172222 ], [ 128.985556, 35.172222 ], [ 128.985556, 35.122222 ] ] ] } }
]
}
