{
"type": "FeatureCollection",
"name": "index_map",
"xy_coordinate_resolution": 1e-07,
"features": [
{ "type": "Feature", "properties": { "Id": 0, "Sheet_ID": "1. 統營", "label": "1. 統營", "call_short": "G7904 .C8 1919 .K6", "call_num": "G7904 .C8 1919 .K6 SHEET 1", "recid": "wg282cz1566", "websiteUrl": "https://purl.stanford.edu/wg282cz1566", "title": "一万分一地形圖 鎭海灣要塞 統營近傍", "ckey": 10786230, "available": true, "iiifUrl": "https://purl.stanford.edu/wg282cz1566/iiif/manifest" }, "geometry": { "type": "Polygon", "coordinates": [ [ [ 128.402778, 34.806389 ], [ 128.444444, 34.806389 ], [ 128.444444, 34.85 ], [ 128.402778, 34.85 ], [ 128.402778, 34.806389 ] ] ] } }
]
}
