{
"type": "FeatureCollection",
"name": "index_map",
"xy_coordinate_resolution": 1e-07,
"features": [
{ "type": "Feature", "properties": { "Id": 0, "Sheet_ID": "沿海州地方 1", "label": "沿海州地方 1", "call_short": "G7271 .P6 S1000 .J3", "call_num": "G7271 .P6 S1000 .J3 SHEET A-1", "recid": "xg460yh5821", "websiteUrl": "https://purl.stanford.edu/xg460yh5821", "title": "百万分一航空圖 沿海州地方", "ckey": 10563570, "available": true, "iiifUrl": "https://purl.stanford.edu/xg460yh5821/iiif/manifest" }, "geometry": { "type": "Polygon", "coordinates": [ [ [ 135.0, 48.25 ], [ 139.416667, 47.416667 ], [ 143.75, 54.5 ], [ 138.75, 55.5 ], [ 135.0, 48.25 ] ] ] } },
{ "type": "Feature", "properties": { "Id": 0, "Sheet_ID": "沿海州地方 2", "label": "沿海州地方 2", "call_short": "G7271 .P6 S1000 .J3", "call_num": "G7271 .P6 S1000 .J3 SHEET A-2", "recid": "vt600mc9703", "websiteUrl": "https://purl.stanford.edu/vt600mc9703", "title": "百万分一航空圖 沿海州地方", "ckey": 10563570, "available": true, "iiifUrl": "https://purl.stanford.edu/vt600mc9703/iiif/manifest" }, "geometry": { "type": "Polygon", "coordinates": [ [ [ 135.0, 48.25 ], [ 132.416667, 40.916667 ], [ 136.333333, 40.166667 ], [ 139.416667, 47.416667 ], [ 135.0, 48.25 ] ] ] } },
{ "type": "Feature", "properties": { "Id": 0, "Sheet_ID": "満洲 1", "label": "満洲 1", "call_short": "G7271 .P6 S1000 .J3", "call_num": "G7271 .P6 S1000 .J3 SHEET B-1", "recid": "cq619vr6256", "websiteUrl": "https://purl.stanford.edu/cq619vr6256", "title": "百万分一航空圖 満洲", "ckey": 10563570, "available": true, "iiifUrl": "https://purl.stanford.edu/cq619vr6256/iiif/manifest" }, "geometry": { "type": "Polygon", "coordinates": [ [ [ 126.833333, 54.083333 ], [ 125.0, 46.5 ], [ 133.833333, 45.333333 ], [ 137.0, 52.583333 ], [ 126.833333, 54.083333 ] ] ] } },
{ "type": "Feature", "properties": { "Id": 0, "Sheet_ID": "満洲 2", "label": "満洲 2", "call_short": "G7271 .P6 S1000 .J3", "call_num": "G7271 .P6 S1000 .J3 SHEET B-2", "recid": "jz005sg8499", "websiteUrl": "https://purl.stanford.edu/jz005sg8499", "title": "百万分一航空圖 満洲", "ckey": 10563570, "available": true, "iiifUrl": "https://purl.stanford.edu/jz005sg8499/iiif/manifest" }, "geometry": { "type": "Polygon", "coordinates": [ [ [ 123.5, 38.416667 ], [ 131.333333, 37.333333 ], [ 133.833333, 45.333333 ], [ 125.0, 46.5 ], [ 123.5, 38.416667 ] ] ] } },
{ "type": "Feature", "properties": { "Id": 0, "Sheet_ID": "満洲 3", "label": "満洲 3", "call_short": "G7271 .P6 S1000 .J3", "call_num": "G7271 .P6 S1000 .J3 SHEET B-3", "recid": "kf669fs0987", "websiteUrl": "https://purl.stanford.edu/kf669fs0987", "title": "百万分一航空圖 満洲", "ckey": 10563570, "available": true, "iiifUrl": "https://purl.stanford.edu/kf669fs0987/iiif/manifest" }, "geometry": { "type": "Polygon", "coordinates": [ [ [ 126.833333, 54.083333 ], [ 116.083333, 54.666667 ], [ 115.833333, 47.083333 ], [ 125.0, 46.5 ], [ 126.833333, 54.083333 ] ] ] } },
{ "type": "Feature", "properties": { "Id": 0, "Sheet_ID": "満洲 4 ED.2", "label": "満洲 4 ED.2", "call_short": "G7271 .P6 S1000 .J3", "call_num": "G7271 .P6 S1000 .J3 SHEET B-4 ED.2", "recid": "dd439xq8476", "websiteUrl": "https://purl.stanford.edu/dd439xq8476", "title": "百万分一航空圖 満洲", "ckey": 10563570, "available": true, "iiifUrl": "https://purl.stanford.edu/dd439xq8476/iiif/manifest" }, "geometry": { "type": "Polygon", "coordinates": [ [ [ 123.5, 38.416667 ], [ 125.0, 46.5 ], [ 115.833333, 47.083333 ], [ 115.5, 38.916667 ], [ 123.5, 38.416667 ] ] ] } },
{ "type": "Feature", "properties": { "Id": 0, "Sheet_ID": "満洲 3 ED.2", "label": "満洲 3 ED.2", "call_short": "G7271 .P6 S1000 .J3", "call_num": "G7271 .P6 S1000 .J3 SHEET B-3 ED.2", "recid": "vj598vb0765", "websiteUrl": "https://purl.stanford.edu/vj598vb0765", "title": "百万分一航空圖 満洲", "ckey": 10563570, "available": true, "iiifUrl": "https://purl.stanford.edu/vj598vb0765/iiif/manifest" }, "geometry": { "type": "Polygon", "coordinates": [ [ [ 126.833333, 54.083333 ], [ 116.083333, 54.666667 ], [ 115.833333, 47.083333 ], [ 125.0, 46.5 ], [ 126.833333, 54.083333 ] ] ] } },
{ "type": "Feature", "properties": { "Id": 0, "Sheet_ID": "満洲 4", "label": "満洲 4", "call_short": "G7271 .P6 S1000 .J3", "call_num": "G7271 .P6 S1000 .J3 SHEET B-4", "recid": "bg386tx7155", "websiteUrl": "https://purl.stanford.edu/bg386tx7155", "title": "百万分一航空圖 満洲", "ckey": 10563570, "available": true, "iiifUrl": "https://purl.stanford.edu/bg386tx7155/iiif/manifest" }, "geometry": { "type": "Polygon", "coordinates": [ [ [ 123.5, 38.416667 ], [ 125.0, 46.5 ], [ 115.833333, 47.083333 ], [ 115.5, 38.916667 ], [ 123.5, 38.416667 ] ] ] } },
{ "type": "Feature", "properties": { "Id": 0, "Sheet_ID": "後貝加爾地方", "label": "後貝加爾地方", "call_short": "G7271 .P6 S1000 .J3", "call_num": "G7271 .P6 S1000 .J3 SHEET C", "recid": "fv736rh1435", "websiteUrl": "https://purl.stanford.edu/fv736rh1435", "title": "百万分一航空圖 後貝加爾地方", "ckey": 10563570, "available": true, "iiifUrl": "https://purl.stanford.edu/fv736rh1435/iiif/manifest" }, "geometry": { "type": "Polygon", "coordinates": [ [ [ 105.5, 54.416667 ], [ 106.833333, 46.833333 ], [ 115.833333, 47.083333 ], [ 116.083333, 54.666667 ], [ 105.5, 54.416667 ] ] ] } },
{ "type": "Feature", "properties": { "Id": 0, "Sheet_ID": "蒙古東部地方", "label": "蒙古東部地方", "call_short": "G7271 .P6 S1000 .J3", "call_num": "G7271 .P6 S1000 .J3 SHEET D", "recid": "zy887sw9885", "websiteUrl": "https://purl.stanford.edu/zy887sw9885", "title": "百万分一航空圖 蒙古東部地方", "ckey": 10563570, "available": true, "iiifUrl": "https://purl.stanford.edu/zy887sw9885/iiif/manifest" }, "geometry": { "type": "Polygon", "coordinates": [ [ [ 107.583333, 38.833333 ], [ 115.5, 38.916667 ], [ 115.833333, 47.083333 ], [ 106.833333, 46.833333 ], [ 107.583333, 38.833333 ] ] ] } }
]
}
