{
"type": "FeatureCollection",
"name": "index_map",
"xy_coordinate_resolution": 1e-07,
"features": [
{ "type": "Feature", "properties": { "Id": 0, "Sheet_ID": "50. オビ河下流", "label": "50. オビ河下流", "call_short": "0", "call_num": "0", "recid": "0", "websiteUrl": "0", "title": "0", "ckey": 0, "available": false, "iiifUrl": "0" }, "geometry": { "type": "Polygon", "coordinates": [ [ [ 60.0, 60.333333 ], [ 90.0, 60.333333 ], [ 90.0, 70.0 ], [ 60.0, 70.0 ], [ 60.0, 60.333333 ] ] ] } },
{ "type": "Feature", "properties": { "Id": 0, "Sheet_ID": "航空圖 43. ニジニャヤトゥングスカ河上流", "label": "航空圖 43. ニジニャヤトゥングスカ河上流", "call_short": "G9231 .P6 S3000 .J3", "call_num": "G9231 .P6 S3000 .J3 SHEET43A", "recid": "fj381hf3052", "websiteUrl": "https://purl.stanford.edu/fj381hf3052", "title": "三百万分一汎太平洋輿地圖", "ckey": 12376543, "available": true, "iiifUrl": "https://purl.stanford.edu/fj381hf3052/iiif/manifest" }, "geometry": { "type": "Polygon", "coordinates": [ [ [ 90.0, 60.333333 ], [ 120.0, 60.333333 ], [ 120.0, 70.0 ], [ 90.0, 70.0 ], [ 90.0, 60.333333 ] ] ] } },
{ "type": "Feature", "properties": { "Id": 0, "Sheet_ID": "航空圖 36. ヤクーツク - ヴェルホヤンスク", "label": "航空圖 36. ヤクーツク - ヴェルホヤンスク", "call_short": "G9231 .P6 S3000 .J3", "call_num": "G9231 .P6 S3000 .J3 SHEET36A", "recid": "ps190rh2061", "websiteUrl": "https://purl.stanford.edu/ps190rh2061", "title": "三百万分一汎太平洋輿地圖", "ckey": 12376543, "available": true, "iiifUrl": "https://purl.stanford.edu/ps190rh2061/iiif/manifest" }, "geometry": { "type": "Polygon", "coordinates": [ [ [ 120.0, 60.333333 ], [ 150.0, 60.333333 ], [ 150.0, 70.0 ], [ 120.0, 70.0 ], [ 120.0, 60.333333 ] ] ] } },
{ "type": "Feature", "properties": { "Id": 0, "Sheet_ID": "29. アナドィリ - ニジネ・コルィムスク - ギジガ", "label": "29. アナドィリ - ニジネ・コルィムスク - ギジガ", "call_short": "G9231 .P6 S3000 .J3", "call_num": "G9231 .P6 S3000 .J3 SHEET29", "recid": "mz485vf2527", "websiteUrl": "https://purl.stanford.edu/mz485vf2527", "title": "三百万分一汎太平洋輿地圖", "ckey": 12376543, "available": true, "iiifUrl": "https://purl.stanford.edu/mz485vf2527/iiif/manifest" }, "geometry": { "type": "Polygon", "coordinates": [ [ [ 150.0, 60.333333 ], [ 180.0, 60.333333 ], [ 180.0, 70.0 ], [ 150.0, 70.0 ], [ 150.0, 60.333333 ] ] ] } },
{ "type": "Feature", "properties": { "Id": 0, "Sheet_ID": "22. フェヤバンクス - ノーム", "label": "22. フェヤバンクス - ノーム", "call_short": "G9231 .P6 S3000 .J3", "call_num": "G9231 .P6 S3000 .J3 SHEET22", "recid": "cr387ys6723", "websiteUrl": "https://purl.stanford.edu/cr387ys6723", "title": "三百万分一汎太平洋輿地圖", "ckey": 12376543, "available": true, "iiifUrl": "https://purl.stanford.edu/cr387ys6723/iiif/manifest" }, "geometry": { "type": "Polygon", "coordinates": [ [ [ -180.0, 60.333333 ], [ -150.0, 60.333333 ], [ -150.0, 70.0 ], [ -180.0, 70.0 ], [ -180.0, 60.333333 ] ] ] } },
{ "type": "Feature", "properties": { "Id": 0, "Sheet_ID": "15. ホワイトホース - フェヤバンクス", "label": "15. ホワイトホース - フェヤバンクス", "call_short": "G9231 .P6 S3000 .J3", "call_num": "G9231 .P6 S3000 .J3 SHEET15", "recid": "cy282ts2354", "websiteUrl": "https://purl.stanford.edu/cy282ts2354", "title": "三百万分一汎太平洋輿地圖", "ckey": 12376543, "available": true, "iiifUrl": "https://purl.stanford.edu/cy282ts2354/iiif/manifest" }, "geometry": { "type": "Polygon", "coordinates": [ [ [ -150.0, 60.333333 ], [ -120.0, 60.333333 ], [ -120.0, 70.0 ], [ -150.0, 70.0 ], [ -150.0, 60.333333 ] ] ] } },
{ "type": "Feature", "properties": { "Id": 0, "Sheet_ID": "51. ノヴォシビルクス - オムスク - スヴェルドロフスク", "label": "51. ノヴォシビルクス - オムスク - スヴェルドロフスク", "call_short": "0", "call_num": "0", "recid": "0", "websiteUrl": "0", "title": "0", "ckey": 0, "available": false, "iiifUrl": "0" }, "geometry": { "type": "Polygon", "coordinates": [ [ [ 60.0, 47.333333 ], [ 90.0, 47.333333 ], [ 90.0, 60.333333 ], [ 60.0, 60.333333 ], [ 60.0, 47.333333 ] ] ] } },
{ "type": "Feature", "properties": { "Id": 0, "Sheet_ID": "44. 満洲里 - イルクーツク - クラスノヤルスク", "label": "44. 満洲里 - イルクーツク - クラスノヤルスク", "call_short": "0", "call_num": "0", "recid": "0", "websiteUrl": "0", "title": "0", "ckey": 0, "available": false, "iiifUrl": "0" }, "geometry": { "type": "Polygon", "coordinates": [ [ [ 90.0, 47.333333 ], [ 120.0, 47.333333 ], [ 120.0, 60.333333 ], [ 90.0, 60.333333 ], [ 90.0, 47.333333 ] ] ] } },
{ "type": "Feature", "properties": { "Id": 0, "Sheet_ID": "37. 敷香 - ハバロフスク - 黒河", "label": "37. 敷香 - ハバロフスク - 黒河", "call_short": "G9231 .P6 S3000 .J3", "call_num": "G9231 .P6 S3000 .J3 SHEET37", "recid": "ys872md0858", "websiteUrl": "https://purl.stanford.edu/ys872md0858", "title": "三百万分一汎太平洋輿地圖", "ckey": 12376543, "available": true, "iiifUrl": "https://purl.stanford.edu/ys872md0858/iiif/manifest" }, "geometry": { "type": "Polygon", "coordinates": [ [ [ 120.0, 47.333333 ], [ 150.0, 47.333333 ], [ 150.0, 60.333333 ], [ 120.0, 60.333333 ], [ 120.0, 47.333333 ] ] ] } },
{ "type": "Feature", "properties": { "Id": 0, "Sheet_ID": "30. 勘察加半島 - アリウシヤン列島西部", "label": "30. 勘察加半島 - アリウシヤン列島西部", "call_short": "G9231 .P6 S3000 .J3", "call_num": "G9231 .P6 S3000 .J3 SHEET30", "recid": "tq366sz4979", "websiteUrl": "https://purl.stanford.edu/tq366sz4979", "title": "三百万分一汎太平洋輿地圖", "ckey": 12376543, "available": true, "iiifUrl": "https://purl.stanford.edu/tq366sz4979/iiif/manifest" }, "geometry": { "type": "Polygon", "coordinates": [ [ [ 150.0, 47.333333 ], [ 180.0, 47.333333 ], [ 180.0, 60.333333 ], [ 150.0, 60.333333 ], [ 150.0, 47.333333 ] ] ] } },
{ "type": "Feature", "properties": { "Id": 0, "Sheet_ID": "23. アンカレッヂ - ダッチハーバー", "label": "23. アンカレッヂ - ダッチハーバー", "call_short": "G9231 .P6 S3000 .J3", "call_num": "G9231 .P6 S3000 .J3 SHEET23", "recid": "dr894ms6148", "websiteUrl": "https://purl.stanford.edu/dr894ms6148", "title": "三百万分一汎太平洋輿地圖", "ckey": 12376543, "available": true, "iiifUrl": "https://purl.stanford.edu/dr894ms6148/iiif/manifest" }, "geometry": { "type": "Polygon", "coordinates": [ [ [ -180.0, 47.333333 ], [ -150.0, 47.333333 ], [ -150.0, 60.333333 ], [ -180.0, 60.333333 ], [ -180.0, 47.333333 ] ] ] } },
{ "type": "Feature", "properties": { "Id": 0, "Sheet_ID": "16. ジュノー - シヤトル", "label": "16. ジュノー - シヤトル", "call_short": "G9231 .P6 S3000 .J3", "call_num": "G9231 .P6 S3000 .J3 SHEET16", "recid": "bf931sv5832", "websiteUrl": "https://purl.stanford.edu/bf931sv5832", "title": "三百万分一汎太平洋輿地圖", "ckey": 12376543, "available": true, "iiifUrl": "https://purl.stanford.edu/bf931sv5832/iiif/manifest" }, "geometry": { "type": "Polygon", "coordinates": [ [ [ -150.0, 47.333333 ], [ -120.0, 47.333333 ], [ -120.0, 60.333333 ], [ -150.0, 60.333333 ], [ -150.0, 47.333333 ] ] ] } },
{ "type": "Feature", "properties": { "Id": 0, "Sheet_ID": "52. 烏魯木齊 - 喀什噶爾 - カブール", "label": "52. 烏魯木齊 - 喀什噶爾 - カブール", "call_short": "0", "call_num": "0", "recid": "0", "websiteUrl": "0", "title": "0", "ckey": 0, "available": false, "iiifUrl": "0" }, "geometry": { "type": "Polygon", "coordinates": [ [ [ 60.0, 30.5 ], [ 90.0, 30.5 ], [ 90.0, 47.333333 ], [ 60.0, 47.333333 ], [ 60.0, 30.5 ] ] ] } },
{ "type": "Feature", "properties": { "Id": 0, "Sheet_ID": "航空圖 45. 北京 - 蘭州 - 西安", "label": "航空圖 45. 北京 - 蘭州 - 西安", "call_short": "G9231 .P6 S3000 .J3", "call_num": "G9231 .P6 S3000 .J3 SHEET45A", "recid": "qf821mt8799", "websiteUrl": "https://purl.stanford.edu/qf821mt8799", "title": "三百万分一汎太平洋輿地圖", "ckey": 12376543, "available": true, "iiifUrl": "https://purl.stanford.edu/qf821mt8799/iiif/manifest" }, "geometry": { "type": "Polygon", "coordinates": [ [ [ 90.0, 30.5 ], [ 120.0, 30.5 ], [ 120.0, 47.333333 ], [ 90.0, 47.333333 ], [ 90.0, 30.5 ] ] ] } },
{ "type": "Feature", "properties": { "Id": 0, "Sheet_ID": "38. 日本 - 満州南部", "label": "38. 日本 - 満州南部", "call_short": "G9231 .P6 S3000 .J3", "call_num": "G9231 .P6 S3000 .J3 SHEET38", "recid": "mq697rt2748", "websiteUrl": "https://purl.stanford.edu/mq697rt2748", "title": "三百万分一汎太平洋輿地圖", "ckey": 12376543, "available": true, "iiifUrl": "https://purl.stanford.edu/mq697rt2748/iiif/manifest" }, "geometry": { "type": "Polygon", "coordinates": [ [ [ 120.0, 30.5 ], [ 150.0, 30.5 ], [ 150.0, 47.333333 ], [ 120.0, 47.333333 ], [ 120.0, 30.5 ] ] ] } },
{ "type": "Feature", "properties": { "Id": 0, "Sheet_ID": "航空圖 53. カルカッタ - デリー - ボンベイ - カラチ", "label": "航空圖 53. カルカッタ - デリー - ボンベイ - カラチ", "call_short": "G9231 .P6 S3000 .J3", "call_num": "G9231 .P6 S3000 .J3 SHEET53A", "recid": "qz430kb3624", "websiteUrl": "https://purl.stanford.edu/qz430kb3624", "title": "三百万分一汎太平洋輿地圖", "ckey": 12376543, "available": true, "iiifUrl": "https://purl.stanford.edu/qz430kb3624/iiif/manifest" }, "geometry": { "type": "Polygon", "coordinates": [ [ [ 60.0, 10.0 ], [ 90.0, 10.0 ], [ 90.0, 30.5 ], [ 60.0, 30.5 ], [ 60.0, 10.0 ] ] ] } },
{ "type": "Feature", "properties": { "Id": 0, "Sheet_ID": "46. 香港 - バンコク - マンダレー", "label": "46. 香港 - バンコク - マンダレー", "call_short": "G9231 .P6 S3000 .J3", "call_num": "G9231 .P6 S3000 .J3 SHEET46", "recid": "vb090yr1672", "websiteUrl": "https://purl.stanford.edu/vb090yr1672", "title": "三百万分一汎太平洋輿地圖", "ckey": 12376543, "available": true, "iiifUrl": "https://purl.stanford.edu/vb090yr1672/iiif/manifest" }, "geometry": { "type": "Polygon", "coordinates": [ [ [ 90.0, 10.0 ], [ 120.0, 10.0 ], [ 120.0, 30.5 ], [ 90.0, 30.5 ], [ 90.0, 10.0 ] ] ] } },
{ "type": "Feature", "properties": { "Id": 0, "Sheet_ID": "39. 小笠原 - 呂宗島", "label": "39. 小笠原 - 呂宗島", "call_short": "G9231 .P6 S3000 .J3", "call_num": "G9231 .P6 S3000 .J3 SHEET39", "recid": "gk789jy3868", "websiteUrl": "https://purl.stanford.edu/gk789jy3868", "title": "三百万分一汎太平洋輿地圖", "ckey": 12376543, "available": true, "iiifUrl": "https://purl.stanford.edu/gk789jy3868/iiif/manifest" }, "geometry": { "type": "Polygon", "coordinates": [ [ [ 120.0, 10.0 ], [ 150.0, 10.0 ], [ 150.0, 30.5 ], [ 120.0, 30.5 ], [ 120.0, 10.0 ] ] ] } },
{ "type": "Feature", "properties": { "Id": 0, "Sheet_ID": "32. ミッドウェー諸島 - マーシャル諸島", "label": "32. ミッドウェー諸島 - マーシャル諸島", "call_short": "G9231 .P6 S3000 .J3", "call_num": "G9231 .P6 S3000 .J3 SHEET32", "recid": "sn643zd1541", "websiteUrl": "https://purl.stanford.edu/sn643zd1541", "title": "三百万分一汎太平洋輿地圖", "ckey": 12376543, "available": true, "iiifUrl": "https://purl.stanford.edu/sn643zd1541/iiif/manifest" }, "geometry": { "type": "Polygon", "coordinates": [ [ [ 150.0, 10.0 ], [ 180.0, 10.0 ], [ 180.0, 30.5 ], [ 150.0, 30.5 ], [ 150.0, 10.0 ] ] ] } },
{ "type": "Feature", "properties": { "Id": 0, "Sheet_ID": "25. ハワ諸島 - ミッドウェー諸島", "label": "25. ハワ諸島 - ミッドウェー諸島", "call_short": "G9231 .P6 S3000 .J3", "call_num": "G9231 .P6 S3000 .J3 SHEET25", "recid": "vt415kh6432", "websiteUrl": "https://purl.stanford.edu/vt415kh6432", "title": "三百万分一汎太平洋輿地圖", "ckey": 12376543, "available": true, "iiifUrl": "https://purl.stanford.edu/vt415kh6432/iiif/manifest" }, "geometry": { "type": "Polygon", "coordinates": [ [ [ -180.0, 10.0 ], [ -150.0, 10.0 ], [ -150.0, 30.5 ], [ -180.0, 30.5 ], [ -180.0, 10.0 ] ] ] } },
{ "type": "Feature", "properties": { "Id": 0, "Sheet_ID": "航空圖 54. セイロン島", "label": "航空圖 54. セイロン島", "call_short": "G9231 .P6 S3000 .J3", "call_num": "G9231 .P6 S3000 .J3 SHEET54A", "recid": "bp634ky8163", "websiteUrl": "https://purl.stanford.edu/bp634ky8163", "title": "三百万分一汎太平洋輿地圖", "ckey": 12376543, "available": true, "iiifUrl": "https://purl.stanford.edu/bp634ky8163/iiif/manifest" }, "geometry": { "type": "Polygon", "coordinates": [ [ [ 60.0, -11.5 ], [ 90.0, -11.5 ], [ 90.0, 10.0 ], [ 60.0, 10.0 ], [ 60.0, -11.5 ] ] ] } },
{ "type": "Feature", "properties": { "Id": 0, "Sheet_ID": "47. 昭南 - ジャカルタ", "label": "47. 昭南 - ジャカルタ", "call_short": "G9231 .P6 S3000 .J3", "call_num": "G9231 .P6 S3000 .J3 SHEET47", "recid": "fv898dr1152", "websiteUrl": "https://purl.stanford.edu/fv898dr1152", "title": "三百万分一汎太平洋輿地圖", "ckey": 12376543, "available": true, "iiifUrl": "https://purl.stanford.edu/fv898dr1152/iiif/manifest" }, "geometry": { "type": "Polygon", "coordinates": [ [ [ 90.0, -11.5 ], [ 120.0, -11.5 ], [ 120.0, 10.0 ], [ 90.0, 10.0 ], [ 90.0, -11.5 ] ] ] } },
{ "type": "Feature", "properties": { "Id": 0, "Sheet_ID": "航空圖 40. ミンダナオ - パプア", "label": "航空圖 40. ミンダナオ - パプア", "call_short": "G9231 .P6 S3000 .J3", "call_num": "G9231 .P6 S3000 .J3 SHEET40A", "recid": "wb718py8649", "websiteUrl": "https://purl.stanford.edu/wb718py8649", "title": "三百万分一汎太平洋輿地圖", "ckey": 12376543, "available": true, "iiifUrl": "https://purl.stanford.edu/wb718py8649/iiif/manifest" }, "geometry": { "type": "Polygon", "coordinates": [ [ [ 120.0, -11.5 ], [ 150.0, -11.5 ], [ 150.0, 10.0 ], [ 120.0, 10.0 ], [ 120.0, -11.5 ] ] ] } },
{ "type": "Feature", "properties": { "Id": 0, "Sheet_ID": "33. ソロモン諸島 - ギルバート諸島", "label": "33. ソロモン諸島 - ギルバート諸島", "call_short": "G9231 .P6 S3000 .J3", "call_num": "G9231 .P6 S3000 .J3 SHEET33", "recid": "cp431nb6422", "websiteUrl": "https://purl.stanford.edu/cp431nb6422", "title": "三百万分一汎太平洋輿地圖", "ckey": 12376543, "available": true, "iiifUrl": "https://purl.stanford.edu/cp431nb6422/iiif/manifest" }, "geometry": { "type": "Polygon", "coordinates": [ [ [ 150.0, -11.5 ], [ 180.0, -11.5 ], [ 180.0, 10.0 ], [ 150.0, 10.0 ], [ 150.0, -11.5 ] ] ] } },
{ "type": "Feature", "properties": { "Id": 0, "Sheet_ID": "26. フィーニックス諸島 - クリスマス島", "label": "26. フィーニックス諸島 - クリスマス島", "call_short": "G9231 .P6 S3000 .J3", "call_num": "G9231 .P6 S3000 .J3 SHEET26", "recid": "wb252rq3158", "websiteUrl": "https://purl.stanford.edu/wb252rq3158", "title": "三百万分一汎太平洋輿地圖", "ckey": 12376543, "available": true, "iiifUrl": "https://purl.stanford.edu/wb252rq3158/iiif/manifest" }, "geometry": { "type": "Polygon", "coordinates": [ [ [ -180.0, -11.5 ], [ -150.0, -11.5 ], [ -150.0, 10.0 ], [ -180.0, 10.0 ], [ -180.0, -11.5 ] ] ] } },
{ "type": "Feature", "properties": { "Id": 0, "Sheet_ID": "航空圖 48. 濠洲西部", "label": "航空圖 48. 濠洲西部", "call_short": "G9231 .P6 S3000 .J3", "call_num": "G9231 .P6 S3000 .J3 SHEET48A", "recid": "wz603gb1792", "websiteUrl": "https://purl.stanford.edu/wz603gb1792", "title": "三百万分一汎太平洋輿地圖", "ckey": 12376543, "available": true, "iiifUrl": "https://purl.stanford.edu/wz603gb1792/iiif/manifest" }, "geometry": { "type": "Polygon", "coordinates": [ [ [ 90.0, -32.5 ], [ 120.0, -32.5 ], [ 120.0, -11.5 ], [ 90.0, -11.5 ], [ 90.0, -32.5 ] ] ] } },
{ "type": "Feature", "properties": { "Id": 0, "Sheet_ID": "41. オーストラリア北部及中央部", "label": "41. オーストラリア北部及中央部", "call_short": "G9231 .P6 S3000 .J3", "call_num": "G9231 .P6 S3000 .J3 SHEET41", "recid": "nz454hr0874", "websiteUrl": "https://purl.stanford.edu/nz454hr0874", "title": "三百万分一汎太平洋輿地圖", "ckey": 12376543, "available": true, "iiifUrl": "https://purl.stanford.edu/nz454hr0874/iiif/manifest" }, "geometry": { "type": "Polygon", "coordinates": [ [ [ 120.0, -32.5 ], [ 150.0, -32.5 ], [ 150.0, -11.5 ], [ 120.0, -11.5 ], [ 120.0, -32.5 ] ] ] } },
{ "type": "Feature", "properties": { "Id": 0, "Sheet_ID": "航空圖 34. フィヂー諸島 - ブリスベーン (濠洲東岸)", "label": "航空圖 34. フィヂー諸島 - ブリスベーン (濠洲東岸)", "call_short": "G9231 .P6 S3000 .J3", "call_num": "G9231 .P6 S3000 .J3 SHEET34A", "recid": "by688tt1449", "websiteUrl": "https://purl.stanford.edu/by688tt1449", "title": "三百万分一汎太平洋輿地圖", "ckey": 12376543, "available": true, "iiifUrl": "https://purl.stanford.edu/by688tt1449/iiif/manifest" }, "geometry": { "type": "Polygon", "coordinates": [ [ [ 150.0, -32.5 ], [ 180.0, -32.5 ], [ 180.0, -11.5 ], [ 150.0, -11.5 ], [ 150.0, -32.5 ] ] ] } },
{ "type": "Feature", "properties": { "Id": 0, "Sheet_ID": "27. ソサイエティー諸島 - サモア及トンガ諸島", "label": "27. ソサイエティー諸島 - サモア及トンガ諸島", "call_short": "G9231 .P6 S3000 .J3", "call_num": "G9231 .P6 S3000 .J3 SHEET27", "recid": "ws063ff6057", "websiteUrl": "https://purl.stanford.edu/ws063ff6057", "title": "三百万分一汎太平洋輿地圖", "ckey": 12376543, "available": true, "iiifUrl": "https://purl.stanford.edu/ws063ff6057/iiif/manifest" }, "geometry": { "type": "Polygon", "coordinates": [ [ [ -180.0, -32.5 ], [ -150.0, -32.5 ], [ -150.0, -11.5 ], [ -180.0, -11.5 ], [ -180.0, -32.5 ] ] ] } },
{ "type": "Feature", "properties": { "Id": 0, "Sheet_ID": "49. アルバニー", "label": "49. アルバニー", "call_short": "0", "call_num": "0", "recid": "0", "websiteUrl": "0", "title": "0", "ckey": 0, "available": false, "iiifUrl": "0" }, "geometry": { "type": "Polygon", "coordinates": [ [ [ 90.0, -49.333333 ], [ 120.0, -49.333333 ], [ 120.0, -32.5 ], [ 90.0, -32.5 ], [ 90.0, -49.333333 ] ] ] } },
{ "type": "Feature", "properties": { "Id": 0, "Sheet_ID": "42. アデレード - メルボルン - ホバート", "label": "42. アデレード - メルボルン - ホバート", "call_short": "0", "call_num": "0", "recid": "0", "websiteUrl": "0", "title": "0", "ckey": 0, "available": false, "iiifUrl": "0" }, "geometry": { "type": "Polygon", "coordinates": [ [ [ 120.0, -49.333333 ], [ 150.0, -49.333333 ], [ 150.0, -32.5 ], [ 120.0, -32.5 ], [ 120.0, -49.333333 ] ] ] } },
{ "type": "Feature", "properties": { "Id": 0, "Sheet_ID": "35. ニュージーランド - シドニー", "label": "35. ニュージーランド - シドニー", "call_short": "0", "call_num": "0", "recid": "0", "websiteUrl": "0", "title": "0", "ckey": 0, "available": false, "iiifUrl": "0" }, "geometry": { "type": "Polygon", "coordinates": [ [ [ 150.0, -49.333333 ], [ 180.0, -49.333333 ], [ 180.0, -32.5 ], [ 150.0, -32.5 ], [ 150.0, -49.333333 ] ] ] } },
{ "type": "Feature", "properties": { "Id": 0, "Sheet_ID": "航空圖 40_Detail. パラオ - 西カロリン諸島", "label": "航空圖 40_Detail. パラオ - 西カロリン諸島", "call_short": "0", "call_num": "0", "recid": "0", "websiteUrl": "0", "title": "0", "ckey": 0, "available": false, "iiifUrl": "0" }, "geometry": { "type": "Polygon", "coordinates": [ [ [ 133.0, -0.75 ], [ 150.0, -0.75 ], [ 150.0, 10.0 ], [ 133.0, 10.0 ], [ 133.0, -0.75 ] ] ] } },
{ "type": "Feature", "properties": { "Id": 0, "Sheet_ID": "航空圖 15. ホワイトホース - フェヤバンクス", "label": "航空圖 15. ホワイトホース - フェヤバンクス", "call_short": "G9231 .P6 S3000 .J3", "call_num": "G9231 .P6 S3000 .J3 SHEET15A", "recid": "qf614kp0684", "websiteUrl": "https://purl.stanford.edu/qf614kp0684", "title": "三百万分一汎太平洋輿地圖", "ckey": 12376543, "available": true, "iiifUrl": "https://purl.stanford.edu/qf614kp0684/iiif/manifest" }, "geometry": { "type": "Polygon", "coordinates": [ [ [ -150.0, 60.333333 ], [ -120.0, 60.333333 ], [ -120.0, 70.0 ], [ -150.0, 70.0 ], [ -150.0, 60.333333 ] ] ] } },
{ "type": "Feature", "properties": { "Id": 0, "Sheet_ID": "航空圖 27. ソサイエティー諸島 - サモア及トンガ諸島", "label": "航空圖 27. ソサイエティー諸島 - サモア及トンガ諸島", "call_short": "G9231 .P6 S3000 .J3", "call_num": "G9231 .P6 S3000 .J3 SHEET27A", "recid": "jt418jy8294", "websiteUrl": "https://purl.stanford.edu/jt418jy8294", "title": "三百万分一汎太平洋輿地圖", "ckey": 12376543, "available": true, "iiifUrl": "https://purl.stanford.edu/jt418jy8294/iiif/manifest" }, "geometry": { "type": "Polygon", "coordinates": [ [ [ -180.0, -32.5 ], [ -150.0, -32.5 ], [ -150.0, -11.5 ], [ -180.0, -11.5 ], [ -180.0, -32.5 ] ] ] } },
{ "type": "Feature", "properties": { "Id": 0, "Sheet_ID": "航空圖 15. ED.2 ホワイトホース - フェヤバンクス", "label": "航空圖 15. ED.2 ホワイトホース - フェヤバンクス", "call_short": "G9231 .P6 S3000 .J3", "call_num": "G9231 .P6 S3000 .J3 SHEET15A ED.2", "recid": "cw758ff1238", "websiteUrl": "https://purl.stanford.edu/cw758ff1238", "title": "三百万分一汎太平洋輿地圖", "ckey": 12376543, "available": true, "iiifUrl": "https://purl.stanford.edu/cw758ff1238/iiif/manifest" }, "geometry": { "type": "Polygon", "coordinates": [ [ [ -150.0, 60.333333 ], [ -120.0, 60.333333 ], [ -120.0, 70.0 ], [ -150.0, 70.0 ], [ -150.0, 60.333333 ] ] ] } },
{ "type": "Feature", "properties": { "Id": 0, "Sheet_ID": "16. ED.2 ジュノー - シヤトル", "label": "16. ED.2 ジュノー - シヤトル", "call_short": "G9231 .P6 S3000 .J3", "call_num": "G9231 .P6 S3000 .J3 SHEET16 ED.2", "recid": "yw771ps9427", "websiteUrl": "https://purl.stanford.edu/yw771ps9427", "title": "三百万分一汎太平洋輿地圖", "ckey": 12376543, "available": true, "iiifUrl": "https://purl.stanford.edu/yw771ps9427/iiif/manifest" }, "geometry": { "type": "Polygon", "coordinates": [ [ [ -150.0, 47.333333 ], [ -120.0, 47.333333 ], [ -120.0, 60.333333 ], [ -150.0, 60.333333 ], [ -150.0, 47.333333 ] ] ] } },
{ "type": "Feature", "properties": { "Id": 0, "Sheet_ID": "航空圖 16. ジュノー - シヤトル", "label": "航空圖 16. ジュノー - シヤトル", "call_short": "G9231 .P6 S3000 .J3", "call_num": "G9231 .P6 S3000 .J3 SHEET16A", "recid": "cr252sx0390", "websiteUrl": "https://purl.stanford.edu/cr252sx0390", "title": "三百万分一汎太平洋輿地圖", "ckey": 12376543, "available": true, "iiifUrl": "https://purl.stanford.edu/cr252sx0390/iiif/manifest" }, "geometry": { "type": "Polygon", "coordinates": [ [ [ -150.0, 47.333333 ], [ -120.0, 47.333333 ], [ -120.0, 60.333333 ], [ -150.0, 60.333333 ], [ -150.0, 47.333333 ] ] ] } },
{ "type": "Feature", "properties": { "Id": 0, "Sheet_ID": "航空圖 22. フェヤバンクス - ノーム", "label": "航空圖 22. フェヤバンクス - ノーム", "call_short": "G9231 .P6 S3000 .J3", "call_num": "G9231 .P6 S3000 .J3 SHEET22A", "recid": "wf968gn2679", "websiteUrl": "https://purl.stanford.edu/wf968gn2679", "title": "三百万分一汎太平洋輿地圖", "ckey": 12376543, "available": true, "iiifUrl": "https://purl.stanford.edu/wf968gn2679/iiif/manifest" }, "geometry": { "type": "Polygon", "coordinates": [ [ [ -180.0, 60.333333 ], [ -150.0, 60.333333 ], [ -150.0, 70.0 ], [ -180.0, 70.0 ], [ -180.0, 60.333333 ] ] ] } },
{ "type": "Feature", "properties": { "Id": 0, "Sheet_ID": "航空圖 23. アンカレッヂ - ダッチハーバー", "label": "航空圖 23. アンカレッヂ - ダッチハーバー", "call_short": "G9231 .P6 S3000 .J3", "call_num": "G9231 .P6 S3000 .J3 SHEET23A", "recid": "by590nc6060", "websiteUrl": "https://purl.stanford.edu/by590nc6060", "title": "三百万分一汎太平洋輿地圖", "ckey": 12376543, "available": true, "iiifUrl": "https://purl.stanford.edu/by590nc6060/iiif/manifest" }, "geometry": { "type": "Polygon", "coordinates": [ [ [ -180.0, 47.333333 ], [ -150.0, 47.333333 ], [ -150.0, 60.333333 ], [ -180.0, 60.333333 ], [ -180.0, 47.333333 ] ] ] } },
{ "type": "Feature", "properties": { "Id": 0, "Sheet_ID": "25. ED.2 ハワ諸島 - ミッドウェー諸島", "label": "25. ED.2 ハワ諸島 - ミッドウェー諸島", "call_short": "G9231 .P6 S3000 .J3", "call_num": "G9231 .P6 S3000 .J3 SHEET25 ED.2", "recid": "xp890yv1644", "websiteUrl": "https://purl.stanford.edu/xp890yv1644", "title": "三百万分一汎太平洋輿地圖", "ckey": 12376543, "available": true, "iiifUrl": "https://purl.stanford.edu/xp890yv1644/iiif/manifest" }, "geometry": { "type": "Polygon", "coordinates": [ [ [ -180.0, 10.0 ], [ -150.0, 10.0 ], [ -150.0, 30.5 ], [ -180.0, 30.5 ], [ -180.0, 10.0 ] ] ] } },
{ "type": "Feature", "properties": { "Id": 0, "Sheet_ID": "航空圖 26. フィーニックス諸島 - クリスマス島", "label": "航空圖 26. フィーニックス諸島 - クリスマス島", "call_short": "G9231 .P6 S3000 .J3", "call_num": "G9231 .P6 S3000 .J3 SHEET26A", "recid": "kg029mq7044", "websiteUrl": "https://purl.stanford.edu/kg029mq7044", "title": "三百万分一汎太平洋輿地圖", "ckey": 12376543, "available": true, "iiifUrl": "https://purl.stanford.edu/kg029mq7044/iiif/manifest" }, "geometry": { "type": "Polygon", "coordinates": [ [ [ -180.0, -11.5 ], [ -150.0, -11.5 ], [ -150.0, 10.0 ], [ -180.0, 10.0 ], [ -180.0, -11.5 ] ] ] } },
{ "type": "Feature", "properties": { "Id": 0, "Sheet_ID": "航空圖 30. 勘察加半島 - アリューシャン列島西部", "label": "航空圖 30. 勘察加半島 - アリューシャン列島西部", "call_short": "G9231 .P6 S3000 .J3", "call_num": "G9231 .P6 S3000 .J3 SHEET30A", "recid": "zq475mj3494", "websiteUrl": "https://purl.stanford.edu/zq475mj3494", "title": "三百万分一汎太平洋輿地圖", "ckey": 12376543, "available": true, "iiifUrl": "https://purl.stanford.edu/zq475mj3494/iiif/manifest" }, "geometry": { "type": "Polygon", "coordinates": [ [ [ 150.0, 47.333333 ], [ 180.0, 47.333333 ], [ 180.0, 60.333333 ], [ 150.0, 60.333333 ], [ 150.0, 47.333333 ] ] ] } },
{ "type": "Feature", "properties": { "Id": 0, "Sheet_ID": "航空圖 32. ミッドウェー諸島 - マーシャル諸島", "label": "航空圖 32. ミッドウェー諸島 - マーシャル諸島", "call_short": "G9231 .P6 S3000 .J3", "call_num": "G9231 .P6 S3000 .J3 SHEET32A", "recid": "hx822mm5695", "websiteUrl": "https://purl.stanford.edu/hx822mm5695", "title": "三百万分一汎太平洋輿地圖", "ckey": 12376543, "available": true, "iiifUrl": "https://purl.stanford.edu/hx822mm5695/iiif/manifest" }, "geometry": { "type": "Polygon", "coordinates": [ [ [ 150.0, 10.0 ], [ 180.0, 10.0 ], [ 180.0, 30.5 ], [ 150.0, 30.5 ], [ 150.0, 10.0 ] ] ] } },
{ "type": "Feature", "properties": { "Id": 0, "Sheet_ID": "航空圖 33. ソロモン諸島 - ギルバート諸島", "label": "航空圖 33. ソロモン諸島 - ギルバート諸島", "call_short": "G9231 .P6 S3000 .J3", "call_num": "G9231 .P6 S3000 .J3 SHEET33A", "recid": "gw360bh6227", "websiteUrl": "https://purl.stanford.edu/gw360bh6227", "title": "三百万分一汎太平洋輿地圖", "ckey": 12376543, "available": true, "iiifUrl": "https://purl.stanford.edu/gw360bh6227/iiif/manifest" }, "geometry": { "type": "Polygon", "coordinates": [ [ [ 150.0, -11.5 ], [ 180.0, -11.5 ], [ 180.0, 10.0 ], [ 150.0, 10.0 ], [ 150.0, -11.5 ] ] ] } },
{ "type": "Feature", "properties": { "Id": 0, "Sheet_ID": "航空圖 37. 敷香 - ハバロフスク - 黒河", "label": "航空圖 37. 敷香 - ハバロフスク - 黒河", "call_short": "G9231 .P6 S3000 .J3", "call_num": "G9231 .P6 S3000 .J3 SHEET37A", "recid": "ys643jk0788", "websiteUrl": "https://purl.stanford.edu/ys643jk0788", "title": "三百万分一汎太平洋輿地圖", "ckey": 12376543, "available": true, "iiifUrl": "https://purl.stanford.edu/ys643jk0788/iiif/manifest" }, "geometry": { "type": "Polygon", "coordinates": [ [ [ 120.0, 47.333333 ], [ 150.0, 47.333333 ], [ 150.0, 60.333333 ], [ 120.0, 60.333333 ], [ 120.0, 47.333333 ] ] ] } },
{ "type": "Feature", "properties": { "Id": 0, "Sheet_ID": "航空圖 38. 日本 - 満州南部", "label": "航空圖 38. 日本 - 満州南部", "call_short": "G9231 .P6 S3000 .J3", "call_num": "G9231 .P6 S3000 .J3 SHEET38A", "recid": "ww311vq5041", "websiteUrl": "https://purl.stanford.edu/ww311vq5041", "title": "三百万分一汎太平洋輿地圖", "ckey": 12376543, "available": true, "iiifUrl": "https://purl.stanford.edu/ww311vq5041/iiif/manifest" }, "geometry": { "type": "Polygon", "coordinates": [ [ [ 120.0, 30.5 ], [ 150.0, 30.5 ], [ 150.0, 47.333333 ], [ 120.0, 47.333333 ], [ 120.0, 30.5 ] ] ] } },
{ "type": "Feature", "properties": { "Id": 0, "Sheet_ID": "航空圖 38_Detail. 東京", "label": "航空圖 38_Detail. 東京", "call_short": "G9231 .P6 S3000 .J3", "call_num": "G9231 .P6 S3000 .J3 SHEET38A-D", "recid": "gw838dr2129", "websiteUrl": "https://purl.stanford.edu/gw838dr2129", "title": "三百万分一汎太平洋輿地圖", "ckey": 12376543, "available": true, "iiifUrl": "https://purl.stanford.edu/gw838dr2129/iiif/manifest" }, "geometry": { "type": "Polygon", "coordinates": [ [ [ 135.0, 30.5 ], [ 150.0, 30.5 ], [ 150.0, 37.0 ], [ 135.0, 37.0 ], [ 135.0, 30.5 ] ] ] } },
{ "type": "Feature", "properties": { "Id": 0, "Sheet_ID": "航空圖 39. 小笠原 - 呂宗島", "label": "航空圖 39. 小笠原 - 呂宗島", "call_short": "G9231 .P6 S3000 .J3", "call_num": "G9231 .P6 S3000 .J3 SHEET39A", "recid": "cv099gj1184", "websiteUrl": "https://purl.stanford.edu/cv099gj1184", "title": "三百万分一汎太平洋輿地圖", "ckey": 12376543, "available": true, "iiifUrl": "https://purl.stanford.edu/cv099gj1184/iiif/manifest" }, "geometry": { "type": "Polygon", "coordinates": [ [ [ 120.0, 10.0 ], [ 150.0, 10.0 ], [ 150.0, 30.5 ], [ 120.0, 30.5 ], [ 120.0, 10.0 ] ] ] } },
{ "type": "Feature", "properties": { "Id": 0, "Sheet_ID": "航空圖 39_Detail. 小笠原 - マリアナ諸島", "label": "航空圖 39_Detail. 小笠原 - マリアナ諸島", "call_short": "G9231 .P6 S3000 .J3", "call_num": "G9231 .P6 S3000 .J3 SHEET39A-D", "recid": "dz190ry9201", "websiteUrl": "https://purl.stanford.edu/dz190ry9201", "title": "三百万分一汎太平洋輿地圖", "ckey": 12376543, "available": true, "iiifUrl": "https://purl.stanford.edu/dz190ry9201/iiif/manifest" }, "geometry": { "type": "Polygon", "coordinates": [ [ [ 133.0, 10.0 ], [ 150.0, 10.0 ], [ 150.0, 30.5 ], [ 133.0, 30.5 ], [ 133.0, 10.0 ] ] ] } },
{ "type": "Feature", "properties": { "Id": 0, "Sheet_ID": "航空圖 41. オーストラリア北部及中央部", "label": "航空圖 41. オーストラリア北部及中央部", "call_short": "G9231 .P6 S3000 .J3", "call_num": "G9231 .P6 S3000 .J3 SHEET41A", "recid": "cb198tr6969", "websiteUrl": "https://purl.stanford.edu/cb198tr6969", "title": "三百万分一汎太平洋輿地圖", "ckey": 12376543, "available": true, "iiifUrl": "https://purl.stanford.edu/cb198tr6969/iiif/manifest" }, "geometry": { "type": "Polygon", "coordinates": [ [ [ 120.0, -32.5 ], [ 150.0, -32.5 ], [ 150.0, -11.5 ], [ 120.0, -11.5 ], [ 120.0, -32.5 ] ] ] } },
{ "type": "Feature", "properties": { "Id": 0, "Sheet_ID": "航空圖 46. 香港 - バンコク - マンダレー", "label": "航空圖 46. 香港 - バンコク - マンダレー", "call_short": "G9231 .P6 S3000 .J3", "call_num": "G9231 .P6 S3000 .J3 SHEET46A", "recid": "fv772yx6438", "websiteUrl": "https://purl.stanford.edu/fv772yx6438", "title": "三百万分一汎太平洋輿地圖", "ckey": 12376543, "available": true, "iiifUrl": "https://purl.stanford.edu/fv772yx6438/iiif/manifest" }, "geometry": { "type": "Polygon", "coordinates": [ [ [ 90.0, 10.0 ], [ 120.0, 10.0 ], [ 120.0, 30.5 ], [ 90.0, 30.5 ], [ 90.0, 10.0 ] ] ] } },
{ "type": "Feature", "properties": { "Id": 0, "Sheet_ID": "航空圖 47. 昭南 - ジャカルタ", "label": "航空圖 47. 昭南 - ジャカルタ", "call_short": "G9231 .P6 S3000 .J3", "call_num": "G9231 .P6 S3000 .J3 SHEET47A", "recid": "jm714bz7447", "websiteUrl": "https://purl.stanford.edu/jm714bz7447", "title": "三百万分一汎太平洋輿地圖", "ckey": 12376543, "available": true, "iiifUrl": "https://purl.stanford.edu/jm714bz7447/iiif/manifest" }, "geometry": { "type": "Polygon", "coordinates": [ [ [ 90.0, -11.5 ], [ 120.0, -11.5 ], [ 120.0, 10.0 ], [ 90.0, 10.0 ], [ 90.0, -11.5 ] ] ] } },
{ "type": "Feature", "properties": { "Id": 0, "Sheet_ID": "航空圖 25. ハワ諸島 - ミッドウェー諸島", "label": "航空圖 25. ハワ諸島 - ミッドウェー諸島", "call_short": "G9231 .P6 S3000 .J3", "call_num": "G9231 .P6 S3000 .J3 SHEET25A", "recid": "gb670rh9138", "websiteUrl": "https://purl.stanford.edu/gb670rh9138", "title": "三百万分一汎太平洋輿地圖", "ckey": 12376543, "available": true, "iiifUrl": "https://purl.stanford.edu/gb670rh9138/iiif/manifest" }, "geometry": { "type": "Polygon", "coordinates": [ [ [ -180.0, 10.0 ], [ -150.0, 10.0 ], [ -150.0, 30.5 ], [ -180.0, 30.5 ], [ -180.0, 10.0 ] ] ] } },
{ "type": "Feature", "properties": { "Id": 0, "Sheet_ID": "航空圖 27. ED.2 ソサイエティー諸島 - サモア及トンガ諸島", "label": "航空圖 27. ED.2 ソサイエティー諸島 - サモア及トンガ諸島", "call_short": "G9231 .P6 S3000 .J3", "call_num": "G9231 .P6 S3000 .J3 SHEET27A ED.2", "recid": "wr981gw4599", "websiteUrl": "https://purl.stanford.edu/wr981gw4599", "title": "三百万分一汎太平洋輿地圖", "ckey": 12376543, "available": true, "iiifUrl": "https://purl.stanford.edu/wr981gw4599/iiif/manifest" }, "geometry": { "type": "Polygon", "coordinates": [ [ [ -180.0, -32.5 ], [ -150.0, -32.5 ], [ -150.0, -11.5 ], [ -180.0, -11.5 ], [ -180.0, -32.5 ] ] ] } }
]
}
