{"type":"FeatureCollection","features":[{"type":"Feature","properties":{"Id":0,"Sheet_ID":"SHEET 49","label":"SHEET 49","call_short":"G7330 S25 .J31","call_num":"G7330 S25 .J31 SHEET 49","recid":"st909kh7480","websiteUrl":"https://purl.stanford.edu/st909kh7480","title":"二万五千分一地形圖 樺太北部","ckey":12124291,"web_map":"","available":"true","iiiUrl":"https://purl.stanford.edu/st909kh7480/iiif/manifest"},"geometry":{"bbox":[142.12500000000003,49.833333,142.25,49.916666500000005],"type":"Polygon","coordinates":[[[142.12500000000003,49.833333],[142.12500000000003,49.916666500000005],[142.25,49.916666500000005],[142.25,49.833333],[142.12500000000003,49.833333]]]}},{"type":"Feature","properties":{"Id":0,"Sheet_ID":"SHEET 46","label":"SHEET 46","call_short":"G7330 S25 .J31","call_num":"G7330 S25 .J31 SHEET 46","recid":"hs102ds1490","websiteUrl":"https://purl.stanford.edu/hs102ds1490","title":"二万五千分一地形圖 樺太北部","ckey":12124291,"web_map":"","available":"true","iiiUrl":"https://purl.stanford.edu/hs102ds1490/iiif/manifest"},"geometry":{"bbox":[142.25,49.833333,142.375,49.916666500000005],"type":"Polygon","coordinates":[[[142.25,49.833333],[142.25,49.916666500000005],[142.375,49.916666500000005],[142.375,49.833333],[142.25,49.833333]]]}},{"type":"Feature","properties":{"Id":0,"Sheet_ID":"SHEET 43","label":"SHEET 43","call_short":"G7330 S25 .J31","call_num":"G7330 S25 .J31 SHEET 43","recid":"ww063dj6359","websiteUrl":"https://purl.stanford.edu/ww063dj6359","title":"二万五千分一地形圖 樺太北部","ckey":12124291,"web_map":"","available":"true","iiiUrl":"https://purl.stanford.edu/ww063dj6359/iiif/manifest"},"geometry":{"bbox":[142.375,49.833333,142.5,49.916666500000005],"type":"Polygon","coordinates":[[[142.375,49.833333],[142.375,49.916666500000005],[142.5,49.916666500000005],[142.5,49.833333],[142.375,49.833333]]]}},{"type":"Feature","properties":{"Id":0,"Sheet_ID":"SHEET 40","label":"SHEET 40","call_short":"G7330 S25 .J31","call_num":"G7330 S25 .J31 SHEET 40","recid":"mh417ph3904","websiteUrl":"https://purl.stanford.edu/mh417ph3904","title":"二万五千分一地形圖 樺太北部","ckey":12124291,"web_map":"","available":"true","iiiUrl":"https://purl.stanford.edu/mh417ph3904/iiif/manifest"},"geometry":{"bbox":[142.5,49.833333,142.625,49.916666500000005],"type":"Polygon","coordinates":[[[142.5,49.833333],[142.5,49.916666500000005],[142.625,49.916666500000005],[142.625,49.833333],[142.5,49.833333]]]}},{"type":"Feature","properties":{"Id":0,"Sheet_ID":"SHEET 37","label":"SHEET 37","call_short":"G7330 S25 .J31","call_num":"G7330 S25 .J31 SHEET 37","recid":"kj857ch5137","websiteUrl":"https://purl.stanford.edu/kj857ch5137","title":"二万五千分一地形圖 樺太北部","ckey":12124291,"web_map":"","available":"true","iiiUrl":"https://purl.stanford.edu/kj857ch5137/iiif/manifest"},"geometry":{"bbox":[142.625,49.833333,142.75,49.916666500000005],"type":"Polygon","coordinates":[[[142.625,49.833333],[142.625,49.916666500000005],[142.75,49.916666500000005],[142.75,49.833333],[142.625,49.833333]]]}},{"type":"Feature","properties":{"Id":0,"Sheet_ID":"SHEET 33","label":"SHEET 33","call_short":"","call_num":"","recid":"","websiteUrl":"","title":"","ckey":0,"web_map":"","available":"false","iiiUrl":""},"geometry":{"bbox":[142.75,49.833333,142.875,49.916666500000005],"type":"Polygon","coordinates":[[[142.75,49.833333],[142.75,49.916666500000005],[142.875,49.916666500000005],[142.875,49.833333],[142.75,49.833333]]]}},{"type":"Feature","properties":{"Id":0,"Sheet_ID":"SHEET 29","label":"SHEET 29","call_short":"G7330 S25 .J31","call_num":"G7330 S25 .J31 SHEET 29","recid":"ss688xc5983","websiteUrl":"https://purl.stanford.edu/ss688xc5983","title":"二万五千分一地形圖 樺太北部","ckey":12124291,"web_map":"","available":"true","iiiUrl":"https://purl.stanford.edu/ss688xc5983/iiif/manifest"},"geometry":{"bbox":[142.875,49.833333,143,49.916666500000005],"type":"Polygon","coordinates":[[[142.875,49.833333],[142.875,49.916666500000005],[143,49.916666500000005],[143,49.833333],[142.875,49.833333]]]}},{"type":"Feature","properties":{"Id":0,"Sheet_ID":"SHEET 26","label":"SHEET 26","call_short":"G7330 S25 .J31","call_num":"G7330 S25 .J31 SHEET 26","recid":"zs718zm2202","websiteUrl":"https://purl.stanford.edu/zs718zm2202","title":"二万五千分一地形圖 樺太北部","ckey":12124291,"web_map":"","available":"true","iiiUrl":"https://purl.stanford.edu/zs718zm2202/iiif/manifest"},"geometry":{"bbox":[143,49.833333,143.125,49.916666500000005],"type":"Polygon","coordinates":[[[143,49.833333],[143,49.916666500000005],[143.125,49.916666500000005],[143.125,49.833333],[143,49.833333]]]}},{"type":"Feature","properties":{"Id":0,"Sheet_ID":"SHEET 23","label":"SHEET 23","call_short":"G7330 S25 .J31","call_num":"G7330 S25 .J31 SHEET 23","recid":"gg754jw6309","websiteUrl":"https://purl.stanford.edu/gg754jw6309","title":"二万五千分一地形圖 樺太北部","ckey":12124291,"web_map":"","available":"true","iiiUrl":"https://purl.stanford.edu/gg754jw6309/iiif/manifest"},"geometry":{"bbox":[143.125,49.833333,143.25,49.916666500000005],"type":"Polygon","coordinates":[[[143.125,49.833333],[143.125,49.916666500000005],[143.25,49.916666500000005],[143.25,49.833333],[143.125,49.833333]]]}},{"type":"Feature","properties":{"Id":0,"Sheet_ID":"SHEET 20","label":"SHEET 20","call_short":"G7330 S25 .J31","call_num":"G7330 S25 .J31 SHEET 20","recid":"fc215cr9546","websiteUrl":"https://purl.stanford.edu/fc215cr9546","title":"二万五千分一地形圖 樺太北部","ckey":12124291,"web_map":"","available":"true","iiiUrl":"https://purl.stanford.edu/fc215cr9546/iiif/manifest"},"geometry":{"bbox":[143.25,49.833333,143.375,49.916666500000005],"type":"Polygon","coordinates":[[[143.25,49.833333],[143.25,49.916666500000005],[143.375,49.916666500000005],[143.375,49.833333],[143.25,49.833333]]]}},{"type":"Feature","properties":{"Id":0,"Sheet_ID":"SHEET 17","label":"SHEET 17","call_short":"G7330 S25 .J31","call_num":"G7330 S25 .J31 SHEET 17","recid":"dp475ht8976","websiteUrl":"https://purl.stanford.edu/dp475ht8976","title":"二万五千分一地形圖 樺太北部","ckey":12124291,"web_map":"","available":"true","iiiUrl":"https://purl.stanford.edu/dp475ht8976/iiif/manifest"},"geometry":{"bbox":[143.375,49.833333,143.5,49.916666500000005],"type":"Polygon","coordinates":[[[143.375,49.833333],[143.375,49.916666500000005],[143.5,49.916666500000005],[143.5,49.833333],[143.375,49.833333]]]}},{"type":"Feature","properties":{"Id":0,"Sheet_ID":"SHEET 14","label":"SHEET 14","call_short":"","call_num":"","recid":"","websiteUrl":"","title":"","ckey":0,"web_map":"","available":"false","iiiUrl":""},"geometry":{"bbox":[143.5,49.833333,143.625,49.916666500000005],"type":"Polygon","coordinates":[[[143.5,49.833333],[143.5,49.916666500000005],[143.625,49.916666500000005],[143.625,49.833333],[143.5,49.833333]]]}},{"type":"Feature","properties":{"Id":0,"Sheet_ID":"SHEET 11","label":"SHEET 11","call_short":"","call_num":"","recid":"","websiteUrl":"","title":"","ckey":0,"web_map":"","available":"false","iiiUrl":""},"geometry":{"bbox":[143.625,49.833333,143.75000000000003,49.916666500000005],"type":"Polygon","coordinates":[[[143.625,49.833333],[143.625,49.916666500000005],[143.75000000000003,49.916666500000005],[143.75000000000003,49.833333],[143.625,49.833333]]]}},{"type":"Feature","properties":{"Id":0,"Sheet_ID":"SHEET 8","label":"SHEET 8","call_short":"G7330 S25 .J31","call_num":"G7330 S25 .J31 SHEET 8","recid":"pv865th5157","websiteUrl":"https://purl.stanford.edu/pv865th5157","title":"二万五千分一地形圖 樺太北部","ckey":12124291,"web_map":"","available":"true","iiiUrl":"https://purl.stanford.edu/pv865th5157/iiif/manifest"},"geometry":{"bbox":[143.75000000000003,49.833333,143.875,49.916666500000005],"type":"Polygon","coordinates":[[[143.75000000000003,49.833333],[143.75000000000003,49.916666500000005],[143.875,49.916666500000005],[143.875,49.833333],[143.75000000000003,49.833333]]]}},{"type":"Feature","properties":{"Id":0,"Sheet_ID":"SHEET 5","label":"SHEET 5","call_short":"G7330 S25 .J31","call_num":"G7330 S25 .J31 SHEET 5","recid":"gz673rv3811","websiteUrl":"https://purl.stanford.edu/gz673rv3811","title":"二万五千分一地形圖 樺太北部","ckey":12124291,"web_map":"","available":"true","iiiUrl":"https://purl.stanford.edu/gz673rv3811/iiif/manifest"},"geometry":{"bbox":[143.875,49.833333,144,49.916666500000005],"type":"Polygon","coordinates":[[[143.875,49.833333],[143.875,49.916666500000005],[144,49.916666500000005],[144,49.833333],[143.875,49.833333]]]}},{"type":"Feature","properties":{"Id":0,"Sheet_ID":"SHEET 1","label":"SHEET 1","call_short":"G7330 S25 .J31","call_num":"G7330 S25 .J31 SHEET 1","recid":"sq797jw1209","websiteUrl":"https://purl.stanford.edu/sq797jw1209","title":"二万五千分一地形圖 樺太北部","ckey":12124291,"web_map":"","available":"true","iiiUrl":"https://purl.stanford.edu/sq797jw1209/iiif/manifest"},"geometry":{"bbox":[144,49.833333,144.125,49.916666500000005],"type":"Polygon","coordinates":[[[144,49.833333],[144,49.916666500000005],[144.125,49.916666500000005],[144.125,49.833333],[144,49.833333]]]}},{"type":"Feature","properties":{"Id":0,"Sheet_ID":"SHEET 48","label":"SHEET 48","call_short":"G7330 S25 .J31","call_num":"G7330 S25 .J31 SHEET 48","recid":"wr928zj6843","websiteUrl":"https://purl.stanford.edu/wr928zj6843","title":"二万五千分一地形圖 樺太北部","ckey":12124291,"web_map":"","available":"true","iiiUrl":"https://purl.stanford.edu/wr928zj6843/iiif/manifest"},"geometry":{"bbox":[142.12500000000003,49.916666500000005,142.25,50],"type":"Polygon","coordinates":[[[142.12500000000003,49.916666500000005],[142.12500000000003,50],[142.25,50],[142.25,49.916666500000005],[142.12500000000003,49.916666500000005]]]}},{"type":"Feature","properties":{"Id":0,"Sheet_ID":"SHEET 45","label":"SHEET 45","call_short":"G7330 S25 .J31","call_num":"G7330 S25 .J31 SHEET 45","recid":"ym403hj9580","websiteUrl":"https://purl.stanford.edu/ym403hj9580","title":"二万五千分一地形圖 樺太北部","ckey":12124291,"web_map":"","available":"true","iiiUrl":"https://purl.stanford.edu/ym403hj9580/iiif/manifest"},"geometry":{"bbox":[142.25,49.916666500000005,142.375,50],"type":"Polygon","coordinates":[[[142.25,49.916666500000005],[142.25,50],[142.375,50],[142.375,49.916666500000005],[142.25,49.916666500000005]]]}},{"type":"Feature","properties":{"Id":0,"Sheet_ID":"SHEET 42","label":"SHEET 42","call_short":"G7330 S25 .J31","call_num":"G7330 S25 .J31 SHEET 42","recid":"zs035mf7629","websiteUrl":"https://purl.stanford.edu/zs035mf7629","title":"二万五千分一地形圖 樺太北部","ckey":12124291,"web_map":"","available":"true","iiiUrl":"https://purl.stanford.edu/zs035mf7629/iiif/manifest"},"geometry":{"bbox":[142.375,49.916666500000005,142.5,50],"type":"Polygon","coordinates":[[[142.375,49.916666500000005],[142.375,50],[142.5,50],[142.5,49.916666500000005],[142.375,49.916666500000005]]]}},{"type":"Feature","properties":{"Id":0,"Sheet_ID":"SHEET 39","label":"SHEET 39","call_short":"G7330 S25 .J31","call_num":"G7330 S25 .J31 SHEET 39","recid":"mx602nz4489","websiteUrl":"https://purl.stanford.edu/mx602nz4489","title":"二万五千分一地形圖 樺太北部","ckey":12124291,"web_map":"","available":"true","iiiUrl":"https://purl.stanford.edu/mx602nz4489/iiif/manifest"},"geometry":{"bbox":[142.5,49.916666500000005,142.625,50],"type":"Polygon","coordinates":[[[142.5,49.916666500000005],[142.5,50],[142.625,50],[142.625,49.916666500000005],[142.5,49.916666500000005]]]}},{"type":"Feature","properties":{"Id":0,"Sheet_ID":"SHEET 36","label":"SHEET 36","call_short":"G7330 S25 .J31","call_num":"G7330 S25 .J31 SHEET 36","recid":"yd025fv3201","websiteUrl":"https://purl.stanford.edu/yd025fv3201","title":"二万五千分一地形圖 樺太北部","ckey":12124291,"web_map":"","available":"true","iiiUrl":"https://purl.stanford.edu/yd025fv3201/iiif/manifest"},"geometry":{"bbox":[142.625,49.916666500000005,142.75,50],"type":"Polygon","coordinates":[[[142.625,49.916666500000005],[142.625,50],[142.75,50],[142.75,49.916666500000005],[142.625,49.916666500000005]]]}},{"type":"Feature","properties":{"Id":0,"Sheet_ID":"SHEET 32","label":"SHEET 32","call_short":"G7330 S25 .J31","call_num":"G7330 S25 .J31 SHEET 32","recid":"pr630yf6486","websiteUrl":"https://purl.stanford.edu/pr630yf6486","title":"二万五千分一地形圖 樺太北部","ckey":12124291,"web_map":"","available":"true","iiiUrl":"https://purl.stanford.edu/pr630yf6486/iiif/manifest"},"geometry":{"bbox":[142.75,49.916666500000005,142.875,50],"type":"Polygon","coordinates":[[[142.75,49.916666500000005],[142.75,50],[142.875,50],[142.875,49.916666500000005],[142.75,49.916666500000005]]]}},{"type":"Feature","properties":{"Id":0,"Sheet_ID":"SHEET 28","label":"SHEET 28","call_short":"G7330 S25 .J31","call_num":"G7330 S25 .J31 SHEET 28","recid":"vt047gz8409","websiteUrl":"https://purl.stanford.edu/vt047gz8409","title":"二万五千分一地形圖 樺太北部","ckey":12124291,"web_map":"","available":"true","iiiUrl":"https://purl.stanford.edu/vt047gz8409/iiif/manifest"},"geometry":{"bbox":[142.875,49.916666500000005,143,50],"type":"Polygon","coordinates":[[[142.875,49.916666500000005],[142.875,50],[143,50],[143,49.916666500000005],[142.875,49.916666500000005]]]}},{"type":"Feature","properties":{"Id":0,"Sheet_ID":"SHEET 25","label":"SHEET 25","call_short":"","call_num":"","recid":"","websiteUrl":"","title":"","ckey":0,"web_map":"","available":"false","iiiUrl":""},"geometry":{"bbox":[143,49.916666500000005,143.125,50],"type":"Polygon","coordinates":[[[143,49.916666500000005],[143,50],[143.125,50],[143.125,49.916666500000005],[143,49.916666500000005]]]}},{"type":"Feature","properties":{"Id":0,"Sheet_ID":"SHEET 22","label":"SHEET 22","call_short":"G7330 S25 .J31","call_num":"G7330 S25 .J31 SHEET 22","recid":"rk977hf6508","websiteUrl":"https://purl.stanford.edu/rk977hf6508","title":"二万五千分一地形圖 樺太北部","ckey":12124291,"web_map":"","available":"true","iiiUrl":"https://purl.stanford.edu/rk977hf6508/iiif/manifest"},"geometry":{"bbox":[143.125,49.916666500000005,143.25,50],"type":"Polygon","coordinates":[[[143.125,49.916666500000005],[143.125,50],[143.25,50],[143.25,49.916666500000005],[143.125,49.916666500000005]]]}},{"type":"Feature","properties":{"Id":0,"Sheet_ID":"SHEET 19","label":"SHEET 19","call_short":"G7330 S25 .J31","call_num":"G7330 S25 .J31 SHEET 19","recid":"wx650cw6011","websiteUrl":"https://purl.stanford.edu/wx650cw6011","title":"二万五千分一地形圖 樺太北部","ckey":12124291,"web_map":"","available":"true","iiiUrl":"https://purl.stanford.edu/wx650cw6011/iiif/manifest"},"geometry":{"bbox":[143.25,49.916666500000005,143.375,50],"type":"Polygon","coordinates":[[[143.25,49.916666500000005],[143.25,50],[143.375,50],[143.375,49.916666500000005],[143.25,49.916666500000005]]]}},{"type":"Feature","properties":{"Id":0,"Sheet_ID":"SHEET 16","label":"SHEET 16","call_short":"G7330 S25 .J31","call_num":"G7330 S25 .J31 SHEET 16","recid":"fj308tv5908","websiteUrl":"https://purl.stanford.edu/fj308tv5908","title":"二万五千分一地形圖 樺太北部","ckey":12124291,"web_map":"","available":"true","iiiUrl":"https://purl.stanford.edu/fj308tv5908/iiif/manifest"},"geometry":{"bbox":[143.375,49.916666500000005,143.5,50],"type":"Polygon","coordinates":[[[143.375,49.916666500000005],[143.375,50],[143.5,50],[143.5,49.916666500000005],[143.375,49.916666500000005]]]}},{"type":"Feature","properties":{"Id":0,"Sheet_ID":"SHEET 13","label":"SHEET 13","call_short":"G7330 S25 .J31","call_num":"G7330 S25 .J31 SHEET 13","recid":"nv129fh6754","websiteUrl":"https://purl.stanford.edu/nv129fh6754","title":"二万五千分一地形圖 樺太北部","ckey":12124291,"web_map":"","available":"true","iiiUrl":"https://purl.stanford.edu/nv129fh6754/iiif/manifest"},"geometry":{"bbox":[143.5,49.916666500000005,143.625,50],"type":"Polygon","coordinates":[[[143.5,49.916666500000005],[143.5,50],[143.625,50],[143.625,49.916666500000005],[143.5,49.916666500000005]]]}},{"type":"Feature","properties":{"Id":0,"Sheet_ID":"SHEET 10","label":"SHEET 10","call_short":"G7330 S25 .J31","call_num":"G7330 S25 .J31 SHEET 10","recid":"hz466kd7702","websiteUrl":"https://purl.stanford.edu/hz466kd7702","title":"二万五千分一地形圖 樺太北部","ckey":12124291,"web_map":"","available":"true","iiiUrl":"https://purl.stanford.edu/hz466kd7702/iiif/manifest"},"geometry":{"bbox":[143.625,49.916666500000005,143.75000000000003,50],"type":"Polygon","coordinates":[[[143.625,49.916666500000005],[143.625,50],[143.75000000000003,50],[143.75000000000003,49.916666500000005],[143.625,49.916666500000005]]]}},{"type":"Feature","properties":{"Id":0,"Sheet_ID":"SHEET 7","label":"SHEET 7","call_short":"G7330 S25 .J31","call_num":"G7330 S25 .J31 SHEET 7","recid":"zy595rf5962","websiteUrl":"https://purl.stanford.edu/zy595rf5962","title":"二万五千分一地形圖 樺太北部","ckey":12124291,"web_map":"","available":"true","iiiUrl":"https://purl.stanford.edu/zy595rf5962/iiif/manifest"},"geometry":{"bbox":[143.75000000000003,49.916666500000005,143.875,50],"type":"Polygon","coordinates":[[[143.75000000000003,49.916666500000005],[143.75000000000003,50],[143.875,50],[143.875,49.916666500000005],[143.75000000000003,49.916666500000005]]]}},{"type":"Feature","properties":{"Id":0,"Sheet_ID":"SHEET 4","label":"SHEET 4","call_short":"G7330 S25 .J31","call_num":"G7330 S25 .J31 SHEET 4","recid":"jn549xp7237","websiteUrl":"https://purl.stanford.edu/jn549xp7237","title":"二万五千分一地形圖 樺太北部","ckey":12124291,"web_map":"","available":"true","iiiUrl":"https://purl.stanford.edu/jn549xp7237/iiif/manifest"},"geometry":{"bbox":[143.875,49.916666500000005,144,50],"type":"Polygon","coordinates":[[[143.875,49.916666500000005],[143.875,50],[144,50],[144,49.916666500000005],[143.875,49.916666500000005]]]}}],"name":"index_12124291"}
