{"type":"FeatureCollection","features":[{"type":"Feature","properties":{"Id":0,"Sheet_ID":"壹八チ504","label":"壹八チ504","call_short":"G7648 .D3 S500 .J3","call_num":"G7648 .D3 S500 .J3 18CHI504","recid":"fr949xk3381","websiteUrl":"https://purl.stanford.edu/fr949xk3381","title":"印度五十万分一圖","ckey":"10660652","web_map":"","available":"true","iiiUrl":"https://purl.stanford.edu/fr949xk3381/iiif/manifest"},"geometry":{"bbox":[90,23.333333,92.5,25],"type":"Polygon","coordinates":[[[90,23.333333],[90,25],[92.5,25],[92.5,23.333333],[90,23.333333]]]}}],"name":"index_10660652"}
