{"type":"FeatureCollection","features":[{"type":"Feature","properties":{"Id":0,"Sheet_ID":"壹七チ502","label":"壹七チ502","call_short":"G7720 S500 .J35","call_num":"G7720 S500 .J35 17CHI502","recid":"ng131jx7751","websiteUrl":"https://purl.stanford.edu/ng131jx7751","title":"支那緬甸五十万分一圖","ckey":10651259,"web_map":"","available":"true","iiiUrl":"https://purl.stanford.edu/ng131jx7751/iiif/manifest"},"geometry":{"bbox":[97.5,23.333333,100,24.999999666666668],"type":"Polygon","coordinates":[[[97.5,23.333333],[97.5,24.999999666666668],[100,24.999999666666668],[100,23.333333],[97.5,23.333333]]]}},{"type":"Feature","properties":{"Id":0,"Sheet_ID":"壹七チ501","label":"壹七チ501","call_short":"G7720 S500 .J35","call_num":"G7720 S500 .J35 17CHI501","recid":"pr706ng3371","websiteUrl":"https://purl.stanford.edu/pr706ng3371","title":"支那緬甸五十万分一圖","ckey":10651259,"web_map":"","available":"true","iiiUrl":"https://purl.stanford.edu/pr706ng3371/iiif/manifest"},"geometry":{"bbox":[97.5,24.999999666666668,100,26.666666333333335],"type":"Polygon","coordinates":[[[97.5,24.999999666666668],[97.5,26.666666333333335],[100,26.666666333333335],[100,24.999999666666668],[97.5,24.999999666666668]]]}},{"type":"Feature","properties":{"Id":0,"Sheet_ID":"壹七リ502","label":"壹七リ502","call_short":"G7720 S500 .J35","call_num":"G7720 S500 .J35 17RI502","recid":"mb313mx1145","websiteUrl":"https://purl.stanford.edu/mb313mx1145","title":"支那緬甸五十万分一圖","ckey":10651259,"web_map":"","available":"true","iiiUrl":"https://purl.stanford.edu/mb313mx1145/iiif/manifest"},"geometry":{"bbox":[97.5,26.666666333333332,100,28.333333000000003],"type":"Polygon","coordinates":[[[97.5,26.666666333333332],[97.5,28.333333000000003],[100,28.333333000000003],[100,26.666666333333332],[97.5,26.666666333333332]]]}}],"name":"index_10651259"}
