{
"type": "FeatureCollection",
"name": "index_map",
"xy_coordinate_resolution": 1e-07,
"features": [
{ "type": "Feature", "properties": { "Id": 0, "Sheet_ID": "19左. Poulo-Panjang_West", "label": "19左. Poulo-Panjang_West", "call_short": "G8005 S500 .I6", "call_num": "G8005 S500 .I6 19-W", "recid": "pf106nc8132", "websiteUrl": "https://purl.stanford.edu/pf106nc8132", "title": "佛領印度支那五十万分一圖", "ckey": 2830111, "available": true, "iiifUrl": "https://purl.stanford.edu/pf106nc8132/iiif/manifest" }, "geometry": { "type": "Polygon", "coordinates": [ [ [ 99.35, 8.0333333 ], [ 101.5166667, 8.0333333 ], [ 101.5166667, 10.2833333 ], [ 99.35, 10.2833333 ], [ 99.35, 8.0333333 ] ] ] } },
{ "type": "Feature", "properties": { "Id": 0, "Sheet_ID": "19右. Poulo-Panjang_East", "label": "19右. Poulo-Panjang_East", "call_short": "G8005 S500 .I6", "call_num": "G8005 S500 .I6 19-E", "recid": "jc041xs5250", "websiteUrl": "https://purl.stanford.edu/jc041xs5250", "title": "佛領印度支那五十万分一圖", "ckey": 2830111, "available": true, "iiifUrl": "https://purl.stanford.edu/jc041xs5250/iiif/manifest" }, "geometry": { "type": "Polygon", "coordinates": [ [ [ 101.5166667, 8.0333333 ], [ 103.6833333, 8.0333333 ], [ 103.6833333, 10.2833333 ], [ 101.5166667, 10.2833333 ], [ 101.5166667, 8.0333333 ] ] ] } },
{ "type": "Feature", "properties": { "Id": 0, "Sheet_ID": "20左. Vinh-Long_West", "label": "20左. Vinh-Long_West", "call_short": "G8005 S500 .I6", "call_num": "G8005 S500 .I6 20-W", "recid": "wn850xk0762", "websiteUrl": "https://purl.stanford.edu/wn850xk0762", "title": "佛領印度支那五十万分一圖", "ckey": 2830111, "available": true, "iiifUrl": "https://purl.stanford.edu/wn850xk0762/iiif/manifest" }, "geometry": { "type": "Polygon", "coordinates": [ [ [ 103.6833333, 8.0333333 ], [ 105.85, 8.0333333 ], [ 105.85, 10.2833333 ], [ 103.6833333, 10.2833333 ], [ 103.6833333, 8.0333333 ] ] ] } },
{ "type": "Feature", "properties": { "Id": 0, "Sheet_ID": "20右. Vinh-Long_East", "label": "20右. Vinh-Long_East", "call_short": "G8005 S500 .I6", "call_num": "G8005 S500 .I6 20-E", "recid": "dc508fx9396", "websiteUrl": "https://purl.stanford.edu/dc508fx9396", "title": "佛領印度支那五十万分一圖", "ckey": 2830111, "available": true, "iiifUrl": "https://purl.stanford.edu/dc508fx9396/iiif/manifest" }, "geometry": { "type": "Polygon", "coordinates": [ [ [ 105.85, 8.0333333 ], [ 108.0166667, 8.0333333 ], [ 108.0166667, 10.2833333 ], [ 105.85, 10.2833333 ], [ 105.85, 8.0333333 ] ] ] } },
{ "type": "Feature", "properties": { "Id": 0, "Sheet_ID": "21. Poulo Sapate", "label": "21. Poulo Sapate", "call_short": "G8005 S500 .I6", "call_num": "G8005 S500 .I6 21-W", "recid": "jp521kn5647", "websiteUrl": "https://purl.stanford.edu/jp521kn5647", "title": "佛領印度支那五十万分一圖", "ckey": 2830111, "available": true, "iiifUrl": "https://purl.stanford.edu/jp521kn5647/iiif/manifest" }, "geometry": { "type": "Polygon", "coordinates": [ [ [ 108.0166667, 8.0333333 ], [ 110.1833333, 8.0333333 ], [ 110.1833333, 10.2833333 ], [ 108.0166667, 10.2833333 ], [ 108.0166667, 8.0333333 ] ] ] } },
{ "type": "Feature", "properties": { "Id": 0, "Sheet_ID": "16左. Pak-Nam_West", "label": "16左. Pak-Nam_West", "call_short": "G8005 S500 .I6", "call_num": "G8005 S500 .I6 16-W", "recid": "qg028tm8382", "websiteUrl": "https://purl.stanford.edu/qg028tm8382", "title": "佛領印度支那五十万分一圖", "ckey": 2830111, "available": true, "iiifUrl": "https://purl.stanford.edu/qg028tm8382/iiif/manifest" }, "geometry": { "type": "Polygon", "coordinates": [ [ [ 99.35, 10.2833333 ], [ 101.5166667, 10.2833333 ], [ 101.5166667, 12.5333333 ], [ 99.35, 12.5333333 ], [ 99.35, 10.2833333 ] ] ] } },
{ "type": "Feature", "properties": { "Id": 0, "Sheet_ID": "16右. Pak-Nam_East", "label": "16右. Pak-Nam_East", "call_short": "G8005 S500 .I6", "call_num": "G8005 S500 .I6 16-E", "recid": "bd272hv9270", "websiteUrl": "https://purl.stanford.edu/bd272hv9270", "title": "佛領印度支那五十万分一圖", "ckey": 2830111, "available": true, "iiifUrl": "https://purl.stanford.edu/bd272hv9270/iiif/manifest" }, "geometry": { "type": "Polygon", "coordinates": [ [ [ 101.5166667, 10.2833333 ], [ 103.6833333, 10.2833333 ], [ 103.6833333, 12.5333333 ], [ 101.5166667, 12.5333333 ], [ 101.5166667, 10.2833333 ] ] ] } },
{ "type": "Feature", "properties": { "Id": 0, "Sheet_ID": "17左. Saigon_West", "label": "17左. Saigon_West", "call_short": "G8005 S500 .I6", "call_num": "G8005 S500 .I6 17-W", "recid": "xf240sh1474", "websiteUrl": "https://purl.stanford.edu/xf240sh1474", "title": "佛領印度支那五十万分一圖", "ckey": 2830111, "available": true, "iiifUrl": "https://purl.stanford.edu/xf240sh1474/iiif/manifest" }, "geometry": { "type": "Polygon", "coordinates": [ [ [ 103.6833333, 10.2833333 ], [ 105.85, 10.2833333 ], [ 105.85, 12.5333333 ], [ 103.6833333, 12.5333333 ], [ 103.6833333, 10.2833333 ] ] ] } },
{ "type": "Feature", "properties": { "Id": 0, "Sheet_ID": "17右. Saigon_East", "label": "17右. Saigon_East", "call_short": "G8005 S500 .I6", "call_num": "G8005 S500 .I6 17-E", "recid": "cx701vd3404", "websiteUrl": "https://purl.stanford.edu/cx701vd3404", "title": "佛領印度支那五十万分一圖", "ckey": 2830111, "available": true, "iiifUrl": "https://purl.stanford.edu/cx701vd3404/iiif/manifest" }, "geometry": { "type": "Polygon", "coordinates": [ [ [ 105.85, 10.2833333 ], [ 108.0166667, 10.2833333 ], [ 108.0166667, 12.5333333 ], [ 105.85, 12.5333333 ], [ 105.85, 10.2833333 ] ] ] } },
{ "type": "Feature", "properties": { "Id": 0, "Sheet_ID": "18左. Nha-Trang_West", "label": "18左. Nha-Trang_West", "call_short": "G8005 S500 .I6", "call_num": "G8005 S500 .I6 18-W", "recid": "nr209jr4597", "websiteUrl": "https://purl.stanford.edu/nr209jr4597", "title": "佛領印度支那五十万分一圖", "ckey": 2830111, "available": true, "iiifUrl": "https://purl.stanford.edu/nr209jr4597/iiif/manifest" }, "geometry": { "type": "Polygon", "coordinates": [ [ [ 108.0166667, 10.2833333 ], [ 110.1833333, 10.2833333 ], [ 110.1833333, 12.5333333 ], [ 108.0166667, 12.5333333 ], [ 108.0166667, 10.2833333 ] ] ] } },
{ "type": "Feature", "properties": { "Id": 0, "Sheet_ID": "18右. Nha-Trang_East", "label": "18右. Nha-Trang_East", "call_short": "G8005 S500 .I6", "call_num": "G8005 S500 .I6 18-E", "recid": "cc521jm5836", "websiteUrl": "https://purl.stanford.edu/cc521jm5836", "title": "佛領印度支那五十万分一圖", "ckey": 2830111, "available": true, "iiifUrl": "https://purl.stanford.edu/cc521jm5836/iiif/manifest" }, "geometry": { "type": "Polygon", "coordinates": [ [ [ 110.1833333, 10.2833333 ], [ 112.35, 10.2833333 ], [ 112.35, 12.5333333 ], [ 110.1833333, 12.5333333 ], [ 110.1833333, 10.2833333 ] ] ] } },
{ "type": "Feature", "properties": { "Id": 0, "Sheet_ID": "13左. Bang-Kok_West", "label": "13左. Bang-Kok_West", "call_short": "G8005 S500 .I6", "call_num": "G8005 S500 .I6 13-W", "recid": "pd302nc8253", "websiteUrl": "https://purl.stanford.edu/pd302nc8253", "title": "佛領印度支那五十万分一圖", "ckey": 2830111, "available": true, "iiifUrl": "https://purl.stanford.edu/pd302nc8253/iiif/manifest" }, "geometry": { "type": "Polygon", "coordinates": [ [ [ 99.35, 12.5333333 ], [ 101.5166667, 12.5333333 ], [ 101.5166667, 14.7833333 ], [ 99.35, 14.7833333 ], [ 99.35, 12.5333333 ] ] ] } },
{ "type": "Feature", "properties": { "Id": 0, "Sheet_ID": "13右. Bang-Kok_East", "label": "13右. Bang-Kok_East", "call_short": "G8005 S500 .I6", "call_num": "G8005 S500 .I6 13-E", "recid": "sm359xd9448", "websiteUrl": "https://purl.stanford.edu/sm359xd9448", "title": "佛領印度支那五十万分一圖", "ckey": 2830111, "available": true, "iiifUrl": "https://purl.stanford.edu/sm359xd9448/iiif/manifest" }, "geometry": { "type": "Polygon", "coordinates": [ [ [ 101.5166667, 12.5333333 ], [ 103.6833333, 12.5333333 ], [ 103.6833333, 14.7833333 ], [ 101.5166667, 14.7833333 ], [ 101.5166667, 12.5333333 ] ] ] } },
{ "type": "Feature", "properties": { "Id": 0, "Sheet_ID": "14左. Khong_West", "label": "14左. Khong_West", "call_short": "G8005 S500 .I6", "call_num": "G8005 S500 .I6 14-W", "recid": "bx561ty7626", "websiteUrl": "https://purl.stanford.edu/bx561ty7626", "title": "佛領印度支那五十万分一圖", "ckey": 2830111, "available": true, "iiifUrl": "https://purl.stanford.edu/bx561ty7626/iiif/manifest" }, "geometry": { "type": "Polygon", "coordinates": [ [ [ 103.6833333, 12.5333333 ], [ 105.85, 12.5333333 ], [ 105.85, 14.7833333 ], [ 103.6833333, 14.7833333 ], [ 103.6833333, 12.5333333 ] ] ] } },
{ "type": "Feature", "properties": { "Id": 0, "Sheet_ID": "14右. Khong_East", "label": "14右. Khong_East", "call_short": "G8005 S500 .I6", "call_num": "G8005 S500 .I6 14-E", "recid": "wx836tk4406", "websiteUrl": "https://purl.stanford.edu/wx836tk4406", "title": "佛領印度支那五十万分一圖", "ckey": 2830111, "available": true, "iiifUrl": "https://purl.stanford.edu/wx836tk4406/iiif/manifest" }, "geometry": { "type": "Polygon", "coordinates": [ [ [ 105.85, 12.5333333 ], [ 108.0166667, 12.5333333 ], [ 108.0166667, 14.7833333 ], [ 105.85, 14.7833333 ], [ 105.85, 12.5333333 ] ] ] } },
{ "type": "Feature", "properties": { "Id": 0, "Sheet_ID": "15左. Qui-Nhon_West", "label": "15左. Qui-Nhon_West", "call_short": "G8005 S500 .I6", "call_num": "G8005 S500 .I6 15-W", "recid": "cs593fn7631", "websiteUrl": "https://purl.stanford.edu/cs593fn7631", "title": "佛領印度支那五十万分一圖", "ckey": 2830111, "available": true, "iiifUrl": "https://purl.stanford.edu/cs593fn7631/iiif/manifest" }, "geometry": { "type": "Polygon", "coordinates": [ [ [ 108.0166667, 12.5333333 ], [ 110.1833333, 12.5333333 ], [ 110.1833333, 14.7833333 ], [ 108.0166667, 14.7833333 ], [ 108.0166667, 12.5333333 ] ] ] } },
{ "type": "Feature", "properties": { "Id": 0, "Sheet_ID": "15右. Qui-Nhon_East", "label": "15右. Qui-Nhon_East", "call_short": "G8005 S500 .I6", "call_num": "G8005 S500 .I6 15-E", "recid": "yd347nr8773", "websiteUrl": "https://purl.stanford.edu/yd347nr8773", "title": "佛領印度支那五十万分一圖", "ckey": 2830111, "available": true, "iiifUrl": "https://purl.stanford.edu/yd347nr8773/iiif/manifest" }, "geometry": { "type": "Polygon", "coordinates": [ [ [ 110.1833333, 12.5333333 ], [ 112.35, 12.5333333 ], [ 112.35, 14.7833333 ], [ 110.1833333, 14.7833333 ], [ 110.1833333, 12.5333333 ] ] ] } },
{ "type": "Feature", "properties": { "Id": 0, "Sheet_ID": "10左. Korat_West", "label": "10左. Korat_West", "call_short": "G8005 S500 .I6", "call_num": "G8005 S500 .I6 10-W", "recid": "vz494jv6290", "websiteUrl": "https://purl.stanford.edu/vz494jv6290", "title": "佛領印度支那五十万分一圖", "ckey": 2830111, "available": true, "iiifUrl": "https://purl.stanford.edu/vz494jv6290/iiif/manifest" }, "geometry": { "type": "Polygon", "coordinates": [ [ [ 99.35, 14.7833333 ], [ 101.5166667, 14.7833333 ], [ 101.5166667, 17.0333333 ], [ 99.35, 17.0333333 ], [ 99.35, 14.7833333 ] ] ] } },
{ "type": "Feature", "properties": { "Id": 0, "Sheet_ID": "10右. Korat_East", "label": "10右. Korat_East", "call_short": "G8005 S500 .I6", "call_num": "G8005 S500 .I6 10-E", "recid": "rc744hd5091", "websiteUrl": "https://purl.stanford.edu/rc744hd5091", "title": "佛領印度支那五十万分一圖", "ckey": 2830111, "available": true, "iiifUrl": "https://purl.stanford.edu/rc744hd5091/iiif/manifest" }, "geometry": { "type": "Polygon", "coordinates": [ [ [ 101.5166667, 14.7833333 ], [ 103.6833333, 14.7833333 ], [ 103.6833333, 17.0333333 ], [ 101.5166667, 17.0333333 ], [ 101.5166667, 14.7833333 ] ] ] } },
{ "type": "Feature", "properties": { "Id": 0, "Sheet_ID": "11左. n/a_West", "label": "11左. n/a_West", "call_short": "0", "call_num": "0", "recid": "0", "websiteUrl": "0", "title": "0", "ckey": 0, "available": false, "iiifUrl": "0" }, "geometry": { "type": "Polygon", "coordinates": [ [ [ 103.6833333, 14.7833333 ], [ 105.85, 14.7833333 ], [ 105.85, 17.0333333 ], [ 103.6833333, 17.0333333 ], [ 103.6833333, 14.7833333 ] ] ] } },
{ "type": "Feature", "properties": { "Id": 0, "Sheet_ID": "11右. n/a_East", "label": "11右. n/a_East", "call_short": "0", "call_num": "0", "recid": "0", "websiteUrl": "0", "title": "0", "ckey": 0, "available": false, "iiifUrl": "0" }, "geometry": { "type": "Polygon", "coordinates": [ [ [ 105.85, 14.7833333 ], [ 108.0166667, 14.7833333 ], [ 108.0166667, 17.0333333 ], [ 105.85, 17.0333333 ], [ 105.85, 14.7833333 ] ] ] } },
{ "type": "Feature", "properties": { "Id": 0, "Sheet_ID": "12左. Tourane_West", "label": "12左. Tourane_West", "call_short": "G8005 S500 .I6", "call_num": "G8005 S500 .I6 12-W", "recid": "yc298rx9731", "websiteUrl": "https://purl.stanford.edu/yc298rx9731", "title": "佛領印度支那五十万分一圖", "ckey": 2830111, "available": true, "iiifUrl": "https://purl.stanford.edu/yc298rx9731/iiif/manifest" }, "geometry": { "type": "Polygon", "coordinates": [ [ [ 108.0166667, 14.7833333 ], [ 110.1833333, 14.7833333 ], [ 110.1833333, 17.0333333 ], [ 108.0166667, 17.0333333 ], [ 108.0166667, 14.7833333 ] ] ] } },
{ "type": "Feature", "properties": { "Id": 0, "Sheet_ID": "12右. Tourane_East", "label": "12右. Tourane_East", "call_short": "G8005 S500 .I6", "call_num": "G8005 S500 .I6 12-E", "recid": "wn991gq4986", "websiteUrl": "https://purl.stanford.edu/wn991gq4986", "title": "佛領印度支那五十万分一圖", "ckey": 2830111, "available": true, "iiifUrl": "https://purl.stanford.edu/wn991gq4986/iiif/manifest" }, "geometry": { "type": "Polygon", "coordinates": [ [ [ 110.1833333, 14.7833333 ], [ 112.35, 14.7833333 ], [ 112.35, 17.0333333 ], [ 110.1833333, 17.0333333 ], [ 110.1833333, 14.7833333 ] ] ] } },
{ "type": "Feature", "properties": { "Id": 0, "Sheet_ID": "7. Vientiane", "label": "7. Vientiane", "call_short": "G8005 S500 .I6", "call_num": "G8005 S500 .I6 7", "recid": "bd510qw8120", "websiteUrl": "https://purl.stanford.edu/bd510qw8120", "title": "佛領印度支那五十万分一圖", "ckey": 2830111, "available": true, "iiifUrl": "https://purl.stanford.edu/bd510qw8120/iiif/manifest" }, "geometry": { "type": "Polygon", "coordinates": [ [ [ 101.5166667, 17.0333333 ], [ 103.6833333, 17.0333333 ], [ 103.6833333, 19.2833333 ], [ 101.5166667, 19.2833333 ], [ 99.35, 19.2833333 ], [ 99.35, 17.0333333 ], [ 101.5166667, 17.0333333 ] ] ] } },
{ "type": "Feature", "properties": { "Id": 0, "Sheet_ID": "8左. Vinh_West", "label": "8左. Vinh_West", "call_short": "G8005 S500 .I6", "call_num": "G8005 S500 .I6 8-W", "recid": "fv545tf4428", "websiteUrl": "https://purl.stanford.edu/fv545tf4428", "title": "佛領印度支那五十万分一圖", "ckey": 2830111, "available": true, "iiifUrl": "https://purl.stanford.edu/fv545tf4428/iiif/manifest" }, "geometry": { "type": "Polygon", "coordinates": [ [ [ 103.6833333, 17.0333333 ], [ 105.85, 17.0333333 ], [ 105.85, 19.2833333 ], [ 103.6833333, 19.2833333 ], [ 103.6833333, 17.0333333 ] ] ] } },
{ "type": "Feature", "properties": { "Id": 0, "Sheet_ID": "8右. Vinh_East", "label": "8右. Vinh_East", "call_short": "G8005 S500 .I6", "call_num": "G8005 S500 .I6 8-E", "recid": "ss467wv6912", "websiteUrl": "https://purl.stanford.edu/ss467wv6912", "title": "佛領印度支那五十万分一圖", "ckey": 2830111, "available": true, "iiifUrl": "https://purl.stanford.edu/ss467wv6912/iiif/manifest" }, "geometry": { "type": "Polygon", "coordinates": [ [ [ 105.85, 17.0333333 ], [ 108.0166667, 17.0333333 ], [ 108.0166667, 19.2833333 ], [ 105.85, 19.2833333 ], [ 105.85, 17.0333333 ] ] ] } },
{ "type": "Feature", "properties": { "Id": 0, "Sheet_ID": "9左. Ling-Chouei_West", "label": "9左. Ling-Chouei_West", "call_short": "G8005 S500 .I6", "call_num": "G8005 S500 .I6 9-W", "recid": "nc741rp2349", "websiteUrl": "https://purl.stanford.edu/nc741rp2349", "title": "佛領印度支那五十万分一圖", "ckey": 2830111, "available": true, "iiifUrl": "https://purl.stanford.edu/nc741rp2349/iiif/manifest" }, "geometry": { "type": "Polygon", "coordinates": [ [ [ 108.0166667, 17.0333333 ], [ 110.1833333, 17.0333333 ], [ 110.1833333, 19.2833333 ], [ 108.0166667, 19.2833333 ], [ 108.0166667, 17.0333333 ] ] ] } },
{ "type": "Feature", "properties": { "Id": 0, "Sheet_ID": "9右. Ling-Chouei_East", "label": "9右. Ling-Chouei_East", "call_short": "G8005 S500 .I6", "call_num": "G8005 S500 .I6 9-E", "recid": "wt364kv9163", "websiteUrl": "https://purl.stanford.edu/wt364kv9163", "title": "佛領印度支那五十万分一圖", "ckey": 2830111, "available": true, "iiifUrl": "https://purl.stanford.edu/wt364kv9163/iiif/manifest" }, "geometry": { "type": "Polygon", "coordinates": [ [ [ 110.1833333, 17.0333333 ], [ 112.35, 17.0333333 ], [ 112.35, 19.2833333 ], [ 110.1833333, 19.2833333 ], [ 110.1833333, 17.0333333 ] ] ] } },
{ "type": "Feature", "properties": { "Id": 0, "Sheet_ID": "4左. n/a_West", "label": "4左. n/a_West", "call_short": "0", "call_num": "0", "recid": "0", "websiteUrl": "0", "title": "0", "ckey": 0, "available": false, "iiifUrl": "0" }, "geometry": { "type": "Polygon", "coordinates": [ [ [ 99.35, 19.2833333 ], [ 101.5166667, 19.2833333 ], [ 101.5166667, 21.5333333 ], [ 99.35, 21.5333333 ], [ 99.35, 19.2833333 ] ] ] } },
{ "type": "Feature", "properties": { "Id": 0, "Sheet_ID": "4右. n/a_East", "label": "4右. n/a_East", "call_short": "0", "call_num": "0", "recid": "0", "websiteUrl": "0", "title": "0", "ckey": 0, "available": false, "iiifUrl": "0" }, "geometry": { "type": "Polygon", "coordinates": [ [ [ 101.5166667, 19.2833333 ], [ 103.6833333, 19.2833333 ], [ 103.6833333, 21.5333333 ], [ 101.5166667, 21.5333333 ], [ 101.5166667, 19.2833333 ] ] ] } },
{ "type": "Feature", "properties": { "Id": 0, "Sheet_ID": "5左. Hanoi_West", "label": "5左. Hanoi_West", "call_short": "G8005 S500 .I6", "call_num": "G8005 S500 .I6 5-W", "recid": "pt025yr5467", "websiteUrl": "https://purl.stanford.edu/pt025yr5467", "title": "佛領印度支那五十万分一圖", "ckey": 2830111, "available": true, "iiifUrl": "https://purl.stanford.edu/pt025yr5467/iiif/manifest" }, "geometry": { "type": "Polygon", "coordinates": [ [ [ 103.6833333, 19.2833333 ], [ 105.85, 19.2833333 ], [ 105.85, 21.5333333 ], [ 103.6833333, 21.5333333 ], [ 103.6833333, 19.2833333 ] ] ] } },
{ "type": "Feature", "properties": { "Id": 0, "Sheet_ID": "5右. Hanoi_East", "label": "5右. Hanoi_East", "call_short": "0", "call_num": "0", "recid": "0", "websiteUrl": "0", "title": "0", "ckey": 0, "available": false, "iiifUrl": "0" }, "geometry": { "type": "Polygon", "coordinates": [ [ [ 105.85, 19.2833333 ], [ 108.0166667, 19.2833333 ], [ 108.0166667, 21.5333333 ], [ 105.85, 21.5333333 ], [ 105.85, 19.2833333 ] ] ] } },
{ "type": "Feature", "properties": { "Id": 0, "Sheet_ID": "6左. Quang-Tcheou_West", "label": "6左. Quang-Tcheou_West", "call_short": "G8005 S500 .I6", "call_num": "G8005 S500 .I6 6-W", "recid": "jq711sn3717", "websiteUrl": "https://purl.stanford.edu/jq711sn3717", "title": "佛領印度支那五十万分一圖", "ckey": 2830111, "available": true, "iiifUrl": "https://purl.stanford.edu/jq711sn3717/iiif/manifest" }, "geometry": { "type": "Polygon", "coordinates": [ [ [ 108.0166667, 19.2833333 ], [ 110.1833333, 19.2833333 ], [ 110.1833333, 21.5333333 ], [ 108.0166667, 21.5333333 ], [ 108.0166667, 19.2833333 ] ] ] } },
{ "type": "Feature", "properties": { "Id": 0, "Sheet_ID": "6右. Quang-Tcheou_East", "label": "6右. Quang-Tcheou_East", "call_short": "G8005 S500 .I6", "call_num": "G8005 S500 .I6 6-E", "recid": "pz466yr6619", "websiteUrl": "https://purl.stanford.edu/pz466yr6619", "title": "佛領印度支那五十万分一圖", "ckey": 2830111, "available": true, "iiifUrl": "https://purl.stanford.edu/pz466yr6619/iiif/manifest" }, "geometry": { "type": "Polygon", "coordinates": [ [ [ 110.1833333, 19.2833333 ], [ 112.35, 19.2833333 ], [ 112.35, 21.5333333 ], [ 110.1833333, 21.5333333 ], [ 110.1833333, 19.2833333 ] ] ] } },
{ "type": "Feature", "properties": { "Id": 0, "Sheet_ID": "1左. Mong-Tzeu_West", "label": "1左. Mong-Tzeu_West", "call_short": "G8005 S500 .I6", "call_num": "G8005 S500 .I6 1-W", "recid": "kk825md5744", "websiteUrl": "https://purl.stanford.edu/kk825md5744", "title": "佛領印度支那五十万分一圖", "ckey": 2830111, "available": true, "iiifUrl": "https://purl.stanford.edu/kk825md5744/iiif/manifest" }, "geometry": { "type": "Polygon", "coordinates": [ [ [ 99.35, 21.5333333 ], [ 101.5166667, 21.5333333 ], [ 101.5166667, 23.7833333 ], [ 99.35, 23.7833333 ], [ 99.35, 21.5333333 ] ] ] } },
{ "type": "Feature", "properties": { "Id": 0, "Sheet_ID": "1右. Mong-Tzeu_East", "label": "1右. Mong-Tzeu_East", "call_short": "G8005 S500 .I6", "call_num": "G8005 S500 .I6 1-E", "recid": "nv055tj8602", "websiteUrl": "https://purl.stanford.edu/nv055tj8602", "title": "佛領印度支那五十万分一圖", "ckey": 2830111, "available": true, "iiifUrl": "https://purl.stanford.edu/nv055tj8602/iiif/manifest" }, "geometry": { "type": "Polygon", "coordinates": [ [ [ 101.5166667, 21.5333333 ], [ 103.6833333, 21.5333333 ], [ 103.6833333, 23.7833333 ], [ 101.5166667, 23.7833333 ], [ 101.5166667, 21.5333333 ] ] ] } },
{ "type": "Feature", "properties": { "Id": 0, "Sheet_ID": "2左. Cau-Bang_West", "label": "2左. Cau-Bang_West", "call_short": "0", "call_num": "0", "recid": "0", "websiteUrl": "0", "title": "0", "ckey": 0, "available": false, "iiifUrl": "0" }, "geometry": { "type": "Polygon", "coordinates": [ [ [ 103.6833333, 21.5333333 ], [ 105.85, 21.5333333 ], [ 105.85, 23.7833333 ], [ 103.6833333, 23.7833333 ], [ 103.6833333, 21.5333333 ] ] ] } },
{ "type": "Feature", "properties": { "Id": 0, "Sheet_ID": "2右. Cau-Bang_East", "label": "2右. Cau-Bang_East", "call_short": "G8005 S500 .I6", "call_num": "G8005 S500 .I6 2-E", "recid": "pr649pq5007", "websiteUrl": "https://purl.stanford.edu/pr649pq5007", "title": "佛領印度支那五十万分一圖", "ckey": 2830111, "available": true, "iiifUrl": "https://purl.stanford.edu/pr649pq5007/iiif/manifest" }, "geometry": { "type": "Polygon", "coordinates": [ [ [ 105.85, 21.5333333 ], [ 108.0166667, 21.5333333 ], [ 108.0166667, 23.7833333 ], [ 105.85, 23.7833333 ], [ 105.85, 21.5333333 ] ] ] } },
{ "type": "Feature", "properties": { "Id": 0, "Sheet_ID": "3左. Ou-Tcheou_West", "label": "3左. Ou-Tcheou_West", "call_short": "G8005 S500 .I6", "call_num": "G8005 S500 .I6 3-W", "recid": "fg824jb3082", "websiteUrl": "https://purl.stanford.edu/fg824jb3082", "title": "佛領印度支那五十万分一圖", "ckey": 2830111, "available": true, "iiifUrl": "https://purl.stanford.edu/fg824jb3082/iiif/manifest" }, "geometry": { "type": "Polygon", "coordinates": [ [ [ 108.0166667, 21.5333333 ], [ 110.1833333, 21.5333333 ], [ 110.1833333, 23.7833333 ], [ 108.0166667, 23.7833333 ], [ 108.0166667, 21.5333333 ] ] ] } },
{ "type": "Feature", "properties": { "Id": 0, "Sheet_ID": "3右. Ou-Tcheou_East", "label": "3右. Ou-Tcheou_East", "call_short": "G8005 S500 .I6", "call_num": "G8005 S500 .I6 3-E", "recid": "bd706dy5065", "websiteUrl": "https://purl.stanford.edu/bd706dy5065", "title": "佛領印度支那五十万分一圖", "ckey": 2830111, "available": true, "iiifUrl": "https://purl.stanford.edu/bd706dy5065/iiif/manifest" }, "geometry": { "type": "Polygon", "coordinates": [ [ [ 110.1833333, 21.5333333 ], [ 112.35, 21.5333333 ], [ 112.35, 23.7833333 ], [ 110.1833333, 23.7833333 ], [ 110.1833333, 21.5333333 ] ] ] } }
]
}
