{
"type": "FeatureCollection",
"name": "index_map",
"xy_coordinate_resolution": 1e-07,
"features": [
{ "type": "Feature", "properties": { "Id": 0, "Sheet_ID": "2. 鄭家屯及四平街近傍", "label": "2. 鄭家屯及四平街近傍", "call_short": "G7830 S200 .J5", "call_num": "G7830 S200 .J5 MAP 2", "recid": "sj645tz0053", "websiteUrl": "https://purl.stanford.edu/sj645tz0053", "title": "二十万分一満州局地圖", "ckey": 9925313, "available": true, "iiifUrl": "https://purl.stanford.edu/sj645tz0053/iiif/manifest" }, "geometry": { "type": "Polygon", "coordinates": [ [ [ 123.0, 42.5 ], [ 124.5, 42.5 ], [ 124.5, 44.25 ], [ 123.0, 44.25 ], [ 123.0, 42.5 ] ] ] } },
{ "type": "Feature", "properties": { "Id": 0, "Sheet_ID": "1. 長春近傍", "label": "1. 長春近傍", "call_short": "G7830 S200 .J5", "call_num": "G7830 S200 .J5 MAP 1", "recid": "tj164ng7824", "websiteUrl": "https://purl.stanford.edu/tj164ng7824", "title": "二十万分一満州局地圖", "ckey": 9925313, "available": true, "iiifUrl": "https://purl.stanford.edu/tj164ng7824/iiif/manifest" }, "geometry": { "type": "Polygon", "coordinates": [ [ [ 124.5, 42.5 ], [ 126.0, 42.5 ], [ 126.0, 44.25 ], [ 124.5, 44.25 ], [ 124.5, 42.5 ] ] ] } },
{ "type": "Feature", "properties": { "Id": 0, "Sheet_ID": "3. 奉天近傍", "label": "3. 奉天近傍", "call_short": "G7830 S200 .J5", "call_num": "G7830 S200 .J5 MAP 3", "recid": "tg868ww2420", "websiteUrl": "https://purl.stanford.edu/tg868ww2420", "title": "二十万分一満州局地圖", "ckey": 9925313, "available": true, "iiifUrl": "https://purl.stanford.edu/tg868ww2420/iiif/manifest" }, "geometry": { "type": "Polygon", "coordinates": [ [ [ 121.82, 42.5 ], [ 121.82, 41.266667 ], [ 124.05, 41.266667 ], [ 124.05, 42.5 ], [ 121.82, 42.5 ] ] ] } },
{ "type": "Feature", "properties": { "Id": 0, "Sheet_ID": "4. 海城近傍", "label": "4. 海城近傍", "call_short": "G7830 S200 .J5", "call_num": "G7830 S200 .J5 MAP 4", "recid": "rx397rf8859", "websiteUrl": "https://purl.stanford.edu/rx397rf8859", "title": "二十万分一満州局地圖", "ckey": 9925313, "available": true, "iiifUrl": "https://purl.stanford.edu/rx397rf8859/iiif/manifest" }, "geometry": { "type": "Polygon", "coordinates": [ [ [ 121.82, 40.2 ], [ 123.25, 40.2 ], [ 123.25, 41.266667 ], [ 121.82, 41.266667 ], [ 121.82, 40.2 ] ] ] } },
{ "type": "Feature", "properties": { "Id": 0, "Sheet_ID": "5. 錦州近傍", "label": "5. 錦州近傍", "call_short": "G7830 S200 .J5", "call_num": "G7830 S200 .J5 MAP 5", "recid": "tv759wx3233", "websiteUrl": "https://purl.stanford.edu/tv759wx3233", "title": "二十万分一満州局地圖", "ckey": 9925313, "available": true, "iiifUrl": "https://purl.stanford.edu/tv759wx3233/iiif/manifest" }, "geometry": { "type": "Polygon", "coordinates": [ [ [ 120.2, 40.0 ], [ 121.82, 40.0 ], [ 121.82, 41.8 ], [ 120.2, 41.8 ], [ 120.2, 40.0 ] ] ] } },
{ "type": "Feature", "properties": { "Id": 0, "Sheet_ID": "6. 齊齊哈爾近傍", "label": "6. 齊齊哈爾近傍", "call_short": "G7830 S200 .J5", "call_num": "G7830 S200 .J5 MAP 6", "recid": "nv756js3745", "websiteUrl": "https://purl.stanford.edu/nv756js3745", "title": "二十万分一満州局地圖", "ckey": 9925313, "available": true, "iiifUrl": "https://purl.stanford.edu/nv756js3745/iiif/manifest" }, "geometry": { "type": "Polygon", "coordinates": [ [ [ 123.3, 47.6 ], [ 123.3, 46.55 ], [ 124.6, 46.55 ], [ 124.6, 47.6 ], [ 123.3, 47.6 ] ] ] } }
]
}
