{"type":"FeatureCollection","features":[{"type":"Feature","properties":{"Id":0,"Sheet_ID":"22. 王爺村","label":"22. 王爺村","call_short":"G7823 .I5 S100 .J34","call_num":"G7823 .I5 S100 .J34 SHEET 22","recid":"yx481bv4357","websiteUrl":"https://purl.stanford.edu/yx481bv4357","title":"満州及蒙古十万分一圖 兆南及開魯","ckey":12284216,"web_map":"","available":"true","iiifUrl":"https://purl.stanford.edu/yx481bv4357/iiif/manifest"},"geometry":{"bbox":[119.99999999999999,45.333333,121,46],"type":"Polygon","coordinates":[[[119.99999999999999,45.333333],[119.99999999999999,46],[121,46],[121,45.333333],[119.99999999999999,45.333333]]]}},{"type":"Feature","properties":{"Id":0,"Sheet_ID":"17. 醴泉","label":"17. 醴泉","call_short":"G7823 .I5 S100 .J34","call_num":"G7823 .I5 S100 .J34 SHEET 17","recid":"zv656gp8492","websiteUrl":"https://purl.stanford.edu/zv656gp8492","title":"満州十万分一圖 兆南及開魯","ckey":12284216,"web_map":"","available":"true","iiifUrl":"https://purl.stanford.edu/zv656gp8492/iiif/manifest"},"geometry":{"bbox":[121,45.333333,122,46],"type":"Polygon","coordinates":[[[121,45.333333],[121,46],[122,46],[122,45.333333],[121,45.333333]]]}},{"type":"Feature","properties":{"Id":0,"Sheet_ID":"12. 洮南","label":"12. 洮南","call_short":"G7823 .I5 S100 .J34","call_num":"G7823 .I5 S100 .J34 SHEET 12","recid":"wq646xs5123","websiteUrl":"https://purl.stanford.edu/wq646xs5123","title":"満州十万分一圖 兆南及開魯","ckey":12284216,"web_map":"","available":"true","iiifUrl":"https://purl.stanford.edu/wq646xs5123/iiif/manifest"},"geometry":{"bbox":[122,45.333333,123.00000000000001,46],"type":"Polygon","coordinates":[[[122,45.333333],[122,46],[123.00000000000001,46],[123.00000000000001,45.333333],[122,45.333333]]]}},{"type":"Feature","properties":{"Id":0,"Sheet_ID":"21. ハークスネラ","label":"21. ハークスネラ","call_short":"G7823 .I5 S100 .J34","call_num":"G7823 .I5 S100 .J34 SHEET 21","recid":"wf166zr4479","websiteUrl":"https://purl.stanford.edu/wf166zr4479","title":"満州及蒙古十万分一圖 兆南及開魯","ckey":12284216,"web_map":"","available":"true","iiifUrl":"https://purl.stanford.edu/wf166zr4479/iiif/manifest"},"geometry":{"bbox":[119.99999999999999,46,121,46.666667],"type":"Polygon","coordinates":[[[119.99999999999999,46],[119.99999999999999,46.666667],[121,46.666667],[121,46],[119.99999999999999,46]]]}},{"type":"Feature","properties":{"Id":0,"Sheet_ID":"16. 索倫山","label":"16. 索倫山","call_short":"G7823 .I5 S100 .J34","call_num":"G7823 .I5 S100 .J34 SHEET 16","recid":"vy283pg3962","websiteUrl":"https://purl.stanford.edu/vy283pg3962","title":"満州十万分一圖 兆南及開魯","ckey":12284216,"web_map":"","available":"true","iiifUrl":"https://purl.stanford.edu/vy283pg3962/iiif/manifest"},"geometry":{"bbox":[121,46,122,46.666667],"type":"Polygon","coordinates":[[[121,46],[121,46.666667],[122,46.666667],[122,46],[121,46]]]}},{"type":"Feature","properties":{"Id":0,"Sheet_ID":"11. 王爺廊","label":"11. 王爺廊","call_short":"G7823 .I5 S100 .J34","call_num":"G7823 .I5 S100 .J34 SHEET 11","recid":"jt447fk3763","websiteUrl":"https://purl.stanford.edu/jt447fk3763","title":"満州十万分一圖 兆南及開魯","ckey":12284216,"web_map":"","available":"true","iiifUrl":"https://purl.stanford.edu/jt447fk3763/iiif/manifest"},"geometry":{"bbox":[122,46,123.00000000000001,46.666667],"type":"Polygon","coordinates":[[[122,46],[122,46.666667],[123.00000000000001,46.666667],[123.00000000000001,46],[122,46]]]}}],"name":"index_12284216"}
