{
"type": "FeatureCollection",
"name": "index_map",
"xy_coordinate_resolution": 1e-07,
"features": [
{ "type": "Feature", "properties": { "Id": 0, "Sheet_ID": "11. ブリドィン.スメ", "label": "11. ブリドィン.スメ", "call_short": "G7895 S200 .J3", "call_num": "G7895 S200 .J3 SHEET 11", "recid": "zb347zb1450", "websiteUrl": "https://purl.stanford.edu/zb347zb1450", "title": "蒙古ニ十万分一 烏得地方", "ckey": 12721144, "available": true, "iiifUrl": "https://purl.stanford.edu/zb347zb1450/iiif/manifest" }, "geometry": { "type": "Polygon", "coordinates": [ [ [ 110.0, 44.0 ], [ 111.0, 44.0 ], [ 111.0, 44.666667 ], [ 110.0, 44.666667 ], [ 110.0, 44.0 ] ] ] } },
{ "type": "Feature", "properties": { "Id": 0, "Sheet_ID": "サイン.シァンダ", "label": "サイン.シァンダ", "call_short": "0", "call_num": "0", "recid": "0", "websiteUrl": "0", "title": "0", "ckey": 0, "available": false, "iiifUrl": "0" }, "geometry": { "type": "Polygon", "coordinates": [ [ [ 110.0, 44.6666667 ], [ 111.0, 44.6666667 ], [ 111.0, 45.3333337 ], [ 110.0, 45.3333337 ], [ 110.0, 44.6666667 ] ] ] } },
{ "type": "Feature", "properties": { "Id": 0, "Sheet_ID": "エレスゥヌイ.ツァガンオホ.フゥラル", "label": "エレスゥヌイ.ツァガンオホ.フゥラル", "call_short": "0", "call_num": "0", "recid": "0", "websiteUrl": "0", "title": "0", "ckey": 0, "available": false, "iiifUrl": "0" }, "geometry": { "type": "Polygon", "coordinates": [ [ [ 110.0, 43.3333333 ], [ 111.0, 43.3333333 ], [ 111.0, 44.0000003 ], [ 110.0, 44.0000003 ], [ 110.0, 43.3333333 ] ] ] } },
{ "type": "Feature", "properties": { "Id": 0, "Sheet_ID": "ブルンギンフゥヲル", "label": "ブルンギンフゥヲル", "call_short": "0", "call_num": "0", "recid": "0", "websiteUrl": "0", "title": "0", "ckey": 0, "available": false, "iiifUrl": "0" }, "geometry": { "type": "Polygon", "coordinates": [ [ [ 111.0, 44.6666667 ], [ 112.0, 44.6666667 ], [ 112.0, 45.3333337 ], [ 111.0, 45.3333337 ], [ 111.0, 44.6666667 ] ] ] } },
{ "type": "Feature", "properties": { "Id": 0, "Sheet_ID": "ザムィン.ウデ", "label": "ザムィン.ウデ", "call_short": "0", "call_num": "0", "recid": "0", "websiteUrl": "0", "title": "0", "ckey": 0, "available": false, "iiifUrl": "0" }, "geometry": { "type": "Polygon", "coordinates": [ [ [ 111.0, 44.0 ], [ 112.0, 44.0 ], [ 112.0, 44.666667 ], [ 111.0, 44.666667 ], [ 111.0, 44.0 ] ] ] } },
{ "type": "Feature", "properties": { "Id": 0, "Sheet_ID": "ユニシゥフ.フゥヲル", "label": "ユニシゥフ.フゥヲル", "call_short": "0", "call_num": "0", "recid": "0", "websiteUrl": "0", "title": "0", "ckey": 0, "available": false, "iiifUrl": "0" }, "geometry": { "type": "Polygon", "coordinates": [ [ [ 111.0, 43.3333333 ], [ 112.0, 43.3333333 ], [ 112.0, 44.0000003 ], [ 111.0, 44.0000003 ], [ 111.0, 43.3333333 ] ] ] } },
{ "type": "Feature", "properties": { "Id": 0, "Sheet_ID": "フブスグル.ソモン", "label": "フブスグル.ソモン", "call_short": "0", "call_num": "0", "recid": "0", "websiteUrl": "0", "title": "0", "ckey": 0, "available": false, "iiifUrl": "0" }, "geometry": { "type": "Polygon", "coordinates": [ [ [ 109.0, 43.3333333 ], [ 110.0, 43.3333333 ], [ 110.0, 44.0000003 ], [ 109.0, 44.0000003 ], [ 109.0, 43.3333333 ] ] ] } },
{ "type": "Feature", "properties": { "Id": 0, "Sheet_ID": "チァンダマニ.ソモン", "label": "チァンダマニ.ソモン", "call_short": "0", "call_num": "0", "recid": "0", "websiteUrl": "0", "title": "0", "ckey": 0, "available": false, "iiifUrl": "0" }, "geometry": { "type": "Polygon", "coordinates": [ [ [ 109.0, 44.6666667 ], [ 110.0, 44.6666667 ], [ 110.0, 45.3333337 ], [ 109.0, 45.3333337 ], [ 109.0, 44.6666667 ] ] ] } },
{ "type": "Feature", "properties": { "Id": 0, "Sheet_ID": "オロン.フゥリエ", "label": "オロン.フゥリエ", "call_short": "0", "call_num": "0", "recid": "0", "websiteUrl": "0", "title": "0", "ckey": 0, "available": false, "iiifUrl": "0" }, "geometry": { "type": "Polygon", "coordinates": [ [ [ 109.0, 44.0 ], [ 110.0, 44.0 ], [ 110.0, 44.666667 ], [ 109.0, 44.666667 ], [ 109.0, 44.0 ] ] ] } }
]
}
