{"type":"FeatureCollection","features":[{"type":"Feature","properties":{"Id":0,"Sheet_ID":"20. コムソモリスク西部","label":"20. コムソモリスク西部","call_short":"G7270 S100 .J31","call_num":"G7270 S100 .J31 SHEET 20","recid":"cy866sv7724","websiteUrl":"https://purl.stanford.edu/cy866sv7724","title":"西伯利十万分一圖 コムソモリスク","ckey":12284151,"web_map":"","available":"true","iiifUrl":"https://purl.stanford.edu/cy866sv7724/iiif/manifest"},"geometry":{"bbox":[136,50,137,50.6666666],"type":"Polygon","coordinates":[[[136,50],[136,50.6666666],[137,50.6666666],[137,50],[136,50]]]}},{"type":"Feature","properties":{"Id":0,"Sheet_ID":"15. コムソモリスク東部","label":"15. コムソモリスク東部","call_short":"G7270 S100 .J31","call_num":"G7270 S100 .J31 SHEET 15","recid":"rz633ck7860","websiteUrl":"https://purl.stanford.edu/rz633ck7860","title":"西伯利十万分一圖 コムソモリスク","ckey":12284151,"web_map":"","available":"true","iiifUrl":"https://purl.stanford.edu/rz633ck7860/iiif/manifest"},"geometry":{"bbox":[137,50,138,50.6666666],"type":"Polygon","coordinates":[[[137,50],[137,50.6666666],[138,50.6666666],[138,50],[137,50]]]}},{"type":"Feature","properties":{"Id":0,"Sheet_ID":"10. フンガリー河上流","label":"10. フンガリー河上流","call_short":"","call_num":"","recid":"","websiteUrl":"","title":"","ckey":0,"web_map":"","available":"false","iiifUrl":""},"geometry":{"bbox":[138,50,139,50.6666666],"type":"Polygon","coordinates":[[[138,50],[138,50.6666666],[139,50.6666666],[139,50],[138,50]]]}},{"type":"Feature","properties":{"Id":0,"Sheet_ID":"14. スレドニタムボフスコエ","label":"14. スレドニタムボフスコエ","call_short":"","call_num":"","recid":"","websiteUrl":"","title":"","ckey":0,"web_map":"","available":"false","iiifUrl":""},"geometry":{"bbox":[137,50.6666666,138,51.3333332],"type":"Polygon","coordinates":[[[137,50.6666666],[137,51.3333332],[138,51.3333332],[138,50.6666666],[137,50.6666666]]]}},{"type":"Feature","properties":{"Id":0,"Sheet_ID":"9. ニシネタムボフスク","label":"9. ニシネタムボフスク","call_short":"","call_num":"","recid":"","websiteUrl":"","title":"","ckey":0,"web_map":"","available":"false","iiifUrl":""},"geometry":{"bbox":[138,50.6666666,139,51.3333332],"type":"Polygon","coordinates":[[[138,50.6666666],[138,51.3333332],[139,51.3333332],[139,50.6666666],[138,50.6666666]]]}},{"type":"Feature","properties":{"Id":0,"Sheet_ID":"4. アイ河上流","label":"4. アイ河上流","call_short":"","call_num":"","recid":"","websiteUrl":"","title":"","ckey":0,"web_map":"","available":"false","iiifUrl":""},"geometry":{"bbox":[139,50.6666666,140,51.3333332],"type":"Polygon","coordinates":[[[139,50.6666666],[139,51.3333332],[140,51.3333332],[140,50.6666666],[139,50.6666666]]]}},{"type":"Feature","properties":{"Id":0,"Sheet_ID":"8. キシリョーフカ","label":"8. キシリョーフカ","call_short":"","call_num":"","recid":"","websiteUrl":"","title":"","ckey":0,"web_map":"","available":"false","iiifUrl":""},"geometry":{"bbox":[138,51.3333332,139,51.999999800000005],"type":"Polygon","coordinates":[[[138,51.3333332],[138,51.999999800000005],[139,51.999999800000005],[139,51.3333332],[138,51.3333332]]]}},{"type":"Feature","properties":{"Id":0,"Sheet_ID":"3. ソフィスコエ","label":"3. ソフィスコエ","call_short":"G7270 S100 .J31","call_num":"G7270 S100 .J31 SHEET 3","recid":"dy062qb9657","websiteUrl":"https://purl.stanford.edu/dy062qb9657","title":"西伯利十万分一圖 コムソモリスク","ckey":12284151,"web_map":"","available":"true","iiifUrl":"https://purl.stanford.edu/dy062qb9657/iiif/manifest"},"geometry":{"bbox":[139,51.3333332,140,51.999999800000005],"type":"Polygon","coordinates":[[[139,51.3333332],[139,51.999999800000005],[140,51.999999800000005],[140,51.3333332],[139,51.3333332]]]}},{"type":"Feature","properties":{"Id":0,"Sheet_ID":"1. ウスチアムグン","label":"1. ウスチアムグン","call_short":"G7270 S100 .J31","call_num":"G7270 S100 .J31 SHEET 1","recid":"cm266tv0804","websiteUrl":"https://purl.stanford.edu/cm266tv0804","title":"西伯利十万分一圖 コムソモリスク","ckey":12284151,"web_map":"","available":"true","iiifUrl":"https://purl.stanford.edu/cm266tv0804/iiif/manifest"},"geometry":{"bbox":[139,52.66666640000001,140,53.333333],"type":"Polygon","coordinates":[[[139,52.66666640000001],[139,53.333333],[140,53.333333],[140,52.66666640000001],[139,52.66666640000001]]]}}],"name":"index_12284151"}
