{
"type": "FeatureCollection",
"name": "index_map",
"features": [
{ "type": "Feature", "properties": { "Id": 0, "Sheet_ID": "大連", "label": "大連", "call_short": "G7824 .D3 1935 .J3", "call_num": "G7824 .D3 1935 .J3", "recid": "gs354wf1995", "websiteUrl": "https://purl.stanford.edu/gs354wf1995", "title": "大連", "ckey": 13843540, "web_map": null, "available": true, "iiifUrl": "https://purl.stanford.edu/gs354wf1995/iiif/manifest" }, "geometry": { "type": "Polygon", "coordinates": [ [ [ 121.597222, 38.9 ], [ 121.6875, 38.9 ], [ 121.6875, 38.948611 ], [ 121.597222, 38.948611 ], [ 121.597222, 38.9 ] ] ] } }
]
}
