{"type":"FeatureCollection","features":[{"type":"Feature","properties":{"Id":0,"Sheet_ID":"5. チャランカノア","label":"5. チャランカノア","call_short":"G9412 .S3 S25 .J3","call_num":"G9412 .S3 S25 .J3 SHEET 5","recid":"wy401dx2918","websiteUrl":"https://purl.stanford.edu/wy401dx2918","title":"二万五千分一地形圖 サイパン島","ckey":10425403,"web_map":"","available":"true","iiifUrl":"https://purl.stanford.edu/wy401dx2918/iiif/manifest"},"geometry":{"bbox":[145.68333299999995,15.083332999999984,145.79999999999995,15.16666633333341],"type":"Polygon","coordinates":[[[145.68333299999995,15.083332999999984],[145.68333299999995,15.16666633333341],[145.79999999999995,15.16666633333341],[145.79999999999995,15.083332999999984],[145.68333299999995,15.083332999999984]]]}},{"type":"Feature","properties":{"Id":0,"Sheet_ID":"4. ガラパン","label":"4. ガラパン","call_short":"G9412 .S3 S25 .J3","call_num":"G9412 .S3 S25 .J3 SHEET 4","recid":"fh677hk3387","websiteUrl":"https://purl.stanford.edu/fh677hk3387","title":"二万五千分一地形圖 サイパン島","ckey":10425403,"web_map":"","available":"true","iiifUrl":"https://purl.stanford.edu/fh677hk3387/iiif/manifest"},"geometry":{"bbox":[145.7,15.166666333333334,145.8,15.249999666666668],"type":"Polygon","coordinates":[[[145.7,15.166666333333334],[145.7,15.249999666666668],[145.8,15.249999666666668],[145.8,15.166666333333334],[145.7,15.166666333333334]]]}},{"type":"Feature","properties":{"Id":0,"Sheet_ID":"2. カラベーラ","label":"2. カラベーラ","call_short":"G9412 .S3 S25 .J3","call_num":"G9412 .S3 S25 .J3 SHEET 2","recid":"nd597hs0265","websiteUrl":"https://purl.stanford.edu/nd597hs0265","title":"二万五千分一地形圖 サイパン島","ckey":10425403,"web_map":"","available":"true","iiifUrl":"https://purl.stanford.edu/nd597hs0265/iiif/manifest"},"geometry":{"bbox":[145.8,15.166666333333334,145.90000000000003,15.249999666666668],"type":"Polygon","coordinates":[[[145.8,15.166666333333334],[145.8,15.249999666666668],[145.90000000000003,15.249999666666668],[145.90000000000003,15.166666333333334],[145.8,15.166666333333334]]]}},{"type":"Feature","properties":{"Id":0,"Sheet_ID":"3. マッピ","label":"3. マッピ","call_short":"G9412 .S3 S25 .J3","call_num":"G9412 .S3 S25 .J3 SHEET 3","recid":"vz287bn1488","websiteUrl":"https://purl.stanford.edu/vz287bn1488","title":"二万五千分一地形圖 サイパン島","ckey":10425403,"web_map":"","available":"true","iiifUrl":"https://purl.stanford.edu/vz287bn1488/iiif/manifest"},"geometry":{"bbox":[145.7,15.249999666666668,145.8,15.333333],"type":"Polygon","coordinates":[[[145.7,15.249999666666668],[145.7,15.333333],[145.8,15.333333],[145.8,15.249999666666668],[145.7,15.249999666666668]]]}},{"type":"Feature","properties":{"Id":0,"Sheet_ID":"1. バナデル","label":"1. バナデル","call_short":"G9412 .S3 S25 .J3","call_num":"G9412 .S3 S25 .J3 SHEET 1","recid":"tf886zg3819","websiteUrl":"https://purl.stanford.edu/tf886zg3819","title":"二万五千分一地形圖 サイパン島","ckey":10425403,"web_map":"","available":"true","iiifUrl":"https://purl.stanford.edu/tf886zg3819/iiif/manifest"},"geometry":{"bbox":[145.8,15.249999666666668,145.90000000000003,15.333333],"type":"Polygon","coordinates":[[[145.8,15.249999666666668],[145.8,15.333333],[145.90000000000003,15.333333],[145.90000000000003,15.249999666666668],[145.8,15.249999666666668]]]}}],"name":"index_10425403"}
