{"type":"FeatureCollection","features":[{"type":"Feature","properties":{"Id":0,"Sheet_ID":"左 / WEST","label":"左 / WEST","call_short":"G7909 .C548 1935 .K6 1947","call_num":"G7909 .C548 1935 .K6 1947 WEST","recid":"yt069nf4417","websiteUrl":"https://purl.stanford.edu/yt069nf4417","title":"清津 / 朝鮮一万分一 清津","ckey":11351821,"web_map":"","available":"true","iiiUrl":"https://purl.stanford.edu/yt069nf4417/iiif/manifest"},"geometry":{"bbox":[129.75,41.761111,129.8,41.811111],"type":"Polygon","coordinates":[[[129.75,41.761111],[129.75,41.811111],[129.8,41.811111],[129.8,41.761111],[129.75,41.761111]]]}},{"type":"Feature","properties":{"Id":0,"Sheet_ID":"右 / EAST","label":"右 / EAST","call_short":"G7909 .C548 1935 .K6 1947","call_num":"G7909 .C548 1935 .K6 1947 EAST","recid":"mc592sm2502","websiteUrl":"https://purl.stanford.edu/mc592sm2502","title":"清津 / 朝鮮一万分一 清津","ckey":11351821,"web_map":"","available":"true","iiiUrl":"https://purl.stanford.edu/mc592sm2502/iiif/manifest"},"geometry":{"bbox":[129.80000000000007,41.75833299999999,129.85000000000014,41.81111100000004],"type":"Polygon","coordinates":[[[129.80000000000007,41.75833299999999],[129.80000000000007,41.81111100000004],[129.85000000000014,41.81111100000004],[129.85000000000014,41.75833299999999],[129.80000000000007,41.75833299999999]]]}}],"name":"index_11351821"}
