{"type":"FeatureCollection","features":[{"type":"Feature","properties":{"Id":0,"Sheet_ID":"バークパナン-1","label":"バークパナン-1","call_short":"G8025 S50 .J3","call_num":"G8025 S50 .J3 64-1","recid":"xj586hm6174","websiteUrl":"https://purl.stanford.edu/xj586hm6174","title":"要圖 (空中寫眞測量) タイ國五万分一圖","ckey":10468989,"web_map":"","available":"true","iiifUrl":"https://purl.stanford.edu/xj586hm6174/iiif/manifest"},"geometry":{"bbox":[100,8.333333,100.16666649999999,8.5],"type":"Polygon","coordinates":[[[100,8.333333],[100,8.5],[100.16666649999999,8.5],[100.16666649999999,8.333333],[100,8.333333]]]}},{"type":"Feature","properties":{"Id":0,"Sheet_ID":"バークパナン-2","label":"バークパナン-2","call_short":"G8025 S50 .J3","call_num":"G8025 S50 .J3 64-2","recid":"pd023rt2114","websiteUrl":"https://purl.stanford.edu/pd023rt2114","title":"要圖 (空中寫眞測量) タイ國五万分一圖","ckey":10468989,"web_map":"","available":"true","iiifUrl":"https://purl.stanford.edu/pd023rt2114/iiif/manifest"},"geometry":{"bbox":[100.16666649999999,8.333333,100.33333299999998,8.5],"type":"Polygon","coordinates":[[[100.16666649999999,8.333333],[100.16666649999999,8.5],[100.33333299999998,8.5],[100.33333299999998,8.333333],[100.16666649999999,8.333333]]]}},{"type":"Feature","properties":{"Id":0,"Sheet_ID":"ソンクラー-7","label":"ソンクラー-7","call_short":"G8025 S50 .J3","call_num":"G8025 S50 .J3 67-7","recid":"gg228fb9642","websiteUrl":"https://purl.stanford.edu/gg228fb9642","title":"要圖 (空中寫眞測量) タイ國五万分一圖","ckey":10468989,"web_map":"","available":"true","iiifUrl":"https://purl.stanford.edu/gg228fb9642/iiif/manifest"},"geometry":{"bbox":[100.4,7.000000000000114,100.566667,7.166666750000105],"type":"Polygon","coordinates":[[[100.4,7.000000000000114],[100.4,7.166666750000105],[100.566667,7.166666750000105],[100.566667,7.000000000000114],[100.4,7.000000000000114]]]}},{"type":"Feature","properties":{"Id":0,"Sheet_ID":"ソンクラー-5","label":"ソンクラー-5","call_short":"G8025 S50 .J3","call_num":"G8025 S50 .J3 67-5","recid":"th887qk5284","websiteUrl":"https://purl.stanford.edu/th887qk5284","title":"要圖 (空中寫眞測量) タイ國五万分一圖","ckey":10468989,"web_map":"","available":"true","iiifUrl":"https://purl.stanford.edu/th887qk5284/iiif/manifest"},"geometry":{"bbox":[100.38333300000001,7.166666750000105,100.55000000000001,7.333333499999981],"type":"Polygon","coordinates":[[[100.38333300000001,7.166666750000105],[100.38333300000001,7.333333499999981],[100.55000000000001,7.333333499999981],[100.55000000000001,7.166666750000105],[100.38333300000001,7.166666750000105]]]}},{"type":"Feature","properties":{"Id":0,"Sheet_ID":"ソンクラー-4","label":"ソンクラー-4","call_short":"G8025 S50 .J3","call_num":"G8025 S50 .J3 67-4","recid":"cp031jn3081","websiteUrl":"https://purl.stanford.edu/cp031jn3081","title":"要圖 (空中寫眞測量) タイ國五万分一圖","ckey":10468989,"web_map":"","available":"true","iiifUrl":"https://purl.stanford.edu/cp031jn3081/iiif/manifest"},"geometry":{"bbox":[100.38333300000001,7.333333499999981,100.55000000000001,7.500000250000028],"type":"Polygon","coordinates":[[[100.38333300000001,7.333333500000001],[100.38333300000001,7.500000250000028],[100.55000000000001,7.500000250000028],[100.55000000000001,7.333333499999981],[100.38333300000001,7.333333500000001]]]}},{"type":"Feature","properties":{"Id":0,"Sheet_ID":"ソンクラー-3","label":"ソンクラー-3","call_short":"G8025 S50 .J3","call_num":"G8025 S50 .J3 67-3","recid":"fs511fc7207","websiteUrl":"https://purl.stanford.edu/fs511fc7207","title":"要圖 (空中寫眞測量) タイ國五万分一圖","ckey":10468989,"web_map":"","available":"true","iiifUrl":"https://purl.stanford.edu/fs511fc7207/iiif/manifest"},"geometry":{"bbox":[100.333333,7.50000025,100.50000000000001,7.666667],"type":"Polygon","coordinates":[[[100.333333,7.50000025],[100.333333,7.666667],[100.50000000000001,7.666667],[100.50000000000001,7.50000025],[100.333333,7.50000025]]]}},{"type":"Feature","properties":{"Id":0,"Sheet_ID":"サトーン-1","label":"サトーン-1","call_short":"G8025 S50 .J3","call_num":"G8025 S50 .J3 69-1","recid":"tf674xy4364","websiteUrl":"https://purl.stanford.edu/tf674xy4364","title":"要圖 (空中寫眞測量) タイ國五万分一圖","ckey":10468989,"web_map":"","available":"true","iiifUrl":"https://purl.stanford.edu/tf674xy4364/iiif/manifest"},"geometry":{"bbox":[100.66666700000002,6.833333,100.83333350000001,7],"type":"Polygon","coordinates":[[[100.66666700000002,6.833333],[100.66666700000002,7],[100.83333350000001,7],[100.83333350000001,6.833333],[100.66666700000002,6.833333]]]}},{"type":"Feature","properties":{"Id":0,"Sheet_ID":"サトーン-2","label":"サトーン-2","call_short":"G8025 S50 .J3","call_num":"G8025 S50 .J3 69-2","recid":"hg502sk9616","websiteUrl":"https://purl.stanford.edu/hg502sk9616","title":"要圖 (空中寫眞測量) タイ國五万分一圖","ckey":10468989,"web_map":"","available":"true","iiifUrl":"https://purl.stanford.edu/hg502sk9616/iiif/manifest"},"geometry":{"bbox":[100.83333350000004,6.800000000000011,101.00000000000006,6.966667000000086],"type":"Polygon","coordinates":[[[100.83333350000004,6.800000000000011],[100.83333350000004,6.966667000000086],[101.00000000000006,6.966667000000086],[101.00000000000006,6.800000000000011],[100.83333350000004,6.800000000000011]]]}},{"type":"Feature","properties":{"Id":0,"Sheet_ID":"パッタニー-3","label":"パッタニー-3","call_short":"G8025 S50 .J3","call_num":"G8025 S50 .J3 70-3","recid":"rr239ng6225","websiteUrl":"https://purl.stanford.edu/rr239ng6225","title":"要圖 (空中寫眞測量) タイ國五万分一圖","ckey":10468989,"web_map":"","available":"true","iiifUrl":"https://purl.stanford.edu/rr239ng6225/iiif/manifest"},"geometry":{"bbox":[101.333333,6.8,101.5,6.966667],"type":"Polygon","coordinates":[[[101.333333,6.8],[101.333333,6.966667],[101.5,6.966667],[101.5,6.8],[101.333333,6.8]]]}},{"type":"Feature","properties":{"Id":0,"Sheet_ID":"パッタニー-6","label":"パッタニー-6","call_short":"G8025 S50 .J3","call_num":"G8025 S50 .J3 70-6","recid":"sf935kq0392","websiteUrl":"https://purl.stanford.edu/sf935kq0392","title":"要圖 (空中寫眞測量) タイ國五万分一圖","ckey":10468989,"web_map":"","available":"true","iiifUrl":"https://purl.stanford.edu/sf935kq0392/iiif/manifest"},"geometry":{"bbox":[101.66666700000003,6.383332999999993,101.83333299999998,6.550000000000068],"type":"Polygon","coordinates":[[[101.66666700000003,6.383332999999993],[101.66666700000003,6.550000000000068],[101.83333299999998,6.550000000000068],[101.83333299999998,6.383332999999993],[101.66666700000003,6.383332999999993]]]}}],"name":"index_10468989"}
