{"type":"FeatureCollection","features":[{"type":"Feature","properties":{"Id":0,"Sheet_ID":"1. ツルブ","label":"1. ツルブ","call_short":"G8182 .N4 S35 .J3","call_num":"G8182 .N4 S35 .J3 SHEET 1","recid":"cp636qq2523","websiteUrl":"https://purl.stanford.edu/cp636qq2523","title":"空中寫眞要圖 三万五千分一「ビスマルク」群島「ツルブ」-「ブッシング」岬間","ckey":10550267,"available":"","iiifUrl":"https://purl.stanford.edu/cp636qq2523/iiif/manifest"},"geometry":{"bbox":[148.316667,-5.55,148.466667,-5.433333],"type":"Polygon","coordinates":[[[148.316667,-5.55],[148.316667,-5.433333],[148.466667,-5.433333],[148.466667,-5.55],[148.316667,-5.55]]]}},{"type":"Feature","properties":{"Id":0,"Sheet_ID":"2. ラゴオン岬","label":"2. ラゴオン岬","call_short":"G8182 .N4 S35 .J3","call_num":"G8182 .N4 S35 .J3 SHEET 2","recid":"tr179jr7282","websiteUrl":"https://purl.stanford.edu/tr179jr7282","title":"空中寫眞要圖 三万五千分一「ビスマルク」群島「ツルブ」-「ブッシング」岬間","ckey":10550267,"available":"","iiifUrl":"https://purl.stanford.edu/tr179jr7282/iiif/manifest"},"geometry":{"bbox":[148.29999999999995,-5.699999999999989,148.4000000000001,-5.5499999999999545],"type":"Polygon","coordinates":[[[148.29999999999995,-5.5499999999999545],[148.4000000000001,-5.5499999999999545],[148.4000000000001,-5.699999999999989],[148.29999999999995,-5.699999999999989],[148.29999999999995,-5.5499999999999545]]]}},{"type":"Feature","properties":{"Id":0,"Sheet_ID":"3. アイシガ","label":"3. アイシガ","call_short":"G8182 .N4 S35 .J3","call_num":"G8182 .N4 S35 .J3 SHEET 3","recid":"fw384zw2326","websiteUrl":"https://purl.stanford.edu/fw384zw2326","title":"空中寫眞要圖 三万五千分一「ビスマルク」群島「ツルブ」-「ブッシング」岬間","ckey":10550267,"available":"","iiifUrl":"https://purl.stanford.edu/fw384zw2326/iiif/manifest"},"geometry":{"bbox":[148.3125,-5.800000000000011,148.46249999999998,-5.699999999999989],"type":"Polygon","coordinates":[[[148.3125,-5.800000000000011],[148.3125,-5.699999999999989],[148.46249999999998,-5.699999999999989],[148.46249999999998,-5.800000000000011],[148.3125,-5.800000000000011]]]}},{"type":"Feature","properties":{"Id":0,"Sheet_ID":"4. ブッシング岬","label":"4. ブッシング岬","call_short":"G8182 .N4 S35 .J3","call_num":"G8182 .N4 S35 .J3 SHEET 4","recid":"sm547td9738","websiteUrl":"https://purl.stanford.edu/sm547td9738","title":"空中寫眞要圖 三万五千分一「ビスマルク」群島「ツルブ」-「ブッシング」岬間","ckey":10550267,"available":"","iiifUrl":"https://purl.stanford.edu/sm547td9738/iiif/manifest"},"geometry":{"bbox":[148.46249999999998,-5.849999999999966,148.61250000000007,-5.749999999999943],"type":"Polygon","coordinates":[[[148.61250000000007,-5.849999999999966],[148.46249999999998,-5.849999999999966],[148.46249999999998,-5.749999999999943],[148.61250000000007,-5.749999999999943],[148.61250000000007,-5.849999999999966]]]}}],"name":"index_10550267"}
