{"type":"FeatureCollection","features":[{"type":"Feature","properties":{"Id":0,"Sheet_ID":"其四 / SOUTHWEST","label":"其四 / SOUTHWEST","call_short":"G7904 .S478 1942 .K6","call_num":"G7904 .S478 1942 .K6 SOUTHWEST","recid":"vs632qk5768","websiteUrl":"https://purl.stanford.edu/vs632qk5768","title":"一万分一朝鮮地形圖 京城","ckey":9598493,"web_map":"","available":"true","iiiUrl":"https://purl.stanford.edu/vs632qk5768/iiif/manifest"},"geometry":{"bbox":[126.93611100000001,37.498611,127.00055549999999,37.547222],"type":"Polygon","coordinates":[[[126.93611100000001,37.498611],[126.93611100000001,37.547222],[127.00055549999999,37.547222],[127.00055549999999,37.498611],[126.93611100000001,37.498611]]]}},{"type":"Feature","properties":{"Id":0,"Sheet_ID":"其二 / SOUTHEAST","label":"其二 / SOUTHEAST","call_short":"G7904 .S478 1942 .K6","call_num":"G7904 .S478 1942 .K6 SOUTHEAST","recid":"tk940qg6060","websiteUrl":"https://purl.stanford.edu/tk940qg6060","title":"一万分一朝鮮地形圖 京城","ckey":9598493,"web_map":"","available":"true","iiiUrl":"https://purl.stanford.edu/tk940qg6060/iiif/manifest"},"geometry":{"bbox":[127.00055549999999,37.498611,127.06500000000001,37.547222],"type":"Polygon","coordinates":[[[127.00055549999999,37.498611],[127.00055549999999,37.547222],[127.06500000000001,37.547222],[127.06500000000001,37.498611],[127.00055549999999,37.498611]]]}},{"type":"Feature","properties":{"Id":0,"Sheet_ID":"其三 / NORTHWEST","label":"其三 / NORTHWEST","call_short":"G7904 .S478 1942 .K6","call_num":"G7904 .S478 1942 .K6 NORTHWEST","recid":"th584nx8039","websiteUrl":"https://purl.stanford.edu/th584nx8039","title":"一万分一朝鮮地形圖 京城","ckey":9598493,"web_map":"","available":"true","iiiUrl":"https://purl.stanford.edu/th584nx8039/iiif/manifest"},"geometry":{"bbox":[126.93611100000001,37.547222,127.00055549999999,37.595833],"type":"Polygon","coordinates":[[[126.93611100000001,37.547222],[126.93611100000001,37.595833],[127.00055549999999,37.595833],[127.00055549999999,37.547222],[126.93611100000001,37.547222]]]}},{"type":"Feature","properties":{"Id":0,"Sheet_ID":"其一 / NORTHEAST","label":"其一 / NORTHEAST","call_short":"G7904 .S478 1942 .K6","call_num":"G7904 .S478 1942 .K6 NORTHEAST","recid":"xf324jh3854","websiteUrl":"https://purl.stanford.edu/xf324jh3854","title":"一万分一朝鮮地形圖 京城","ckey":9598493,"web_map":"","available":"true","iiiUrl":"https://purl.stanford.edu/xf324jh3854/iiif/manifest"},"geometry":{"bbox":[127.00055549999999,37.547222,127.06500000000001,37.595833],"type":"Polygon","coordinates":[[[127.00055549999999,37.547222],[127.00055549999999,37.595833],[127.06500000000001,37.595833],[127.06500000000001,37.547222],[127.00055549999999,37.547222]]]}}],"name":"index_9598493"}
