{
"type": "FeatureCollection",
"name": "index_map",
"xy_coordinate_resolution": 1e-07,
"features": [
{ "type": "Feature", "properties": { "Id": 0, "Sheet_ID": "九南ロ194. カメレピア", "label": "九南ロ194. カメレピア", "call_short": "G8073 .P3 S100 .J3", "call_num": "G8073 .P3 S100 .J3 9RO/194", "recid": "sg810cv8737", "websiteUrl": "https://purl.stanford.edu/sg810cv8737", "title": "空中寫真測圖 要圖 西部パプア十万分一", "ckey": 8220845, "available": true, "iiifUrl": "https://purl.stanford.edu/sg810cv8737/iiif/manifest" }, "geometry": { "type": "Polygon", "coordinates": [ [ [ 135.0, -4.666667 ], [ 135.5, -4.666667 ], [ 135.5, -4.3333336 ], [ 135.0, -4.3333336 ], [ 135.0, -4.666667 ] ] ] } },
{ "type": "Feature", "properties": { "Id": 0, "Sheet_ID": "壹〇南ロ143. ヌサウラン島", "label": "壹〇南ロ143. ヌサウラン島", "call_short": "G8073 .P3 S100 .J3", "call_num": "G8073 .P3 S100 .J3 10RO/143", "recid": "gt784pp5161", "websiteUrl": "https://purl.stanford.edu/gt784pp5161", "title": "空中寫真測圖 要圖 西部パプア十万分一", "ckey": 8220845, "available": true, "iiifUrl": "https://purl.stanford.edu/gt784pp5161/iiif/manifest" }, "geometry": { "type": "Polygon", "coordinates": [ [ [ 132.5, -4.3333336 ], [ 133.0, -4.3333336 ], [ 133.0, -4.0000002 ], [ 132.5, -4.0000002 ], [ 132.5, -4.3333336 ] ] ] } },
{ "type": "Feature", "properties": { "Id": 0, "Sheet_ID": "壹〇南ロ133. アデイ島西部", "label": "壹〇南ロ133. アデイ島西部", "call_short": "G8073 .P3 S100 .J3", "call_num": "G8073 .P3 S100 .J3 10RO/133", "recid": "rj773km6642", "websiteUrl": "https://purl.stanford.edu/rj773km6642", "title": "空中寫真測圖 要圖 西部パプア十万分一", "ckey": 8220845, "available": true, "iiifUrl": "https://purl.stanford.edu/rj773km6642/iiif/manifest" }, "geometry": { "type": "Polygon", "coordinates": [ [ [ 133.0, -4.3333336 ], [ 133.5, -4.3333336 ], [ 133.5, -4.0000002 ], [ 133.0, -4.0000002 ], [ 133.0, -4.3333336 ] ] ] } },
{ "type": "Feature", "properties": { "Id": 0, "Sheet_ID": "壹〇南ロ123. アデイ島東部", "label": "壹〇南ロ123. アデイ島東部", "call_short": "G8073 .P3 S100 .J3", "call_num": "G8073 .P3 S100 .J3 10RO/123", "recid": "zy878tg6024", "websiteUrl": "https://purl.stanford.edu/zy878tg6024", "title": "空中寫真測圖 要圖 西部パプア十万分一", "ckey": 8220845, "available": true, "iiifUrl": "https://purl.stanford.edu/zy878tg6024/iiif/manifest" }, "geometry": { "type": "Polygon", "coordinates": [ [ [ 133.5, -4.3333336 ], [ 134.0, -4.3333336 ], [ 134.0, -4.0000002 ], [ 133.5, -4.0000002 ], [ 133.5, -4.3333336 ] ] ] } },
{ "type": "Feature", "properties": { "Id": 0, "Sheet_ID": "壹〇南ロ113. デラマイ島", "label": "壹〇南ロ113. デラマイ島", "call_short": "G8073 .P3 S100 .J3", "call_num": "G8073 .P3 S100 .J3 10RO/113", "recid": "sm577rv4775", "websiteUrl": "https://purl.stanford.edu/sm577rv4775", "title": "空中寫真測圖 要圖 西部パプア十万分一", "ckey": 8220845, "available": true, "iiifUrl": "https://purl.stanford.edu/sm577rv4775/iiif/manifest" }, "geometry": { "type": "Polygon", "coordinates": [ [ [ 134.0, -4.3333336 ], [ 134.5, -4.3333336 ], [ 134.5, -4.0000002 ], [ 134.0, -4.0000002 ], [ 134.0, -4.3333336 ] ] ] } },
{ "type": "Feature", "properties": { "Id": 0, "Sheet_ID": "壹〇南ロ103. ブル山", "label": "壹〇南ロ103. ブル山", "call_short": "G8073 .P3 S100 .J3", "call_num": "G8073 .P3 S100 .J3 10RO/103", "recid": "ms010nb3600", "websiteUrl": "https://purl.stanford.edu/ms010nb3600", "title": "空中寫真測圖 要圖 西部パプア十万分一", "ckey": 8220845, "available": true, "iiifUrl": "https://purl.stanford.edu/ms010nb3600/iiif/manifest" }, "geometry": { "type": "Polygon", "coordinates": [ [ [ 135.0, -4.0000002 ], [ 134.5, -4.0000002 ], [ 134.5, -4.3333336 ], [ 134.95, -4.3333336 ], [ 134.95, -4.35 ], [ 135.0, -4.35 ], [ 135.0, -4.3333336 ], [ 135.0, -4.0000002 ] ] ] } },
{ "type": "Feature", "properties": { "Id": 0, "Sheet_ID": "九南ロ193. ナマリピ河", "label": "九南ロ193. ナマリピ河", "call_short": "G8073 .P3 S100 .J3", "call_num": "G8073 .P3 S100 .J3 9RO/193", "recid": "fh516jw2764", "websiteUrl": "https://purl.stanford.edu/fh516jw2764", "title": "空中寫真測圖 要圖 東部パプア十万分一", "ckey": 8220845, "available": true, "iiifUrl": "https://purl.stanford.edu/fh516jw2764/iiif/manifest" }, "geometry": { "type": "Polygon", "coordinates": [ [ [ 135.0, -4.3333336 ], [ 135.5, -4.3333336 ], [ 135.5, -4.0000002 ], [ 135.0, -4.0000002 ], [ 135.0, -4.3333336 ] ] ] } },
{ "type": "Feature", "properties": { "Id": 0, "Sheet_ID": "壹〇南ロ142. バイク山", "label": "壹〇南ロ142. バイク山", "call_short": "G8073 .P3 S100 .J3", "call_num": "G8073 .P3 S100 .J3 10RO/142", "recid": "dj910jc0723", "websiteUrl": "https://purl.stanford.edu/dj910jc0723", "title": "空中寫真測圖 要圖 西部パプア十万分一", "ckey": 8220845, "available": true, "iiifUrl": "https://purl.stanford.edu/dj910jc0723/iiif/manifest" }, "geometry": { "type": "Polygon", "coordinates": [ [ [ 132.5, -4.0000002 ], [ 133.0, -4.0000002 ], [ 133.0, -3.6666668 ], [ 132.5, -3.6666668 ], [ 132.5, -4.0000002 ] ] ] } },
{ "type": "Feature", "properties": { "Id": 0, "Sheet_ID": "壹〇南ロ132. カルファ河", "label": "壹〇南ロ132. カルファ河", "call_short": "G8073 .P3 S100 .J3", "call_num": "G8073 .P3 S100 .J3 10RO/132", "recid": "cc373tx0554", "websiteUrl": "https://purl.stanford.edu/cc373tx0554", "title": "空中寫真測圖 要圖 西部パプア十万分一", "ckey": 8220845, "available": true, "iiifUrl": "https://purl.stanford.edu/cc373tx0554/iiif/manifest" }, "geometry": { "type": "Polygon", "coordinates": [ [ [ 133.0, -4.0000002 ], [ 133.5, -4.0000002 ], [ 133.5, -3.6666668 ], [ 133.0, -3.6666668 ], [ 133.0, -4.0000002 ] ] ] } },
{ "type": "Feature", "properties": { "Id": 0, "Sheet_ID": "壹〇南ロ122. ナマトテ島", "label": "壹〇南ロ122. ナマトテ島", "call_short": "G8073 .P3 S100 .J3", "call_num": "G8073 .P3 S100 .J3 10RO/122", "recid": "ty825kr2926", "websiteUrl": "https://purl.stanford.edu/ty825kr2926", "title": "空中寫真測圖 要圖 西部パプア十万分一", "ckey": 8220845, "available": true, "iiifUrl": "https://purl.stanford.edu/ty825kr2926/iiif/manifest" }, "geometry": { "type": "Polygon", "coordinates": [ [ [ 133.5, -4.0000002 ], [ 134.0, -4.0000002 ], [ 134.0, -3.6666668 ], [ 133.5, -3.6666668 ], [ 133.5, -4.0000002 ] ] ] } },
{ "type": "Feature", "properties": { "Id": 0, "Sheet_ID": "壹〇南ロ112. テリトン灣", "label": "壹〇南ロ112. テリトン灣", "call_short": "G8073 .P3 S100 .J3", "call_num": "G8073 .P3 S100 .J3 10RO/112", "recid": "vg213jp3110", "websiteUrl": "https://purl.stanford.edu/vg213jp3110", "title": "空中寫真測圖 要圖 西部パプア十万分一", "ckey": 8220845, "available": true, "iiifUrl": "https://purl.stanford.edu/vg213jp3110/iiif/manifest" }, "geometry": { "type": "Polygon", "coordinates": [ [ [ 134.0, -4.0000002 ], [ 134.5, -4.0000002 ], [ 134.5, -3.6666668 ], [ 134.0, -3.6666668 ], [ 134.0, -4.0000002 ] ] ] } },
{ "type": "Feature", "properties": { "Id": 0, "Sheet_ID": "壹〇南ロ102. バマナ山", "label": "壹〇南ロ102. バマナ山", "call_short": "G8073 .P3 S100 .J3", "call_num": "G8073 .P3 S100 .J3 10RO/102", "recid": "dh883bj8058", "websiteUrl": "https://purl.stanford.edu/dh883bj8058", "title": "空中寫真測圖 要圖 西部パプア十万分一", "ckey": 8220845, "available": true, "iiifUrl": "https://purl.stanford.edu/dh883bj8058/iiif/manifest" }, "geometry": { "type": "Polygon", "coordinates": [ [ [ 134.5, -4.0000002 ], [ 135.0, -4.0000002 ], [ 135.0, -3.6666668 ], [ 134.5, -3.6666668 ], [ 134.5, -4.0000002 ] ] ] } },
{ "type": "Feature", "properties": { "Id": 0, "Sheet_ID": "壹〇南ロ141. カラス島", "label": "壹〇南ロ141. カラス島", "call_short": "G8073 .P3 S100 .J3", "call_num": "G8073 .P3 S100 .J3 10RO/141", "recid": "cj403ds4553", "websiteUrl": "https://purl.stanford.edu/cj403ds4553", "title": "空中寫真測圖 要圖 西部パプア十万分一", "ckey": 8220845, "available": true, "iiifUrl": "https://purl.stanford.edu/cj403ds4553/iiif/manifest" }, "geometry": { "type": "Polygon", "coordinates": [ [ [ 132.5, -3.6666668 ], [ 133.0, -3.6666668 ], [ 133.0, -3.3333335 ], [ 132.5, -3.3333335 ], [ 132.5, -3.6666668 ] ] ] } },
{ "type": "Feature", "properties": { "Id": 0, "Sheet_ID": "壹〇南ロ131. ベロアイ河", "label": "壹〇南ロ131. ベロアイ河", "call_short": "G8073 .P3 S100 .J3", "call_num": "G8073 .P3 S100 .J3 10RO/131", "recid": "gm344fp1730", "websiteUrl": "https://purl.stanford.edu/gm344fp1730", "title": "空中寫真測圖 要圖 西部パプア十万分一", "ckey": 8220845, "available": true, "iiifUrl": "https://purl.stanford.edu/gm344fp1730/iiif/manifest" }, "geometry": { "type": "Polygon", "coordinates": [ [ [ 133.0, -3.6666668 ], [ 133.5, -3.6666668 ], [ 133.5, -3.3333335 ], [ 133.0, -3.3333335 ], [ 133.0, -3.6666668 ] ] ] } },
{ "type": "Feature", "properties": { "Id": 0, "Sheet_ID": "壹〇南ロ121. カイマナ", "label": "壹〇南ロ121. カイマナ", "call_short": "G8073 .P3 S100 .J3", "call_num": "G8073 .P3 S100 .J3 10RO/121", "recid": "kk821dp5609", "websiteUrl": "https://purl.stanford.edu/kk821dp5609", "title": "空中寫真測圖 要圖 西部パプア十万分一", "ckey": 8220845, "available": true, "iiifUrl": "https://purl.stanford.edu/kk821dp5609/iiif/manifest" }, "geometry": { "type": "Polygon", "coordinates": [ [ [ 133.5, -3.6666668 ], [ 134.0, -3.6666668 ], [ 134.0, -3.3333335 ], [ 133.5, -3.3333335 ], [ 133.5, -3.6666668 ] ] ] } },
{ "type": "Feature", "properties": { "Id": 0, "Sheet_ID": "壹〇南ロ111. オライ山", "label": "壹〇南ロ111. オライ山", "call_short": "G8073 .P3 S100 .J3", "call_num": "G8073 .P3 S100 .J3 10RO/111", "recid": "dk090py1960", "websiteUrl": "https://purl.stanford.edu/dk090py1960", "title": "空中寫真測圖 要圖 西部パプア十万分一", "ckey": 8220845, "available": true, "iiifUrl": "https://purl.stanford.edu/dk090py1960/iiif/manifest" }, "geometry": { "type": "Polygon", "coordinates": [ [ [ 134.0, -3.6666668 ], [ 134.5, -3.6666668 ], [ 134.5, -3.3333335 ], [ 134.0, -3.3333335 ], [ 134.0, -3.6666668 ] ] ] } },
{ "type": "Feature", "properties": { "Id": 0, "Sheet_ID": "壹〇南ロ101. オライ山東部", "label": "壹〇南ロ101. オライ山東部", "call_short": "G8073 .P3 S100 .J3", "call_num": "G8073 .P3 S100 .J3 10RO/101", "recid": "ch991sx3701", "websiteUrl": "https://purl.stanford.edu/ch991sx3701", "title": "空中寫真測圖 要圖 西部パプア十万分一", "ckey": 8220845, "available": true, "iiifUrl": "https://purl.stanford.edu/ch991sx3701/iiif/manifest" }, "geometry": { "type": "Polygon", "coordinates": [ [ [ 134.5, -3.6666668 ], [ 135.0, -3.6666668 ], [ 135.0, -3.3333335 ], [ 134.5, -3.3333335 ], [ 134.5, -3.6666668 ] ] ] } },
{ "type": "Feature", "properties": { "Id": 0, "Sheet_ID": "九南ロ181. クラレ川", "label": "九南ロ181. クラレ川", "call_short": "G8073 .P3 S100 .J3", "call_num": "G8073 .P3 S100 .J3 9RO/181", "recid": "vm445jt1929", "websiteUrl": "https://purl.stanford.edu/vm445jt1929", "title": "空中寫真測圖 要圖 西部パプア十万分一", "ckey": 8220845, "available": true, "iiifUrl": "https://purl.stanford.edu/vm445jt1929/iiif/manifest" }, "geometry": { "type": "Polygon", "coordinates": [ [ [ 135.5, -3.6666668 ], [ 136.0, -3.6666668 ], [ 136.0, -3.3333335 ], [ 135.5, -3.3333335 ], [ 135.5, -3.6666668 ] ] ] } },
{ "type": "Feature", "properties": { "Id": 0, "Sheet_ID": "九南ロ171. クラレ川上流", "label": "九南ロ171. クラレ川上流", "call_short": "G8073 .P3 S100 .J3", "call_num": "G8073 .P3 S100 .J3 9RO/171", "recid": "kp730sj4804", "websiteUrl": "https://purl.stanford.edu/kp730sj4804", "title": "空中寫真測圖 要圖 西部パプア十万分一", "ckey": 8220845, "available": true, "iiifUrl": "https://purl.stanford.edu/kp730sj4804/iiif/manifest" }, "geometry": { "type": "Polygon", "coordinates": [ [ [ 136.0, -3.6666668 ], [ 136.5, -3.6666668 ], [ 136.5, -3.3333335 ], [ 136.0, -3.3333335 ], [ 136.0, -3.6666668 ] ] ] } },
{ "type": "Feature", "properties": { "Id": 0, "Sheet_ID": "壹〇南イ160. セマイ島", "label": "壹〇南イ160. セマイ島", "call_short": "G8073 .P3 S100 .J3", "call_num": "G8073 .P3 S100 .J3 10I/160", "recid": "dv286pp3645", "websiteUrl": "https://purl.stanford.edu/dv286pp3645", "title": "空中寫真測圖 要圖 西部パプア十万分一", "ckey": 8220845, "available": true, "iiifUrl": "https://purl.stanford.edu/dv286pp3645/iiif/manifest" }, "geometry": { "type": "Polygon", "coordinates": [ [ [ 132.0, -3.3333335 ], [ 132.5, -3.3333335 ], [ 132.5, -3.0000001 ], [ 132.0, -3.0000001 ], [ 132.0, -3.3333335 ] ] ] } },
{ "type": "Feature", "properties": { "Id": 0, "Sheet_ID": "壹〇南イ150. ウェリ", "label": "壹〇南イ150. ウェリ", "call_short": "G8073 .P3 S100 .J3", "call_num": "G8073 .P3 S100 .J3 10I/150", "recid": "gb857wc1654", "websiteUrl": "https://purl.stanford.edu/gb857wc1654", "title": "空中寫真測圖 要圖 西部パプア十万分一", "ckey": 8220845, "available": true, "iiifUrl": "https://purl.stanford.edu/gb857wc1654/iiif/manifest" }, "geometry": { "type": "Polygon", "coordinates": [ [ [ 132.5, -3.3333335 ], [ 133.0, -3.3333335 ], [ 133.0, -3.0000001 ], [ 132.5, -3.0000001 ], [ 132.5, -3.3333335 ] ] ] } },
{ "type": "Feature", "properties": { "Id": 0, "Sheet_ID": "壹〇南イ140. クムブァレー川", "label": "壹〇南イ140. クムブァレー川", "call_short": "G8073 .P3 S100 .J3", "call_num": "G8073 .P3 S100 .J3 10I/140", "recid": "cd793zm8225", "websiteUrl": "https://purl.stanford.edu/cd793zm8225", "title": "空中寫真測圖 要圖 西部パプア十万分一", "ckey": 8220845, "available": true, "iiifUrl": "https://purl.stanford.edu/cd793zm8225/iiif/manifest" }, "geometry": { "type": "Polygon", "coordinates": [ [ [ 133.0, -3.3333335 ], [ 133.5, -3.3333335 ], [ 133.5, -3.0000001 ], [ 133.0, -3.0000001 ], [ 133.0, -3.3333335 ] ] ] } },
{ "type": "Feature", "properties": { "Id": 0, "Sheet_ID": "壹〇南イ130. アルグニ灣", "label": "壹〇南イ130. アルグニ灣", "call_short": "G8073 .P3 S100 .J3", "call_num": "G8073 .P3 S100 .J3 10I/130", "recid": "rb290qm2382", "websiteUrl": "https://purl.stanford.edu/rb290qm2382", "title": "空中寫真測圖 要圖 西部パプア十万分一", "ckey": 8220845, "available": true, "iiifUrl": "https://purl.stanford.edu/rb290qm2382/iiif/manifest" }, "geometry": { "type": "Polygon", "coordinates": [ [ [ 133.5, -3.3333335 ], [ 134.0, -3.3333335 ], [ 134.0, -3.0000001 ], [ 133.5, -3.0000001 ], [ 133.5, -3.3333335 ] ] ] } },
{ "type": "Feature", "properties": { "Id": 0, "Sheet_ID": "壹〇南イ120. ワインゲェツ山", "label": "壹〇南イ120. ワインゲェツ山", "call_short": "G8073 .P3 S100 .J3", "call_num": "G8073 .P3 S100 .J3 10I/120", "recid": "fg341pz1201", "websiteUrl": "https://purl.stanford.edu/fg341pz1201", "title": "空中寫真測圖 要圖 西部パプア十万分一", "ckey": 8220845, "available": true, "iiifUrl": "https://purl.stanford.edu/fg341pz1201/iiif/manifest" }, "geometry": { "type": "Polygon", "coordinates": [ [ [ 134.0, -3.3333335 ], [ 134.5, -3.3333335 ], [ 134.5, -3.0000001 ], [ 134.0, -3.0000001 ], [ 134.0, -3.3333335 ] ] ] } },
{ "type": "Feature", "properties": { "Id": 0, "Sheet_ID": "九南イ190. マキミ", "label": "九南イ190. マキミ", "call_short": "G8073 .P3 S100 .J3", "call_num": "G8073 .P3 S100 .J3 9I/190", "recid": "nm115kr8844", "websiteUrl": "https://purl.stanford.edu/nm115kr8844", "title": "空中寫真測圖 要圖 西部パプア十万分一", "ckey": 8220845, "available": true, "iiifUrl": "https://purl.stanford.edu/nm115kr8844/iiif/manifest" }, "geometry": { "type": "Polygon", "coordinates": [ [ [ 135.5, -3.3333335 ], [ 136.0, -3.3333335 ], [ 136.0, -3.0000001 ], [ 135.5, -3.0000001 ], [ 135.5, -3.3333335 ] ] ] } },
{ "type": "Feature", "properties": { "Id": 0, "Sheet_ID": "九南イ180. ワレナイ川", "label": "九南イ180. ワレナイ川", "call_short": "G8073 .P3 S100 .J3", "call_num": "G8073 .P3 S100 .J3 9I/180", "recid": "qm491gc6496", "websiteUrl": "https://purl.stanford.edu/qm491gc6496", "title": "空中寫真測圖 要圖 西部パプア十万分一", "ckey": 8220845, "available": true, "iiifUrl": "https://purl.stanford.edu/qm491gc6496/iiif/manifest" }, "geometry": { "type": "Polygon", "coordinates": [ [ [ 136.0, -3.3333335 ], [ 136.5, -3.3333335 ], [ 136.5, -3.0000001 ], [ 136.0, -3.0000001 ], [ 136.0, -3.3333335 ] ] ] } },
{ "type": "Feature", "properties": { "Id": 0, "Sheet_ID": "壹〇南イ169. バツウプティー島", "label": "壹〇南イ169. バツウプティー島", "call_short": "G8073 .P3 S100 .J3", "call_num": "G8073 .P3 S100 .J3 10I/169", "recid": "gw409nh9379", "websiteUrl": "https://purl.stanford.edu/gw409nh9379", "title": "空中寫真測圖 要圖 西部パプア十万分一", "ckey": 8220845, "available": true, "iiifUrl": "https://purl.stanford.edu/gw409nh9379/iiif/manifest" }, "geometry": { "type": "Polygon", "coordinates": [ [ [ 131.5, -3.0000001 ], [ 132.0, -3.0000001 ], [ 132.0, -2.6666667 ], [ 131.5, -2.6666667 ], [ 131.5, -3.0000001 ] ] ] } },
{ "type": "Feature", "properties": { "Id": 0, "Sheet_ID": "壹〇南イ159. フアクフアク", "label": "壹〇南イ159. フアクフアク", "call_short": "G8073 .P3 S100 .J3", "call_num": "G8073 .P3 S100 .J3 10I/159", "recid": "jk336yt4185", "websiteUrl": "https://purl.stanford.edu/jk336yt4185", "title": "空中寫真測圖 要圖 西部パプア十万分一", "ckey": 8220845, "available": true, "iiifUrl": "https://purl.stanford.edu/jk336yt4185/iiif/manifest" }, "geometry": { "type": "Polygon", "coordinates": [ [ [ 132.0, -3.0000001 ], [ 132.5, -3.0000001 ], [ 132.5, -2.6666667 ], [ 132.0, -2.6666667 ], [ 132.0, -3.0000001 ] ] ] } },
{ "type": "Feature", "properties": { "Id": 0, "Sheet_ID": "壹〇南イ149. ゲモール", "label": "壹〇南イ149. ゲモール", "call_short": "G8073 .P3 S100 .J3", "call_num": "G8073 .P3 S100 .J3 10I/149", "recid": "mh299fn5888", "websiteUrl": "https://purl.stanford.edu/mh299fn5888", "title": "空中寫真測圖 要圖 西部パプア十万分一", "ckey": 8220845, "available": true, "iiifUrl": "https://purl.stanford.edu/mh299fn5888/iiif/manifest" }, "geometry": { "type": "Polygon", "coordinates": [ [ [ 132.5, -3.0000001 ], [ 133.0, -3.0000001 ], [ 133.0, -2.6666667 ], [ 132.5, -2.6666667 ], [ 132.5, -3.0000001 ] ] ] } },
{ "type": "Feature", "properties": { "Id": 0, "Sheet_ID": "壹〇南イ139. アロバ川", "label": "壹〇南イ139. アロバ川", "call_short": "G8073 .P3 S100 .J3", "call_num": "G8073 .P3 S100 .J3 10I/139", "recid": "mr977cs5900", "websiteUrl": "https://purl.stanford.edu/mr977cs5900", "title": "空中寫真測圖 要圖 西部パプア十万分一", "ckey": 8220845, "available": true, "iiifUrl": "https://purl.stanford.edu/mr977cs5900/iiif/manifest" }, "geometry": { "type": "Polygon", "coordinates": [ [ [ 133.0, -3.0000001 ], [ 133.5, -3.0000001 ], [ 133.5, -2.6666667 ], [ 133.0, -2.6666667 ], [ 133.0, -3.0000001 ] ] ] } },
{ "type": "Feature", "properties": { "Id": 0, "Sheet_ID": "壹〇南イ129. カイテロ河南部", "label": "壹〇南イ129. カイテロ河南部", "call_short": "G8073 .P3 S100 .J3", "call_num": "G8073 .P3 S100 .J3 10I/129", "recid": "yq950kw0496", "websiteUrl": "https://purl.stanford.edu/yq950kw0496", "title": "空中寫真測圖 要圖 西部パプア十万分一", "ckey": 8220845, "available": true, "iiifUrl": "https://purl.stanford.edu/yq950kw0496/iiif/manifest" }, "geometry": { "type": "Polygon", "coordinates": [ [ [ 133.5, -3.0000001 ], [ 134.0, -3.0000001 ], [ 134.0, -2.6666667 ], [ 133.5, -2.6666667 ], [ 133.5, -3.0000001 ] ] ] } },
{ "type": "Feature", "properties": { "Id": 0, "Sheet_ID": "壹〇南イ119. ワインゲェツ山北部", "label": "壹〇南イ119. ワインゲェツ山北部", "call_short": "G8073 .P3 S100 .J3", "call_num": "G8073 .P3 S100 .J3 10I/119", "recid": "fp902mh5952", "websiteUrl": "https://purl.stanford.edu/fp902mh5952", "title": "空中寫真測圖 要圖 西部パプア十万分一", "ckey": 8220845, "available": true, "iiifUrl": "https://purl.stanford.edu/fp902mh5952/iiif/manifest" }, "geometry": { "type": "Polygon", "coordinates": [ [ [ 134.0, -3.0000001 ], [ 134.5, -3.0000001 ], [ 134.5, -2.6666667 ], [ 134.0, -2.6666667 ], [ 134.0, -3.0000001 ] ] ] } },
{ "type": "Feature", "properties": { "Id": 0, "Sheet_ID": "九南イ189. ワレナイ川下流", "label": "九南イ189. ワレナイ川下流", "call_short": "G8073 .P3 S100 .J3", "call_num": "G8073 .P3 S100 .J3 9I/189", "recid": "tb615cp1415", "websiteUrl": "https://purl.stanford.edu/tb615cp1415", "title": "空中寫真測圖 要圖 西部パプア十万分一", "ckey": 8220845, "available": true, "iiifUrl": "https://purl.stanford.edu/tb615cp1415/iiif/manifest" }, "geometry": { "type": "Polygon", "coordinates": [ [ [ 135.5, -3.0000001 ], [ 136.0, -3.0000001 ], [ 136.0, -2.6666667 ], [ 135.5, -2.6666667 ], [ 135.5, -3.0000001 ] ] ] } },
{ "type": "Feature", "properties": { "Id": 0, "Sheet_ID": "九南イ179. ワポガ川", "label": "九南イ179. ワポガ川", "call_short": "G8073 .P3 S100 .J3", "call_num": "G8073 .P3 S100 .J3 9I/179", "recid": "rf173qj6754", "websiteUrl": "https://purl.stanford.edu/rf173qj6754", "title": "空中寫真測圖 要圖 西部パプア十万分一", "ckey": 8220845, "available": true, "iiifUrl": "https://purl.stanford.edu/rf173qj6754/iiif/manifest" }, "geometry": { "type": "Polygon", "coordinates": [ [ [ 136.0, -3.0000001 ], [ 136.5, -3.0000001 ], [ 136.5, -2.6666667 ], [ 136.0, -2.6666667 ], [ 136.0, -3.0000001 ] ] ] } },
{ "type": "Feature", "properties": { "Id": 0, "Sheet_ID": "九南イ169. ブイワ川", "label": "九南イ169. ブイワ川", "call_short": "G8073 .P3 S100 .J3", "call_num": "G8073 .P3 S100 .J3 9I/169", "recid": "bm097gy0537", "websiteUrl": "https://purl.stanford.edu/bm097gy0537", "title": "空中寫真測圖 要圖 西部パプア十万分一", "ckey": 8220845, "available": true, "iiifUrl": "https://purl.stanford.edu/bm097gy0537/iiif/manifest" }, "geometry": { "type": "Polygon", "coordinates": [ [ [ 136.5, -3.0000001 ], [ 137.0, -3.0000001 ], [ 137.0, -2.6666667 ], [ 136.5, -2.6666667 ], [ 136.5, -3.0000001 ] ] ] } },
{ "type": "Feature", "properties": { "Id": 0, "Sheet_ID": "八南イ189. アルゾ", "label": "八南イ189. アルゾ", "call_short": "G8073 .P3 S100 .J3", "call_num": "G8073 .P3 S100 .J3 8I/189", "recid": "wv836jf8047", "websiteUrl": "https://purl.stanford.edu/wv836jf8047", "title": "空中寫真測圖 要圖 西部パプア十万分一", "ckey": 8220845, "available": true, "iiifUrl": "https://purl.stanford.edu/wv836jf8047/iiif/manifest" }, "geometry": { "type": "Polygon", "coordinates": [ [ [ 140.5, -3.0000001 ], [ 141.0, -3.0000001 ], [ 141.0, -2.6666667 ], [ 140.5, -2.6666667 ], [ 140.5, -3.0000001 ] ] ] } },
{ "type": "Feature", "properties": { "Id": 0, "Sheet_ID": "壹〇南イ168. ピサン諸島", "label": "壹〇南イ168. ピサン諸島", "call_short": "G8073 .P3 S100 .J3", "call_num": "G8073 .P3 S100 .J3 10I/168", "recid": "gk278cj9587", "websiteUrl": "https://purl.stanford.edu/gk278cj9587", "title": "空中寫真測圖 要圖 西部パプア十万分一", "ckey": 8220845, "available": true, "iiifUrl": "https://purl.stanford.edu/gk278cj9587/iiif/manifest" }, "geometry": { "type": "Polygon", "coordinates": [ [ [ 131.5, -2.6666667 ], [ 132.0, -2.6666667 ], [ 132.0, -2.3333333 ], [ 131.5, -2.3333333 ], [ 131.5, -2.6666667 ] ] ] } },
{ "type": "Feature", "properties": { "Id": 0, "Sheet_ID": "壹〇南イ158. オガル島", "label": "壹〇南イ158. オガル島", "call_short": "G8073 .P3 S100 .J3", "call_num": "G8073 .P3 S100 .J3 10I/158", "recid": "pn663bz2459", "websiteUrl": "https://purl.stanford.edu/pn663bz2459", "title": "空中寫真測圖 要圖 西部パプア十万分一", "ckey": 8220845, "available": true, "iiifUrl": "https://purl.stanford.edu/pn663bz2459/iiif/manifest" }, "geometry": { "type": "Polygon", "coordinates": [ [ [ 132.0, -2.6666667 ], [ 132.5, -2.6666667 ], [ 132.5, -2.3333333 ], [ 132.0, -2.3333333 ], [ 132.0, -2.6666667 ] ] ] } },
{ "type": "Feature", "properties": { "Id": 0, "Sheet_ID": "壹〇南イ138. バボウ", "label": "壹〇南イ138. バボウ", "call_short": "G8073 .P3 S100 .J3", "call_num": "G8073 .P3 S100 .J3 10I/138", "recid": "tn065kq3141", "websiteUrl": "https://purl.stanford.edu/tn065kq3141", "title": "空中寫真測圖 要圖 西部パプア十万分一", "ckey": 8220845, "available": true, "iiifUrl": "https://purl.stanford.edu/tn065kq3141/iiif/manifest" }, "geometry": { "type": "Polygon", "coordinates": [ [ [ 133.0, -2.6666667 ], [ 133.5, -2.6666667 ], [ 133.5, -2.3333333 ], [ 133.0, -2.3333333 ], [ 133.0, -2.6666667 ] ] ] } },
{ "type": "Feature", "properties": { "Id": 0, "Sheet_ID": "壹〇南イ128. カイテロ河北部", "label": "壹〇南イ128. カイテロ河北部", "call_short": "G8073 .P3 S100 .J3", "call_num": "G8073 .P3 S100 .J3 10I/128", "recid": "qy176jd8632", "websiteUrl": "https://purl.stanford.edu/qy176jd8632", "title": "空中寫真測圖 要圖 西部パプア十万分一", "ckey": 8220845, "available": true, "iiifUrl": "https://purl.stanford.edu/qy176jd8632/iiif/manifest" }, "geometry": { "type": "Polygon", "coordinates": [ [ [ 133.5, -2.6666667 ], [ 134.0, -2.6666667 ], [ 134.0, -2.3333333 ], [ 133.5, -2.3333333 ], [ 133.5, -2.6666667 ] ] ] } },
{ "type": "Feature", "properties": { "Id": 0, "Sheet_ID": "九南イ178. サノリンガ (デサワ) 川", "label": "九南イ178. サノリンガ (デサワ) 川", "call_short": "G8073 .P3 S100 .J3", "call_num": "G8073 .P3 S100 .J3 9I/178", "recid": "qq561rp3993", "websiteUrl": "https://purl.stanford.edu/qq561rp3993", "title": "空中寫真測圖 要圖 西部パプア十万分一", "ckey": 8220845, "available": true, "iiifUrl": "https://purl.stanford.edu/qq561rp3993/iiif/manifest" }, "geometry": { "type": "Polygon", "coordinates": [ [ [ 136.0, -2.6666667 ], [ 136.5, -2.6666667 ], [ 136.5, -2.3333333 ], [ 136.0, -2.3333333 ], [ 136.0, -2.6666667 ] ] ] } },
{ "type": "Feature", "properties": { "Id": 0, "Sheet_ID": "九南イ168. ワレン川", "label": "九南イ168. ワレン川", "call_short": "G8073 .P3 S100 .J3", "call_num": "G8073 .P3 S100 .J3 9I/168", "recid": "wr024kn2442", "websiteUrl": "https://purl.stanford.edu/wr024kn2442", "title": "空中寫真測圖 要圖 西部パプア十万分一", "ckey": 8220845, "available": true, "iiifUrl": "https://purl.stanford.edu/wr024kn2442/iiif/manifest" }, "geometry": { "type": "Polygon", "coordinates": [ [ [ 136.5, -2.6666667 ], [ 137.0, -2.6666667 ], [ 137.0, -2.3333333 ], [ 136.5, -2.3333333 ], [ 136.5, -2.6666667 ] ] ] } },
{ "type": "Feature", "properties": { "Id": 0, "Sheet_ID": "九南イ158. バラパッシ川上流", "label": "九南イ158. バラパッシ川上流", "call_short": "G8073 .P3 S100 .J3", "call_num": "G8073 .P3 S100 .J3 9I/158", "recid": "hp784qj1445", "websiteUrl": "https://purl.stanford.edu/hp784qj1445", "title": "空中寫真測圖 要圖 西部パプア十万分一", "ckey": 8220845, "available": true, "iiifUrl": "https://purl.stanford.edu/hp784qj1445/iiif/manifest" }, "geometry": { "type": "Polygon", "coordinates": [ [ [ 137.0, -2.6666667 ], [ 137.5, -2.6666667 ], [ 137.5, -2.3333333 ], [ 137.0, -2.3333333 ], [ 137.0, -2.6666667 ] ] ] } },
{ "type": "Feature", "properties": { "Id": 0, "Sheet_ID": "九南イ148. キレマ川", "label": "九南イ148. キレマ川", "call_short": "G8073 .P3 S100 .J3", "call_num": "G8073 .P3 S100 .J3 9I/148", "recid": "hw047mq0972", "websiteUrl": "https://purl.stanford.edu/hw047mq0972", "title": "空中寫真測圖 要圖 西部パプア十万分一", "ckey": 8220845, "available": true, "iiifUrl": "https://purl.stanford.edu/hw047mq0972/iiif/manifest" }, "geometry": { "type": "Polygon", "coordinates": [ [ [ 137.5, -2.6666667 ], [ 138.0, -2.6666667 ], [ 138.0, -2.3333333 ], [ 137.5, -2.3333333 ], [ 137.5, -2.6666667 ] ] ] } },
{ "type": "Feature", "properties": { "Id": 0, "Sheet_ID": "九南イ128. イスメリ山", "label": "九南イ128. イスメリ山", "call_short": "G8073 .P3 S100 .J3", "call_num": "G8073 .P3 S100 .J3 9I/128", "recid": "nc931vp9284", "websiteUrl": "https://purl.stanford.edu/nc931vp9284", "title": "空中寫真測量要圖 西部パプア十万分一圖", "ckey": 8220845, "available": true, "iiifUrl": "https://purl.stanford.edu/nc931vp9284/iiif/manifest" }, "geometry": { "type": "Polygon", "coordinates": [ [ [ 138.5, -2.6666667 ], [ 139.0, -2.6666667 ], [ 139.0, -2.3333333 ], [ 138.5, -2.3333333 ], [ 138.5, -2.6666667 ] ] ] } },
{ "type": "Feature", "properties": { "Id": 0, "Sheet_ID": "九南イ118. タフン湖", "label": "九南イ118. タフン湖", "call_short": "G8073 .P3 S100 .J3", "call_num": "G8073 .P3 S100 .J3 9I/118", "recid": "sf977jk0990", "websiteUrl": "https://purl.stanford.edu/sf977jk0990", "title": "空中寫真測量要圖 西部パプア十万分一圖", "ckey": 8220845, "available": true, "iiifUrl": "https://purl.stanford.edu/sf977jk0990/iiif/manifest" }, "geometry": { "type": "Polygon", "coordinates": [ [ [ 139.0, -2.6666667 ], [ 139.5, -2.6666667 ], [ 139.5, -2.3333333 ], [ 139.0, -2.3333333 ], [ 139.0, -2.6666667 ] ] ] } },
{ "type": "Feature", "properties": { "Id": 0, "Sheet_ID": "九南イ108. トアリム河", "label": "九南イ108. トアリム河", "call_short": "G8073 .P3 S100 .J3", "call_num": "G8073 .P3 S100 .J3 9I/108", "recid": "vd672ht9832", "websiteUrl": "https://purl.stanford.edu/vd672ht9832", "title": "空中寫真測量要圖 西部パプア十万分一圖", "ckey": 8220845, "available": true, "iiifUrl": "https://purl.stanford.edu/vd672ht9832/iiif/manifest" }, "geometry": { "type": "Polygon", "coordinates": [ [ [ 139.5, -2.6666667 ], [ 140.0, -2.6666667 ], [ 140.0, -2.3333333 ], [ 139.5, -2.3333333 ], [ 139.5, -2.6666667 ] ] ] } },
{ "type": "Feature", "properties": { "Id": 0, "Sheet_ID": "八南イ198. テミンゴフ", "label": "八南イ198. テミンゴフ", "call_short": "G8073 .P3 S100 .J3", "call_num": "G8073 .P3 S100 .J3 8I/198", "recid": "kw876gx1515", "websiteUrl": "https://purl.stanford.edu/kw876gx1515", "title": "空中寫真測圖 要圖 西部パプア十万分一", "ckey": 8220845, "available": true, "iiifUrl": "https://purl.stanford.edu/kw876gx1515/iiif/manifest" }, "geometry": { "type": "Polygon", "coordinates": [ [ [ 140.0, -2.6666667 ], [ 140.5, -2.6666667 ], [ 140.5, -2.3333333 ], [ 140.0, -2.3333333 ], [ 140.0, -2.6666667 ] ] ] } },
{ "type": "Feature", "properties": { "Id": 0, "Sheet_ID": "八南イ188. ホルランヂア", "label": "八南イ188. ホルランヂア", "call_short": "G8073 .P3 S100 .J3", "call_num": "G8073 .P3 S100 .J3 8I/188", "recid": "dp170nn6259", "websiteUrl": "https://purl.stanford.edu/dp170nn6259", "title": "空中寫真測圖 要圖 西部パプア十万分一", "ckey": 8220845, "available": true, "iiifUrl": "https://purl.stanford.edu/dp170nn6259/iiif/manifest" }, "geometry": { "type": "Polygon", "coordinates": [ [ [ 140.5, -2.6666667 ], [ 141.0, -2.6666667 ], [ 141.0, -2.3333333 ], [ 140.5, -2.3333333 ], [ 140.5, -2.6666667 ] ] ] } },
{ "type": "Feature", "properties": { "Id": 0, "Sheet_ID": "壹〇南イ147. カラクラ岬", "label": "壹〇南イ147. カラクラ岬", "call_short": "G8073 .P3 S100 .J3", "call_num": "G8073 .P3 S100 .J3 10I/147", "recid": "mt615mc5617", "websiteUrl": "https://purl.stanford.edu/mt615mc5617", "title": "空中寫真測圖 要圖 西部パプア十万分一", "ckey": 8220845, "available": true, "iiifUrl": "https://purl.stanford.edu/mt615mc5617/iiif/manifest" }, "geometry": { "type": "Polygon", "coordinates": [ [ [ 132.5, -2.3333333 ], [ 133.0, -2.3333333 ], [ 133.0, -1.9999999 ], [ 132.5, -1.9999999 ], [ 132.5, -2.3333333 ] ] ] } },
{ "type": "Feature", "properties": { "Id": 0, "Sheet_ID": "壹〇南イ137. パライデ", "label": "壹〇南イ137. パライデ", "call_short": "G8073 .P3 S100 .J3", "call_num": "G8073 .P3 S100 .J3 10I/137", "recid": "vn906bq8462", "websiteUrl": "https://purl.stanford.edu/vn906bq8462", "title": "空中寫真測圖 要圖 西部パプア十万分一", "ckey": 8220845, "available": true, "iiifUrl": "https://purl.stanford.edu/vn906bq8462/iiif/manifest" }, "geometry": { "type": "Polygon", "coordinates": [ [ [ 133.0, -2.3333333 ], [ 133.5, -2.3333333 ], [ 133.5, -1.9999999 ], [ 133.0, -1.9999999 ], [ 133.0, -2.3333333 ] ] ] } },
{ "type": "Feature", "properties": { "Id": 0, "Sheet_ID": "壹〇南イ127. カバリシ岬", "label": "壹〇南イ127. カバリシ岬", "call_short": "G8073 .P3 S100 .J3", "call_num": "G8073 .P3 S100 .J3 10I/127", "recid": "jn291qr3102", "websiteUrl": "https://purl.stanford.edu/jn291qr3102", "title": "空中寫真測圖 要圖 西部パプア十万分一", "ckey": 8220845, "available": true, "iiifUrl": "https://purl.stanford.edu/jn291qr3102/iiif/manifest" }, "geometry": { "type": "Polygon", "coordinates": [ [ [ 133.5, -2.3333333 ], [ 134.0, -2.3333333 ], [ 134.0, -1.9999999 ], [ 133.5, -1.9999999 ], [ 133.5, -2.3333333 ] ] ] } },
{ "type": "Feature", "properties": { "Id": 0, "Sheet_ID": "壹〇南イ117. ヤカティ河", "label": "壹〇南イ117. ヤカティ河", "call_short": "G8073 .P3 S100 .J3", "call_num": "G8073 .P3 S100 .J3 10I/117", "recid": "tn364xf2548", "websiteUrl": "https://purl.stanford.edu/tn364xf2548", "title": "空中寫真測圖 要圖 西部パプア十万分一", "ckey": 8220845, "available": true, "iiifUrl": "https://purl.stanford.edu/tn364xf2548/iiif/manifest" }, "geometry": { "type": "Polygon", "coordinates": [ [ [ 134.0, -2.3333333 ], [ 134.5, -2.3333333 ], [ 134.5, -1.9999999 ], [ 134.0, -1.9999999 ], [ 134.0, -2.3333333 ] ] ] } },
{ "type": "Feature", "properties": { "Id": 0, "Sheet_ID": "九南イ177. ワレン", "label": "九南イ177. ワレン", "call_short": "G8073 .P3 S100 .J3", "call_num": "G8073 .P3 S100 .J3 9I/177", "recid": "pr225cc2665", "websiteUrl": "https://purl.stanford.edu/pr225cc2665", "title": "空中寫真測圖 要圖 西部パプア十万分一", "ckey": 8220845, "available": true, "iiifUrl": "https://purl.stanford.edu/pr225cc2665/iiif/manifest" }, "geometry": { "type": "Polygon", "coordinates": [ [ [ 136.0, -2.3333333 ], [ 136.5, -2.3333333 ], [ 136.5, -1.9999999 ], [ 136.0, -1.9999999 ], [ 136.0, -2.3333333 ] ] ] } },
{ "type": "Feature", "properties": { "Id": 0, "Sheet_ID": "九南イ167. デムバ", "label": "九南イ167. デムバ", "call_short": "G8073 .P3 S100 .J3", "call_num": "G8073 .P3 S100 .J3 9I/167", "recid": "cn800wj7744", "websiteUrl": "https://purl.stanford.edu/cn800wj7744", "title": "空中寫真測圖 要圖 西部パプア十万分一", "ckey": 8220845, "available": true, "iiifUrl": "https://purl.stanford.edu/cn800wj7744/iiif/manifest" }, "geometry": { "type": "Polygon", "coordinates": [ [ [ 136.5, -2.3333333 ], [ 137.0, -2.3333333 ], [ 137.0, -1.9999999 ], [ 136.5, -1.9999999 ], [ 136.5, -2.3333333 ] ] ] } },
{ "type": "Feature", "properties": { "Id": 0, "Sheet_ID": "九南イ157. バラパッシ川下流", "label": "九南イ157. バラパッシ川下流", "call_short": "G8073 .P3 S100 .J3", "call_num": "G8073 .P3 S100 .J3 9I/157", "recid": "xb038by9718", "websiteUrl": "https://purl.stanford.edu/xb038by9718", "title": "空中寫真測圖 要圖 西部パプア十万分一", "ckey": 8220845, "available": true, "iiifUrl": "https://purl.stanford.edu/xb038by9718/iiif/manifest" }, "geometry": { "type": "Polygon", "coordinates": [ [ [ 137.0, -2.3333333 ], [ 137.5, -2.3333333 ], [ 137.5, -1.9999999 ], [ 137.0, -1.9999999 ], [ 137.0, -2.3333333 ] ] ] } },
{ "type": "Feature", "properties": { "Id": 0, "Sheet_ID": "九南イ147. マムベラモ川", "label": "九南イ147. マムベラモ川", "call_short": "G8073 .P3 S100 .J3", "call_num": "G8073 .P3 S100 .J3 9I/147", "recid": "hy550yn1994", "websiteUrl": "https://purl.stanford.edu/hy550yn1994", "title": "空中寫真測圖 要圖 西部パプア十万分一", "ckey": 8220845, "available": true, "iiifUrl": "https://purl.stanford.edu/hy550yn1994/iiif/manifest" }, "geometry": { "type": "Polygon", "coordinates": [ [ [ 137.5, -2.3333333 ], [ 138.0, -2.3333333 ], [ 138.0, -1.9999999 ], [ 137.5, -1.9999999 ], [ 137.5, -2.3333333 ] ] ] } },
{ "type": "Feature", "properties": { "Id": 0, "Sheet_ID": "九南イ137. ククンドゥリ川", "label": "九南イ137. ククンドゥリ川", "call_short": "G8073 .P3 S100 .J3", "call_num": "G8073 .P3 S100 .J3 9I/137", "recid": "yh066zd3272", "websiteUrl": "https://purl.stanford.edu/yh066zd3272", "title": "空中寫真測量要圖 西部パプア十万分一圖", "ckey": 8220845, "available": true, "iiifUrl": "https://purl.stanford.edu/yh066zd3272/iiif/manifest" }, "geometry": { "type": "Polygon", "coordinates": [ [ [ 138.0, -2.3333333 ], [ 138.5, -2.3333333 ], [ 138.5, -1.9999999 ], [ 138.0, -1.9999999 ], [ 138.0, -2.3333333 ] ] ] } },
{ "type": "Feature", "properties": { "Id": 0, "Sheet_ID": "九南イ127. トル河", "label": "九南イ127. トル河", "call_short": "G8073 .P3 S100 .J3", "call_num": "G8073 .P3 S100 .J3 9I/127", "recid": "fx640gx2489", "websiteUrl": "https://purl.stanford.edu/fx640gx2489", "title": "空中寫真測量要圖 西部パプア十万分一圖", "ckey": 8220845, "available": true, "iiifUrl": "https://purl.stanford.edu/fx640gx2489/iiif/manifest" }, "geometry": { "type": "Polygon", "coordinates": [ [ [ 138.5, -2.3333333 ], [ 139.0, -2.3333333 ], [ 139.0, -1.9999999 ], [ 138.5, -1.9999999 ], [ 138.5, -2.3333333 ] ] ] } },
{ "type": "Feature", "properties": { "Id": 0, "Sheet_ID": "九南イ117. ビリ河", "label": "九南イ117. ビリ河", "call_short": "G8073 .P3 S100 .J3", "call_num": "G8073 .P3 S100 .J3 9I/117", "recid": "wk210nm2348", "websiteUrl": "https://purl.stanford.edu/wk210nm2348", "title": "空中寫真測量要圖 西部パプア十万分一圖", "ckey": 8220845, "available": true, "iiifUrl": "https://purl.stanford.edu/wk210nm2348/iiif/manifest" }, "geometry": { "type": "Polygon", "coordinates": [ [ [ 139.0, -2.3333333 ], [ 139.5, -2.3333333 ], [ 139.5, -1.9999999 ], [ 139.0, -1.9999999 ], [ 139.0, -2.3333333 ] ] ] } },
{ "type": "Feature", "properties": { "Id": 0, "Sheet_ID": "九南イ107. ウィル河", "label": "九南イ107. ウィル河", "call_short": "G8073 .P3 S100 .J3", "call_num": "G8073 .P3 S100 .J3 9I/107", "recid": "pv391ys1353", "websiteUrl": "https://purl.stanford.edu/pv391ys1353", "title": "空中寫真測量要圖 西部パプア十万分一圖", "ckey": 8220845, "available": true, "iiifUrl": "https://purl.stanford.edu/pv391ys1353/iiif/manifest" }, "geometry": { "type": "Polygon", "coordinates": [ [ [ 139.5, -2.3333333 ], [ 140.0, -2.3333333 ], [ 140.0, -1.9999999 ], [ 139.5, -1.9999999 ], [ 139.5, -2.3333333 ] ] ] } },
{ "type": "Feature", "properties": { "Id": 0, "Sheet_ID": "壹〇南イ156. カイス河", "label": "壹〇南イ156. カイス河", "call_short": "G8073 .P3 S100 .J3", "call_num": "G8073 .P3 S100 .J3 10I/156", "recid": "rt996bk0572", "websiteUrl": "https://purl.stanford.edu/rt996bk0572", "title": "空中寫真測圖 要圖 西部パプア十万分一", "ckey": 8220845, "available": true, "iiifUrl": "https://purl.stanford.edu/rt996bk0572/iiif/manifest" }, "geometry": { "type": "Polygon", "coordinates": [ [ [ 132.0, -1.9999999 ], [ 132.5, -1.9999999 ], [ 132.5, -1.6666665 ], [ 132.0, -1.6666665 ], [ 132.0, -1.9999999 ] ] ] } },
{ "type": "Feature", "properties": { "Id": 0, "Sheet_ID": "壹〇南イ146. タネモ湖", "label": "壹〇南イ146. タネモ湖", "call_short": "G8073 .P3 S100 .J3", "call_num": "G8073 .P3 S100 .J3 10I/146", "recid": "zn775kn6225", "websiteUrl": "https://purl.stanford.edu/zn775kn6225", "title": "空中寫真測圖 要圖 西部パプア十万分一", "ckey": 8220845, "available": true, "iiifUrl": "https://purl.stanford.edu/zn775kn6225/iiif/manifest" }, "geometry": { "type": "Polygon", "coordinates": [ [ [ 132.5, -1.9999999 ], [ 133.0, -1.9999999 ], [ 133.0, -1.6666665 ], [ 132.5, -1.6666665 ], [ 132.5, -1.9999999 ] ] ] } },
{ "type": "Feature", "properties": { "Id": 0, "Sheet_ID": "壹〇南イ136. ワシアン河", "label": "壹〇南イ136. ワシアン河", "call_short": "G8073 .P3 S100 .J3", "call_num": "G8073 .P3 S100 .J3 10I/136", "recid": "hx590wt4872", "websiteUrl": "https://purl.stanford.edu/hx590wt4872", "title": "空中寫真測圖 要圖 西部パプア十万分一", "ckey": 8220845, "available": true, "iiifUrl": "https://purl.stanford.edu/hx590wt4872/iiif/manifest" }, "geometry": { "type": "Polygon", "coordinates": [ [ [ 133.0, -1.9999999 ], [ 133.5, -1.9999999 ], [ 133.5, -1.6666665 ], [ 133.0, -1.6666665 ], [ 133.0, -1.9999999 ] ] ] } },
{ "type": "Feature", "properties": { "Id": 0, "Sheet_ID": "壹〇南イ126. ムトウリ河", "label": "壹〇南イ126. ムトウリ河", "call_short": "G8073 .P3 S100 .J3", "call_num": "G8073 .P3 S100 .J3 10I/126", "recid": "qv163wd7471", "websiteUrl": "https://purl.stanford.edu/qv163wd7471", "title": "空中寫真測圖 要圖 西部パプア十万分一", "ckey": 8220845, "available": true, "iiifUrl": "https://purl.stanford.edu/qv163wd7471/iiif/manifest" }, "geometry": { "type": "Polygon", "coordinates": [ [ [ 133.5, -1.9999999 ], [ 134.0, -1.9999999 ], [ 134.0, -1.6666665 ], [ 133.5, -1.6666665 ], [ 133.5, -1.9999999 ] ] ] } },
{ "type": "Feature", "properties": { "Id": 0, "Sheet_ID": "壹〇南イ116. ルムブルボン島", "label": "壹〇南イ116. ルムブルボン島", "call_short": "G8073 .P3 S100 .J3", "call_num": "G8073 .P3 S100 .J3 10I/116", "recid": "dy844gr5911", "websiteUrl": "https://purl.stanford.edu/dy844gr5911", "title": "空中寫真測圖 要圖 西部パプア十万分一", "ckey": 8220845, "available": true, "iiifUrl": "https://purl.stanford.edu/dy844gr5911/iiif/manifest" }, "geometry": { "type": "Polygon", "coordinates": [ [ [ 134.0, -1.9999999 ], [ 134.5, -1.9999999 ], [ 134.5, -1.6666665 ], [ 134.0, -1.6666665 ], [ 134.0, -1.9999999 ] ] ] } },
{ "type": "Feature", "properties": { "Id": 0, "Sheet_ID": "九南イ166. クルドウ島西部", "label": "九南イ166. クルドウ島西部", "call_short": "G8073 .P3 S100 .J3", "call_num": "G8073 .P3 S100 .J3 9I/166", "recid": "bc462dt1927", "websiteUrl": "https://purl.stanford.edu/bc462dt1927", "title": "空中寫真測圖 要圖 西部パプア十万分一", "ckey": 8220845, "available": true, "iiifUrl": "https://purl.stanford.edu/bc462dt1927/iiif/manifest" }, "geometry": { "type": "Polygon", "coordinates": [ [ [ 136.5, -1.9999999 ], [ 137.0, -1.9999999 ], [ 137.0, -1.6666665 ], [ 136.5, -1.6666665 ], [ 136.5, -1.9999999 ] ] ] } },
{ "type": "Feature", "properties": { "Id": 0, "Sheet_ID": "九南イ156. サワイ", "label": "九南イ156. サワイ", "call_short": "G8073 .P3 S100 .J3", "call_num": "G8073 .P3 S100 .J3 9I/156", "recid": "qj601hg1237", "websiteUrl": "https://purl.stanford.edu/qj601hg1237", "title": "空中寫真測圖 要圖 西部パプア十万分一", "ckey": 8220845, "available": true, "iiifUrl": "https://purl.stanford.edu/qj601hg1237/iiif/manifest" }, "geometry": { "type": "Polygon", "coordinates": [ [ [ 137.0, -1.9999999 ], [ 137.5, -1.9999999 ], [ 137.5, -1.6666665 ], [ 137.0, -1.6666665 ], [ 137.0, -1.9999999 ] ] ] } },
{ "type": "Feature", "properties": { "Id": 0, "Sheet_ID": "九南イ146. ウェイル川", "label": "九南イ146. ウェイル川", "call_short": "G8073 .P3 S100 .J3", "call_num": "G8073 .P3 S100 .J3 9I/146", "recid": "ks478pt8511", "websiteUrl": "https://purl.stanford.edu/ks478pt8511", "title": "空中寫真測圖 要圖 西部パプア十万分一", "ckey": 8220845, "available": true, "iiifUrl": "https://purl.stanford.edu/ks478pt8511/iiif/manifest" }, "geometry": { "type": "Polygon", "coordinates": [ [ [ 137.5, -1.9999999 ], [ 138.0, -1.9999999 ], [ 138.0, -1.6666665 ], [ 137.5, -1.6666665 ], [ 137.5, -1.9999999 ] ] ] } },
{ "type": "Feature", "properties": { "Id": 0, "Sheet_ID": "九南イ136. ムワル川", "label": "九南イ136. ムワル川", "call_short": "G8073 .P3 S100 .J3", "call_num": "G8073 .P3 S100 .J3 9I/136", "recid": "sv793mw4277", "websiteUrl": "https://purl.stanford.edu/sv793mw4277", "title": "空中寫真測量要圖 西部パプア十万分一圖", "ckey": 8220845, "available": true, "iiifUrl": "https://purl.stanford.edu/sv793mw4277/iiif/manifest" }, "geometry": { "type": "Polygon", "coordinates": [ [ [ 138.0, -1.9999999 ], [ 138.5, -1.9999999 ], [ 138.5, -1.6666665 ], [ 138.0, -1.6666665 ], [ 138.0, -1.9999999 ] ] ] } },
{ "type": "Feature", "properties": { "Id": 0, "Sheet_ID": "九南イ126. サルミ", "label": "九南イ126. サルミ", "call_short": "G8073 .P3 S100 .J3", "call_num": "G8073 .P3 S100 .J3 9I/126", "recid": "pg939wz7947", "websiteUrl": "https://purl.stanford.edu/pg939wz7947", "title": "空中寫真測量要圖 西部パプア十万分一圖", "ckey": 8220845, "available": true, "iiifUrl": "https://purl.stanford.edu/pg939wz7947/iiif/manifest" }, "geometry": { "type": "Polygon", "coordinates": [ [ [ 139.0, -1.6666665 ], [ 138.85, -1.6666665 ], [ 138.85, -1.57 ], [ 138.7, -1.57 ], [ 138.7, -1.6666665 ], [ 138.5, -1.6666665 ], [ 138.5, -1.9999999 ], [ 139.0, -1.9999999 ], [ 139.05, -1.9999999 ], [ 139.05, -1.9 ], [ 139.0, -1.9 ], [ 139.0, -1.6666665 ] ] ] } },
{ "type": "Feature", "properties": { "Id": 0, "Sheet_ID": "壹〇南イ185. サイレーン", "label": "壹〇南イ185. サイレーン", "call_short": "G8073 .P3 S100 .J3", "call_num": "G8073 .P3 S100 .J3 10I/185", "recid": "kf288vf0356", "websiteUrl": "https://purl.stanford.edu/kf288vf0356", "title": "空中寫真測量要圖 西部パプア十万分一圖", "ckey": 8220845, "available": true, "iiifUrl": "https://purl.stanford.edu/kf288vf0356/iiif/manifest" }, "geometry": { "type": "Polygon", "coordinates": [ [ [ 130.5, -1.6666665 ], [ 131.0, -1.6666665 ], [ 131.0, -1.3333332 ], [ 130.5, -1.3333332 ], [ 130.5, -1.6666665 ] ] ] } },
{ "type": "Feature", "properties": { "Id": 0, "Sheet_ID": "壹〇南イ175. フモンケット岬", "label": "壹〇南イ175. フモンケット岬", "call_short": "G8073 .P3 S100 .J3", "call_num": "G8073 .P3 S100 .J3 10I/175", "recid": "fx965ks1029", "websiteUrl": "https://purl.stanford.edu/fx965ks1029", "title": "空中寫真測量要圖 西部パプア十万分一圖", "ckey": 8220845, "available": true, "iiifUrl": "https://purl.stanford.edu/fx965ks1029/iiif/manifest" }, "geometry": { "type": "Polygon", "coordinates": [ [ [ 131.0, -1.6666665 ], [ 131.5, -1.6666665 ], [ 131.5, -1.3333332 ], [ 131.0, -1.3333332 ], [ 131.0, -1.6666665 ] ] ] } },
{ "type": "Feature", "properties": { "Id": 0, "Sheet_ID": "壹〇南イ165. カイブス灣", "label": "壹〇南イ165. カイブス灣", "call_short": "G8073 .P3 S100 .J3", "call_num": "G8073 .P3 S100 .J3 10I/165", "recid": "fk364kz3628", "websiteUrl": "https://purl.stanford.edu/fk364kz3628", "title": "空中寫真測圖 要圖 西部パプア十万分一", "ckey": 8220845, "available": true, "iiifUrl": "https://purl.stanford.edu/fk364kz3628/iiif/manifest" }, "geometry": { "type": "Polygon", "coordinates": [ [ [ 131.5, -1.6666665 ], [ 132.0, -1.6666665 ], [ 132.0, -1.3333332 ], [ 131.5, -1.3333332 ], [ 131.5, -1.6666665 ] ] ] } },
{ "type": "Feature", "properties": { "Id": 0, "Sheet_ID": "壹〇南イ155. ワロムゲ河", "label": "壹〇南イ155. ワロムゲ河", "call_short": "G8073 .P3 S100 .J3", "call_num": "G8073 .P3 S100 .J3 10I/155", "recid": "cb766fd7382", "websiteUrl": "https://purl.stanford.edu/cb766fd7382", "title": "空中寫真測圖 要圖 西部パプア十万分一", "ckey": 8220845, "available": true, "iiifUrl": "https://purl.stanford.edu/cb766fd7382/iiif/manifest" }, "geometry": { "type": "Polygon", "coordinates": [ [ [ 132.0, -1.6666665 ], [ 132.5, -1.6666665 ], [ 132.5, -1.3333332 ], [ 132.0, -1.3333332 ], [ 132.0, -1.6666665 ] ] ] } },
{ "type": "Feature", "properties": { "Id": 0, "Sheet_ID": "壹〇南イ145. アイファト河", "label": "壹〇南イ145. アイファト河", "call_short": "G8073 .P3 S100 .J3", "call_num": "G8073 .P3 S100 .J3 10I/145", "recid": "vj342tv0269", "websiteUrl": "https://purl.stanford.edu/vj342tv0269", "title": "空中寫真測圖 要圖 西部パプア十万分一", "ckey": 8220845, "available": true, "iiifUrl": "https://purl.stanford.edu/vj342tv0269/iiif/manifest" }, "geometry": { "type": "Polygon", "coordinates": [ [ [ 132.5, -1.6666665 ], [ 133.0, -1.6666665 ], [ 133.0, -1.3333332 ], [ 132.5, -1.3333332 ], [ 132.5, -1.6666665 ] ] ] } },
{ "type": "Feature", "properties": { "Id": 0, "Sheet_ID": "壹〇南イ135. モンドウ", "label": "壹〇南イ135. モンドウ", "call_short": "G8073 .P3 S100 .J3", "call_num": "G8073 .P3 S100 .J3 10I/135", "recid": "kt130cq7380", "websiteUrl": "https://purl.stanford.edu/kt130cq7380", "title": "空中寫真測圖 要圖 西部パプア十万分一", "ckey": 8220845, "available": true, "iiifUrl": "https://purl.stanford.edu/kt130cq7380/iiif/manifest" }, "geometry": { "type": "Polygon", "coordinates": [ [ [ 133.0, -1.6666665 ], [ 133.5, -1.6666665 ], [ 133.5, -1.3333332 ], [ 133.0, -1.3333332 ], [ 133.0, -1.6666665 ] ] ] } },
{ "type": "Feature", "properties": { "Id": 0, "Sheet_ID": "壹〇南イ125. トウゲラ山", "label": "壹〇南イ125. トウゲラ山", "call_short": "G8073 .P3 S100 .J3", "call_num": "G8073 .P3 S100 .J3 10I/125", "recid": "sh200bg8103", "websiteUrl": "https://purl.stanford.edu/sh200bg8103", "title": "空中寫真測圖 要圖 西部パプア十万分一", "ckey": 8220845, "available": true, "iiifUrl": "https://purl.stanford.edu/sh200bg8103/iiif/manifest" }, "geometry": { "type": "Polygon", "coordinates": [ [ [ 133.5, -1.6666665 ], [ 134.0, -1.6666665 ], [ 134.0, -1.3333332 ], [ 133.5, -1.3333332 ], [ 133.5, -1.6666665 ] ] ] } },
{ "type": "Feature", "properties": { "Id": 0, "Sheet_ID": "九南イ155. テバレ川口", "label": "九南イ155. テバレ川口", "call_short": "G8073 .P3 S100 .J3", "call_num": "G8073 .P3 S100 .J3 9I/155", "recid": "fv480gb5232", "websiteUrl": "https://purl.stanford.edu/fv480gb5232", "title": "空中寫真測圖 要圖 西部パプア十万分一", "ckey": 8220845, "available": true, "iiifUrl": "https://purl.stanford.edu/fv480gb5232/iiif/manifest" }, "geometry": { "type": "Polygon", "coordinates": [ [ [ 137.0, -1.6666665 ], [ 137.5, -1.6666665 ], [ 137.5, -1.3333332 ], [ 137.0, -1.3333332 ], [ 137.0, -1.6666665 ] ] ] } },
{ "type": "Feature", "properties": { "Id": 0, "Sheet_ID": "九南イ145. マンベラモ川下流", "label": "九南イ145. マンベラモ川下流", "call_short": "G8073 .P3 S100 .J3", "call_num": "G8073 .P3 S100 .J3 9I/145", "recid": "vs298kg2555", "websiteUrl": "https://purl.stanford.edu/vs298kg2555", "title": "空中寫真測圖 要圖 西部パプア十万分一", "ckey": 8220845, "available": true, "iiifUrl": "https://purl.stanford.edu/vs298kg2555/iiif/manifest" }, "geometry": { "type": "Polygon", "coordinates": [ [ [ 137.5, -1.6666665 ], [ 138.0, -1.6666665 ], [ 138.0, -1.3333332 ], [ 137.5, -1.3333332 ], [ 137.5, -1.6666665 ] ] ] } },
{ "type": "Feature", "properties": { "Id": 0, "Sheet_ID": "九南イ135. アパウワル河口", "label": "九南イ135. アパウワル河口", "call_short": "G8073 .P3 S100 .J3", "call_num": "G8073 .P3 S100 .J3 9I/135", "recid": "dj783gf0951", "websiteUrl": "https://purl.stanford.edu/dj783gf0951", "title": "空中寫真測量要圖 西部パプア十万分一圖", "ckey": 8220845, "available": true, "iiifUrl": "https://purl.stanford.edu/dj783gf0951/iiif/manifest" }, "geometry": { "type": "Polygon", "coordinates": [ [ [ 138.0, -1.6666665 ], [ 138.5, -1.6666665 ], [ 138.5, -1.3333332 ], [ 138.0, -1.3333332 ], [ 138.0, -1.6666665 ] ] ] } },
{ "type": "Feature", "properties": { "Id": 0, "Sheet_ID": "壹〇南イ184. サイロロフ", "label": "壹〇南イ184. サイロロフ", "call_short": "G8073 .P3 S100 .J3", "call_num": "G8073 .P3 S100 .J3 10I/184", "recid": "nc468df0535", "websiteUrl": "https://purl.stanford.edu/nc468df0535", "title": "空中寫真測量要圖 西部パプア十万分一圖", "ckey": 8220845, "available": true, "iiifUrl": "https://purl.stanford.edu/nc468df0535/iiif/manifest" }, "geometry": { "type": "Polygon", "coordinates": [ [ [ 130.5, -1.3333332 ], [ 131.0, -1.3333332 ], [ 131.0, -0.9999998 ], [ 130.5, -0.9999998 ], [ 130.5, -1.3333332 ] ] ] } },
{ "type": "Feature", "properties": { "Id": 0, "Sheet_ID": "壹〇南イ174. ワリル島", "label": "壹〇南イ174. ワリル島", "call_short": "G8073 .P3 S100 .J3", "call_num": "G8073 .P3 S100 .J3 10I/174", "recid": "rt445kf6941", "websiteUrl": "https://purl.stanford.edu/rt445kf6941", "title": "空中寫真測量要圖 西部パプア十万分一圖", "ckey": 8220845, "available": true, "iiifUrl": "https://purl.stanford.edu/rt445kf6941/iiif/manifest" }, "geometry": { "type": "Polygon", "coordinates": [ [ [ 131.0, -1.3333332 ], [ 131.5, -1.3333332 ], [ 131.5, -0.9999998 ], [ 131.0, -0.9999998 ], [ 131.0, -1.3333332 ] ] ] } },
{ "type": "Feature", "properties": { "Id": 0, "Sheet_ID": "壹〇南イ164. ケラドウット川", "label": "壹〇南イ164. ケラドウット川", "call_short": "G8073 .P3 S100 .J3", "call_num": "G8073 .P3 S100 .J3 10I/164", "recid": "zg209xv6598", "websiteUrl": "https://purl.stanford.edu/zg209xv6598", "title": "空中寫真測圖 要圖 西部パプア十万分一", "ckey": 8220845, "available": true, "iiifUrl": "https://purl.stanford.edu/zg209xv6598/iiif/manifest" }, "geometry": { "type": "Polygon", "coordinates": [ [ [ 131.5, -1.3333332 ], [ 132.0, -1.3333332 ], [ 132.0, -0.9999998 ], [ 131.5, -0.9999998 ], [ 131.5, -1.3333332 ] ] ] } },
{ "type": "Feature", "properties": { "Id": 0, "Sheet_ID": "壹〇南イ154. アマル (マル) 湖", "label": "壹〇南イ154. アマル (マル) 湖", "call_short": "G8073 .P3 S100 .J3", "call_num": "G8073 .P3 S100 .J3 10I/154", "recid": "gs956yh1103", "websiteUrl": "https://purl.stanford.edu/gs956yh1103", "title": "空中寫真測圖 要圖 西部パプア十万分一", "ckey": 8220845, "available": true, "iiifUrl": "https://purl.stanford.edu/gs956yh1103/iiif/manifest" }, "geometry": { "type": "Polygon", "coordinates": [ [ [ 132.0, -1.3333332 ], [ 132.5, -1.3333332 ], [ 132.5, -0.9999998 ], [ 132.0, -0.9999998 ], [ 132.0, -1.3333332 ] ] ] } },
{ "type": "Feature", "properties": { "Id": 0, "Sheet_ID": "壹〇南イ144. インキラフォト山", "label": "壹〇南イ144. インキラフォト山", "call_short": "G8073 .P3 S100 .J3", "call_num": "G8073 .P3 S100 .J3 10I/144", "recid": "ht493yt5046", "websiteUrl": "https://purl.stanford.edu/ht493yt5046", "title": "空中寫真測圖 要圖 西部パプア十万分一", "ckey": 8220845, "available": true, "iiifUrl": "https://purl.stanford.edu/ht493yt5046/iiif/manifest" }, "geometry": { "type": "Polygon", "coordinates": [ [ [ 132.5, -1.3333332 ], [ 133.0, -1.3333332 ], [ 133.0, -0.9999998 ], [ 132.5, -0.9999998 ], [ 132.5, -1.3333332 ] ] ] } },
{ "type": "Feature", "properties": { "Id": 0, "Sheet_ID": "九南イ184. スネリスバリ岬", "label": "九南イ184. スネリスバリ岬", "call_short": "G8073 .P3 S100 .J3", "call_num": "G8073 .P3 S100 .J3 9I/184", "recid": "gz877xx4513", "websiteUrl": "https://purl.stanford.edu/gz877xx4513", "title": "空中寫真測圖 要圖 西部パプア十万分一", "ckey": 8220845, "available": true, "iiifUrl": "https://purl.stanford.edu/gz877xx4513/iiif/manifest" }, "geometry": { "type": "Polygon", "coordinates": [ [ [ 135.5, -1.3333332 ], [ 136.0, -1.3333332 ], [ 136.0, -0.9999998 ], [ 135.5, -0.9999998 ], [ 135.5, -1.3333332 ] ] ] } },
{ "type": "Feature", "properties": { "Id": 0, "Sheet_ID": "九南イ174. ビアク島東部", "label": "九南イ174. ビアク島東部", "call_short": "G8073 .P3 S100 .J3", "call_num": "G8073 .P3 S100 .J3 9I/174", "recid": "rb437fb6091", "websiteUrl": "https://purl.stanford.edu/rb437fb6091", "title": "空中寫真測圖 要圖 西部パプア十万分一", "ckey": 8220845, "available": true, "iiifUrl": "https://purl.stanford.edu/rb437fb6091/iiif/manifest" }, "geometry": { "type": "Polygon", "coordinates": [ [ [ 136.0, -1.3333332 ], [ 136.5, -1.3333332 ], [ 136.5, -0.9999998 ], [ 136.0, -0.9999998 ], [ 136.0, -1.3333332 ] ] ] } },
{ "type": "Feature", "properties": { "Id": 0, "Sheet_ID": "壹〇南イ183. サラワティ島北部", "label": "壹〇南イ183. サラワティ島北部", "call_short": "G8073 .P3 S100 .J3", "call_num": "G8073 .P3 S100 .J3 10I/183", "recid": "kf595zn5634", "websiteUrl": "https://purl.stanford.edu/kf595zn5634", "title": "空中寫真測量要圖 西部パプア十万分一圖", "ckey": 8220845, "available": true, "iiifUrl": "https://purl.stanford.edu/kf595zn5634/iiif/manifest" }, "geometry": { "type": "Polygon", "coordinates": [ [ [ 130.5, -0.9999998 ], [ 131.0, -0.9999998 ], [ 131.0, -0.6666664 ], [ 130.5, -0.6666664 ], [ 130.5, -0.9999998 ] ] ] } },
{ "type": "Feature", "properties": { "Id": 0, "Sheet_ID": "壹〇南イ173. ソロン", "label": "壹〇南イ173. ソロン", "call_short": "G8073 .P3 S100 .J3", "call_num": "G8073 .P3 S100 .J3 10I/173", "recid": "jn216sc6895", "websiteUrl": "https://purl.stanford.edu/jn216sc6895", "title": "空中寫真測量要圖 西部パプア十万分一圖", "ckey": 8220845, "available": true, "iiifUrl": "https://purl.stanford.edu/jn216sc6895/iiif/manifest" }, "geometry": { "type": "Polygon", "coordinates": [ [ [ 131.0, -0.9999998 ], [ 131.5, -0.9999998 ], [ 131.5, -0.6666664 ], [ 131.0, -0.6666664 ], [ 131.0, -0.9999998 ] ] ] } },
{ "type": "Feature", "properties": { "Id": 0, "Sheet_ID": "壹〇南イ163. マガモ", "label": "壹〇南イ163. マガモ", "call_short": "G8073 .P3 S100 .J3", "call_num": "G8073 .P3 S100 .J3 10I/163", "recid": "tf479tz5402", "websiteUrl": "https://purl.stanford.edu/tf479tz5402", "title": "空中寫真測圖 要圖 西部パプア十万分一", "ckey": 8220845, "available": true, "iiifUrl": "https://purl.stanford.edu/tf479tz5402/iiif/manifest" }, "geometry": { "type": "Polygon", "coordinates": [ [ [ 131.5, -0.9999998 ], [ 132.0, -0.9999998 ], [ 132.0, -0.6666664 ], [ 131.5, -0.6666664 ], [ 131.5, -0.9999998 ] ] ] } },
{ "type": "Feature", "properties": { "Id": 0, "Sheet_ID": "壹〇南イ153. モライト", "label": "壹〇南イ153. モライト", "call_short": "G8073 .P3 S100 .J3", "call_num": "G8073 .P3 S100 .J3 10I/153", "recid": "qw549yk1398", "websiteUrl": "https://purl.stanford.edu/qw549yk1398", "title": "空中寫真測圖 要圖 西部パプア十万分一", "ckey": 8220845, "available": true, "iiifUrl": "https://purl.stanford.edu/qw549yk1398/iiif/manifest" }, "geometry": { "type": "Polygon", "coordinates": [ [ [ 132.0, -0.9999998 ], [ 132.5, -0.9999998 ], [ 132.5, -0.6666664 ], [ 132.0, -0.6666664 ], [ 132.0, -0.9999998 ] ] ] } },
{ "type": "Feature", "properties": { "Id": 0, "Sheet_ID": "壹〇南イ123. マノクワリ西部", "label": "壹〇南イ123. マノクワリ西部", "call_short": "G8073 .P3 S100 .J3", "call_num": "G8073 .P3 S100 .J3 10I/123", "recid": "mg131ft2756", "websiteUrl": "https://purl.stanford.edu/mg131ft2756", "title": "空中寫真測圖 要圖 西部パプア十万分一", "ckey": 8220845, "available": true, "iiifUrl": "https://purl.stanford.edu/mg131ft2756/iiif/manifest" }, "geometry": { "type": "Polygon", "coordinates": [ [ [ 133.5, -0.9999998 ], [ 134.0, -0.9999998 ], [ 134.0, -0.6666664 ], [ 133.5, -0.6666664 ], [ 133.5, -0.9999998 ] ] ] } },
{ "type": "Feature", "properties": { "Id": 0, "Sheet_ID": "壹〇南イ113. マノクワリ", "label": "壹〇南イ113. マノクワリ", "call_short": "G8073 .P3 S100 .J3", "call_num": "G8073 .P3 S100 .J3 10I/113", "recid": "wd988ns8664", "websiteUrl": "https://purl.stanford.edu/wd988ns8664", "title": "空中寫真測圖 要圖 西部パプア十万分一", "ckey": 8220845, "available": true, "iiifUrl": "https://purl.stanford.edu/wd988ns8664/iiif/manifest" }, "geometry": { "type": "Polygon", "coordinates": [ [ [ 134.0, -0.9999998 ], [ 134.5, -0.9999998 ], [ 134.5, -0.6666664 ], [ 134.0, -0.6666664 ], [ 134.0, -0.9999998 ] ] ] } },
{ "type": "Feature", "properties": { "Id": 0, "Sheet_ID": "九南イ193. ソウェク", "label": "九南イ193. ソウェク", "call_short": "G8073 .P3 S100 .J3", "call_num": "G8073 .P3 S100 .J3 9I/193", "recid": "bq221nt1222", "websiteUrl": "https://purl.stanford.edu/bq221nt1222", "title": "空中寫真測量要圖 西部パプア十万分一圖", "ckey": 8220845, "available": true, "iiifUrl": "https://purl.stanford.edu/bq221nt1222/iiif/manifest" }, "geometry": { "type": "Polygon", "coordinates": [ [ [ 135.0, -0.9999998 ], [ 135.5, -0.9999998 ], [ 135.5, -0.6666664 ], [ 135.0, -0.6666664 ], [ 135.0, -0.9999998 ] ] ] } },
{ "type": "Feature", "properties": { "Id": 0, "Sheet_ID": "九南イ183. コリド", "label": "九南イ183. コリド", "call_short": "G8073 .P3 S100 .J3", "call_num": "G8073 .P3 S100 .J3 9I/183", "recid": "zm975ys4971", "websiteUrl": "https://purl.stanford.edu/zm975ys4971", "title": "空中寫真測量要圖 西部パプア十万分一圖", "ckey": 8220845, "available": true, "iiifUrl": "https://purl.stanford.edu/zm975ys4971/iiif/manifest" }, "geometry": { "type": "Polygon", "coordinates": [ [ [ 135.5, -0.9999998 ], [ 136.0, -0.9999998 ], [ 136.0, -0.6666664 ], [ 135.5, -0.6666664 ], [ 135.5, -0.9999998 ] ] ] } },
{ "type": "Feature", "properties": { "Id": 0, "Sheet_ID": "九南イ173. コリムウェ灣", "label": "九南イ173. コリムウェ灣", "call_short": "G8073 .P3 S100 .J3", "call_num": "G8073 .P3 S100 .J3 9I/173", "recid": "jg877wt7780", "websiteUrl": "https://purl.stanford.edu/jg877wt7780", "title": "空中寫真測圖 要圖 西部パプア十万分一", "ckey": 8220845, "available": true, "iiifUrl": "https://purl.stanford.edu/jg877wt7780/iiif/manifest" }, "geometry": { "type": "Polygon", "coordinates": [ [ [ 136.0, -0.9999998 ], [ 136.5, -0.9999998 ], [ 136.5, -0.6666664 ], [ 136.0, -0.6666664 ], [ 136.0, -0.9999998 ] ] ] } },
{ "type": "Feature", "properties": { "Id": 0, "Sheet_ID": "九南イ192. オリンボリ", "label": "九南イ192. オリンボリ", "call_short": "0", "call_num": "0", "recid": "0", "websiteUrl": "0", "title": "0", "ckey": 0, "available": false, "iiifUrl": "0" }, "geometry": { "type": "Polygon", "coordinates": [ [ [ 135.0, -0.6666664 ], [ 135.5, -0.6666664 ], [ 135.5, -0.333333 ], [ 135.0, -0.333333 ], [ 135.0, -0.6666664 ] ] ] } },
{ "type": "Feature", "properties": { "Id": 0, "Sheet_ID": "九南イ166. ランドワヤ", "label": "九南イ166. ランドワヤ", "call_short": "G8073 .P3 S100 .J3", "call_num": "G8073 .P3 S100 .J3 9I/166 ED.2", "recid": "yn138wf5870", "websiteUrl": "https://purl.stanford.edu/yn138wf5870", "title": "空中寫真測量要圖 西部パプア十万分一圖", "ckey": 8220845, "available": true, "iiifUrl": "https://purl.stanford.edu/yn138wf5870/iiif/manifest" }, "geometry": { "type": "Polygon", "coordinates": [ [ [ 136.5, -1.9999999 ], [ 137.0, -1.9999999 ], [ 137.0, -1.6666665 ], [ 136.5, -1.6666665 ], [ 136.5, -1.9999999 ] ] ] } }
]
}
