{
"type": "FeatureCollection",
"name": "index_map",
"xy_coordinate_resolution": 1e-07,
"features": [
{ "type": "Feature", "properties": { "Id": 0, "Sheet_ID": "績渓縣", "label": "績渓縣", "call_short": "0", "call_num": "0", "recid": "0", "websiteUrl": "0", "title": "0", "ckey": 0, "available": false, "iiifUrl": "0" }, "geometry": { "type": "Polygon", "coordinates": [ [ [ 118.3708333, 30.0166667 ], [ 118.6208333, 30.0166667 ], [ 118.6208333, 30.1833334 ], [ 118.3708333, 30.1833334 ], [ 118.3708333, 30.0166667 ] ] ] } },
{ "type": "Feature", "properties": { "Id": 0, "Sheet_ID": "楊渓", "label": "楊渓", "call_short": "0", "call_num": "0", "recid": "0", "websiteUrl": "0", "title": "0", "ckey": 0, "available": false, "iiifUrl": "0" }, "geometry": { "type": "Polygon", "coordinates": [ [ [ 118.6208333, 30.0166667 ], [ 118.8708333, 30.0166667 ], [ 118.8708333, 30.1833334 ], [ 118.6208333, 30.1833334 ], [ 118.6208333, 30.0166667 ] ] ] } },
{ "type": "Feature", "properties": { "Id": 0, "Sheet_ID": "太平縣", "label": "太平縣", "call_short": "0", "call_num": "0", "recid": "0", "websiteUrl": "0", "title": "0", "ckey": 0, "available": false, "iiifUrl": "0" }, "geometry": { "type": "Polygon", "coordinates": [ [ [ 118.1208333, 30.1833334 ], [ 118.3708333, 30.1833334 ], [ 118.3708333, 30.3500001 ], [ 118.1208333, 30.3500001 ], [ 118.1208333, 30.1833334 ] ] ] } },
{ "type": "Feature", "properties": { "Id": 0, "Sheet_ID": "69. 旌徳", "label": "69. 旌徳", "call_short": "G7824 .W83 S50 .J3", "call_num": "G7824 .W83 S50 .J3 SHEET 69", "recid": "hf980rq3106", "websiteUrl": "https://purl.stanford.edu/hf980rq3106", "title": "五万分一空中寫眞測量要圖 蕪湖", "ckey": 13900011, "available": true, "iiifUrl": "https://purl.stanford.edu/hf980rq3106/iiif/manifest" }, "geometry": { "type": "Polygon", "coordinates": [ [ [ 118.3708333, 30.1833334 ], [ 118.6208333, 30.1833334 ], [ 118.6208333, 30.3500001 ], [ 118.3708333, 30.3500001 ], [ 118.3708333, 30.1833334 ] ] ] } },
{ "type": "Feature", "properties": { "Id": 0, "Sheet_ID": "墈頭", "label": "墈頭", "call_short": "0", "call_num": "0", "recid": "0", "websiteUrl": "0", "title": "0", "ckey": 0, "available": false, "iiifUrl": "0" }, "geometry": { "type": "Polygon", "coordinates": [ [ [ 118.6208333, 30.1833334 ], [ 118.8708333, 30.1833334 ], [ 118.8708333, 30.3500001 ], [ 118.6208333, 30.3500001 ], [ 118.6208333, 30.1833334 ] ] ] } },
{ "type": "Feature", "properties": { "Id": 0, "Sheet_ID": "98. 九蕐山", "label": "98. 九蕐山", "call_short": "G7824 .W83 S50 .J3", "call_num": "G7824 .W83 S50 .J3 SHEET 98", "recid": "tk427jx8650", "websiteUrl": "https://purl.stanford.edu/tk427jx8650", "title": "五万分一中支空中寫眞修正測量要圖 蕪湖", "ckey": 13900011, "available": true, "iiifUrl": "https://purl.stanford.edu/tk427jx8650/iiif/manifest" }, "geometry": { "type": "Polygon", "coordinates": [ [ [ 117.6208333, 30.3500001 ], [ 117.8708333, 30.3500001 ], [ 117.8708333, 30.5166668 ], [ 117.6208333, 30.5166668 ], [ 117.6208333, 30.3500001 ] ] ] } },
{ "type": "Feature", "properties": { "Id": 0, "Sheet_ID": "88. 石埭黟", "label": "88. 石埭黟", "call_short": "G7824 .W83 S50 .J3", "call_num": "G7824 .W83 S50 .J3 SHEET 88", "recid": "zc797bh1369", "websiteUrl": "https://purl.stanford.edu/zc797bh1369", "title": "五万分一中支空中寫眞修正測量要圖 蕪湖", "ckey": 13900011, "available": true, "iiifUrl": "https://purl.stanford.edu/zc797bh1369/iiif/manifest" }, "geometry": { "type": "Polygon", "coordinates": [ [ [ 117.8708333, 30.3500001 ], [ 118.1208333, 30.3500001 ], [ 118.1208333, 30.5166668 ], [ 117.8708333, 30.5166668 ], [ 117.8708333, 30.3500001 ] ] ] } },
{ "type": "Feature", "properties": { "Id": 0, "Sheet_ID": "78. 水東翟村", "label": "78. 水東翟村", "call_short": "G7824 .W83 S50 .J3", "call_num": "G7824 .W83 S50 .J3 SHEET 78", "recid": "xr340pp2515", "websiteUrl": "https://purl.stanford.edu/xr340pp2515", "title": "五万分一空中寫眞測量修正要圖 蕪湖", "ckey": 13900011, "available": true, "iiifUrl": "https://purl.stanford.edu/xr340pp2515/iiif/manifest" }, "geometry": { "type": "Polygon", "coordinates": [ [ [ 118.1208333, 30.3500001 ], [ 118.3708333, 30.3500001 ], [ 118.3708333, 30.5166668 ], [ 118.1208333, 30.5166668 ], [ 118.1208333, 30.3500001 ] ] ] } },
{ "type": "Feature", "properties": { "Id": 0, "Sheet_ID": "68. 三溪鎮", "label": "68. 三溪鎮", "call_short": "G7824 .W83 S50 .J3", "call_num": "G7824 .W83 S50 .J3 SHEET 68", "recid": "sr990pk9017", "websiteUrl": "https://purl.stanford.edu/sr990pk9017", "title": "五万分一中支空中寫眞測量要圖 蕪湖", "ckey": 13900011, "available": true, "iiifUrl": "https://purl.stanford.edu/sr990pk9017/iiif/manifest" }, "geometry": { "type": "Polygon", "coordinates": [ [ [ 118.3708333, 30.3500001 ], [ 118.6208333, 30.3500001 ], [ 118.6208333, 30.5166668 ], [ 118.3708333, 30.5166668 ], [ 118.3708333, 30.3500001 ] ] ] } },
{ "type": "Feature", "properties": { "Id": 0, "Sheet_ID": "東岸鎮", "label": "東岸鎮", "call_short": "0", "call_num": "0", "recid": "0", "websiteUrl": "0", "title": "0", "ckey": 0, "available": false, "iiifUrl": "0" }, "geometry": { "type": "Polygon", "coordinates": [ [ [ 118.6208333, 30.3500001 ], [ 118.8708333, 30.3500001 ], [ 118.8708333, 30.5166668 ], [ 118.6208333, 30.5166668 ], [ 118.6208333, 30.3500001 ] ] ] } },
{ "type": "Feature", "properties": { "Id": 0, "Sheet_ID": "77. 茂林村", "label": "77. 茂林村", "call_short": "G7824 .W83 S50 .J3", "call_num": "G7824 .W83 S50 .J3 SHEET 77", "recid": "ws472cx9322", "websiteUrl": "https://purl.stanford.edu/ws472cx9322", "title": "五万分一空中寫眞測量修正要圖 蕪湖", "ckey": 13900011, "available": true, "iiifUrl": "https://purl.stanford.edu/ws472cx9322/iiif/manifest" }, "geometry": { "type": "Polygon", "coordinates": [ [ [ 118.1208333, 30.5166668 ], [ 118.3708333, 30.5166668 ], [ 118.3708333, 30.6833335 ], [ 118.1208333, 30.6833335 ], [ 118.1208333, 30.5166668 ] ] ] } },
{ "type": "Feature", "properties": { "Id": 0, "Sheet_ID": "67. 石山舗", "label": "67. 石山舗", "call_short": "G7824 .W83 S50 .J3", "call_num": "G7824 .W83 S50 .J3 SHEET 67", "recid": "ng640hw9943", "websiteUrl": "https://purl.stanford.edu/ng640hw9943", "title": "五万分一中支空中寫眞測量要圖 蕪湖", "ckey": 13900011, "available": true, "iiifUrl": "https://purl.stanford.edu/ng640hw9943/iiif/manifest" }, "geometry": { "type": "Polygon", "coordinates": [ [ [ 118.3708333, 30.5166668 ], [ 118.6208333, 30.5166668 ], [ 118.6208333, 30.6833335 ], [ 118.3708333, 30.6833335 ], [ 118.3708333, 30.5166668 ] ] ] } },
{ "type": "Feature", "properties": { "Id": 0, "Sheet_ID": "57. 板橋", "label": "57. 板橋", "call_short": "G7824 .W83 S50 .J3", "call_num": "G7824 .W83 S50 .J3 SHEET 57", "recid": "qr994sy8452", "websiteUrl": "https://purl.stanford.edu/qr994sy8452", "title": "五万分一空中寫眞測量要圖 蕪湖", "ckey": 13900011, "available": true, "iiifUrl": "https://purl.stanford.edu/qr994sy8452/iiif/manifest" }, "geometry": { "type": "Polygon", "coordinates": [ [ [ 118.6208333, 30.5166668 ], [ 118.8708333, 30.5166668 ], [ 118.8708333, 30.6833335 ], [ 118.6208333, 30.6833335 ], [ 118.6208333, 30.5166668 ] ] ] } },
{ "type": "Feature", "properties": { "Id": 0, "Sheet_ID": "寧國縣", "label": "寧國縣", "call_short": "0", "call_num": "0", "recid": "0", "websiteUrl": "0", "title": "0", "ckey": 0, "available": false, "iiifUrl": "0" }, "geometry": { "type": "Polygon", "coordinates": [ [ [ 118.8708333, 30.5166668 ], [ 119.1208333, 30.5166668 ], [ 119.1208333, 30.6833335 ], [ 118.8708333, 30.6833335 ], [ 118.8708333, 30.5166668 ] ] ] } },
{ "type": "Feature", "properties": { "Id": 0, "Sheet_ID": "虹龍甸", "label": "虹龍甸", "call_short": "0", "call_num": "0", "recid": "0", "websiteUrl": "0", "title": "0", "ckey": 0, "available": false, "iiifUrl": "0" }, "geometry": { "type": "Polygon", "coordinates": [ [ [ 118.8708333, 30.3500001 ], [ 119.1208333, 30.3500001 ], [ 119.1208333, 30.5166668 ], [ 118.8708333, 30.5166668 ], [ 118.8708333, 30.3500001 ] ] ] } },
{ "type": "Feature", "properties": { "Id": 0, "Sheet_ID": "27. 小橋頭", "label": "27. 小橋頭", "call_short": "G7824 .W83 S50 .J3", "call_num": "G7824 .W83 S50 .J3 SHEET 27", "recid": "jc013xb2459", "websiteUrl": "https://purl.stanford.edu/jc013xb2459", "title": "要圖（空中寫眞測量）中支那五万分一 蕪湖", "ckey": 13900011, "available": true, "iiifUrl": "https://purl.stanford.edu/jc013xb2459/iiif/manifest" }, "geometry": { "type": "Polygon", "coordinates": [ [ [ 119.3708333, 30.5166668 ], [ 119.6208333, 30.5166668 ], [ 119.6208333, 30.6833335 ], [ 119.3708333, 30.6833335 ], [ 119.3708333, 30.5166668 ] ] ] } },
{ "type": "Feature", "properties": { "Id": 0, "Sheet_ID": "17. 安吉縣城", "label": "17. 安吉縣城", "call_short": "G7824 .W83 S50 .J3", "call_num": "G7824 .W83 S50 .J3 SHEET 17", "recid": "gc638gq0290", "websiteUrl": "https://purl.stanford.edu/gc638gq0290", "title": "要圖（空中寫眞測量）中支那五万分一 蕪湖", "ckey": 13900011, "available": true, "iiifUrl": "https://purl.stanford.edu/gc638gq0290/iiif/manifest" }, "geometry": { "type": "Polygon", "coordinates": [ [ [ 119.6208333, 30.5166668 ], [ 119.8708333, 30.5166668 ], [ 119.8708333, 30.6833335 ], [ 119.6208333, 30.6833335 ], [ 119.6208333, 30.5166668 ] ] ] } },
{ "type": "Feature", "properties": { "Id": 0, "Sheet_ID": "7. 三王廟", "label": "7. 三王廟", "call_short": "G7824 .W83 S50 .J3", "call_num": "G7824 .W83 S50 .J3 SHEET 7", "recid": "qz678qt1149", "websiteUrl": "https://purl.stanford.edu/qz678qt1149", "title": "要圖（空中寫眞測量）中支那五万分一 蕪湖", "ckey": 13900011, "available": true, "iiifUrl": "https://purl.stanford.edu/qz678qt1149/iiif/manifest" }, "geometry": { "type": "Polygon", "coordinates": [ [ [ 119.8708333, 30.5166668 ], [ 120.1208333, 30.5166668 ], [ 120.1208333, 30.6833335 ], [ 119.8708333, 30.6833335 ], [ 119.8708333, 30.5166668 ] ] ] } },
{ "type": "Feature", "properties": { "Id": 0, "Sheet_ID": "汀漂鎮", "label": "汀漂鎮", "call_short": "0", "call_num": "0", "recid": "0", "websiteUrl": "0", "title": "0", "ckey": 0, "available": false, "iiifUrl": "0" }, "geometry": { "type": "Polygon", "coordinates": [ [ [ 118.1208333, 30.6833335 ], [ 118.3708333, 30.6833335 ], [ 118.3708333, 30.8500002 ], [ 118.1208333, 30.8500002 ], [ 118.1208333, 30.6833335 ] ] ] } },
{ "type": "Feature", "properties": { "Id": 0, "Sheet_ID": "66. 涇縣", "label": "66. 涇縣", "call_short": "G7824 .W83 S50 .J3", "call_num": "G7824 .W83 S50 .J3 SHEET 66", "recid": "dq375wm0695", "websiteUrl": "https://purl.stanford.edu/dq375wm0695", "title": "五万分一中支空中寫眞測量要圖 蕪湖", "ckey": 13900011, "available": true, "iiifUrl": "https://purl.stanford.edu/dq375wm0695/iiif/manifest" }, "geometry": { "type": "Polygon", "coordinates": [ [ [ 118.3708333, 30.6833335 ], [ 118.6208333, 30.6833335 ], [ 118.6208333, 30.8500002 ], [ 118.3708333, 30.8500002 ], [ 118.3708333, 30.6833335 ] ] ] } },
{ "type": "Feature", "properties": { "Id": 0, "Sheet_ID": "56. 黄渡鎮", "label": "56. 黄渡鎮", "call_short": "G7824 .W83 S50 .J3", "call_num": "G7824 .W83 S50 .J3 SHEET 56", "recid": "cq505py6219", "websiteUrl": "https://purl.stanford.edu/cq505py6219", "title": "五万分一中支空中寫眞測量要圖 蕪湖", "ckey": 13900011, "available": true, "iiifUrl": "https://purl.stanford.edu/cq505py6219/iiif/manifest" }, "geometry": { "type": "Polygon", "coordinates": [ [ [ 118.6208333, 30.6833335 ], [ 118.8708333, 30.6833335 ], [ 118.8708333, 30.8500002 ], [ 118.6208333, 30.8500002 ], [ 118.6208333, 30.6833335 ] ] ] } },
{ "type": "Feature", "properties": { "Id": 0, "Sheet_ID": "46. 水東", "label": "46. 水東", "call_short": "G7824 .W83 S50 .J3", "call_num": "G7824 .W83 S50 .J3 SHEET 46", "recid": "cv119ph6926", "websiteUrl": "https://purl.stanford.edu/cv119ph6926", "title": "五万分一中支空中寫眞測量要圖 蕪湖", "ckey": 13900011, "available": true, "iiifUrl": "https://purl.stanford.edu/cv119ph6926/iiif/manifest" }, "geometry": { "type": "Polygon", "coordinates": [ [ [ 118.8708333, 30.6833335 ], [ 119.1208333, 30.6833335 ], [ 119.1208333, 30.8500002 ], [ 118.8708333, 30.8500002 ], [ 118.8708333, 30.6833335 ] ] ] } },
{ "type": "Feature", "properties": { "Id": 0, "Sheet_ID": "36. 獨樹街", "label": "36. 獨樹街", "call_short": "G7824 .W83 S50 .J3", "call_num": "G7824 .W83 S50 .J3 SHEET 36", "recid": "mk144yf3234", "websiteUrl": "https://purl.stanford.edu/mk144yf3234", "title": "要圖（空中寫眞測量）中支那五万分一 蕪湖", "ckey": 13900011, "available": true, "iiifUrl": "https://purl.stanford.edu/mk144yf3234/iiif/manifest" }, "geometry": { "type": "Polygon", "coordinates": [ [ [ 119.1208333, 30.6833335 ], [ 119.3708333, 30.6833335 ], [ 119.3708333, 30.8500002 ], [ 119.1208333, 30.8500002 ], [ 119.1208333, 30.6833335 ] ] ] } },
{ "type": "Feature", "properties": { "Id": 0, "Sheet_ID": "26. 障呉村", "label": "26. 障呉村", "call_short": "G7824 .W83 S50 .J3", "call_num": "G7824 .W83 S50 .J3 SHEET 26", "recid": "tg681sx4188", "websiteUrl": "https://purl.stanford.edu/tg681sx4188", "title": "要圖（空中寫眞測量）中支那五万分一 蕪湖", "ckey": 13900011, "available": true, "iiifUrl": "https://purl.stanford.edu/tg681sx4188/iiif/manifest" }, "geometry": { "type": "Polygon", "coordinates": [ [ [ 119.3708333, 30.6833335 ], [ 119.6208333, 30.6833335 ], [ 119.6208333, 30.8500002 ], [ 119.3708333, 30.8500002 ], [ 119.3708333, 30.6833335 ] ] ] } },
{ "type": "Feature", "properties": { "Id": 0, "Sheet_ID": "16. 梅溪鎮", "label": "16. 梅溪鎮", "call_short": "G7824 .W83 S50 .J3", "call_num": "G7824 .W83 S50 .J3 SHEET 16", "recid": "xx432hy7894", "websiteUrl": "https://purl.stanford.edu/xx432hy7894", "title": "要圖（空中寫眞測量）中支那五万分一 蕪湖", "ckey": 13900011, "available": true, "iiifUrl": "https://purl.stanford.edu/xx432hy7894/iiif/manifest" }, "geometry": { "type": "Polygon", "coordinates": [ [ [ 119.6208333, 30.6833335 ], [ 119.8708333, 30.6833335 ], [ 119.8708333, 30.8500002 ], [ 119.6208333, 30.8500002 ], [ 119.6208333, 30.6833335 ] ] ] } },
{ "type": "Feature", "properties": { "Id": 0, "Sheet_ID": "6. 和平鎮", "label": "6. 和平鎮", "call_short": "G7824 .W83 S50 .J3", "call_num": "G7824 .W83 S50 .J3 SHEET 6", "recid": "jh156vz2463", "websiteUrl": "https://purl.stanford.edu/jh156vz2463", "title": "要圖（空中寫眞測量）中支那五万分一 蕪湖", "ckey": 13900011, "available": true, "iiifUrl": "https://purl.stanford.edu/jh156vz2463/iiif/manifest" }, "geometry": { "type": "Polygon", "coordinates": [ [ [ 119.8708333, 30.6833335 ], [ 120.1208333, 30.6833335 ], [ 120.1208333, 30.8500002 ], [ 119.8708333, 30.8500002 ], [ 119.8708333, 30.6833335 ] ] ] } },
{ "type": "Feature", "properties": { "Id": 0, "Sheet_ID": "南陵縣", "label": "南陵縣", "call_short": "0", "call_num": "0", "recid": "0", "websiteUrl": "0", "title": "0", "ckey": 0, "available": false, "iiifUrl": "0" }, "geometry": { "type": "Polygon", "coordinates": [ [ [ 118.1208333, 30.8500002 ], [ 118.3708333, 30.8500002 ], [ 118.3708333, 31.0166669 ], [ 118.1208333, 31.0166669 ], [ 118.1208333, 30.8500002 ] ] ] } },
{ "type": "Feature", "properties": { "Id": 0, "Sheet_ID": "清弋江", "label": "清弋江", "call_short": "0", "call_num": "0", "recid": "0", "websiteUrl": "0", "title": "0", "ckey": 0, "available": false, "iiifUrl": "0" }, "geometry": { "type": "Polygon", "coordinates": [ [ [ 118.3708333, 30.8500002 ], [ 118.6208333, 30.8500002 ], [ 118.6208333, 31.0166669 ], [ 118.3708333, 31.0166669 ], [ 118.3708333, 30.8500002 ] ] ] } },
{ "type": "Feature", "properties": { "Id": 0, "Sheet_ID": "宣城縣", "label": "宣城縣", "call_short": "0", "call_num": "0", "recid": "0", "websiteUrl": "0", "title": "0", "ckey": 0, "available": false, "iiifUrl": "0" }, "geometry": { "type": "Polygon", "coordinates": [ [ [ 118.6208333, 30.8500002 ], [ 118.8708333, 30.8500002 ], [ 118.8708333, 31.0166669 ], [ 118.6208333, 31.0166669 ], [ 118.6208333, 30.8500002 ] ] ] } },
{ "type": "Feature", "properties": { "Id": 0, "Sheet_ID": "孫家埠", "label": "孫家埠", "call_short": "0", "call_num": "0", "recid": "0", "websiteUrl": "0", "title": "0", "ckey": 0, "available": false, "iiifUrl": "0" }, "geometry": { "type": "Polygon", "coordinates": [ [ [ 118.8708333, 30.8500002 ], [ 119.1208333, 30.8500002 ], [ 119.1208333, 31.0166669 ], [ 118.8708333, 31.0166669 ], [ 118.8708333, 30.8500002 ] ] ] } },
{ "type": "Feature", "properties": { "Id": 0, "Sheet_ID": "35. 誓節渡", "label": "35. 誓節渡", "call_short": "G7824 .W83 S50 .J3", "call_num": "G7824 .W83 S50 .J3 SHEET 35", "recid": "qz376md7087", "websiteUrl": "https://purl.stanford.edu/qz376md7087", "title": "要圖（空中寫眞測量）中支那五万分一 蕪湖", "ckey": 13900011, "available": true, "iiifUrl": "https://purl.stanford.edu/qz376md7087/iiif/manifest" }, "geometry": { "type": "Polygon", "coordinates": [ [ [ 119.1208333, 30.8500002 ], [ 119.3708333, 30.8500002 ], [ 119.3708333, 31.0166669 ], [ 119.1208333, 31.0166669 ], [ 119.1208333, 30.8500002 ] ] ] } },
{ "type": "Feature", "properties": { "Id": 0, "Sheet_ID": "25. 廣徳", "label": "25. 廣徳", "call_short": "G7824 .W83 S50 .J3", "call_num": "G7824 .W83 S50 .J3 SHEET 25", "recid": "gy883bm6131", "websiteUrl": "https://purl.stanford.edu/gy883bm6131", "title": "要圖（空中寫眞測量）中支那五万分一 蕪湖", "ckey": 13900011, "available": true, "iiifUrl": "https://purl.stanford.edu/gy883bm6131/iiif/manifest" }, "geometry": { "type": "Polygon", "coordinates": [ [ [ 119.3708333, 30.8500002 ], [ 119.6208333, 30.8500002 ], [ 119.6208333, 31.0166669 ], [ 119.3708333, 31.0166669 ], [ 119.3708333, 30.8500002 ] ] ] } },
{ "type": "Feature", "properties": { "Id": 0, "Sheet_ID": "15. 泗安鎮", "label": "15. 泗安鎮", "call_short": "G7824 .W83 S50 .J3", "call_num": "G7824 .W83 S50 .J3 SHEET 15", "recid": "hs240dq9508", "websiteUrl": "https://purl.stanford.edu/hs240dq9508", "title": "要圖（空中寫眞測量）中支那五万分一 蕪湖", "ckey": 13900011, "available": true, "iiifUrl": "https://purl.stanford.edu/hs240dq9508/iiif/manifest" }, "geometry": { "type": "Polygon", "coordinates": [ [ [ 119.6208333, 30.8500002 ], [ 119.8708333, 30.8500002 ], [ 119.8708333, 31.0166669 ], [ 119.6208333, 31.0166669 ], [ 119.6208333, 30.8500002 ] ] ] } },
{ "type": "Feature", "properties": { "Id": 0, "Sheet_ID": "5. 長興縣城", "label": "5. 長興縣城", "call_short": "G7824 .W83 S50 .J3", "call_num": "G7824 .W83 S50 .J3 SHEET 5", "recid": "bk182wj8355", "websiteUrl": "https://purl.stanford.edu/bk182wj8355", "title": "要圖（空中寫眞測量）中支那五万分一 蕪湖", "ckey": 13900011, "available": true, "iiifUrl": "https://purl.stanford.edu/bk182wj8355/iiif/manifest" }, "geometry": { "type": "Polygon", "coordinates": [ [ [ 119.8708333, 30.8500002 ], [ 120.1208333, 30.8500002 ], [ 120.1208333, 31.0166669 ], [ 119.8708333, 31.0166669 ], [ 119.8708333, 30.8500002 ] ] ] } },
{ "type": "Feature", "properties": { "Id": 0, "Sheet_ID": "繁昌縣", "label": "繁昌縣", "call_short": "0", "call_num": "0", "recid": "0", "websiteUrl": "0", "title": "0", "ckey": 0, "available": false, "iiifUrl": "0" }, "geometry": { "type": "Polygon", "coordinates": [ [ [ 118.1208333, 31.0166669 ], [ 118.3708333, 31.0166669 ], [ 118.3708333, 31.1833336 ], [ 118.1208333, 31.1833336 ], [ 118.1208333, 31.0166669 ] ] ] } },
{ "type": "Feature", "properties": { "Id": 0, "Sheet_ID": "灣址鎮", "label": "灣址鎮", "call_short": "0", "call_num": "0", "recid": "0", "websiteUrl": "0", "title": "0", "ckey": 0, "available": false, "iiifUrl": "0" }, "geometry": { "type": "Polygon", "coordinates": [ [ [ 118.3708333, 31.0166669 ], [ 118.6208333, 31.0166669 ], [ 118.6208333, 31.1833336 ], [ 118.3708333, 31.1833336 ], [ 118.3708333, 31.0166669 ] ] ] } },
{ "type": "Feature", "properties": { "Id": 0, "Sheet_ID": "新豊", "label": "新豊", "call_short": "0", "call_num": "0", "recid": "0", "websiteUrl": "0", "title": "0", "ckey": 0, "available": false, "iiifUrl": "0" }, "geometry": { "type": "Polygon", "coordinates": [ [ [ 118.6208333, 31.0166669 ], [ 118.8708333, 31.0166669 ], [ 118.8708333, 31.1833336 ], [ 118.6208333, 31.1833336 ], [ 118.6208333, 31.0166669 ] ] ] } },
{ "type": "Feature", "properties": { "Id": 0, "Sheet_ID": "東夏鎮", "label": "東夏鎮", "call_short": "0", "call_num": "0", "recid": "0", "websiteUrl": "0", "title": "0", "ckey": 0, "available": false, "iiifUrl": "0" }, "geometry": { "type": "Polygon", "coordinates": [ [ [ 118.8708333, 31.0166669 ], [ 119.1208333, 31.0166669 ], [ 119.1208333, 31.1833336 ], [ 118.8708333, 31.1833336 ], [ 118.8708333, 31.0166669 ] ] ] } },
{ "type": "Feature", "properties": { "Id": 0, "Sheet_ID": "34. 郎溪鎮", "label": "34. 郎溪鎮", "call_short": "G7824 .W83 S50 .J3", "call_num": "G7824 .W83 S50 .J3 SHEET 34", "recid": "vy759pj1559", "websiteUrl": "https://purl.stanford.edu/vy759pj1559", "title": "要圖（空中寫眞測量）中支那五万分一 蕪湖", "ckey": 13900011, "available": true, "iiifUrl": "https://purl.stanford.edu/vy759pj1559/iiif/manifest" }, "geometry": { "type": "Polygon", "coordinates": [ [ [ 119.1208333, 31.0166669 ], [ 119.3708333, 31.0166669 ], [ 119.3708333, 31.1833336 ], [ 119.1208333, 31.1833336 ], [ 119.1208333, 31.0166669 ] ] ] } },
{ "type": "Feature", "properties": { "Id": 0, "Sheet_ID": "24. 磚橋鎮", "label": "24. 磚橋鎮", "call_short": "G7824 .W83 S50 .J3", "call_num": "G7824 .W83 S50 .J3 SHEET 24", "recid": "cf910ds1209", "websiteUrl": "https://purl.stanford.edu/cf910ds1209", "title": "要圖（空中寫眞測量）中支那五万分一 蕪湖", "ckey": 13900011, "available": true, "iiifUrl": "https://purl.stanford.edu/cf910ds1209/iiif/manifest" }, "geometry": { "type": "Polygon", "coordinates": [ [ [ 119.3708333, 31.0166669 ], [ 119.6208333, 31.0166669 ], [ 119.6208333, 31.1833336 ], [ 119.3708333, 31.1833336 ], [ 119.3708333, 31.0166669 ] ] ] } },
{ "type": "Feature", "properties": { "Id": 0, "Sheet_ID": "14. 合溪鎮", "label": "14. 合溪鎮", "call_short": "G7824 .W83 S50 .J3", "call_num": "G7824 .W83 S50 .J3 SHEET 14", "recid": "rm149yg2781", "websiteUrl": "https://purl.stanford.edu/rm149yg2781", "title": "要圖（空中寫眞測量）中支那五万分一 蕪湖", "ckey": 13900011, "available": true, "iiifUrl": "https://purl.stanford.edu/rm149yg2781/iiif/manifest" }, "geometry": { "type": "Polygon", "coordinates": [ [ [ 119.6208333, 31.0166669 ], [ 119.8708333, 31.0166669 ], [ 119.8708333, 31.1833336 ], [ 119.6208333, 31.1833336 ], [ 119.6208333, 31.0166669 ] ] ] } },
{ "type": "Feature", "properties": { "Id": 0, "Sheet_ID": "4. 夾浦鎮", "label": "4. 夾浦鎮", "call_short": "G7824 .W83 S50 .J3", "call_num": "G7824 .W83 S50 .J3 SHEET 4", "recid": "qj062kt3854", "websiteUrl": "https://purl.stanford.edu/qj062kt3854", "title": "要圖（空中寫眞測量）中支那五万分一 蕪湖", "ckey": 13900011, "available": true, "iiifUrl": "https://purl.stanford.edu/qj062kt3854/iiif/manifest" }, "geometry": { "type": "Polygon", "coordinates": [ [ [ 119.8708333, 31.0166669 ], [ 120.1208333, 31.0166669 ], [ 120.1208333, 31.1833336 ], [ 119.8708333, 31.1833336 ], [ 119.8708333, 31.0166669 ] ] ] } },
{ "type": "Feature", "properties": { "Id": 0, "Sheet_ID": "73. 魯港", "label": "73. 魯港", "call_short": "G7824 .W83 S50 .J3", "call_num": "G7824 .W83 S50 .J3 SHEET 73", "recid": "qs849gq5248", "websiteUrl": "https://purl.stanford.edu/qs849gq5248", "title": "五万分一空中寫眞測量修正要圖 蕪湖", "ckey": 13900011, "available": true, "iiifUrl": "https://purl.stanford.edu/qs849gq5248/iiif/manifest" }, "geometry": { "type": "Polygon", "coordinates": [ [ [ 118.1208333, 31.1833336 ], [ 118.3708333, 31.1833336 ], [ 118.3708333, 31.3500003 ], [ 118.1208333, 31.3500003 ], [ 118.1208333, 31.1833336 ] ] ] } },
{ "type": "Feature", "properties": { "Id": 0, "Sheet_ID": "63. 蕪湖", "label": "63. 蕪湖", "call_short": "G7824 .W83 S50 .J3", "call_num": "G7824 .W83 S50 .J3 SHEET 63", "recid": "gy403mx3493", "websiteUrl": "https://purl.stanford.edu/gy403mx3493", "title": "五万分一中支空中寫眞測量要圖 蕪湖", "ckey": 13900011, "available": true, "iiifUrl": "https://purl.stanford.edu/gy403mx3493/iiif/manifest" }, "geometry": { "type": "Polygon", "coordinates": [ [ [ 118.3708333, 31.1833336 ], [ 118.6208333, 31.1833336 ], [ 118.6208333, 31.3500003 ], [ 118.3708333, 31.3500003 ], [ 118.3708333, 31.1833336 ] ] ] } },
{ "type": "Feature", "properties": { "Id": 0, "Sheet_ID": "53. 烏溪鎮", "label": "53. 烏溪鎮", "call_short": "G7824 .W83 S50 .J3", "call_num": "G7824 .W83 S50 .J3 SHEET 53", "recid": "xq414vf5165", "websiteUrl": "https://purl.stanford.edu/xq414vf5165", "title": "五万分一空中寫眞測量要圖 蕪湖", "ckey": 13900011, "available": true, "iiifUrl": "https://purl.stanford.edu/xq414vf5165/iiif/manifest" }, "geometry": { "type": "Polygon", "coordinates": [ [ [ 118.6208333, 31.1833336 ], [ 118.8708333, 31.1833336 ], [ 118.8708333, 31.3500003 ], [ 118.6208333, 31.3500003 ], [ 118.6208333, 31.1833336 ] ] ] } },
{ "type": "Feature", "properties": { "Id": 0, "Sheet_ID": "43. 髙淳", "label": "43. 髙淳", "call_short": "G7824 .W83 S50 .J3", "call_num": "G7824 .W83 S50 .J3 SHEET 43", "recid": "jp490wb6239", "websiteUrl": "https://purl.stanford.edu/jp490wb6239", "title": "五万分一空中寫眞測量要圖 蕪湖", "ckey": 13900011, "available": true, "iiifUrl": "https://purl.stanford.edu/jp490wb6239/iiif/manifest" }, "geometry": { "type": "Polygon", "coordinates": [ [ [ 118.8708333, 31.1833336 ], [ 119.1208333, 31.1833336 ], [ 119.1208333, 31.3500003 ], [ 118.8708333, 31.3500003 ], [ 118.8708333, 31.1833336 ] ] ] } },
{ "type": "Feature", "properties": { "Id": 0, "Sheet_ID": "33. 梅渚鎮", "label": "33. 梅渚鎮", "call_short": "G7824 .W83 S50 .J3", "call_num": "G7824 .W83 S50 .J3 SHEET 33", "recid": "xn007xw1737", "websiteUrl": "https://purl.stanford.edu/xn007xw1737", "title": "五万分一空中寫眞測量要圖 蕪湖", "ckey": 13900011, "available": true, "iiifUrl": "https://purl.stanford.edu/xn007xw1737/iiif/manifest" }, "geometry": { "type": "Polygon", "coordinates": [ [ [ 119.1208333, 31.1833336 ], [ 119.3708333, 31.1833336 ], [ 119.3708333, 31.3500003 ], [ 119.1208333, 31.3500003 ], [ 119.1208333, 31.1833336 ] ] ] } },
{ "type": "Feature", "properties": { "Id": 0, "Sheet_ID": "23. 載埠", "label": "23. 載埠", "call_short": "G7824 .W83 S50 .J3", "call_num": "G7824 .W83 S50 .J3 SHEET 23", "recid": "nm917dm1043", "websiteUrl": "https://purl.stanford.edu/nm917dm1043", "title": "要圖（空中寫眞測量）中支那五万分一 蕪湖", "ckey": 13900011, "available": true, "iiifUrl": "https://purl.stanford.edu/nm917dm1043/iiif/manifest" }, "geometry": { "type": "Polygon", "coordinates": [ [ [ 119.3708333, 31.1833336 ], [ 119.6208333, 31.1833336 ], [ 119.6208333, 31.3500003 ], [ 119.3708333, 31.3500003 ], [ 119.3708333, 31.1833336 ] ] ] } },
{ "type": "Feature", "properties": { "Id": 0, "Sheet_ID": "13. 張渚鎮", "label": "13. 張渚鎮", "call_short": "G7824 .W83 S50 .J3", "call_num": "G7824 .W83 S50 .J3 SHEET 13", "recid": "vt007kp4200", "websiteUrl": "https://purl.stanford.edu/vt007kp4200", "title": "要圖（空中寫眞測量）中支那五万分一 蕪湖", "ckey": 13900011, "available": true, "iiifUrl": "https://purl.stanford.edu/vt007kp4200/iiif/manifest" }, "geometry": { "type": "Polygon", "coordinates": [ [ [ 119.6208333, 31.1833336 ], [ 119.8708333, 31.1833336 ], [ 119.8708333, 31.3500003 ], [ 119.6208333, 31.3500003 ], [ 119.6208333, 31.1833336 ] ] ] } },
{ "type": "Feature", "properties": { "Id": 0, "Sheet_ID": "3. 鼎山鎮", "label": "3. 鼎山鎮", "call_short": "G7824 .W83 S50 .J3", "call_num": "G7824 .W83 S50 .J3 SHEET 3", "recid": "zf954cv0867", "websiteUrl": "https://purl.stanford.edu/zf954cv0867", "title": "要圖（空中寫眞測量）中支那五万分一 蕪湖", "ckey": 13900011, "available": true, "iiifUrl": "https://purl.stanford.edu/zf954cv0867/iiif/manifest" }, "geometry": { "type": "Polygon", "coordinates": [ [ [ 119.8708333, 31.1833336 ], [ 120.1208333, 31.1833336 ], [ 120.1208333, 31.3500003 ], [ 119.8708333, 31.3500003 ], [ 119.8708333, 31.1833336 ] ] ] } },
{ "type": "Feature", "properties": { "Id": 0, "Sheet_ID": "72-1. 雍家鎮", "label": "72-1. 雍家鎮", "call_short": "G7824 .W83 S50 .J3", "call_num": "G7824 .W83 S50 .J3 SHEET 72-1", "recid": "bs264sm5782", "websiteUrl": "https://purl.stanford.edu/bs264sm5782", "title": "五万分一空中寫眞測量修正要圖 蕪湖", "ckey": 13900011, "available": true, "iiifUrl": "https://purl.stanford.edu/bs264sm5782/iiif/manifest" }, "geometry": { "type": "Polygon", "coordinates": [ [ [ 118.1208333, 31.3500003 ], [ 118.3708333, 31.3500003 ], [ 118.3708333, 31.516667 ], [ 118.1208333, 31.516667 ], [ 118.1208333, 31.3500003 ] ] ] } },
{ "type": "Feature", "properties": { "Id": 0, "Sheet_ID": "62. 査家灣", "label": "62. 査家灣", "call_short": "G7824 .W83 S50 .J3", "call_num": "G7824 .W83 S50 .J3 SHEET 62", "recid": "bc675gs0465", "websiteUrl": "https://purl.stanford.edu/bc675gs0465", "title": "五万分一中支空中寫眞測量要圖 蕪湖", "ckey": 13900011, "available": true, "iiifUrl": "https://purl.stanford.edu/bc675gs0465/iiif/manifest" }, "geometry": { "type": "Polygon", "coordinates": [ [ [ 118.3708333, 31.3500003 ], [ 118.6208333, 31.3500003 ], [ 118.6208333, 31.516667 ], [ 118.3708333, 31.516667 ], [ 118.3708333, 31.3500003 ] ] ] } },
{ "type": "Feature", "properties": { "Id": 0, "Sheet_ID": "52. 長樂埂", "label": "52. 長樂埂", "call_short": "G7824 .W83 S50 .J3", "call_num": "G7824 .W83 S50 .J3 SHEET 52", "recid": "gr847pk3071", "websiteUrl": "https://purl.stanford.edu/gr847pk3071", "title": "五万分一空中寫眞測量要圖 蕪湖", "ckey": 13900011, "available": true, "iiifUrl": "https://purl.stanford.edu/gr847pk3071/iiif/manifest" }, "geometry": { "type": "Polygon", "coordinates": [ [ [ 118.6208333, 31.3500003 ], [ 118.8708333, 31.3500003 ], [ 118.8708333, 31.516667 ], [ 118.6208333, 31.516667 ], [ 118.6208333, 31.3500003 ] ] ] } },
{ "type": "Feature", "properties": { "Id": 0, "Sheet_ID": "42. 漆橋", "label": "42. 漆橋", "call_short": "G7824 .W83 S50 .J3", "call_num": "G7824 .W83 S50 .J3 SHEET 42", "recid": "db323cp6971", "websiteUrl": "https://purl.stanford.edu/db323cp6971", "title": "五万分一空中寫眞測量要圖 蕪湖", "ckey": 13900011, "available": true, "iiifUrl": "https://purl.stanford.edu/db323cp6971/iiif/manifest" }, "geometry": { "type": "Polygon", "coordinates": [ [ [ 118.8708333, 31.3500003 ], [ 119.1208333, 31.3500003 ], [ 119.1208333, 31.516667 ], [ 118.8708333, 31.516667 ], [ 118.8708333, 31.3500003 ] ] ] } },
{ "type": "Feature", "properties": { "Id": 0, "Sheet_ID": "32. 南渡鎮", "label": "32. 南渡鎮", "call_short": "G7824 .W83 S50 .J3", "call_num": "G7824 .W83 S50 .J3 SHEET 32", "recid": "nc366pk0220", "websiteUrl": "https://purl.stanford.edu/nc366pk0220", "title": "要圖（空中寫眞測量）中支那五万分一 蕪湖", "ckey": 13900011, "available": true, "iiifUrl": "https://purl.stanford.edu/nc366pk0220/iiif/manifest" }, "geometry": { "type": "Polygon", "coordinates": [ [ [ 119.1208333, 31.3500003 ], [ 119.3708333, 31.3500003 ], [ 119.3708333, 31.516667 ], [ 119.1208333, 31.516667 ], [ 119.1208333, 31.3500003 ] ] ] } },
{ "type": "Feature", "properties": { "Id": 0, "Sheet_ID": "22. 溧陽城", "label": "22. 溧陽城", "call_short": "G7824 .W83 S50 .J3", "call_num": "G7824 .W83 S50 .J3 SHEET 22", "recid": "ck573jn1630", "websiteUrl": "https://purl.stanford.edu/ck573jn1630", "title": "要圖（空中寫眞測量）中支那五万分一 蕪湖", "ckey": 13900011, "available": true, "iiifUrl": "https://purl.stanford.edu/ck573jn1630/iiif/manifest" }, "geometry": { "type": "Polygon", "coordinates": [ [ [ 119.3708333, 31.3500003 ], [ 119.6208333, 31.3500003 ], [ 119.6208333, 31.516667 ], [ 119.3708333, 31.516667 ], [ 119.3708333, 31.3500003 ] ] ] } },
{ "type": "Feature", "properties": { "Id": 0, "Sheet_ID": "12. 宜興城", "label": "12. 宜興城", "call_short": "G7824 .W83 S50 .J3", "call_num": "G7824 .W83 S50 .J3 SHEET 12", "recid": "rk151mq2289", "websiteUrl": "https://purl.stanford.edu/rk151mq2289", "title": "要圖（空中寫眞測量）中支那五万分一 蕪湖", "ckey": 13900011, "available": true, "iiifUrl": "https://purl.stanford.edu/rk151mq2289/iiif/manifest" }, "geometry": { "type": "Polygon", "coordinates": [ [ [ 119.6208333, 31.3500003 ], [ 119.8708333, 31.3500003 ], [ 119.8708333, 31.516667 ], [ 119.6208333, 31.516667 ], [ 119.6208333, 31.3500003 ] ] ] } },
{ "type": "Feature", "properties": { "Id": 0, "Sheet_ID": "2. 和橋鎮", "label": "2. 和橋鎮", "call_short": "G7824 .W83 S50 .J3", "call_num": "G7824 .W83 S50 .J3 SHEET 2", "recid": "kj361yz8015", "websiteUrl": "https://purl.stanford.edu/kj361yz8015", "title": "要圖（空中寫眞測量）中支那五万分一 蕪湖", "ckey": 13900011, "available": true, "iiifUrl": "https://purl.stanford.edu/kj361yz8015/iiif/manifest" }, "geometry": { "type": "Polygon", "coordinates": [ [ [ 119.8708333, 31.3500003 ], [ 120.1208333, 31.3500003 ], [ 120.1208333, 31.516667 ], [ 119.8708333, 31.516667 ], [ 119.8708333, 31.3500003 ] ] ] } },
{ "type": "Feature", "properties": { "Id": 0, "Sheet_ID": "71-1. 姥下鎮", "label": "71-1. 姥下鎮", "call_short": "G7824 .W83 S50 .J3", "call_num": "G7824 .W83 S50 .J3 SHEET 71-1", "recid": "tg507tc4878", "websiteUrl": "https://purl.stanford.edu/tg507tc4878", "title": "五万分一空中寫眞測量修正要圖 蕪湖", "ckey": 13900011, "available": true, "iiifUrl": "https://purl.stanford.edu/tg507tc4878/iiif/manifest" }, "geometry": { "type": "Polygon", "coordinates": [ [ [ 118.1208333, 31.516667 ], [ 118.3708333, 31.516667 ], [ 118.3708333, 31.6833337 ], [ 118.1208333, 31.6833337 ], [ 118.1208333, 31.516667 ] ] ] } },
{ "type": "Feature", "properties": { "Id": 0, "Sheet_ID": "61. 太平", "label": "61. 太平", "call_short": "G7824 .W83 S50 .J3", "call_num": "G7824 .W83 S50 .J3 SHEET 61", "recid": "hg070hz9055", "websiteUrl": "https://purl.stanford.edu/hg070hz9055", "title": "五万分一空中寫眞測量要圖 蕪湖", "ckey": 13900011, "available": true, "iiifUrl": "https://purl.stanford.edu/hg070hz9055/iiif/manifest" }, "geometry": { "type": "Polygon", "coordinates": [ [ [ 118.3708333, 31.516667 ], [ 118.6208333, 31.516667 ], [ 118.6208333, 31.6833337 ], [ 118.3708333, 31.6833337 ], [ 118.3708333, 31.516667 ] ] ] } },
{ "type": "Feature", "properties": { "Id": 0, "Sheet_ID": "51. 小丹陽", "label": "51. 小丹陽", "call_short": "G7824 .W83 S50 .J3", "call_num": "G7824 .W83 S50 .J3 SHEET 51", "recid": "mj104kh2186", "websiteUrl": "https://purl.stanford.edu/mj104kh2186", "title": "五万分一空中寫眞測量要圖 蕪湖", "ckey": 13900011, "available": true, "iiifUrl": "https://purl.stanford.edu/mj104kh2186/iiif/manifest" }, "geometry": { "type": "Polygon", "coordinates": [ [ [ 118.6208333, 31.516667 ], [ 118.8708333, 31.516667 ], [ 118.8708333, 31.6833337 ], [ 118.6208333, 31.6833337 ], [ 118.6208333, 31.516667 ] ] ] } },
{ "type": "Feature", "properties": { "Id": 0, "Sheet_ID": "41. 洪藍埠", "label": "41. 洪藍埠", "call_short": "G7824 .W83 S50 .J3", "call_num": "G7824 .W83 S50 .J3 SHEET 41", "recid": "xx513mq6320", "websiteUrl": "https://purl.stanford.edu/xx513mq6320", "title": "五万分一空中寫眞測量要圖 蕪湖", "ckey": 13900011, "available": true, "iiifUrl": "https://purl.stanford.edu/xx513mq6320/iiif/manifest" }, "geometry": { "type": "Polygon", "coordinates": [ [ [ 118.8708333, 31.516667 ], [ 119.1208333, 31.516667 ], [ 119.1208333, 31.6833337 ], [ 118.8708333, 31.6833337 ], [ 118.8708333, 31.516667 ] ] ] } },
{ "type": "Feature", "properties": { "Id": 0, "Sheet_ID": "31. 上興埠", "label": "31. 上興埠", "call_short": "G7824 .W83 S50 .J3", "call_num": "G7824 .W83 S50 .J3 SHEET 31", "recid": "wd060vj4400", "websiteUrl": "https://purl.stanford.edu/wd060vj4400", "title": "五万分一空中寫眞測量要圖 蕪湖", "ckey": 13900011, "available": true, "iiifUrl": "https://purl.stanford.edu/wd060vj4400/iiif/manifest" }, "geometry": { "type": "Polygon", "coordinates": [ [ [ 119.1208333, 31.516667 ], [ 119.3708333, 31.516667 ], [ 119.3708333, 31.6833337 ], [ 119.1208333, 31.6833337 ], [ 119.1208333, 31.516667 ] ] ] } }
]
}
