{
"type": "FeatureCollection",
"name": "index_map",
"features": [
{ "type": "Feature", "properties": { "Id": 0, "Sheet_ID": "ニージネ・ウリフンスキー", "label": "ニージネ・ウリフンスキー", "call_short": null, "call_num": null, "recid": null, "websiteUrl": null, "title": null, "ckey": 0, "available": false, "iiifUrl": null }, "geometry": { "type": "Polygon", "coordinates": [ [ [ 112.0, 50.0 ], [ 113.0, 50.0 ], [ 113.0, 50.6666667 ], [ 112.0, 50.6666667 ], [ 112.0, 50.0 ] ] ] } },
{ "type": "Feature", "properties": { "Id": 0, "Sheet_ID": "アクシャ", "label": "アクシャ", "call_short": null, "call_num": null, "recid": null, "websiteUrl": null, "title": null, "ckey": 0, "available": false, "iiifUrl": null }, "geometry": { "type": "Polygon", "coordinates": [ [ [ 113.0, 50.0 ], [ 114.0, 50.0 ], [ 114.0, 50.6666667 ], [ 113.0, 50.6666667 ], [ 113.0, 50.0 ] ] ] } },
{ "type": "Feature", "properties": { "Id": 0, "Sheet_ID": "ドゥルルグゥイ", "label": "ドゥルルグゥイ", "call_short": null, "call_num": null, "recid": null, "websiteUrl": null, "title": null, "ckey": 0, "available": false, "iiifUrl": null }, "geometry": { "type": "Polygon", "coordinates": [ [ [ 114.0, 50.0 ], [ 115.0, 50.0 ], [ 115.0, 50.6666667 ], [ 114.0, 50.6666667 ], [ 114.0, 50.0 ] ] ] } },
{ "type": "Feature", "properties": { "Id": 0, "Sheet_ID": "壹四タ214. ドロニノ", "label": "壹四タ214. ドロニノ", "call_short": "G7270 S200 .J3", "call_num": "G7270 S200 .J3 SHEET 113-5120", "recid": "xs795pd4196", "websiteUrl": "https://purl.stanford.edu/xs795pd4196", "title": "西伯利兵要二十万分一圖", "ckey": 10780393, "available": true, "iiifUrl": "https://purl.stanford.edu/xs795pd4196/iiif/manifest" }, "geometry": { "type": "Polygon", "coordinates": [ [ [ 112.0, 50.6666667 ], [ 113.0, 50.6666667 ], [ 113.0, 51.3333333 ], [ 112.0, 51.3333333 ], [ 112.0, 50.6666667 ] ] ] } },
{ "type": "Feature", "properties": { "Id": 0, "Sheet_ID": "バリジノ", "label": "バリジノ", "call_short": null, "call_num": null, "recid": null, "websiteUrl": null, "title": null, "ckey": 0, "available": false, "iiifUrl": null }, "geometry": { "type": "Polygon", "coordinates": [ [ [ 113.0, 50.6666667 ], [ 114.0, 50.6666667 ], [ 114.0, 51.3333333 ], [ 113.0, 51.3333333 ], [ 113.0, 50.6666667 ] ] ] } },
{ "type": "Feature", "properties": { "Id": 0, "Sheet_ID": "アギーンスコエ", "label": "アギーンスコエ", "call_short": null, "call_num": null, "recid": null, "websiteUrl": null, "title": null, "ckey": 0, "available": false, "iiifUrl": null }, "geometry": { "type": "Polygon", "coordinates": [ [ [ 114.0, 50.6666667 ], [ 115.0, 50.6666667 ], [ 115.0, 51.3333333 ], [ 114.0, 51.3333333 ], [ 114.0, 50.6666667 ] ] ] } },
{ "type": "Feature", "properties": { "Id": 0, "Sheet_ID": "ウレトィ", "label": "ウレトィ", "call_short": null, "call_num": null, "recid": null, "websiteUrl": null, "title": null, "ckey": 0, "available": false, "iiifUrl": null }, "geometry": { "type": "Polygon", "coordinates": [ [ [ 112.0, 51.3333333 ], [ 113.0, 51.3333333 ], [ 113.0, 52.0 ], [ 112.0, 52.0 ], [ 112.0, 51.3333333 ] ] ] } },
{ "type": "Feature", "properties": { "Id": 0, "Sheet_ID": "アレクサンドローフスコエ", "label": "アレクサンドローフスコエ", "call_short": null, "call_num": null, "recid": null, "websiteUrl": null, "title": null, "ckey": 0, "available": false, "iiifUrl": null }, "geometry": { "type": "Polygon", "coordinates": [ [ [ 113.0, 51.3333333 ], [ 114.0, 51.3333333 ], [ 114.0, 52.0 ], [ 113.0, 52.0 ], [ 113.0, 51.3333333 ] ] ] } },
{ "type": "Feature", "properties": { "Id": 0, "Sheet_ID": "カルイムスカヤ", "label": "カルイムスカヤ", "call_short": null, "call_num": null, "recid": null, "websiteUrl": null, "title": null, "ckey": 0, "available": false, "iiifUrl": null }, "geometry": { "type": "Polygon", "coordinates": [ [ [ 114.0, 51.3333333 ], [ 115.0, 51.3333333 ], [ 115.0, 52.0 ], [ 114.0, 52.0 ], [ 114.0, 51.3333333 ] ] ] } },
{ "type": "Feature", "properties": { "Id": 0, "Sheet_ID": "浦塩斯徳", "label": "浦塩斯徳", "call_short": null, "call_num": null, "recid": null, "websiteUrl": null, "title": null, "ckey": 0, "available": false, "iiifUrl": null }, "geometry": { "type": "Polygon", "coordinates": [ [ [ 131.0, 42.666667 ], [ 132.0, 42.666667 ], [ 132.0, 43.3333336 ], [ 131.0, 43.3333336 ], [ 131.0, 42.666667 ] ] ] } },
{ "type": "Feature", "properties": { "Id": 0, "Sheet_ID": "壹〇ワ211. ロマノーフカ", "label": "壹〇ワ211. ロマノーフカ", "call_short": "G7270 S200 .J3", "call_num": "G7270 S200 .J3 SHEET 133-4320", "recid": "xw568vc7128", "websiteUrl": "https://purl.stanford.edu/xw568vc7128", "title": "西伯利兵要二十万分一圖", "ckey": 10780393, "available": true, "iiifUrl": "https://purl.stanford.edu/xw568vc7128/iiif/manifest" }, "geometry": { "type": "Polygon", "coordinates": [ [ [ 132.0, 42.666667 ], [ 133.0, 42.666667 ], [ 133.0, 43.3333336 ], [ 132.0, 43.3333336 ], [ 132.0, 42.666667 ] ] ] } },
{ "type": "Feature", "properties": { "Id": 0, "Sheet_ID": "ウラヂミロフカ", "label": "ウラヂミロフカ", "call_short": null, "call_num": null, "recid": null, "websiteUrl": null, "title": null, "ckey": 0, "available": false, "iiifUrl": null }, "geometry": { "type": "Polygon", "coordinates": [ [ [ 133.0, 42.666667 ], [ 134.0, 42.666667 ], [ 134.0, 43.3333336 ], [ 133.0, 43.3333336 ], [ 133.0, 42.666667 ] ] ] } },
{ "type": "Feature", "properties": { "Id": 0, "Sheet_ID": "ウオロシーロフ", "label": "ウオロシーロフ", "call_short": null, "call_num": null, "recid": null, "websiteUrl": null, "title": null, "ckey": 0, "available": false, "iiifUrl": null }, "geometry": { "type": "Polygon", "coordinates": [ [ [ 131.0, 43.3333336 ], [ 132.0, 43.3333336 ], [ 132.0, 44.0000002 ], [ 131.0, 44.0000002 ], [ 131.0, 43.3333336 ] ] ] } },
{ "type": "Feature", "properties": { "Id": 0, "Sheet_ID": "オシノーフカ", "label": "オシノーフカ", "call_short": null, "call_num": null, "recid": null, "websiteUrl": null, "title": null, "ckey": 0, "available": false, "iiifUrl": null }, "geometry": { "type": "Polygon", "coordinates": [ [ [ 132.0, 43.3333336 ], [ 133.0, 43.3333336 ], [ 133.0, 44.0000002 ], [ 132.0, 44.0000002 ], [ 132.0, 43.3333336 ] ] ] } },
{ "type": "Feature", "properties": { "Id": 0, "Sheet_ID": "セルゲーエフカ", "label": "セルゲーエフカ", "call_short": null, "call_num": null, "recid": null, "websiteUrl": null, "title": null, "ckey": 0, "available": false, "iiifUrl": null }, "geometry": { "type": "Polygon", "coordinates": [ [ [ 133.0, 43.3333336 ], [ 134.0, 43.3333336 ], [ 134.0, 44.0000002 ], [ 133.0, 44.0000002 ], [ 133.0, 43.3333336 ] ] ] } },
{ "type": "Feature", "properties": { "Id": 0, "Sheet_ID": "綏芬河", "label": "綏芬河", "call_short": null, "call_num": null, "recid": null, "websiteUrl": null, "title": null, "ckey": 0, "available": false, "iiifUrl": null }, "geometry": { "type": "Polygon", "coordinates": [ [ [ 131.0, 44.0000002 ], [ 132.0, 44.0000002 ], [ 132.0, 44.6666668 ], [ 131.0, 44.6666668 ], [ 131.0, 44.0000002 ] ] ] } },
{ "type": "Feature", "properties": { "Id": 0, "Sheet_ID": "壹〇カ214. スパスク ED.2", "label": "壹〇カ214. スパスク ED.2", "call_short": "G7270 S200 .J3", "call_num": "G7270 S200 .J3 SHEET 133-4440 ED.2", "recid": "yg328sm9165", "websiteUrl": "https://purl.stanford.edu/yg328sm9165", "title": "西伯利兵要二十万分一圖", "ckey": 10780393, "available": true, "iiifUrl": "https://purl.stanford.edu/yg328sm9165/iiif/manifest" }, "geometry": { "type": "Polygon", "coordinates": [ [ [ 132.0, 44.0000002 ], [ 133.0, 44.0000002 ], [ 133.0, 44.6666668 ], [ 132.0, 44.6666668 ], [ 132.0, 44.0000002 ] ] ] } },
{ "type": "Feature", "properties": { "Id": 0, "Sheet_ID": "スイソエフカ", "label": "スイソエフカ", "call_short": null, "call_num": null, "recid": null, "websiteUrl": null, "title": null, "ckey": 0, "available": false, "iiifUrl": null }, "geometry": { "type": "Polygon", "coordinates": [ [ [ 133.0, 44.0000002 ], [ 134.0, 44.0000002 ], [ 134.0, 44.6666668 ], [ 133.0, 44.6666668 ], [ 133.0, 44.0000002 ] ] ] } },
{ "type": "Feature", "properties": { "Id": 0, "Sheet_ID": "コクシャーローフカ", "label": "コクシャーローフカ", "call_short": null, "call_num": null, "recid": null, "websiteUrl": null, "title": null, "ckey": 0, "available": false, "iiifUrl": null }, "geometry": { "type": "Polygon", "coordinates": [ [ [ 134.0, 44.0000002 ], [ 135.0, 44.0000002 ], [ 135.0, 44.6666668 ], [ 134.0, 44.6666668 ], [ 134.0, 44.0000002 ] ] ] } },
{ "type": "Feature", "properties": { "Id": 0, "Sheet_ID": "半載河", "label": "半載河", "call_short": null, "call_num": null, "recid": null, "websiteUrl": null, "title": null, "ckey": 0, "available": false, "iiifUrl": null }, "geometry": { "type": "Polygon", "coordinates": [ [ [ 131.0, 44.6666668 ], [ 132.0, 44.6666668 ], [ 132.0, 45.3333334 ], [ 131.0, 45.3333334 ], [ 131.0, 44.6666668 ] ] ] } },
{ "type": "Feature", "properties": { "Id": 0, "Sheet_ID": "興凱湖", "label": "興凱湖", "call_short": null, "call_num": null, "recid": null, "websiteUrl": null, "title": null, "ckey": 0, "available": false, "iiifUrl": null }, "geometry": { "type": "Polygon", "coordinates": [ [ [ 132.0, 44.6666668 ], [ 133.0, 44.6666668 ], [ 133.0, 45.3333334 ], [ 132.0, 45.3333334 ], [ 132.0, 44.6666668 ] ] ] } },
{ "type": "Feature", "properties": { "Id": 0, "Sheet_ID": "ジニコフカ", "label": "ジニコフカ", "call_short": null, "call_num": null, "recid": null, "websiteUrl": null, "title": null, "ckey": 0, "available": false, "iiifUrl": null }, "geometry": { "type": "Polygon", "coordinates": [ [ [ 133.0, 44.6666668 ], [ 134.0, 44.6666668 ], [ 134.0, 45.3333334 ], [ 133.0, 45.3333334 ], [ 133.0, 44.6666668 ] ] ] } },
{ "type": "Feature", "properties": { "Id": 0, "Sheet_ID": "壹〇カ203. ファンヂャーン", "label": "壹〇カ203. ファンヂャーン", "call_short": "G7270 S200 .J3", "call_num": "G7270 S200 .J3 SHEET 135-4520", "recid": "td399ck3769", "websiteUrl": "https://purl.stanford.edu/td399ck3769", "title": "西伯利兵要二十万分一圖", "ckey": 10780393, "available": true, "iiifUrl": "https://purl.stanford.edu/td399ck3769/iiif/manifest" }, "geometry": { "type": "Polygon", "coordinates": [ [ [ 134.0, 44.6666668 ], [ 135.0, 44.6666668 ], [ 135.0, 45.3333334 ], [ 134.0, 45.3333334 ], [ 134.0, 44.6666668 ] ] ] } },
{ "type": "Feature", "properties": { "Id": 0, "Sheet_ID": "虎頭", "label": "虎頭", "call_short": null, "call_num": null, "recid": null, "websiteUrl": null, "title": null, "ckey": 0, "available": false, "iiifUrl": null }, "geometry": { "type": "Polygon", "coordinates": [ [ [ 133.0, 45.3333334 ], [ 134.0, 45.3333334 ], [ 134.0, 46.0 ], [ 133.0, 46.0 ], [ 133.0, 45.3333334 ] ] ] } },
{ "type": "Feature", "properties": { "Id": 0, "Sheet_ID": "タワラーザ山", "label": "タワラーザ山", "call_short": null, "call_num": null, "recid": null, "websiteUrl": null, "title": null, "ckey": 0, "available": false, "iiifUrl": null }, "geometry": { "type": "Polygon", "coordinates": [ [ [ 134.0, 45.3333334 ], [ 135.0, 45.3333334 ], [ 135.0, 46.0 ], [ 134.0, 46.0 ], [ 134.0, 45.3333334 ] ] ] } },
{ "type": "Feature", "properties": { "Id": 0, "Sheet_ID": "壹〇カ214. スパスク", "label": "壹〇カ214. スパスク", "call_short": "G7270 S200 .J3", "call_num": "G7270 S200 .J3 SHEET 133-4440", "recid": "qh273gw5474", "websiteUrl": "https://purl.stanford.edu/qh273gw5474", "title": "西伯利兵要二十万分一圖", "ckey": 10780393, "available": true, "iiifUrl": "https://purl.stanford.edu/qh273gw5474/iiif/manifest" }, "geometry": { "type": "Polygon", "coordinates": [ [ [ 132.0, 44.0000002 ], [ 133.0, 44.0000002 ], [ 133.0, 44.6666668 ], [ 132.0, 44.6666668 ], [ 132.0, 44.0000002 ] ] ] } },
{ "type": "Feature", "properties": { "Id": 0, "Sheet_ID": "鎮東村", "label": "鎮東村", "call_short": null, "call_num": null, "recid": null, "websiteUrl": null, "title": null, "ckey": 0, "available": false, "iiifUrl": null }, "geometry": { "type": "Polygon", "coordinates": [ [ [ 130.0, 47.333333 ], [ 131.0, 47.333333 ], [ 131.0, 47.9999998 ], [ 130.0, 47.9999998 ], [ 130.0, 47.333333 ] ] ] } },
{ "type": "Feature", "properties": { "Id": 0, "Sheet_ID": "蘿北", "label": "蘿北", "call_short": null, "call_num": null, "recid": null, "websiteUrl": null, "title": null, "ckey": 0, "available": false, "iiifUrl": null }, "geometry": { "type": "Polygon", "coordinates": [ [ [ 131.0, 47.333333 ], [ 132.0, 47.333333 ], [ 132.0, 47.9999998 ], [ 131.0, 47.9999998 ], [ 131.0, 47.333333 ] ] ] } },
{ "type": "Feature", "properties": { "Id": 0, "Sheet_ID": "同江", "label": "同江", "call_short": null, "call_num": null, "recid": null, "websiteUrl": null, "title": null, "ckey": 0, "available": false, "iiifUrl": null }, "geometry": { "type": "Polygon", "coordinates": [ [ [ 132.0, 47.333333 ], [ 133.0, 47.333333 ], [ 133.0, 47.9999998 ], [ 132.0, 47.9999998 ], [ 132.0, 47.333333 ] ] ] } },
{ "type": "Feature", "properties": { "Id": 0, "Sheet_ID": "富源村", "label": "富源村", "call_short": null, "call_num": null, "recid": null, "websiteUrl": null, "title": null, "ckey": 0, "available": false, "iiifUrl": null }, "geometry": { "type": "Polygon", "coordinates": [ [ [ 130.0, 47.9999998 ], [ 131.0, 47.9999998 ], [ 131.0, 48.6666665 ], [ 130.0, 48.6666665 ], [ 130.0, 47.9999998 ] ] ] } },
{ "type": "Feature", "properties": { "Id": 0, "Sheet_ID": "壹〇ヨ218. ビーヂァン河", "label": "壹〇ヨ218. ビーヂァン河", "call_short": "G7270 S200 .J3", "call_num": "G7270 S200 .J3 SHEET 132-4840", "recid": "br720vn0814", "websiteUrl": "https://purl.stanford.edu/br720vn0814", "title": "西伯利兵要二十万分一圖", "ckey": 10780393, "available": true, "iiifUrl": "https://purl.stanford.edu/br720vn0814/iiif/manifest" }, "geometry": { "type": "Polygon", "coordinates": [ [ [ 131.0, 47.9999998 ], [ 132.0, 47.9999998 ], [ 132.0, 48.6666665 ], [ 131.0, 48.6666665 ], [ 131.0, 47.9999998 ] ] ] } },
{ "type": "Feature", "properties": { "Id": 0, "Sheet_ID": "バブストーワ", "label": "バブストーワ", "call_short": null, "call_num": null, "recid": null, "websiteUrl": null, "title": null, "ckey": 0, "available": false, "iiifUrl": null }, "geometry": { "type": "Polygon", "coordinates": [ [ [ 132.0, 47.9999998 ], [ 133.0, 47.9999998 ], [ 133.0, 48.6666665 ], [ 132.0, 48.6666665 ], [ 132.0, 47.9999998 ] ] ] } },
{ "type": "Feature", "properties": { "Id": 0, "Sheet_ID": "ゴロウィンスキー", "label": "ゴロウィンスキー", "call_short": null, "call_num": null, "recid": null, "websiteUrl": null, "title": null, "ckey": 0, "available": false, "iiifUrl": null }, "geometry": { "type": "Polygon", "coordinates": [ [ [ 133.0, 47.9999998 ], [ 134.0, 47.9999998 ], [ 134.0, 48.6666665 ], [ 133.0, 48.6666665 ], [ 133.0, 47.9999998 ] ] ] } },
{ "type": "Feature", "properties": { "Id": 0, "Sheet_ID": "撫遠", "label": "撫遠", "call_short": null, "call_num": null, "recid": null, "websiteUrl": null, "title": null, "ckey": 0, "available": false, "iiifUrl": null }, "geometry": { "type": "Polygon", "coordinates": [ [ [ 134.0, 47.9999998 ], [ 135.0, 47.9999998 ], [ 135.0, 48.6666665 ], [ 134.0, 48.6666665 ], [ 134.0, 47.9999998 ] ] ] } },
{ "type": "Feature", "properties": { "Id": 0, "Sheet_ID": "佛山", "label": "佛山", "call_short": null, "call_num": null, "recid": null, "websiteUrl": null, "title": null, "ckey": 0, "available": false, "iiifUrl": null }, "geometry": { "type": "Polygon", "coordinates": [ [ [ 130.0, 48.6666665 ], [ 131.0, 48.6666665 ], [ 131.0, 49.3333333 ], [ 130.0, 49.3333333 ], [ 130.0, 48.6666665 ] ] ] } },
{ "type": "Feature", "properties": { "Id": 0, "Sheet_ID": "イズベェストコーウィ", "label": "イズベェストコーウィ", "call_short": null, "call_num": null, "recid": null, "websiteUrl": null, "title": null, "ckey": 0, "available": false, "iiifUrl": null }, "geometry": { "type": "Polygon", "coordinates": [ [ [ 131.0, 48.6666665 ], [ 132.0, 48.6666665 ], [ 132.0, 49.3333333 ], [ 131.0, 49.3333333 ], [ 131.0, 48.6666665 ] ] ] } },
{ "type": "Feature", "properties": { "Id": 0, "Sheet_ID": "ビロビッヂャン", "label": "ビロビッヂャン", "call_short": null, "call_num": null, "recid": null, "websiteUrl": null, "title": null, "ckey": 0, "available": false, "iiifUrl": null }, "geometry": { "type": "Polygon", "coordinates": [ [ [ 132.0, 48.6666665 ], [ 133.0, 48.6666665 ], [ 133.0, 49.3333333 ], [ 132.0, 49.3333333 ], [ 132.0, 48.6666665 ] ] ] } },
{ "type": "Feature", "properties": { "Id": 0, "Sheet_ID": "壹〇ヨ207. クパードィ", "label": "壹〇ヨ207. クパードィ", "call_short": "G7270 S200 .J3", "call_num": "G7270 S200 .J3 SHEET 134-4920", "recid": "db159zx2328", "websiteUrl": "https://purl.stanford.edu/db159zx2328", "title": "西伯利兵要二十万分一圖", "ckey": 10780393, "available": true, "iiifUrl": "https://purl.stanford.edu/db159zx2328/iiif/manifest" }, "geometry": { "type": "Polygon", "coordinates": [ [ [ 133.0, 48.6666665 ], [ 134.0, 48.6666665 ], [ 134.0, 49.3333333 ], [ 133.0, 49.3333333 ], [ 133.0, 48.6666665 ] ] ] } },
{ "type": "Feature", "properties": { "Id": 0, "Sheet_ID": "グラマフター", "label": "グラマフター", "call_short": null, "call_num": null, "recid": null, "websiteUrl": null, "title": null, "ckey": 0, "available": false, "iiifUrl": null }, "geometry": { "type": "Polygon", "coordinates": [ [ [ 134.0, 48.6666665 ], [ 135.0, 48.6666665 ], [ 135.0, 49.3333333 ], [ 134.0, 49.3333333 ], [ 134.0, 48.6666665 ] ] ] } },
{ "type": "Feature", "properties": { "Id": 0, "Sheet_ID": "壹〇ヨ221. アルハラ", "label": "壹〇ヨ221. アルハラ", "call_short": "G7270 S200 .J3", "call_num": "G7270 S200 .J3 SHEET 131-5000", "recid": "hx442vs2147", "websiteUrl": "https://purl.stanford.edu/hx442vs2147", "title": "西伯利兵要二十万分一圖", "ckey": 10780393, "available": true, "iiifUrl": "https://purl.stanford.edu/hx442vs2147/iiif/manifest" }, "geometry": { "type": "Polygon", "coordinates": [ [ [ 130.0, 49.3333333 ], [ 131.0, 49.3333333 ], [ 131.0, 50.0 ], [ 130.0, 50.0 ], [ 130.0, 49.3333333 ] ] ] } },
{ "type": "Feature", "properties": { "Id": 0, "Sheet_ID": "ブルール山", "label": "ブルール山", "call_short": null, "call_num": null, "recid": null, "websiteUrl": null, "title": null, "ckey": 0, "available": false, "iiifUrl": null }, "geometry": { "type": "Polygon", "coordinates": [ [ [ 131.0, 49.3333333 ], [ 132.0, 49.3333333 ], [ 132.0, 50.0 ], [ 131.0, 50.0 ], [ 131.0, 49.3333333 ] ] ] } },
{ "type": "Feature", "properties": { "Id": 0, "Sheet_ID": "雲烏", "label": "雲烏", "call_short": null, "call_num": null, "recid": null, "websiteUrl": null, "title": null, "ckey": 0, "available": false, "iiifUrl": null }, "geometry": { "type": "Polygon", "coordinates": [ [ [ 129.0, 48.666667 ], [ 130.0, 48.666667 ], [ 130.0, 49.3333336 ], [ 129.0, 49.3333336 ], [ 129.0, 48.666667 ] ] ] } },
{ "type": "Feature", "properties": { "Id": 0, "Sheet_ID": "璦琿", "label": "璦琿", "call_short": null, "call_num": null, "recid": null, "websiteUrl": null, "title": null, "ckey": 0, "available": false, "iiifUrl": null }, "geometry": { "type": "Polygon", "coordinates": [ [ [ 127.0, 49.3333336 ], [ 128.0, 49.3333336 ], [ 128.0, 50.0000002 ], [ 127.0, 50.0000002 ], [ 127.0, 49.3333336 ] ] ] } },
{ "type": "Feature", "properties": { "Id": 0, "Sheet_ID": "克竒", "label": "克竒", "call_short": null, "call_num": null, "recid": null, "websiteUrl": null, "title": null, "ckey": 0, "available": false, "iiifUrl": null }, "geometry": { "type": "Polygon", "coordinates": [ [ [ 128.0, 49.3333336 ], [ 129.0, 49.3333336 ], [ 129.0, 50.0000002 ], [ 128.0, 50.0000002 ], [ 128.0, 49.3333336 ] ] ] } },
{ "type": "Feature", "properties": { "Id": 0, "Sheet_ID": "ライチーハ", "label": "ライチーハ", "call_short": null, "call_num": null, "recid": null, "websiteUrl": null, "title": null, "ckey": 0, "available": false, "iiifUrl": null }, "geometry": { "type": "Polygon", "coordinates": [ [ [ 129.0, 49.3333336 ], [ 130.0, 49.3333336 ], [ 130.0, 50.0000002 ], [ 129.0, 50.0000002 ], [ 129.0, 49.3333336 ] ] ] } },
{ "type": "Feature", "properties": { "Id": 0, "Sheet_ID": "黒河", "label": "黒河", "call_short": null, "call_num": null, "recid": null, "websiteUrl": null, "title": null, "ckey": 0, "available": false, "iiifUrl": null }, "geometry": { "type": "Polygon", "coordinates": [ [ [ 127.0, 50.0000002 ], [ 128.0, 50.0000002 ], [ 128.0, 50.6666668 ], [ 127.0, 50.6666668 ], [ 127.0, 50.0000002 ] ] ] } },
{ "type": "Feature", "properties": { "Id": 0, "Sheet_ID": "壹壹タ210. タムボフカ", "label": "壹壹タ210. タムボフカ", "call_short": "G7270 S200 .J3", "call_num": "G7270 S200 .J3 SHEET 129-5040", "recid": "db627cr9595", "websiteUrl": "https://purl.stanford.edu/db627cr9595", "title": "西伯利兵要二十万分一圖", "ckey": 10780393, "available": true, "iiifUrl": "https://purl.stanford.edu/db627cr9595/iiif/manifest" }, "geometry": { "type": "Polygon", "coordinates": [ [ [ 128.0, 50.0000002 ], [ 129.0, 50.0000002 ], [ 129.0, 50.6666668 ], [ 128.0, 50.6666668 ], [ 128.0, 50.0000002 ] ] ] } },
{ "type": "Feature", "properties": { "Id": 0, "Sheet_ID": "壹壹タ205. ザヴィタヤ", "label": "壹壹タ205. ザヴィタヤ", "call_short": "G7270 S200 .J3", "call_num": "G7270 S200 .J3 SHEET 130-5040", "recid": "tc530wx1410", "websiteUrl": "https://purl.stanford.edu/tc530wx1410", "title": "西伯利兵要二十万分一圖", "ckey": 10780393, "available": true, "iiifUrl": "https://purl.stanford.edu/tc530wx1410/iiif/manifest" }, "geometry": { "type": "Polygon", "coordinates": [ [ [ 129.0, 50.0000002 ], [ 130.0, 50.0000002 ], [ 130.0, 50.6666668 ], [ 129.0, 50.6666668 ], [ 129.0, 50.0000002 ] ] ] } },
{ "type": "Feature", "properties": { "Id": 0, "Sheet_ID": "三道卡", "label": "三道卡", "call_short": null, "call_num": null, "recid": null, "websiteUrl": null, "title": null, "ckey": 0, "available": false, "iiifUrl": null }, "geometry": { "type": "Polygon", "coordinates": [ [ [ 126.0, 50.6666668 ], [ 127.0, 50.6666668 ], [ 127.0, 51.3333334 ], [ 126.0, 51.3333334 ], [ 126.0, 50.6666668 ] ] ] } },
{ "type": "Feature", "properties": { "Id": 0, "Sheet_ID": "アンドレーエフカ", "label": "アンドレーエフカ", "call_short": null, "call_num": null, "recid": null, "websiteUrl": null, "title": null, "ckey": 0, "available": false, "iiifUrl": null }, "geometry": { "type": "Polygon", "coordinates": [ [ [ 127.0, 50.6666668 ], [ 128.0, 50.6666668 ], [ 128.0, 51.3333334 ], [ 127.0, 51.3333334 ], [ 127.0, 50.6666668 ] ] ] } },
{ "type": "Feature", "properties": { "Id": 0, "Sheet_ID": "クィブィシェフカ. ヴォストチナヤ", "label": "クィブィシェフカ. ヴォストチナヤ", "call_short": null, "call_num": null, "recid": null, "websiteUrl": null, "title": null, "ckey": 0, "available": false, "iiifUrl": null }, "geometry": { "type": "Polygon", "coordinates": [ [ [ 128.0, 50.6666668 ], [ 129.0, 50.6666668 ], [ 129.0, 51.3333334 ], [ 128.0, 51.3333334 ], [ 128.0, 50.6666668 ] ] ] } },
{ "type": "Feature", "properties": { "Id": 0, "Sheet_ID": "トルバガタイ", "label": "トルバガタイ", "call_short": null, "call_num": null, "recid": null, "websiteUrl": null, "title": null, "ckey": 0, "available": false, "iiifUrl": null }, "geometry": { "type": "Polygon", "coordinates": [ [ [ 129.0, 50.6666668 ], [ 130.0, 50.6666668 ], [ 130.0, 51.3333334 ], [ 129.0, 51.3333334 ], [ 129.0, 50.6666668 ] ] ] } },
{ "type": "Feature", "properties": { "Id": 0, "Sheet_ID": "呼瑪", "label": "呼瑪", "call_short": null, "call_num": null, "recid": null, "websiteUrl": null, "title": null, "ckey": 0, "available": false, "iiifUrl": null }, "geometry": { "type": "Polygon", "coordinates": [ [ [ 126.0, 51.3333334 ], [ 127.0, 51.3333334 ], [ 127.0, 52.0 ], [ 126.0, 52.0 ], [ 126.0, 51.3333334 ] ] ] } },
{ "type": "Feature", "properties": { "Id": 0, "Sheet_ID": "壹壹タ213. セレクタン", "label": "壹壹タ213. セレクタン", "call_short": "G7270 S200 .J3", "call_num": "G7270 S200 .J3 SHEET 128-5200", "recid": "bj588xj6196", "websiteUrl": "https://purl.stanford.edu/bj588xj6196", "title": "西伯利兵要二十万分一圖", "ckey": 10780393, "available": true, "iiifUrl": "https://purl.stanford.edu/bj588xj6196/iiif/manifest" }, "geometry": { "type": "Polygon", "coordinates": [ [ [ 127.0, 51.3333334 ], [ 128.0, 51.3333334 ], [ 128.0, 52.0 ], [ 127.0, 52.0 ], [ 127.0, 51.3333334 ] ] ] } },
{ "type": "Feature", "properties": { "Id": 0, "Sheet_ID": "壹壹タ208. スヴォボトヌイ", "label": "壹壹タ208. スヴォボトヌイ", "call_short": "G7270 S200 .J3", "call_num": "G7270 S200 .J3 SHEET 129-5200", "recid": "yv855wn1057", "websiteUrl": "https://purl.stanford.edu/yv855wn1057", "title": "西伯利兵要二十万分一圖", "ckey": 10780393, "available": true, "iiifUrl": "https://purl.stanford.edu/yv855wn1057/iiif/manifest" }, "geometry": { "type": "Polygon", "coordinates": [ [ [ 128.0, 51.3333334 ], [ 129.0, 51.3333334 ], [ 129.0, 52.0 ], [ 128.0, 52.0 ], [ 128.0, 51.3333334 ] ] ] } },
{ "type": "Feature", "properties": { "Id": 0, "Sheet_ID": "西口子", "label": "西口子", "call_short": null, "call_num": null, "recid": null, "websiteUrl": null, "title": null, "ckey": 0, "available": false, "iiifUrl": null }, "geometry": { "type": "Polygon", "coordinates": [ [ [ 120.0, 52.666667 ], [ 121.0, 52.666667 ], [ 121.0, 53.3333335 ], [ 120.0, 53.3333335 ], [ 120.0, 52.666667 ] ] ] } },
{ "type": "Feature", "properties": { "Id": 0, "Sheet_ID": "壹貳レ225. アマザール", "label": "壹貳レ225. アマザール", "call_short": "G7270 S200 .J3", "call_num": "G7270 S200 .J3 SHEET 121-5400", "recid": "kw415wf9246", "websiteUrl": "https://purl.stanford.edu/kw415wf9246", "title": "西伯利兵要二十万分一圖", "ckey": 10780393, "available": true, "iiifUrl": "https://purl.stanford.edu/kw415wf9246/iiif/manifest" }, "geometry": { "type": "Polygon", "coordinates": [ [ [ 120.0, 53.3333335 ], [ 121.0, 53.3333335 ], [ 121.0, 54.0 ], [ 120.0, 54.0 ], [ 120.0, 53.3333335 ] ] ] } },
{ "type": "Feature", "properties": { "Id": 0, "Sheet_ID": "ダウリヤ", "label": "ダウリヤ", "call_short": null, "call_num": null, "recid": null, "websiteUrl": null, "title": null, "ckey": 0, "available": false, "iiifUrl": null }, "geometry": { "type": "Polygon", "coordinates": [ [ [ 116.0, 49.333333 ], [ 117.0, 49.333333 ], [ 117.0, 49.9999997 ], [ 116.0, 49.9999997 ], [ 116.0, 49.333333 ] ] ] } },
{ "type": "Feature", "properties": { "Id": 0, "Sheet_ID": "満洲里", "label": "満洲里", "call_short": null, "call_num": null, "recid": null, "websiteUrl": null, "title": null, "ckey": 0, "available": false, "iiifUrl": null }, "geometry": { "type": "Polygon", "coordinates": [ [ [ 117.0, 49.333333 ], [ 118.0, 49.333333 ], [ 118.0, 49.9999997 ], [ 117.0, 49.9999997 ], [ 117.0, 49.333333 ] ] ] } },
{ "type": "Feature", "properties": { "Id": 0, "Sheet_ID": "呼其爾圖山", "label": "呼其爾圖山", "call_short": null, "call_num": null, "recid": null, "websiteUrl": null, "title": null, "ckey": 0, "available": false, "iiifUrl": null }, "geometry": { "type": "Polygon", "coordinates": [ [ [ 118.0, 49.333333 ], [ 119.0, 49.333333 ], [ 119.0, 49.9999997 ], [ 118.0, 49.9999997 ], [ 118.0, 49.333333 ] ] ] } },
{ "type": "Feature", "properties": { "Id": 0, "Sheet_ID": "クルゥスータイ", "label": "クルゥスータイ", "call_short": null, "call_num": null, "recid": null, "websiteUrl": null, "title": null, "ckey": 0, "available": false, "iiifUrl": null }, "geometry": { "type": "Polygon", "coordinates": [ [ [ 115.0, 49.9999997 ], [ 116.0, 49.9999997 ], [ 116.0, 50.6666664 ], [ 115.0, 50.6666664 ], [ 115.0, 49.9999997 ] ] ] } },
{ "type": "Feature", "properties": { "Id": 0, "Sheet_ID": "ボルジャ", "label": "ボルジャ", "call_short": null, "call_num": null, "recid": null, "websiteUrl": null, "title": null, "ckey": 0, "available": false, "iiifUrl": null }, "geometry": { "type": "Polygon", "coordinates": [ [ [ 116.0, 49.9999997 ], [ 117.0, 49.9999997 ], [ 117.0, 50.6666664 ], [ 116.0, 50.6666664 ], [ 116.0, 49.9999997 ] ] ] } },
{ "type": "Feature", "properties": { "Id": 0, "Sheet_ID": "壹参タ215. ツァガンオルーエフスカヤ", "label": "壹参タ215. ツァガンオルーエフスカヤ", "call_short": "G7270 S200 .J3", "call_num": "G7270 S200 .J3 SHEET 118-5040", "recid": "cm682nx9543", "websiteUrl": "https://purl.stanford.edu/cm682nx9543", "title": "西伯利兵要二十万分一圖", "ckey": 10780393, "available": true, "iiifUrl": "https://purl.stanford.edu/cm682nx9543/iiif/manifest" }, "geometry": { "type": "Polygon", "coordinates": [ [ [ 117.0, 49.9999997 ], [ 118.0, 49.9999997 ], [ 118.0, 50.6666664 ], [ 117.0, 50.6666664 ], [ 117.0, 49.9999997 ] ] ] } },
{ "type": "Feature", "properties": { "Id": 0, "Sheet_ID": "ブィルカ", "label": "ブィルカ", "call_short": null, "call_num": null, "recid": null, "websiteUrl": null, "title": null, "ckey": 0, "available": false, "iiifUrl": null }, "geometry": { "type": "Polygon", "coordinates": [ [ [ 118.0, 49.9999997 ], [ 119.0, 49.9999997 ], [ 119.0, 50.6666664 ], [ 118.0, 50.6666664 ], [ 118.0, 49.9999997 ] ] ] } },
{ "type": "Feature", "properties": { "Id": 0, "Sheet_ID": "壹参タ224. オロウャンナヤ", "label": "壹参タ224. オロウャンナヤ", "call_short": "G7270 S200 .J3", "call_num": "G7270 S200 .J3 SHEET 116-5120", "recid": "mt790bc3750", "websiteUrl": "https://purl.stanford.edu/mt790bc3750", "title": "西伯利兵要二十万分一圖", "ckey": 10780393, "available": true, "iiifUrl": "https://purl.stanford.edu/mt790bc3750/iiif/manifest" }, "geometry": { "type": "Polygon", "coordinates": [ [ [ 115.0, 50.6666664 ], [ 116.0, 50.6666664 ], [ 116.0, 51.3333331 ], [ 115.0, 51.3333331 ], [ 115.0, 50.6666664 ] ] ] } },
{ "type": "Feature", "properties": { "Id": 0, "Sheet_ID": "壹参タ219. ブルリャートゥイ", "label": "壹参タ219. ブルリャートゥイ", "call_short": "G7270 S200 .J3", "call_num": "G7270 S200 .J3 SHEET 117-5120", "recid": "qw776wz1496", "websiteUrl": "https://purl.stanford.edu/qw776wz1496", "title": "西伯利兵要二十万分一圖", "ckey": 10780393, "available": true, "iiifUrl": "https://purl.stanford.edu/qw776wz1496/iiif/manifest" }, "geometry": { "type": "Polygon", "coordinates": [ [ [ 116.0, 50.6666664 ], [ 117.0, 50.6666664 ], [ 117.0, 51.3333331 ], [ 116.0, 51.3333331 ], [ 116.0, 50.6666664 ] ] ] } },
{ "type": "Feature", "properties": { "Id": 0, "Sheet_ID": "壹参タ214. アレクサンドロフスキー・ザウォード", "label": "壹参タ214. アレクサンドロフスキー・ザウォード", "call_short": "G7270 S200 .J3", "call_num": "G7270 S200 .J3 SHEET 118-5120", "recid": "kt413wz2148", "websiteUrl": "https://purl.stanford.edu/kt413wz2148", "title": "西伯利兵要二十万分一圖", "ckey": 10780393, "available": true, "iiifUrl": "https://purl.stanford.edu/kt413wz2148/iiif/manifest" }, "geometry": { "type": "Polygon", "coordinates": [ [ [ 117.0, 50.6666664 ], [ 118.0, 50.6666664 ], [ 118.0, 51.3333331 ], [ 117.0, 51.3333331 ], [ 117.0, 50.6666664 ] ] ] } },
{ "type": "Feature", "properties": { "Id": 0, "Sheet_ID": "ドノー", "label": "ドノー", "call_short": null, "call_num": null, "recid": null, "websiteUrl": null, "title": null, "ckey": 0, "available": false, "iiifUrl": null }, "geometry": { "type": "Polygon", "coordinates": [ [ [ 118.0, 50.6666664 ], [ 119.0, 50.6666664 ], [ 119.0, 51.3333331 ], [ 118.0, 51.3333331 ], [ 118.0, 50.6666664 ] ] ] } },
{ "type": "Feature", "properties": { "Id": 0, "Sheet_ID": "ネルチンスキーザウォード", "label": "ネルチンスキーザウォード", "call_short": null, "call_num": null, "recid": null, "websiteUrl": null, "title": null, "ckey": 0, "available": false, "iiifUrl": null }, "geometry": { "type": "Polygon", "coordinates": [ [ [ 119.0, 50.6666664 ], [ 120.0, 50.6666664 ], [ 120.0, 51.3333331 ], [ 119.0, 51.3333331 ], [ 119.0, 50.6666664 ] ] ] } },
{ "type": "Feature", "properties": { "Id": 0, "Sheet_ID": "カザノフスコエ", "label": "カザノフスコエ", "call_short": null, "call_num": null, "recid": null, "websiteUrl": null, "title": null, "ckey": 0, "available": false, "iiifUrl": null }, "geometry": { "type": "Polygon", "coordinates": [ [ [ 115.0, 51.3333331 ], [ 116.0, 51.3333331 ], [ 116.0, 51.9999999 ], [ 115.0, 51.9999999 ], [ 115.0, 51.3333331 ] ] ] } },
{ "type": "Feature", "properties": { "Id": 0, "Sheet_ID": "ネルチンスク", "label": "ネルチンスク", "call_short": null, "call_num": null, "recid": null, "websiteUrl": null, "title": null, "ckey": 0, "available": false, "iiifUrl": null }, "geometry": { "type": "Polygon", "coordinates": [ [ [ 116.0, 51.3333331 ], [ 117.0, 51.3333331 ], [ 117.0, 51.9999999 ], [ 116.0, 51.9999999 ], [ 116.0, 51.3333331 ] ] ] } },
{ "type": "Feature", "properties": { "Id": 0, "Sheet_ID": "ヂドキンスカヤ", "label": "ヂドキンスカヤ", "call_short": null, "call_num": null, "recid": null, "websiteUrl": null, "title": null, "ckey": 0, "available": false, "iiifUrl": null }, "geometry": { "type": "Polygon", "coordinates": [ [ [ 117.0, 51.3333331 ], [ 118.0, 51.3333331 ], [ 118.0, 51.9999999 ], [ 117.0, 51.9999999 ], [ 117.0, 51.3333331 ] ] ] } },
{ "type": "Feature", "properties": { "Id": 0, "Sheet_ID": "壹参タ208. ガヂームルスキー", "label": "壹参タ208. ガヂームルスキー", "call_short": "G7270 S200 .J3", "call_num": "G7270 S200 .J3 SHEET 119-5200", "recid": "hc559kr1812", "websiteUrl": "https://purl.stanford.edu/hc559kr1812", "title": "西伯利兵要二十万分一圖", "ckey": 10780393, "available": true, "iiifUrl": "https://purl.stanford.edu/hc559kr1812/iiif/manifest" }, "geometry": { "type": "Polygon", "coordinates": [ [ [ 118.0, 51.3333331 ], [ 119.0, 51.3333331 ], [ 119.0, 51.9999999 ], [ 118.0, 51.9999999 ], [ 118.0, 51.3333331 ] ] ] } },
{ "type": "Feature", "properties": { "Id": 0, "Sheet_ID": "吉拉林", "label": "吉拉林", "call_short": null, "call_num": null, "recid": null, "websiteUrl": null, "title": null, "ckey": 0, "available": false, "iiifUrl": null }, "geometry": { "type": "Polygon", "coordinates": [ [ [ 119.0, 51.3333331 ], [ 120.0, 51.3333331 ], [ 120.0, 51.9999999 ], [ 119.0, 51.9999999 ], [ 119.0, 51.3333331 ] ] ] } },
{ "type": "Feature", "properties": { "Id": 0, "Sheet_ID": "アクショノウォジローフスコエ", "label": "アクショノウォジローフスコエ", "call_short": null, "call_num": null, "recid": null, "websiteUrl": null, "title": null, "ckey": 0, "available": false, "iiifUrl": null }, "geometry": { "type": "Polygon", "coordinates": [ [ [ 117.0, 52.6666666 ], [ 118.0, 52.6666666 ], [ 118.0, 53.3333333 ], [ 117.0, 53.3333333 ], [ 117.0, 52.6666666 ] ] ] } },
{ "type": "Feature", "properties": { "Id": 0, "Sheet_ID": "ズベガ", "label": "ズベガ", "call_short": null, "call_num": null, "recid": null, "websiteUrl": null, "title": null, "ckey": 0, "available": false, "iiifUrl": null }, "geometry": { "type": "Polygon", "coordinates": [ [ [ 118.0, 52.6666666 ], [ 119.0, 52.6666666 ], [ 119.0, 53.3333333 ], [ 118.0, 53.3333333 ], [ 118.0, 52.6666666 ] ] ] } },
{ "type": "Feature", "properties": { "Id": 0, "Sheet_ID": "ゴルビツァ", "label": "ゴルビツァ", "call_short": null, "call_num": null, "recid": null, "websiteUrl": null, "title": null, "ckey": 0, "available": false, "iiifUrl": null }, "geometry": { "type": "Polygon", "coordinates": [ [ [ 119.0, 52.6666666 ], [ 120.0, 52.6666666 ], [ 120.0, 53.3333333 ], [ 119.0, 53.3333333 ], [ 119.0, 52.6666666 ] ] ] } },
{ "type": "Feature", "properties": { "Id": 0, "Sheet_ID": "壹参レ210. クセネーウスカヤ", "label": "壹参レ210. クセネーウスカヤ", "call_short": "G7270 S200 .J3", "call_num": "G7270 S200 .J3 SHEET 119-5400", "recid": "gq727tz2774", "websiteUrl": "https://purl.stanford.edu/gq727tz2774", "title": "西伯利兵要二十万分一圖", "ckey": 10780393, "available": true, "iiifUrl": "https://purl.stanford.edu/gq727tz2774/iiif/manifest" }, "geometry": { "type": "Polygon", "coordinates": [ [ [ 118.0, 53.3333333 ], [ 119.0, 53.3333333 ], [ 119.0, 54.0 ], [ 118.0, 54.0 ], [ 118.0, 53.3333333 ] ] ] } },
{ "type": "Feature", "properties": { "Id": 0, "Sheet_ID": "モゴーチァ", "label": "モゴーチァ", "call_short": null, "call_num": null, "recid": null, "websiteUrl": null, "title": null, "ckey": 0, "available": false, "iiifUrl": null }, "geometry": { "type": "Polygon", "coordinates": [ [ [ 119.0, 53.3333333 ], [ 120.0, 53.3333333 ], [ 120.0, 54.0 ], [ 119.0, 54.0 ], [ 119.0, 53.3333333 ] ] ] } }
]
}
