{
"type": "FeatureCollection",
"name": "index_map",
"features": [
{ "type": "Feature", "properties": { "Id": 0, "Sheet_ID": "舞鶴港至新潟港", "label": "舞鶴港至新潟港", "call_short": "G7961 .P6 1944 .K3", "call_num": "G7961 .P6 1944 .K3 5060", "recid": "ty513hg3508", "websiteUrl": "https://purl.stanford.edu/ty513hg3508", "title": "機密海圖. 水路部秘", "ckey": 12782648, "available": true, "iiifUrl": "https://purl.stanford.edu/ty513hg3508/iiif/manifest" }, "geometry": { "type": "Polygon", "coordinates": [ [ [ 134.25, 35.166667 ], [ 139.5, 35.166667 ], [ 139.5, 38.083333 ], [ 134.25, 38.083333 ], [ 134.25, 35.166667 ] ] ] } },
{ "type": "Feature", "properties": { "Id": 0, "Sheet_ID": "臺灣沿岸", "label": "臺灣沿岸", "call_short": "G7961 .P6 1944 .K3", "call_num": "G7961 .P6 1944 .K3 5068", "recid": "zh890br8727", "websiteUrl": "https://purl.stanford.edu/zh890br8727", "title": "機密海圖. 水路部秘", "ckey": 12782648, "available": true, "iiifUrl": "https://purl.stanford.edu/zh890br8727/iiif/manifest" }, "geometry": { "type": "Polygon", "coordinates": [ [ [ 119.333333, 20.833333 ], [ 123.0, 20.833333 ], [ 123.0, 25.833333 ], [ 119.333333, 25.833333 ], [ 119.333333, 20.833333 ] ] ] } },
{ "type": "Feature", "properties": { "Id": 0, "Sheet_ID": "東京海灣至対馬海峡", "label": "東京海灣至対馬海峡", "call_short": "G7961 .P6 1944 .K3", "call_num": "G7961 .P6 1944 .K3 5192", "recid": "dp378ts0129", "websiteUrl": "https://purl.stanford.edu/dp378ts0129", "title": "機密海圖. 水路部秘", "ckey": 12782648, "available": true, "iiifUrl": "https://purl.stanford.edu/dp378ts0129/iiif/manifest" }, "geometry": { "type": "Polygon", "coordinates": [ [ [ 128.333333, 30.166667 ], [ 141.166667, 30.166667 ], [ 141.166667, 37.583333 ], [ 128.333333, 37.583333 ], [ 128.333333, 30.166667 ] ] ] } },
{ "type": "Feature", "properties": { "Id": 0, "Sheet_ID": "營口至上海", "label": "營口至上海", "call_short": "G7961 .P6 1944 .K3", "call_num": "G7961 .P6 1944 .K3 5194", "recid": "nm634np1065", "websiteUrl": "https://purl.stanford.edu/nm634np1065", "title": "機密海圖. 水路部秘", "ckey": 12782648, "available": true, "iiifUrl": "https://purl.stanford.edu/nm634np1065/iiif/manifest" }, "geometry": { "type": "Polygon", "coordinates": [ [ [ 117.0, 30.833333 ], [ 125.833333, 30.833333 ], [ 125.833333, 41.25 ], [ 117.0, 41.25 ], [ 117.0, 30.833333 ] ] ] } },
{ "type": "Feature", "properties": { "Id": 0, "Sheet_ID": "九州至臺灣", "label": "九州至臺灣", "call_short": "G7961 .P6 1944 .K3", "call_num": "G7961 .P6 1944 .K3 5203", "recid": "gq696sq0942", "websiteUrl": "https://purl.stanford.edu/gq696sq0942", "title": "機密海圖. 水路部秘", "ckey": 12782648, "available": true, "iiifUrl": "https://purl.stanford.edu/gq696sq0942/iiif/manifest" }, "geometry": { "type": "Polygon", "coordinates": [ [ [ 117.0, 24.166667 ], [ 132.833333, 24.166667 ], [ 132.833333, 34.0 ], [ 117.0, 34.0 ], [ 117.0, 24.166667 ] ] ] } }
]
}
