{
"type": "FeatureCollection",
"name": "index_map",
"xy_coordinate_resolution": 1e-07,
"features": [
{ "type": "Feature", "properties": { "Id": 0, "Sheet_ID": "西6行北3段. 旅順", "label": "西6行北3段. 旅順", "call_short": "G7822 .M2 S500 .J33", "call_num": "G7822 .M2 S500 .J33 W6N3", "recid": "hb806mj0671", "websiteUrl": "https://purl.stanford.edu/hb806mj0671", "title": "満洲五十万分一圖", "ckey": 12358527, "available": true, "iiifUrl": "https://purl.stanford.edu/hb806mj0671/iiif/manifest" }, "geometry": { "type": "Polygon", "coordinates": [ [ [ 120.0, 38.333333 ], [ 122.5, 38.333333 ], [ 122.5, 39.9999997 ], [ 120.0, 39.9999997 ], [ 120.0, 38.333333 ] ] ] } },
{ "type": "Feature", "properties": { "Id": 0, "Sheet_ID": "西5行北3段. 大狐山", "label": "西5行北3段. 大狐山", "call_short": "G7822 .M2 S500 .J33", "call_num": "G7822 .M2 S500 .J33 W5N3", "recid": "km069jn3323", "websiteUrl": "https://purl.stanford.edu/km069jn3323", "title": "満洲五十万分一圖", "ckey": 12358527, "available": true, "iiifUrl": "https://purl.stanford.edu/km069jn3323/iiif/manifest" }, "geometry": { "type": "Polygon", "coordinates": [ [ [ 122.5, 38.333333 ], [ 125.0, 38.333333 ], [ 125.0, 39.9999997 ], [ 122.5, 39.9999997 ], [ 122.5, 38.333333 ] ] ] } },
{ "type": "Feature", "properties": { "Id": 0, "Sheet_ID": "壹参ワ504. 宣化", "label": "壹参ワ504. 宣化", "call_short": "G7822 .M2 S500 .J33", "call_num": "G7822 .M2 S500 .J33 13WA504", "recid": "br750yp0262", "websiteUrl": "https://purl.stanford.edu/br750yp0262", "title": "満洲五十万分一圖", "ckey": 12358527, "available": true, "iiifUrl": "https://purl.stanford.edu/br750yp0262/iiif/manifest" }, "geometry": { "type": "Polygon", "coordinates": [ [ [ 115.0, 39.9999997 ], [ 117.5, 39.9999997 ], [ 117.5, 41.6666664 ], [ 115.0, 41.6666664 ], [ 115.0, 39.9999997 ] ] ] } },
{ "type": "Feature", "properties": { "Id": 0, "Sheet_ID": "壹参ワ502. 承徳", "label": "壹参ワ502. 承徳", "call_short": "G7822 .M2 S500 .J33", "call_num": "G7822 .M2 S500 .J33 13WA502", "recid": "bp573vr7524", "websiteUrl": "https://purl.stanford.edu/bp573vr7524", "title": "満洲五十万分一圖", "ckey": 12358527, "available": true, "iiifUrl": "https://purl.stanford.edu/bp573vr7524/iiif/manifest" }, "geometry": { "type": "Polygon", "coordinates": [ [ [ 117.5, 39.9999997 ], [ 120.0, 39.9999997 ], [ 120.0, 41.6666664 ], [ 117.5, 41.6666664 ], [ 117.5, 39.9999997 ] ] ] } },
{ "type": "Feature", "properties": { "Id": 0, "Sheet_ID": "西6行北4段. 錦州", "label": "西6行北4段. 錦州", "call_short": "G7822 .M2 S500 .J33", "call_num": "G7822 .M2 S500 .J33 W6N4", "recid": "fy816kd1002", "websiteUrl": "https://purl.stanford.edu/fy816kd1002", "title": "満洲五十万分一圖", "ckey": 12358527, "available": true, "iiifUrl": "https://purl.stanford.edu/fy816kd1002/iiif/manifest" }, "geometry": { "type": "Polygon", "coordinates": [ [ [ 120.0, 39.9999997 ], [ 122.5, 39.9999997 ], [ 122.5, 41.6666664 ], [ 120.0, 41.6666664 ], [ 120.0, 39.9999997 ] ] ] } },
{ "type": "Feature", "properties": { "Id": 0, "Sheet_ID": "西5行北4段. 遼陽", "label": "西5行北4段. 遼陽", "call_short": "G7822 .M2 S500 .J33", "call_num": "G7822 .M2 S500 .J33 W5N4", "recid": "ws747gm7302", "websiteUrl": "https://purl.stanford.edu/ws747gm7302", "title": "満洲五十万分一圖", "ckey": 12358527, "available": true, "iiifUrl": "https://purl.stanford.edu/ws747gm7302/iiif/manifest" }, "geometry": { "type": "Polygon", "coordinates": [ [ [ 122.5, 39.9999997 ], [ 125.0, 39.9999997 ], [ 125.0, 41.6666664 ], [ 122.5, 41.6666664 ], [ 122.5, 39.9999997 ] ] ] } },
{ "type": "Feature", "properties": { "Id": 0, "Sheet_ID": "壹壹ワ504. 輯安", "label": "壹壹ワ504. 輯安", "call_short": "G7822 .M2 S500 .J33", "call_num": "G7822 .M2 S500 .J33 11WA504", "recid": "kj062hb5180", "websiteUrl": "https://purl.stanford.edu/kj062hb5180", "title": "満洲五十万分一圖", "ckey": 12358527, "available": true, "iiifUrl": "https://purl.stanford.edu/kj062hb5180/iiif/manifest" }, "geometry": { "type": "Polygon", "coordinates": [ [ [ 125.0, 39.9999997 ], [ 127.5, 39.9999997 ], [ 127.5, 41.6666664 ], [ 125.0, 41.6666664 ], [ 125.0, 39.9999997 ] ] ] } },
{ "type": "Feature", "properties": { "Id": 0, "Sheet_ID": "壹壹ワ502. 城津", "label": "壹壹ワ502. 城津", "call_short": "G7822 .M2 S500 .J33", "call_num": "G7822 .M2 S500 .J33 11WA502", "recid": "dm281fd7868", "websiteUrl": "https://purl.stanford.edu/dm281fd7868", "title": "満洲五十万分一圖", "ckey": 12358527, "available": true, "iiifUrl": "https://purl.stanford.edu/dm281fd7868/iiif/manifest" }, "geometry": { "type": "Polygon", "coordinates": [ [ [ 127.5, 39.9999997 ], [ 130.0, 39.9999997 ], [ 130.0, 41.6666664 ], [ 127.5, 41.6666664 ], [ 127.5, 39.9999997 ] ] ] } },
{ "type": "Feature", "properties": { "Id": 0, "Sheet_ID": "壹参ワ503. 多倫諾爾", "label": "壹参ワ503. 多倫諾爾", "call_short": "G7822 .M2 S500 .J33", "call_num": "G7822 .M2 S500 .J33 13WA503", "recid": "vg342qq9569", "websiteUrl": "https://purl.stanford.edu/vg342qq9569", "title": "満洲五十万分一圖", "ckey": 12358527, "available": true, "iiifUrl": "https://purl.stanford.edu/vg342qq9569/iiif/manifest" }, "geometry": { "type": "Polygon", "coordinates": [ [ [ 115.0, 41.6666664 ], [ 117.5, 41.6666664 ], [ 117.5, 43.3333331 ], [ 115.0, 43.3333331 ], [ 115.0, 41.6666664 ] ] ] } },
{ "type": "Feature", "properties": { "Id": 0, "Sheet_ID": "壹参ワ501. 赤峰", "label": "壹参ワ501. 赤峰", "call_short": "G7822 .M2 S500 .J33", "call_num": "G7822 .M2 S500 .J33 13WA501", "recid": "cj162vb7348", "websiteUrl": "https://purl.stanford.edu/cj162vb7348", "title": "満洲五十万分一圖", "ckey": 12358527, "available": true, "iiifUrl": "https://purl.stanford.edu/cj162vb7348/iiif/manifest" }, "geometry": { "type": "Polygon", "coordinates": [ [ [ 117.5, 41.6666664 ], [ 120.0, 41.6666664 ], [ 120.0, 43.3333331 ], [ 117.5, 43.3333331 ], [ 117.5, 41.6666664 ] ] ] } },
{ "type": "Feature", "properties": { "Id": 0, "Sheet_ID": "西6行北5段. 黒山", "label": "西6行北5段. 黒山", "call_short": "G7822 .M2 S500 .J33", "call_num": "G7822 .M2 S500 .J33 W6N5", "recid": "ky299hg3395", "websiteUrl": "https://purl.stanford.edu/ky299hg3395", "title": "満洲五十万分一圖", "ckey": 12358527, "available": true, "iiifUrl": "https://purl.stanford.edu/ky299hg3395/iiif/manifest" }, "geometry": { "type": "Polygon", "coordinates": [ [ [ 120.0, 41.6666664 ], [ 122.5, 41.6666664 ], [ 122.5, 43.3333331 ], [ 120.0, 43.3333331 ], [ 120.0, 41.6666664 ] ] ] } },
{ "type": "Feature", "properties": { "Id": 0, "Sheet_ID": "西5行北5段. 奉天", "label": "西5行北5段. 奉天", "call_short": "G7822 .M2 S500 .J33", "call_num": "G7822 .M2 S500 .J33 W5N5", "recid": "rh545df8164", "websiteUrl": "https://purl.stanford.edu/rh545df8164", "title": "満洲五十万分一圖", "ckey": 12358527, "available": true, "iiifUrl": "https://purl.stanford.edu/rh545df8164/iiif/manifest" }, "geometry": { "type": "Polygon", "coordinates": [ [ [ 122.5, 41.6666664 ], [ 125.0, 41.6666664 ], [ 125.0, 43.3333331 ], [ 122.5, 43.3333331 ], [ 122.5, 41.6666664 ] ] ] } },
{ "type": "Feature", "properties": { "Id": 0, "Sheet_ID": "壹壹ワ503. 通化", "label": "壹壹ワ503. 通化", "call_short": "G7822 .M2 S500 .J33", "call_num": "G7822 .M2 S500 .J33 11WA503", "recid": "rw289nk8795", "websiteUrl": "https://purl.stanford.edu/rw289nk8795", "title": "満洲五十万分一圖", "ckey": 12358527, "available": true, "iiifUrl": "https://purl.stanford.edu/rw289nk8795/iiif/manifest" }, "geometry": { "type": "Polygon", "coordinates": [ [ [ 125.0, 41.6666664 ], [ 127.5, 41.6666664 ], [ 127.5, 43.3333331 ], [ 125.0, 43.3333331 ], [ 125.0, 41.6666664 ] ] ] } },
{ "type": "Feature", "properties": { "Id": 0, "Sheet_ID": "壹壹ワ501. 延吉", "label": "壹壹ワ501. 延吉", "call_short": "G7822 .M2 S500 .J33", "call_num": "G7822 .M2 S500 .J33 11WA501", "recid": "dk474wd2332", "websiteUrl": "https://purl.stanford.edu/dk474wd2332", "title": "満洲五十万分一圖", "ckey": 12358527, "available": true, "iiifUrl": "https://purl.stanford.edu/dk474wd2332/iiif/manifest" }, "geometry": { "type": "Polygon", "coordinates": [ [ [ 127.5, 41.6666664 ], [ 130.0, 41.6666664 ], [ 130.0, 43.3333331 ], [ 127.5, 43.3333331 ], [ 127.5, 41.6666664 ] ] ] } },
{ "type": "Feature", "properties": { "Id": 0, "Sheet_ID": "壹〇ワ503. 琿春", "label": "壹〇ワ503. 琿春", "call_short": "G7822 .M2 S500 .J33", "call_num": "G7822 .M2 S500 .J33 10WA503", "recid": "np660wm0068", "websiteUrl": "https://purl.stanford.edu/np660wm0068", "title": "満洲五十万分一圖", "ckey": 12358527, "available": true, "iiifUrl": "https://purl.stanford.edu/np660wm0068/iiif/manifest" }, "geometry": { "type": "Polygon", "coordinates": [ [ [ 130.0, 41.6666664 ], [ 132.5, 41.6666664 ], [ 132.5, 43.3333331 ], [ 130.0, 43.3333331 ], [ 130.0, 41.6666664 ] ] ] } },
{ "type": "Feature", "properties": { "Id": 0, "Sheet_ID": "西8行北6段. 阿巴嘎", "label": "西8行北6段. 阿巴嘎", "call_short": "0", "call_num": "0", "recid": "0", "websiteUrl": "0", "title": "0", "ckey": 0, "available": false, "iiifUrl": "0" }, "geometry": { "type": "Polygon", "coordinates": [ [ [ 115.0, 43.3333331 ], [ 117.5, 43.3333331 ], [ 117.5, 44.9999998 ], [ 115.0, 44.9999998 ], [ 115.0, 43.3333331 ] ] ] } },
{ "type": "Feature", "properties": { "Id": 0, "Sheet_ID": "西7行北6段. 林西", "label": "西7行北6段. 林西", "call_short": "G7822 .M2 S500 .J33", "call_num": "G7822 .M2 S500 .J33 W7N6", "recid": "cv152gv2538", "websiteUrl": "https://purl.stanford.edu/cv152gv2538", "title": "満洲五十万分一圖", "ckey": 12358527, "available": true, "iiifUrl": "https://purl.stanford.edu/cv152gv2538/iiif/manifest" }, "geometry": { "type": "Polygon", "coordinates": [ [ [ 117.5, 43.3333331 ], [ 120.0, 43.3333331 ], [ 120.0, 44.9999998 ], [ 117.5, 44.9999998 ], [ 117.5, 43.3333331 ] ] ] } },
{ "type": "Feature", "properties": { "Id": 0, "Sheet_ID": "壹貳カ504. 開魯", "label": "壹貳カ504. 開魯", "call_short": "G7822 .M2 S500 .J33", "call_num": "G7822 .M2 S500 .J33 12KA504", "recid": "kk975rp6512", "websiteUrl": "https://purl.stanford.edu/kk975rp6512", "title": "満洲五十万分一圖", "ckey": 12358527, "available": true, "iiifUrl": "https://purl.stanford.edu/kk975rp6512/iiif/manifest" }, "geometry": { "type": "Polygon", "coordinates": [ [ [ 120.0, 43.3333331 ], [ 122.5, 43.3333331 ], [ 122.5, 44.9999998 ], [ 120.0, 44.9999998 ], [ 120.0, 43.3333331 ] ] ] } },
{ "type": "Feature", "properties": { "Id": 0, "Sheet_ID": "壹貳カ502. 遼源", "label": "壹貳カ502. 遼源", "call_short": "G7822 .M2 S500 .J33", "call_num": "G7822 .M2 S500 .J33 12KA502", "recid": "zs955zt8576", "websiteUrl": "https://purl.stanford.edu/zs955zt8576", "title": "満洲五十万分一圖", "ckey": 12358527, "available": true, "iiifUrl": "https://purl.stanford.edu/zs955zt8576/iiif/manifest" }, "geometry": { "type": "Polygon", "coordinates": [ [ [ 122.5, 43.3333331 ], [ 125.0, 43.3333331 ], [ 125.0, 44.9999998 ], [ 122.5, 44.9999998 ], [ 122.5, 43.3333331 ] ] ] } },
{ "type": "Feature", "properties": { "Id": 0, "Sheet_ID": "壹壹カ504. 新京", "label": "壹壹カ504. 新京", "call_short": "G7822 .M2 S500 .J33", "call_num": "G7822 .M2 S500 .J33 11KA504", "recid": "tv571sg1517", "websiteUrl": "https://purl.stanford.edu/tv571sg1517", "title": "満洲五十万分一圖", "ckey": 12358527, "available": true, "iiifUrl": "https://purl.stanford.edu/tv571sg1517/iiif/manifest" }, "geometry": { "type": "Polygon", "coordinates": [ [ [ 125.0, 43.3333331 ], [ 127.5, 43.3333331 ], [ 127.5, 44.9999998 ], [ 125.0, 44.9999998 ], [ 125.0, 43.3333331 ] ] ] } },
{ "type": "Feature", "properties": { "Id": 0, "Sheet_ID": "壹壹カ502. 牡丹江", "label": "壹壹カ502. 牡丹江", "call_short": "G7822 .M2 S500 .J33", "call_num": "G7822 .M2 S500 .J33 11KA502", "recid": "mb342cg4920", "websiteUrl": "https://purl.stanford.edu/mb342cg4920", "title": "満洲五十万分一圖", "ckey": 12358527, "available": true, "iiifUrl": "https://purl.stanford.edu/mb342cg4920/iiif/manifest" }, "geometry": { "type": "Polygon", "coordinates": [ [ [ 127.5, 43.3333331 ], [ 130.0, 43.3333331 ], [ 130.0, 44.9999998 ], [ 127.5, 44.9999998 ], [ 127.5, 43.3333331 ] ] ] } },
{ "type": "Feature", "properties": { "Id": 0, "Sheet_ID": "壹〇力504. 綏芬河", "label": "壹〇力504. 綏芬河", "call_short": "G7822 .M2 S500 .J33", "call_num": "G7822 .M2 S500 .J33 10KA504", "recid": "dy879kv0968", "websiteUrl": "https://purl.stanford.edu/dy879kv0968", "title": "満洲五十万分一圖", "ckey": 12358527, "available": true, "iiifUrl": "https://purl.stanford.edu/dy879kv0968/iiif/manifest" }, "geometry": { "type": "Polygon", "coordinates": [ [ [ 130.0, 43.3333331 ], [ 132.5, 43.3333331 ], [ 132.5, 44.9999998 ], [ 130.0, 44.9999998 ], [ 130.0, 43.3333331 ] ] ] } },
{ "type": "Feature", "properties": { "Id": 0, "Sheet_ID": "壹参カ503. タブソ湖", "label": "壹参カ503. タブソ湖", "call_short": "G7822 .M2 S500 .J33", "call_num": "G7822 .M2 S500 .J33 13KA503", "recid": "ps229vc2379", "websiteUrl": "https://purl.stanford.edu/ps229vc2379", "title": "満洲五十万分一圖", "ckey": 12358527, "available": true, "iiifUrl": "https://purl.stanford.edu/ps229vc2379/iiif/manifest" }, "geometry": { "type": "Polygon", "coordinates": [ [ [ 115.0, 44.9999998 ], [ 117.5, 44.9999998 ], [ 117.5, 46.6666665 ], [ 115.0, 46.6666665 ], [ 115.0, 44.9999998 ] ] ] } },
{ "type": "Feature", "properties": { "Id": 0, "Sheet_ID": "壹参カ501. 烏珠穆沁", "label": "壹参カ501. 烏珠穆沁", "call_short": "G7822 .M2 S500 .J33", "call_num": "G7822 .M2 S500 .J33 13KA501", "recid": "hh749tj3466", "websiteUrl": "https://purl.stanford.edu/hh749tj3466", "title": "満洲五十万分一圖", "ckey": 12358527, "available": true, "iiifUrl": "https://purl.stanford.edu/hh749tj3466/iiif/manifest" }, "geometry": { "type": "Polygon", "coordinates": [ [ [ 117.5, 44.9999998 ], [ 120.0, 44.9999998 ], [ 120.0, 46.6666665 ], [ 117.5, 46.6666665 ], [ 117.5, 44.9999998 ] ] ] } },
{ "type": "Feature", "properties": { "Id": 0, "Sheet_ID": "西6行北7段. 突泉", "label": "西6行北7段. 突泉", "call_short": "G7822 .M2 S500 .J33", "call_num": "G7822 .M2 S500 .J33 W6N7", "recid": "wr109ns3405", "websiteUrl": "https://purl.stanford.edu/wr109ns3405", "title": "満洲五十万分一圖", "ckey": 12358527, "available": true, "iiifUrl": "https://purl.stanford.edu/wr109ns3405/iiif/manifest" }, "geometry": { "type": "Polygon", "coordinates": [ [ [ 120.0, 44.9999998 ], [ 122.5, 44.9999998 ], [ 122.5, 46.6666665 ], [ 120.0, 46.6666665 ], [ 120.0, 44.9999998 ] ] ] } },
{ "type": "Feature", "properties": { "Id": 0, "Sheet_ID": "西5行北7段. 伯都訥", "label": "西5行北7段. 伯都訥", "call_short": "G7822 .M2 S500 .J33", "call_num": "G7822 .M2 S500 .J33 W5N7", "recid": "kz817yb5648", "websiteUrl": "https://purl.stanford.edu/kz817yb5648", "title": "満洲五十万分一圖", "ckey": 12358527, "available": true, "iiifUrl": "https://purl.stanford.edu/kz817yb5648/iiif/manifest" }, "geometry": { "type": "Polygon", "coordinates": [ [ [ 122.5, 44.9999998 ], [ 125.0, 44.9999998 ], [ 125.0, 46.6666665 ], [ 122.5, 46.6666665 ], [ 122.5, 44.9999998 ] ] ] } },
{ "type": "Feature", "properties": { "Id": 0, "Sheet_ID": "西4行北7段. 哈爾濱", "label": "西4行北7段. 哈爾濱", "call_short": "G7822 .M2 S500 .J33", "call_num": "G7822 .M2 S500 .J33 W4N7", "recid": "bs020zd0658", "websiteUrl": "https://purl.stanford.edu/bs020zd0658", "title": "満洲五十万分一圖", "ckey": 12358527, "available": true, "iiifUrl": "https://purl.stanford.edu/bs020zd0658/iiif/manifest" }, "geometry": { "type": "Polygon", "coordinates": [ [ [ 125.0, 44.9999998 ], [ 127.5, 44.9999998 ], [ 127.5, 46.6666665 ], [ 125.0, 46.6666665 ], [ 125.0, 44.9999998 ] ] ] } },
{ "type": "Feature", "properties": { "Id": 0, "Sheet_ID": "西3行北7段. 三姓", "label": "西3行北7段. 三姓", "call_short": "G7822 .M2 S500 .J33", "call_num": "G7822 .M2 S500 .J33 W3N7", "recid": "kr419cm6392", "websiteUrl": "https://purl.stanford.edu/kr419cm6392", "title": "満洲五十万分一圖", "ckey": 12358527, "available": true, "iiifUrl": "https://purl.stanford.edu/kr419cm6392/iiif/manifest" }, "geometry": { "type": "Polygon", "coordinates": [ [ [ 127.5, 44.9999998 ], [ 130.0, 44.9999998 ], [ 130.0, 46.6666665 ], [ 127.5, 46.6666665 ], [ 127.5, 44.9999998 ] ] ] } },
{ "type": "Feature", "properties": { "Id": 0, "Sheet_ID": "西2行北7段. 密山", "label": "西2行北7段. 密山", "call_short": "G7822 .M2 S500 .J33", "call_num": "G7822 .M2 S500 .J33 W2N7", "recid": "zt148hr1273", "websiteUrl": "https://purl.stanford.edu/zt148hr1273", "title": "満洲五十万分一圖", "ckey": 12358527, "available": true, "iiifUrl": "https://purl.stanford.edu/zt148hr1273/iiif/manifest" }, "geometry": { "type": "Polygon", "coordinates": [ [ [ 130.0, 44.9999998 ], [ 132.5, 44.9999998 ], [ 132.5, 46.6666665 ], [ 130.0, 46.6666665 ], [ 130.0, 44.9999998 ] ] ] } },
{ "type": "Feature", "properties": { "Id": 0, "Sheet_ID": "壹〇力501. 虎林", "label": "壹〇力501. 虎林", "call_short": "G7822 .M2 S500 .J33", "call_num": "G7822 .M2 S500 .J33 10KA501", "recid": "rp858pc1850", "websiteUrl": "https://purl.stanford.edu/rp858pc1850", "title": "満洲五十万分一圖", "ckey": 12358527, "available": true, "iiifUrl": "https://purl.stanford.edu/rp858pc1850/iiif/manifest" }, "geometry": { "type": "Polygon", "coordinates": [ [ [ 132.5, 44.9999998 ], [ 135.0, 44.9999998 ], [ 135.0, 46.6666665 ], [ 132.5, 46.6666665 ], [ 132.5, 44.9999998 ] ] ] } },
{ "type": "Feature", "properties": { "Id": 0, "Sheet_ID": "西8行北8段. ボルヘール", "label": "西8行北8段. ボルヘール", "call_short": "0", "call_num": "0", "recid": "0", "websiteUrl": "0", "title": "0", "ckey": 0, "available": false, "iiifUrl": "0" }, "geometry": { "type": "Polygon", "coordinates": [ [ [ 115.0, 46.6666665 ], [ 117.5, 46.6666665 ], [ 117.5, 48.3333332 ], [ 115.0, 48.3333332 ], [ 115.0, 46.6666665 ] ] ] } },
{ "type": "Feature", "properties": { "Id": 0, "Sheet_ID": "西7行北8段. 貝爾湖", "label": "西7行北8段. 貝爾湖", "call_short": "G7822 .M2 S500 .J33", "call_num": "G7822 .M2 S500 .J33 W7N8", "recid": "gv739kw9762", "websiteUrl": "https://purl.stanford.edu/gv739kw9762", "title": "満洲五十万分一圖", "ckey": 12358527, "available": true, "iiifUrl": "https://purl.stanford.edu/gv739kw9762/iiif/manifest" }, "geometry": { "type": "Polygon", "coordinates": [ [ [ 117.5, 46.6666665 ], [ 120.0, 46.6666665 ], [ 120.0, 48.3333332 ], [ 117.5, 48.3333332 ], [ 117.5, 46.6666665 ] ] ] } },
{ "type": "Feature", "properties": { "Id": 0, "Sheet_ID": "西6行北8段. 札賚特", "label": "西6行北8段. 札賚特", "call_short": "G7822 .M2 S500 .J33", "call_num": "G7822 .M2 S500 .J33 W6N8", "recid": "hw050hk7546", "websiteUrl": "https://purl.stanford.edu/hw050hk7546", "title": "満洲五十万分一圖", "ckey": 12358527, "available": true, "iiifUrl": "https://purl.stanford.edu/hw050hk7546/iiif/manifest" }, "geometry": { "type": "Polygon", "coordinates": [ [ [ 120.0, 46.6666665 ], [ 122.5, 46.6666665 ], [ 122.5, 48.3333332 ], [ 120.0, 48.3333332 ], [ 120.0, 46.6666665 ] ] ] } },
{ "type": "Feature", "properties": { "Id": 0, "Sheet_ID": "壹貳ヨ502. 齊齊哈爾", "label": "壹貳ヨ502. 齊齊哈爾", "call_short": "G7822 .M2 S500 .J33", "call_num": "G7822 .M2 S500 .J33 12YO502", "recid": "jb859cr7982", "websiteUrl": "https://purl.stanford.edu/jb859cr7982", "title": "満洲五十万分一圖", "ckey": 12358527, "available": true, "iiifUrl": "https://purl.stanford.edu/jb859cr7982/iiif/manifest" }, "geometry": { "type": "Polygon", "coordinates": [ [ [ 122.5, 46.6666665 ], [ 125.0, 46.6666665 ], [ 125.0, 48.3333332 ], [ 122.5, 48.3333332 ], [ 122.5, 46.6666665 ] ] ] } },
{ "type": "Feature", "properties": { "Id": 0, "Sheet_ID": "西4行北8段. 海倫", "label": "西4行北8段. 海倫", "call_short": "G7822 .M2 S500 .J33", "call_num": "G7822 .M2 S500 .J33 W4N8", "recid": "rd146tb8870", "websiteUrl": "https://purl.stanford.edu/rd146tb8870", "title": "満洲五十万分一圖", "ckey": 12358527, "available": true, "iiifUrl": "https://purl.stanford.edu/rd146tb8870/iiif/manifest" }, "geometry": { "type": "Polygon", "coordinates": [ [ [ 125.0, 46.6666665 ], [ 127.5, 46.6666665 ], [ 127.5, 48.3333332 ], [ 125.0, 48.3333332 ], [ 125.0, 46.6666665 ] ] ] } },
{ "type": "Feature", "properties": { "Id": 0, "Sheet_ID": "壹壹ヨ502. 鐡驪", "label": "壹壹ヨ502. 鐡驪", "call_short": "G7822 .M2 S500 .J33", "call_num": "G7822 .M2 S500 .J33 11YO502", "recid": "gr104ht6875", "websiteUrl": "https://purl.stanford.edu/gr104ht6875", "title": "満洲五十万分一圖", "ckey": 12358527, "available": true, "iiifUrl": "https://purl.stanford.edu/gr104ht6875/iiif/manifest" }, "geometry": { "type": "Polygon", "coordinates": [ [ [ 127.5, 46.6666665 ], [ 130.0, 46.6666665 ], [ 130.0, 48.3333332 ], [ 127.5, 48.3333332 ], [ 127.5, 46.6666665 ] ] ] } },
{ "type": "Feature", "properties": { "Id": 0, "Sheet_ID": "西2行北8段. 富克錦 / 佳木斯", "label": "西2行北8段. 富克錦 / 佳木斯", "call_short": "0", "call_num": "0", "recid": "0", "websiteUrl": "0", "title": "0", "ckey": 0, "available": false, "iiifUrl": "0" }, "geometry": { "type": "Polygon", "coordinates": [ [ [ 130.0, 46.6666665 ], [ 132.5, 46.6666665 ], [ 132.5, 48.3333332 ], [ 130.0, 48.3333332 ], [ 130.0, 46.6666665 ] ] ] } },
{ "type": "Feature", "properties": { "Id": 0, "Sheet_ID": "壹〇ヨ502. 饒河", "label": "壹〇ヨ502. 饒河", "call_short": "G7822 .M2 S500 .J33", "call_num": "G7822 .M2 S500 .J33 10YO502", "recid": "rb706cp8306", "websiteUrl": "https://purl.stanford.edu/rb706cp8306", "title": "満洲五十万分一圖", "ckey": 12358527, "available": true, "iiifUrl": "https://purl.stanford.edu/rb706cp8306/iiif/manifest" }, "geometry": { "type": "Polygon", "coordinates": [ [ [ 132.5, 46.6666665 ], [ 135.0, 46.6666665 ], [ 135.0, 48.3333332 ], [ 132.5, 48.3333332 ], [ 132.5, 46.6666665 ] ] ] } },
{ "type": "Feature", "properties": { "Id": 0, "Sheet_ID": "壹参ヨ503. 満洲里", "label": "壹参ヨ503. 満洲里", "call_short": "G7822 .M2 S500 .J33", "call_num": "G7822 .M2 S500 .J33 13YO503", "recid": "vw256xg3924", "websiteUrl": "https://purl.stanford.edu/vw256xg3924", "title": "満洲五十万分一圖", "ckey": 12358527, "available": true, "iiifUrl": "https://purl.stanford.edu/vw256xg3924/iiif/manifest" }, "geometry": { "type": "Polygon", "coordinates": [ [ [ 115.0, 48.3333332 ], [ 117.5, 48.3333332 ], [ 117.5, 49.9999999 ], [ 115.0, 49.9999999 ], [ 115.0, 48.3333332 ] ] ] } },
{ "type": "Feature", "properties": { "Id": 0, "Sheet_ID": "西7行北9段. 海拉爾", "label": "西7行北9段. 海拉爾", "call_short": "G7822 .M2 S500 .J33", "call_num": "G7822 .M2 S500 .J33 W7N9", "recid": "cw006xr1796", "websiteUrl": "https://purl.stanford.edu/cw006xr1796", "title": "満洲五十万分一圖", "ckey": 12358527, "available": true, "iiifUrl": "https://purl.stanford.edu/cw006xr1796/iiif/manifest" }, "geometry": { "type": "Polygon", "coordinates": [ [ [ 117.5, 48.3333332 ], [ 120.0, 48.3333332 ], [ 120.0, 49.9999999 ], [ 117.5, 49.9999999 ], [ 117.5, 48.3333332 ] ] ] } },
{ "type": "Feature", "properties": { "Id": 0, "Sheet_ID": "壹貳ヨ503. 博克圖", "label": "壹貳ヨ503. 博克圖", "call_short": "G7822 .M2 S500 .J33", "call_num": "G7822 .M2 S500 .J33 12YO503", "recid": "pt086sx2225", "websiteUrl": "https://purl.stanford.edu/pt086sx2225", "title": "満洲五十万分一圖", "ckey": 12358527, "available": true, "iiifUrl": "https://purl.stanford.edu/pt086sx2225/iiif/manifest" }, "geometry": { "type": "Polygon", "coordinates": [ [ [ 120.0, 48.3333332 ], [ 122.5, 48.3333332 ], [ 122.5, 49.9999999 ], [ 120.0, 49.9999999 ], [ 120.0, 48.3333332 ] ] ] } },
{ "type": "Feature", "properties": { "Id": 0, "Sheet_ID": "西5行北9段. 訥河", "label": "西5行北9段. 訥河", "call_short": "G7822 .M2 S500 .J33", "call_num": "G7822 .M2 S500 .J33 W5N9", "recid": "df878xn7021", "websiteUrl": "https://purl.stanford.edu/df878xn7021", "title": "満洲五十万分一圖", "ckey": 12358527, "available": true, "iiifUrl": "https://purl.stanford.edu/df878xn7021/iiif/manifest" }, "geometry": { "type": "Polygon", "coordinates": [ [ [ 122.5, 48.3333332 ], [ 125.0, 48.3333332 ], [ 125.0, 49.9999999 ], [ 122.5, 49.9999999 ], [ 122.5, 48.3333332 ] ] ] } },
{ "type": "Feature", "properties": { "Id": 0, "Sheet_ID": "壹壹ヨ503. 嫩江", "label": "壹壹ヨ503. 嫩江", "call_short": "G7822 .M2 S500 .J33", "call_num": "G7822 .M2 S500 .J33 11YO503", "recid": "py709cz2052", "websiteUrl": "https://purl.stanford.edu/py709cz2052", "title": "満洲五十万分一圖", "ckey": 12358527, "available": true, "iiifUrl": "https://purl.stanford.edu/py709cz2052/iiif/manifest" }, "geometry": { "type": "Polygon", "coordinates": [ [ [ 125.0, 48.3333332 ], [ 127.5, 48.3333332 ], [ 127.5, 49.9999999 ], [ 125.0, 49.9999999 ], [ 125.0, 48.3333332 ] ] ] } },
{ "type": "Feature", "properties": { "Id": 0, "Sheet_ID": "壹壹ヨ501. 奇克", "label": "壹壹ヨ501. 奇克", "call_short": "G7822 .M2 S500 .J33", "call_num": "G7822 .M2 S500 .J33 11YO501", "recid": "kx492nd7787", "websiteUrl": "https://purl.stanford.edu/kx492nd7787", "title": "満洲五十万分一圖", "ckey": 12358527, "available": true, "iiifUrl": "https://purl.stanford.edu/kx492nd7787/iiif/manifest" }, "geometry": { "type": "Polygon", "coordinates": [ [ [ 127.5, 48.3333332 ], [ 130.0, 48.3333332 ], [ 130.0, 49.9999999 ], [ 127.5, 49.9999999 ], [ 127.5, 48.3333332 ] ] ] } },
{ "type": "Feature", "properties": { "Id": 0, "Sheet_ID": "壹〇ヨ503. 佛山", "label": "壹〇ヨ503. 佛山", "call_short": "G7822 .M2 S500 .J33", "call_num": "G7822 .M2 S500 .J33 10YO503", "recid": "ys908qk5524", "websiteUrl": "https://purl.stanford.edu/ys908qk5524", "title": "満洲五十万分一圖", "ckey": 12358527, "available": true, "iiifUrl": "https://purl.stanford.edu/ys908qk5524/iiif/manifest" }, "geometry": { "type": "Polygon", "coordinates": [ [ [ 130.0, 48.3333332 ], [ 132.5, 48.3333332 ], [ 132.5, 49.9999999 ], [ 130.0, 49.9999999 ], [ 130.0, 48.3333332 ] ] ] } },
{ "type": "Feature", "properties": { "Id": 0, "Sheet_ID": "壹参タ502. 吉拉林", "label": "壹参タ502. 吉拉林", "call_short": "G7822 .M2 S500 .J33", "call_num": "G7822 .M2 S500 .J33 13TA502", "recid": "xd744vb8621", "websiteUrl": "https://purl.stanford.edu/xd744vb8621", "title": "満洲五十万分一圖", "ckey": 12358527, "available": true, "iiifUrl": "https://purl.stanford.edu/xd744vb8621/iiif/manifest" }, "geometry": { "type": "Polygon", "coordinates": [ [ [ 117.5, 49.9999999 ], [ 120.0, 49.9999999 ], [ 120.0, 51.6666666 ], [ 117.5, 51.6666666 ], [ 117.5, 49.9999999 ] ] ] } },
{ "type": "Feature", "properties": { "Id": 0, "Sheet_ID": "壹貳タ504. 根河", "label": "壹貳タ504. 根河", "call_short": "G7822 .M2 S500 .J33", "call_num": "G7822 .M2 S500 .J33 12TA504", "recid": "fd651rp3866", "websiteUrl": "https://purl.stanford.edu/fd651rp3866", "title": "満洲五十万分一圖", "ckey": 12358527, "available": true, "iiifUrl": "https://purl.stanford.edu/fd651rp3866/iiif/manifest" }, "geometry": { "type": "Polygon", "coordinates": [ [ [ 120.0, 49.9999999 ], [ 122.5, 49.9999999 ], [ 122.5, 51.6666666 ], [ 120.0, 51.6666666 ], [ 120.0, 49.9999999 ] ] ] } },
{ "type": "Feature", "properties": { "Id": 0, "Sheet_ID": "壹貳タ502. 甘河", "label": "壹貳タ502. 甘河", "call_short": "G7822 .M2 S500 .J33", "call_num": "G7822 .M2 S500 .J33 12TA502", "recid": "sc879hv3728", "websiteUrl": "https://purl.stanford.edu/sc879hv3728", "title": "満洲五十万分一圖", "ckey": 12358527, "available": true, "iiifUrl": "https://purl.stanford.edu/sc879hv3728/iiif/manifest" }, "geometry": { "type": "Polygon", "coordinates": [ [ [ 122.5, 49.9999999 ], [ 125.0, 49.9999999 ], [ 125.0, 51.6666666 ], [ 122.5, 51.6666666 ], [ 122.5, 49.9999999 ] ] ] } },
{ "type": "Feature", "properties": { "Id": 0, "Sheet_ID": "壹壹タ504. 黑河", "label": "壹壹タ504. 黑河", "call_short": "G7822 .M2 S500 .J33", "call_num": "G7822 .M2 S500 .J33 11TA504", "recid": "dy115qp8553", "websiteUrl": "https://purl.stanford.edu/dy115qp8553", "title": "満洲五十万分一圖", "ckey": 12358527, "available": true, "iiifUrl": "https://purl.stanford.edu/dy115qp8553/iiif/manifest" }, "geometry": { "type": "Polygon", "coordinates": [ [ [ 125.0, 49.9999999 ], [ 127.5, 49.9999999 ], [ 127.5, 51.6666666 ], [ 125.0, 51.6666666 ], [ 125.0, 49.9999999 ] ] ] } },
{ "type": "Feature", "properties": { "Id": 0, "Sheet_ID": "壹貮タ503. 古勒穆圖", "label": "壹貮タ503. 古勒穆圖", "call_short": "G7822 .M2 S500 .J33", "call_num": "G7822 .M2 S500 .J33 12TA503", "recid": "xb802vt8285", "websiteUrl": "https://purl.stanford.edu/xb802vt8285", "title": "満洲五十万分一圖", "ckey": 12358527, "available": true, "iiifUrl": "https://purl.stanford.edu/xb802vt8285/iiif/manifest" }, "geometry": { "type": "Polygon", "coordinates": [ [ [ 120.0, 51.6666666 ], [ 122.5, 51.6666666 ], [ 122.5, 53.3333333 ], [ 120.0, 53.3333333 ], [ 120.0, 51.6666666 ] ] ] } },
{ "type": "Feature", "properties": { "Id": 0, "Sheet_ID": "西5行北11段. ペルムイキーノ / 12TA501. 旁烏河", "label": "西5行北11段. ペルムイキーノ / 12TA501. 旁烏河", "call_short": "0", "call_num": "0", "recid": "0", "websiteUrl": "0", "title": "0", "ckey": 0, "available": false, "iiifUrl": "0" }, "geometry": { "type": "Polygon", "coordinates": [ [ [ 122.5, 51.6666666 ], [ 125.0, 51.6666666 ], [ 125.0, 53.3333333 ], [ 122.5, 53.3333333 ], [ 122.5, 51.6666666 ] ] ] } },
{ "type": "Feature", "properties": { "Id": 0, "Sheet_ID": "壹壹タ503. 呼瑪", "label": "壹壹タ503. 呼瑪", "call_short": "G7822 .M2 S500 .J33", "call_num": "G7822 .M2 S500 .J33 11TA503", "recid": "xg929hj9667", "websiteUrl": "https://purl.stanford.edu/xg929hj9667", "title": "満洲五十万分一圖", "ckey": 12358527, "available": true, "iiifUrl": "https://purl.stanford.edu/xg929hj9667/iiif/manifest" }, "geometry": { "type": "Polygon", "coordinates": [ [ [ 125.0, 51.6666666 ], [ 127.5, 51.6666666 ], [ 127.5, 53.3333333 ], [ 125.0, 53.3333333 ], [ 125.0, 51.6666666 ] ] ] } },
{ "type": "Feature", "properties": { "Id": 0, "Sheet_ID": "壹貳レ504. 漠河", "label": "壹貳レ504. 漠河", "call_short": "G7822 .M2 S500 .J33", "call_num": "G7822 .M2 S500 .J33 12RE504", "recid": "ch416ph1923", "websiteUrl": "https://purl.stanford.edu/ch416ph1923", "title": "満洲五十万分一圖", "ckey": 12358527, "available": true, "iiifUrl": "https://purl.stanford.edu/ch416ph1923/iiif/manifest" }, "geometry": { "type": "Polygon", "coordinates": [ [ [ 120.0, 53.3333333 ], [ 122.5, 53.3333333 ], [ 122.5, 55.0 ], [ 120.0, 55.0 ], [ 120.0, 53.3333333 ] ] ] } },
{ "type": "Feature", "properties": { "Id": 0, "Sheet_ID": "壹貮レ502. 連崟", "label": "壹貮レ502. 連崟", "call_short": "G7822 .M2 S500 .J33", "call_num": "G7822 .M2 S500 .J33 12RE502", "recid": "cw485yb4141", "websiteUrl": "https://purl.stanford.edu/cw485yb4141", "title": "満洲五十万分一圖", "ckey": 12358527, "available": true, "iiifUrl": "https://purl.stanford.edu/cw485yb4141/iiif/manifest" }, "geometry": { "type": "Polygon", "coordinates": [ [ [ 122.5, 53.3333333 ], [ 125.0, 53.3333333 ], [ 125.0, 55.0 ], [ 122.5, 55.0 ], [ 122.5, 53.3333333 ] ] ] } },
{ "type": "Feature", "properties": { "Id": 0, "Sheet_ID": "西2行北6段. 尼古里斯克", "label": "西2行北6段. 尼古里斯克", "call_short": "G7822 .M2 S500 .J33", "call_num": "G7822 .M2 S500 .J33 W2N6", "recid": "pb535ym3555", "websiteUrl": "https://purl.stanford.edu/pb535ym3555", "title": "満洲五十万分一圖", "ckey": 12358527, "available": true, "iiifUrl": "https://purl.stanford.edu/pb535ym3555/iiif/manifest" }, "geometry": { "type": "Polygon", "coordinates": [ [ [ 130.0, 43.3333331 ], [ 132.5, 43.3333331 ], [ 132.5, 44.9999998 ], [ 130.0, 44.9999998 ], [ 130.0, 43.3333331 ] ] ] } },
{ "type": "Feature", "properties": { "Id": 0, "Sheet_ID": "西3行北8段. 鐵山包", "label": "西3行北8段. 鐵山包", "call_short": "G7822 .M2 S500 .J33", "call_num": "G7822 .M2 S500 .J33 W3N8", "recid": "gw048yc3562", "websiteUrl": "https://purl.stanford.edu/gw048yc3562", "title": "満洲五十万分一圖", "ckey": 12358527, "available": true, "iiifUrl": "https://purl.stanford.edu/gw048yc3562/iiif/manifest" }, "geometry": { "type": "Polygon", "coordinates": [ [ [ 127.5, 46.6666665 ], [ 130.0, 46.6666665 ], [ 130.0, 48.3333332 ], [ 127.5, 48.3333332 ], [ 127.5, 46.6666665 ] ] ] } },
{ "type": "Feature", "properties": { "Id": 0, "Sheet_ID": "西3行北6段. 寧古塔", "label": "西3行北6段. 寧古塔", "call_short": "G7822 .M2 S500 .J33", "call_num": "G7822 .M2 S500 .J33 W3N6", "recid": "jb137mh9953", "websiteUrl": "https://purl.stanford.edu/jb137mh9953", "title": "満洲五十万分一圖", "ckey": 12358527, "available": true, "iiifUrl": "https://purl.stanford.edu/jb137mh9953/iiif/manifest" }, "geometry": { "type": "Polygon", "coordinates": [ [ [ 127.5, 43.3333331 ], [ 130.0, 43.3333331 ], [ 130.0, 44.9999998 ], [ 127.5, 44.9999998 ], [ 127.5, 43.3333331 ] ] ] } },
{ "type": "Feature", "properties": { "Id": 0, "Sheet_ID": "西3行北4段. 城津", "label": "西3行北4段. 城津", "call_short": "G7822 .M2 S500 .J33", "call_num": "G7822 .M2 S500 .J33 W3N4", "recid": "kk106cq4639", "websiteUrl": "https://purl.stanford.edu/kk106cq4639", "title": "満洲五十万分一圖", "ckey": 12358527, "available": true, "iiifUrl": "https://purl.stanford.edu/kk106cq4639/iiif/manifest" }, "geometry": { "type": "Polygon", "coordinates": [ [ [ 127.5, 39.9999997 ], [ 130.0, 39.9999997 ], [ 130.0, 41.6666664 ], [ 127.5, 41.6666664 ], [ 127.5, 39.9999997 ] ] ] } },
{ "type": "Feature", "properties": { "Id": 0, "Sheet_ID": "西4行北9段. 墨爾根", "label": "西4行北9段. 墨爾根", "call_short": "G7822 .M2 S500 .J33", "call_num": "G7822 .M2 S500 .J33 W4N9", "recid": "zx730ff1486", "websiteUrl": "https://purl.stanford.edu/zx730ff1486", "title": "満洲五十万分一圖", "ckey": 12358527, "available": true, "iiifUrl": "https://purl.stanford.edu/zx730ff1486/iiif/manifest" }, "geometry": { "type": "Polygon", "coordinates": [ [ [ 125.0, 48.3333332 ], [ 127.5, 48.3333332 ], [ 127.5, 49.9999999 ], [ 125.0, 49.9999999 ], [ 125.0, 48.3333332 ] ] ] } },
{ "type": "Feature", "properties": { "Id": 0, "Sheet_ID": "西4行北11段. クズネツォーワ", "label": "西4行北11段. クズネツォーワ", "call_short": "G7822 .M2 S500 .J33", "call_num": "G7822 .M2 S500 .J33 W4N11", "recid": "cq463nr0376", "websiteUrl": "https://purl.stanford.edu/cq463nr0376", "title": "満洲五十万分一圖", "ckey": 12358527, "available": true, "iiifUrl": "https://purl.stanford.edu/cq463nr0376/iiif/manifest" }, "geometry": { "type": "Polygon", "coordinates": [ [ [ 125.0, 51.6666666 ], [ 127.5, 51.6666666 ], [ 127.5, 53.3333333 ], [ 125.0, 53.3333333 ], [ 125.0, 51.6666666 ] ] ] } },
{ "type": "Feature", "properties": { "Id": 0, "Sheet_ID": "西4行北5段. 海龍城", "label": "西4行北5段. 海龍城", "call_short": "G7822 .M2 S500 .J33", "call_num": "G7822 .M2 S500 .J33 W4N5", "recid": "nf263jn5260", "websiteUrl": "https://purl.stanford.edu/nf263jn5260", "title": "満洲五十万分一圖", "ckey": 12358527, "available": true, "iiifUrl": "https://purl.stanford.edu/nf263jn5260/iiif/manifest" }, "geometry": { "type": "Polygon", "coordinates": [ [ [ 125.0, 41.6666664 ], [ 127.5, 41.6666664 ], [ 127.5, 43.3333331 ], [ 125.0, 43.3333331 ], [ 125.0, 41.6666664 ] ] ] } },
{ "type": "Feature", "properties": { "Id": 0, "Sheet_ID": "西4行北4段. 懐仁", "label": "西4行北4段. 懐仁", "call_short": "G7822 .M2 S500 .J33", "call_num": "G7822 .M2 S500 .J33 W4N4", "recid": "xn617qk4774", "websiteUrl": "https://purl.stanford.edu/xn617qk4774", "title": "満洲五十万分一圖", "ckey": 12358527, "available": true, "iiifUrl": "https://purl.stanford.edu/xn617qk4774/iiif/manifest" }, "geometry": { "type": "Polygon", "coordinates": [ [ [ 125.0, 39.9999997 ], [ 127.5, 39.9999997 ], [ 127.5, 41.6666664 ], [ 125.0, 41.6666664 ], [ 125.0, 39.9999997 ] ] ] } },
{ "type": "Feature", "properties": { "Id": 0, "Sheet_ID": "西5行北8段. 齊齊哈爾", "label": "西5行北8段. 齊齊哈爾", "call_short": "G7822 .M2 S500 .J33", "call_num": "G7822 .M2 S500 .J33 W5N8", "recid": "bn444mx9393", "websiteUrl": "https://purl.stanford.edu/bn444mx9393", "title": "満洲五十万分一圖", "ckey": 12358527, "available": true, "iiifUrl": "https://purl.stanford.edu/bn444mx9393/iiif/manifest" }, "geometry": { "type": "Polygon", "coordinates": [ [ [ 122.5, 46.6666665 ], [ 125.0, 46.6666665 ], [ 125.0, 48.3333332 ], [ 122.5, 48.3333332 ], [ 122.5, 46.6666665 ] ] ] } },
{ "type": "Feature", "properties": { "Id": 0, "Sheet_ID": "西6行北10段. 根河", "label": "西6行北10段. 根河", "call_short": "G7822 .M2 S500 .J33", "call_num": "G7822 .M2 S500 .J33 W6N10", "recid": "kk067fx5464", "websiteUrl": "https://purl.stanford.edu/kk067fx5464", "title": "満洲五十万分一圖", "ckey": 12358527, "available": true, "iiifUrl": "https://purl.stanford.edu/kk067fx5464/iiif/manifest" }, "geometry": { "type": "Polygon", "coordinates": [ [ [ 120.0, 49.9999999 ], [ 122.5, 49.9999999 ], [ 122.5, 51.6666666 ], [ 120.0, 51.6666666 ], [ 120.0, 49.9999999 ] ] ] } },
{ "type": "Feature", "properties": { "Id": 0, "Sheet_ID": "西6行北9段. 博克圖", "label": "西6行北9段. 博克圖", "call_short": "G7822 .M2 S500 .J33", "call_num": "G7822 .M2 S500 .J33 W6N9", "recid": "xy237st8373", "websiteUrl": "https://purl.stanford.edu/xy237st8373", "title": "満洲五十万分一圖", "ckey": 12358527, "available": true, "iiifUrl": "https://purl.stanford.edu/xy237st8373/iiif/manifest" }, "geometry": { "type": "Polygon", "coordinates": [ [ [ 120.0, 48.3333332 ], [ 122.5, 48.3333332 ], [ 122.5, 49.9999999 ], [ 120.0, 49.9999999 ], [ 120.0, 48.3333332 ] ] ] } },
{ "type": "Feature", "properties": { "Id": 0, "Sheet_ID": "西7行北10段. ネルチンスキー・ザウォード", "label": "西7行北10段. ネルチンスキー・ザウォード", "call_short": "G7822 .M2 S500 .J33", "call_num": "G7822 .M2 S500 .J33 W7N10", "recid": "cf668sq2046", "websiteUrl": "https://purl.stanford.edu/cf668sq2046", "title": "満洲五十万分一圖", "ckey": 12358527, "available": true, "iiifUrl": "https://purl.stanford.edu/cf668sq2046/iiif/manifest" }, "geometry": { "type": "Polygon", "coordinates": [ [ [ 117.5, 49.9999999 ], [ 120.0, 49.9999999 ], [ 120.0, 51.6666666 ], [ 117.5, 51.6666666 ], [ 117.5, 49.9999999 ] ] ] } },
{ "type": "Feature", "properties": { "Id": 0, "Sheet_ID": "西7行北7段. 烏珠穆沁", "label": "西7行北7段. 烏珠穆沁", "call_short": "G7822 .M2 S500 .J33", "call_num": "G7822 .M2 S500 .J33 W7N7", "recid": "zj437hk4416", "websiteUrl": "https://purl.stanford.edu/zj437hk4416", "title": "満洲五十万分一圖", "ckey": 12358527, "available": true, "iiifUrl": "https://purl.stanford.edu/zj437hk4416/iiif/manifest" }, "geometry": { "type": "Polygon", "coordinates": [ [ [ 117.5, 44.9999998 ], [ 120.0, 44.9999998 ], [ 120.0, 46.6666665 ], [ 117.5, 46.6666665 ], [ 117.5, 44.9999998 ] ] ] } },
{ "type": "Feature", "properties": { "Id": 0, "Sheet_ID": "西7行北5段. 赤峰", "label": "西7行北5段. 赤峰", "call_short": "G7822 .M2 S500 .J33", "call_num": "G7822 .M2 S500 .J33 W7N5", "recid": "nc184gp9600", "websiteUrl": "https://purl.stanford.edu/nc184gp9600", "title": "満洲五十万分一圖", "ckey": 12358527, "available": true, "iiifUrl": "https://purl.stanford.edu/nc184gp9600/iiif/manifest" }, "geometry": { "type": "Polygon", "coordinates": [ [ [ 117.5, 41.6666664 ], [ 120.0, 41.6666664 ], [ 120.0, 43.3333331 ], [ 117.5, 43.3333331 ], [ 117.5, 41.6666664 ] ] ] } },
{ "type": "Feature", "properties": { "Id": 0, "Sheet_ID": "西7行北4段. 承徳", "label": "西7行北4段. 承徳", "call_short": "G7822 .M2 S500 .J33", "call_num": "G7822 .M2 S500 .J33 W7N4", "recid": "mm307pk1572", "websiteUrl": "https://purl.stanford.edu/mm307pk1572", "title": "満洲五十万分一圖", "ckey": 12358527, "available": true, "iiifUrl": "https://purl.stanford.edu/mm307pk1572/iiif/manifest" }, "geometry": { "type": "Polygon", "coordinates": [ [ [ 117.5, 39.9999997 ], [ 120.0, 39.9999997 ], [ 120.0, 41.6666664 ], [ 117.5, 41.6666664 ], [ 117.5, 39.9999997 ] ] ] } }
]
}
