{
"type": "FeatureCollection",
"name": "index_map",
"xy_coordinate_resolution": 1e-07,
"features": [
{ "type": "Feature", "properties": { "Id": 0, "Sheet_ID": "97. 青陽縣", "label": "97. 青陽縣", "call_short": "G7824 .W83 S50 .J37", "call_num": "G7824 .W83 S50 .J37 SHEET 97", "recid": "tp579fn4204", "websiteUrl": "https://purl.stanford.edu/tp579fn4204", "title": "南支那五万分一蕪湖", "ckey": 13900022, "available": true, "iiifUrl": "https://purl.stanford.edu/tp579fn4204/iiif/manifest" }, "geometry": { "type": "Polygon", "coordinates": [ [ [ 117.6624997, 30.5 ], [ 117.9124997, 30.5 ], [ 117.9124997, 30.6666667 ], [ 117.6624997, 30.6666667 ], [ 117.6624997, 30.5 ] ] ] } },
{ "type": "Feature", "properties": { "Id": 0, "Sheet_ID": "87. 査村", "label": "87. 査村", "call_short": "G7824 .W83 S50 .J37", "call_num": "G7824 .W83 S50 .J37 SHEET 87", "recid": "wk402yb7163", "websiteUrl": "https://purl.stanford.edu/wk402yb7163", "title": "南支那五万分一蕪湖", "ckey": 13900022, "available": true, "iiifUrl": "https://purl.stanford.edu/wk402yb7163/iiif/manifest" }, "geometry": { "type": "Polygon", "coordinates": [ [ [ 117.9124997, 30.5 ], [ 118.1624997, 30.5 ], [ 118.1624997, 30.6666667 ], [ 117.9124997, 30.6666667 ], [ 117.9124997, 30.5 ] ] ] } },
{ "type": "Feature", "properties": { "Id": 0, "Sheet_ID": "106. 湯家溝", "label": "106. 湯家溝", "call_short": "G7824 .W83 S50 .J37", "call_num": "G7824 .W83 S50 .J37 SHEET 106", "recid": "dr605vx6619", "websiteUrl": "https://purl.stanford.edu/dr605vx6619", "title": "南支那五万分一蕪湖", "ckey": 13900022, "available": true, "iiifUrl": "https://purl.stanford.edu/dr605vx6619/iiif/manifest" }, "geometry": { "type": "Polygon", "coordinates": [ [ [ 117.4124997, 30.6666667 ], [ 117.6624997, 30.6666667 ], [ 117.6624997, 30.8333333 ], [ 117.4124997, 30.8333333 ], [ 117.4124997, 30.6666667 ] ] ] } },
{ "type": "Feature", "properties": { "Id": 0, "Sheet_ID": "96. 大通", "label": "96. 大通", "call_short": "G7824 .W83 S50 .J37", "call_num": "G7824 .W83 S50 .J37 SHEET 96", "recid": "xd237sx2610", "websiteUrl": "https://purl.stanford.edu/xd237sx2610", "title": "南支那五万分一蕪湖", "ckey": 13900022, "available": true, "iiifUrl": "https://purl.stanford.edu/xd237sx2610/iiif/manifest" }, "geometry": { "type": "Polygon", "coordinates": [ [ [ 117.6624997, 30.6666667 ], [ 117.9124997, 30.6666667 ], [ 117.9124997, 30.8333333 ], [ 117.6624997, 30.8333333 ], [ 117.6624997, 30.6666667 ] ] ] } },
{ "type": "Feature", "properties": { "Id": 0, "Sheet_ID": "86. 木鎮", "label": "86. 木鎮", "call_short": "G7824 .W83 S50 .J37", "call_num": "G7824 .W83 S50 .J37 SHEET 86", "recid": "vw808nh1357", "websiteUrl": "https://purl.stanford.edu/vw808nh1357", "title": "南支那五万分一蕪湖", "ckey": 13900022, "available": true, "iiifUrl": "https://purl.stanford.edu/vw808nh1357/iiif/manifest" }, "geometry": { "type": "Polygon", "coordinates": [ [ [ 117.9124997, 30.6666667 ], [ 118.1624997, 30.6666667 ], [ 118.1624997, 30.8333333 ], [ 117.9124997, 30.8333333 ], [ 117.9124997, 30.6666667 ] ] ] } },
{ "type": "Feature", "properties": { "Id": 0, "Sheet_ID": "105. 周家潭", "label": "105. 周家潭", "call_short": "G7824 .W83 S50 .J37", "call_num": "G7824 .W83 S50 .J37 SHEET 105", "recid": "sg210tn5936", "websiteUrl": "https://purl.stanford.edu/sg210tn5936", "title": "南支那五万分一蕪湖", "ckey": 13900022, "available": true, "iiifUrl": "https://purl.stanford.edu/sg210tn5936/iiif/manifest" }, "geometry": { "type": "Polygon", "coordinates": [ [ [ 117.4124997, 30.8333333 ], [ 117.6624997, 30.8333333 ], [ 117.6624997, 31.0 ], [ 117.4124997, 31.0 ], [ 117.4124997, 30.8333333 ] ] ] } },
{ "type": "Feature", "properties": { "Id": 0, "Sheet_ID": "95. 銅陵縣", "label": "95. 銅陵縣", "call_short": "G7824 .W83 S50 .J37", "call_num": "G7824 .W83 S50 .J37 SHEET 95", "recid": "kb082xn4194", "websiteUrl": "https://purl.stanford.edu/kb082xn4194", "title": "南支那五万分一蕪湖", "ckey": 13900022, "available": true, "iiifUrl": "https://purl.stanford.edu/kb082xn4194/iiif/manifest" }, "geometry": { "type": "Polygon", "coordinates": [ [ [ 117.6624997, 30.8333333 ], [ 117.9124997, 30.8333333 ], [ 117.9124997, 31.0 ], [ 117.6624997, 31.0 ], [ 117.6624997, 30.8333333 ] ] ] } },
{ "type": "Feature", "properties": { "Id": 0, "Sheet_ID": "85. 順安", "label": "85. 順安", "call_short": "G7824 .W83 S50 .J37", "call_num": "G7824 .W83 S50 .J37 SHEET 85", "recid": "zs093dx1232", "websiteUrl": "https://purl.stanford.edu/zs093dx1232", "title": "南支那五万分一蕪湖", "ckey": 13900022, "available": true, "iiifUrl": "https://purl.stanford.edu/zs093dx1232/iiif/manifest" }, "geometry": { "type": "Polygon", "coordinates": [ [ [ 117.9124997, 30.8333333 ], [ 118.1624997, 30.8333333 ], [ 118.1624997, 31.0 ], [ 117.9124997, 31.0 ], [ 117.9124997, 30.8333333 ] ] ] } },
{ "type": "Feature", "properties": { "Id": 0, "Sheet_ID": "94. 土橋", "label": "94. 土橋", "call_short": "G7824 .W83 S50 .J37", "call_num": "G7824 .W83 S50 .J37 SHEET 94", "recid": "sh309kt3473", "websiteUrl": "https://purl.stanford.edu/sh309kt3473", "title": "南支那五万分一蕪湖", "ckey": 13900022, "available": true, "iiifUrl": "https://purl.stanford.edu/sh309kt3473/iiif/manifest" }, "geometry": { "type": "Polygon", "coordinates": [ [ [ 117.6624997, 31.0 ], [ 117.9124997, 31.0 ], [ 117.9124997, 31.1666667 ], [ 117.6624997, 31.1666667 ], [ 117.6624997, 31.0 ] ] ] } },
{ "type": "Feature", "properties": { "Id": 0, "Sheet_ID": "84. 荻港", "label": "84. 荻港", "call_short": "G7824 .W83 S50 .J37", "call_num": "G7824 .W83 S50 .J37 SHEET 84", "recid": "vt812nk6799", "websiteUrl": "https://purl.stanford.edu/vt812nk6799", "title": "南支那五万分一蕪湖", "ckey": 13900022, "available": true, "iiifUrl": "https://purl.stanford.edu/vt812nk6799/iiif/manifest" }, "geometry": { "type": "Polygon", "coordinates": [ [ [ 117.9124997, 31.0 ], [ 118.1624997, 31.0 ], [ 118.1624997, 31.1666667 ], [ 117.9124997, 31.1666667 ], [ 117.9124997, 31.0 ] ] ] } },
{ "type": "Feature", "properties": { "Id": 0, "Sheet_ID": "93. 襄安", "label": "93. 襄安", "call_short": "G7824 .W83 S50 .J37", "call_num": "G7824 .W83 S50 .J37 SHEET 93", "recid": "vv471dj3592", "websiteUrl": "https://purl.stanford.edu/vv471dj3592", "title": "南支那五万分一蕪湖", "ckey": 13900022, "available": true, "iiifUrl": "https://purl.stanford.edu/vv471dj3592/iiif/manifest" }, "geometry": { "type": "Polygon", "coordinates": [ [ [ 117.6624997, 31.1666667 ], [ 117.9124997, 31.1666667 ], [ 117.9124997, 31.3333333 ], [ 117.6624997, 31.3333333 ], [ 117.6624997, 31.1666667 ] ] ] } },
{ "type": "Feature", "properties": { "Id": 0, "Sheet_ID": "83. 無為縣", "label": "83. 無為縣", "call_short": "G7824 .W83 S50 .J37", "call_num": "G7824 .W83 S50 .J37 SHEET 83", "recid": "hm490pq7535", "websiteUrl": "https://purl.stanford.edu/hm490pq7535", "title": "南支那五万分一蕪湖", "ckey": 13900022, "available": true, "iiifUrl": "https://purl.stanford.edu/hm490pq7535/iiif/manifest" }, "geometry": { "type": "Polygon", "coordinates": [ [ [ 117.9124997, 31.1666667 ], [ 118.1624997, 31.1666667 ], [ 118.1624997, 31.3333333 ], [ 117.9124997, 31.3333333 ], [ 117.9124997, 31.1666667 ] ] ] } },
{ "type": "Feature", "properties": { "Id": 0, "Sheet_ID": "92. 石澗埠", "label": "92. 石澗埠", "call_short": "G7824 .W83 S50 .J37", "call_num": "G7824 .W83 S50 .J37 SHEET 92", "recid": "dv318ft8275", "websiteUrl": "https://purl.stanford.edu/dv318ft8275", "title": "南支那五万分一蕪湖", "ckey": 13900022, "available": true, "iiifUrl": "https://purl.stanford.edu/dv318ft8275/iiif/manifest" }, "geometry": { "type": "Polygon", "coordinates": [ [ [ 117.6624997, 31.3333333 ], [ 117.9124997, 31.3333333 ], [ 117.9124997, 31.5 ], [ 117.6624997, 31.5 ], [ 117.6624997, 31.3333333 ] ] ] } },
{ "type": "Feature", "properties": { "Id": 0, "Sheet_ID": "82. 運漕", "label": "82. 運漕", "call_short": "G7824 .W83 S50 .J37", "call_num": "G7824 .W83 S50 .J37 SHEET 82", "recid": "tg004yw8770", "websiteUrl": "https://purl.stanford.edu/tg004yw8770", "title": "南支那五万分一蕪湖", "ckey": 13900022, "available": true, "iiifUrl": "https://purl.stanford.edu/tg004yw8770/iiif/manifest" }, "geometry": { "type": "Polygon", "coordinates": [ [ [ 117.9124997, 31.3333333 ], [ 118.1624997, 31.3333333 ], [ 118.1624997, 31.5 ], [ 117.9124997, 31.5 ], [ 117.9124997, 31.3333333 ] ] ] } }
]
}
