{
"type": "FeatureCollection",
"name": "index_map",
"xy_coordinate_resolution": 1e-07,
"features": [
{ "type": "Feature", "properties": { "Id": 0, "Sheet_ID": "南部 10. カムボリノエ湖", "label": "南部 10. カムボリノエ湖", "call_short": "G7322 .K3 S100 .J3", "call_num": "G7322 .K3 S100 .J3 SHEET S10", "recid": "mm654vf0021", "websiteUrl": "https://purl.stanford.edu/mm654vf0021", "title": "西伯利十万分一圖 勘察加半島", "ckey": 12122873, "available": true, "iiifUrl": "https://purl.stanford.edu/mm654vf0021/iiif/manifest" }, "geometry": { "type": "Polygon", "coordinates": [ [ [ 156.016667, 52.333333 ], [ 156.7111113, 52.333333 ], [ 156.7111113, 52.6666663 ], [ 156.016667, 52.6666663 ], [ 156.016667, 52.333333 ] ] ] } },
{ "type": "Feature", "properties": { "Id": 0, "Sheet_ID": "南部 5. ケクールヌィ岬", "label": "南部 5. ケクールヌィ岬", "call_short": "G7322 .K3 S100 .J3", "call_num": "G7322 .K3 S100 .J3 SHEET S5", "recid": "dk961xp2408", "websiteUrl": "https://purl.stanford.edu/dk961xp2408", "title": "西伯利十万分一圖 勘察加半島", "ckey": 12122873, "available": true, "iiifUrl": "https://purl.stanford.edu/dk961xp2408/iiif/manifest" }, "geometry": { "type": "Polygon", "coordinates": [ [ [ 158.1833333, 52.25 ], [ 158.711111, 52.25 ], [ 158.711111, 52.6666663 ], [ 158.1833333, 52.6666663 ], [ 158.1833333, 52.25 ] ] ] } },
{ "type": "Feature", "properties": { "Id": 0, "Sheet_ID": "南部 9. ボリシェ・レーチゥカ", "label": "南部 9. ボリシェ・レーチゥカ", "call_short": "G7322 .K3 S100 .J3", "call_num": "G7322 .K3 S100 .J3 SHEET S9", "recid": "qp585pk1193", "websiteUrl": "https://purl.stanford.edu/qp585pk1193", "title": "西伯利十万分一圖 勘察加半島", "ckey": 12122873, "available": true, "iiifUrl": "https://purl.stanford.edu/qp585pk1193/iiif/manifest" }, "geometry": { "type": "Polygon", "coordinates": [ [ [ 156.016667, 52.6666663 ], [ 156.7111113, 52.6666663 ], [ 156.7111113, 52.9999997 ], [ 156.016667, 52.9999997 ], [ 156.016667, 52.6666663 ] ] ] } },
{ "type": "Feature", "properties": { "Id": 0, "Sheet_ID": "南部 4. マヤーチヌィ岬", "label": "南部 4. マヤーチヌィ岬", "call_short": "G7322 .K3 S100 .J3", "call_num": "G7322 .K3 S100 .J3 SHEET S4", "recid": "jt831df5996", "websiteUrl": "https://purl.stanford.edu/jt831df5996", "title": "西伯利十万分一圖 勘察加半島", "ckey": 12122873, "available": true, "iiifUrl": "https://purl.stanford.edu/jt831df5996/iiif/manifest" }, "geometry": { "type": "Polygon", "coordinates": [ [ [ 158.1833333, 52.6666663 ], [ 158.8777777, 52.6666663 ], [ 158.8777777, 52.9999997 ], [ 158.1833333, 52.9999997 ], [ 158.1833333, 52.6666663 ] ] ] } },
{ "type": "Feature", "properties": { "Id": 0, "Sheet_ID": "南部 8. ウートゥカ", "label": "南部 8. ウートゥカ", "call_short": "G7322 .K3 S100 .J3", "call_num": "G7322 .K3 S100 .J3 SHEET S8", "recid": "rz057tk4117", "websiteUrl": "https://purl.stanford.edu/rz057tk4117", "title": "西伯利十万分一圖 勘察加半島", "ckey": 12122873, "available": true, "iiifUrl": "https://purl.stanford.edu/rz057tk4117/iiif/manifest" }, "geometry": { "type": "Polygon", "coordinates": [ [ [ 156.016667, 52.9999997 ], [ 156.7111113, 52.9999997 ], [ 156.7111113, 53.333333 ], [ 156.016667, 53.333333 ], [ 156.016667, 52.9999997 ] ] ] } },
{ "type": "Feature", "properties": { "Id": 0, "Sheet_ID": "南部 7. アパチァ", "label": "南部 7. アパチァ", "call_short": "0", "call_num": "0", "recid": "0", "websiteUrl": "0", "title": "0", "ckey": 0, "available": false, "iiifUrl": "0" }, "geometry": { "type": "Polygon", "coordinates": [ [ [ 156.7111113, 52.833333 ], [ 157.4055557, 52.833333 ], [ 157.4055557, 53.1666663 ], [ 156.7111113, 53.1666663 ], [ 156.7111113, 52.833333 ] ] ] } },
{ "type": "Feature", "properties": { "Id": 0, "Sheet_ID": "南部 6. ナチイカ", "label": "南部 6. ナチイカ", "call_short": "G7322 .K3 S100 .J3", "call_num": "G7322 .K3 S100 .J3 SHEET S6", "recid": "yf923vj8487", "websiteUrl": "https://purl.stanford.edu/yf923vj8487", "title": "西伯利十万分一圖 勘察加半島", "ckey": 12122873, "available": true, "iiifUrl": "https://purl.stanford.edu/yf923vj8487/iiif/manifest" }, "geometry": { "type": "Polygon", "coordinates": [ [ [ 157.4055557, 52.9999997 ], [ 158.1, 52.9999997 ], [ 158.1, 53.333333 ], [ 157.4055557, 53.333333 ], [ 157.4055557, 52.9999997 ] ] ] } },
{ "type": "Feature", "properties": { "Id": 0, "Sheet_ID": "南部 3. ペトゥパウロフスク", "label": "南部 3. ペトゥパウロフスク", "call_short": "G7322 .K3 S100 .J3", "call_num": "G7322 .K3 S100 .J3 SHEET S3", "recid": "hf111kn5881", "websiteUrl": "https://purl.stanford.edu/hf111kn5881", "title": "西伯利十万分一圖 勘察加半島", "ckey": 12122873, "available": true, "iiifUrl": "https://purl.stanford.edu/hf111kn5881/iiif/manifest" }, "geometry": { "type": "Polygon", "coordinates": [ [ [ 158.1, 52.9999997 ], [ 158.7944443, 52.9999997 ], [ 158.7944443, 53.333333 ], [ 158.1, 53.333333 ], [ 158.1, 52.9999997 ] ] ] } },
{ "type": "Feature", "properties": { "Id": 0, "Sheet_ID": "南部 2. ナラチォーフ", "label": "南部 2. ナラチォーフ", "call_short": "G7322 .K3 S100 .J3", "call_num": "G7322 .K3 S100 .J3 SHEET S2", "recid": "bc808qd4759", "websiteUrl": "https://purl.stanford.edu/bc808qd4759", "title": "西伯利十万分一圖 勘察加半島", "ckey": 12122873, "available": true, "iiifUrl": "https://purl.stanford.edu/bc808qd4759/iiif/manifest" }, "geometry": { "type": "Polygon", "coordinates": [ [ [ 158.7944443, 52.9999997 ], [ 159.4888887, 52.9999997 ], [ 159.4888887, 53.333333 ], [ 158.7944443, 53.333333 ], [ 158.7944443, 52.9999997 ] ] ] } },
{ "type": "Feature", "properties": { "Id": 0, "Sheet_ID": "南部 1. シプンスキー岬", "label": "南部 1. シプンスキー岬", "call_short": "G7322 .K3 S100 .J3", "call_num": "G7322 .K3 S100 .J3 SHEET S1", "recid": "sd461dz1451", "websiteUrl": "https://purl.stanford.edu/sd461dz1451", "title": "西伯利十万分一圖 勘察加半島", "ckey": 12122873, "available": true, "iiifUrl": "https://purl.stanford.edu/sd461dz1451/iiif/manifest" }, "geometry": { "type": "Polygon", "coordinates": [ [ [ 159.4888887, 52.9999997 ], [ 160.183333, 52.9999997 ], [ 160.183333, 53.333333 ], [ 159.4888887, 53.333333 ], [ 159.4888887, 52.9999997 ] ] ] } },
{ "type": "Feature", "properties": { "Id": 0, "Sheet_ID": "中部 7. クリュチェフ山", "label": "中部 7. クリュチェフ山", "call_short": "0", "call_num": "0", "recid": "0", "websiteUrl": "0", "title": "0", "ckey": 0, "available": false, "iiifUrl": "0" }, "geometry": { "type": "Polygon", "coordinates": [ [ [ 160.283333, 56.0 ], [ 161.0124997, 56.0 ], [ 161.0124997, 56.3333335 ], [ 160.283333, 56.3333335 ], [ 160.283333, 56.0 ] ] ] } },
{ "type": "Feature", "properties": { "Id": 0, "Sheet_ID": "中部 5. カマキ", "label": "中部 5. カマキ", "call_short": "0", "call_num": "0", "recid": "0", "websiteUrl": "0", "title": "0", "ckey": 0, "available": false, "iiifUrl": "0" }, "geometry": { "type": "Polygon", "coordinates": [ [ [ 161.0124997, 56.0 ], [ 161.7416665, 56.0 ], [ 161.7416665, 56.3333335 ], [ 161.0124997, 56.3333335 ], [ 161.0124997, 56.0 ] ] ] } },
{ "type": "Feature", "properties": { "Id": 0, "Sheet_ID": "中部 2. ウスティカムチャートゥスク", "label": "中部 2. ウスティカムチャートゥスク", "call_short": "0", "call_num": "0", "recid": "0", "websiteUrl": "0", "title": "0", "ckey": 0, "available": false, "iiifUrl": "0" }, "geometry": { "type": "Polygon", "coordinates": [ [ [ 162.4708332, 56.0 ], [ 163.2, 56.0 ], [ 163.2, 56.3333335 ], [ 162.4708332, 56.3333335 ], [ 162.4708332, 56.0 ] ] ] } },
{ "type": "Feature", "properties": { "Id": 0, "Sheet_ID": "中部 6. クリュチェフスコエ", "label": "中部 6. クリュチェフスコエ", "call_short": "G7322 .K3 S100 .J3", "call_num": "G7322 .K3 S100 .J3 SHEET C6", "recid": "yh170gb6329", "websiteUrl": "https://purl.stanford.edu/yh170gb6329", "title": "西伯利十万分一圖 勘察加半島", "ckey": 12122873, "available": true, "iiifUrl": "https://purl.stanford.edu/yh170gb6329/iiif/manifest" }, "geometry": { "type": "Polygon", "coordinates": [ [ [ 160.283333, 56.3333335 ], [ 161.0124997, 56.3333335 ], [ 161.0124997, 56.666667 ], [ 160.283333, 56.666667 ], [ 160.283333, 56.3333335 ] ] ] } },
{ "type": "Feature", "properties": { "Id": 0, "Sheet_ID": "中部 4. シィウェルチゥ山", "label": "中部 4. シィウェルチゥ山", "call_short": "0", "call_num": "0", "recid": "0", "websiteUrl": "0", "title": "0", "ckey": 0, "available": false, "iiifUrl": "0" }, "geometry": { "type": "Polygon", "coordinates": [ [ [ 161.0124997, 56.3333335 ], [ 161.7416665, 56.3333335 ], [ 161.7416665, 56.666667 ], [ 161.0124997, 56.666667 ], [ 161.0124997, 56.3333335 ] ] ] } },
{ "type": "Feature", "properties": { "Id": 0, "Sheet_ID": "中部 3. ニジゥネカムチァートゥスク", "label": "中部 3. ニジゥネカムチァートゥスク", "call_short": "0", "call_num": "0", "recid": "0", "websiteUrl": "0", "title": "0", "ckey": 0, "available": false, "iiifUrl": "0" }, "geometry": { "type": "Polygon", "coordinates": [ [ [ 161.7416665, 56.0 ], [ 162.4708333, 56.0 ], [ 162.4708333, 56.5000003 ], [ 161.7416665, 56.5000003 ], [ 161.7416665, 56.0 ] ] ] } },
{ "type": "Feature", "properties": { "Id": 0, "Sheet_ID": "中部 1. ネルピーチエ湖", "label": "中部 1. ネルピーチエ湖", "call_short": "G7322 .K3 S100 .J3", "call_num": "G7322 .K3 S100 .J3 SHEET C1", "recid": "kq980mw2132", "websiteUrl": "https://purl.stanford.edu/kq980mw2132", "title": "西伯利十万分一圖 勘察加半島", "ckey": 12122873, "available": true, "iiifUrl": "https://purl.stanford.edu/kq980mw2132/iiif/manifest" }, "geometry": { "type": "Polygon", "coordinates": [ [ [ 162.4708332, 56.3333335 ], [ 163.2, 56.3333335 ], [ 163.2, 56.666667 ], [ 162.4708332, 56.666667 ], [ 162.4708332, 56.3333335 ] ] ] } }
]
}
