{"type":"FeatureCollection","features":[{"type":"Feature","properties":{"Id":0,"Sheet_ID":"SHEET 20","label":"SHEET 20","call_short":"G7064 .N54 A1 S25 .J3","call_num":"G7064 .N54 A1 S25 .J3 SHEET 20","recid":"sw048tc0165","websiteUrl":"https://purl.stanford.edu/sw048tc0165","title":"ニコラエフスク近傍二万五千分一圖","ckey":10425389,"web_map":"","available":"true","iiiUrl":"https://purl.stanford.edu/sw048tc0165/iiif/manifest"},"geometry":{"bbox":[140.625,52.833333,140.75,52.916666400000004],"type":"Polygon","coordinates":[[[140.625,52.833333],[140.625,52.916666400000004],[140.75,52.916666400000004],[140.75,52.833333],[140.625,52.833333]]]}},{"type":"Feature","properties":{"Id":0,"Sheet_ID":"SHEET 15","label":"SHEET 15","call_short":"G7064 .N54 A1 S25 .J3","call_num":"G7064 .N54 A1 S25 .J3 SHEET 15","recid":"rb056vc1014","websiteUrl":"https://purl.stanford.edu/rb056vc1014","title":"ニコラエフスク近傍二万五千分一圖","ckey":10425389,"web_map":"","available":"true","iiiUrl":"https://purl.stanford.edu/rb056vc1014/iiif/manifest"},"geometry":{"bbox":[140.75,52.833333,140.875,52.916666400000004],"type":"Polygon","coordinates":[[[140.75,52.833333],[140.75,52.916666400000004],[140.875,52.916666400000004],[140.875,52.833333],[140.75,52.833333]]]}},{"type":"Feature","properties":{"Id":0,"Sheet_ID":"SHEET 10","label":"SHEET 10","call_short":"G7064 .N54 A1 S25 .J3","call_num":"G7064 .N54 A1 S25 .J3 SHEET 10","recid":"hv681tf6817","websiteUrl":"https://purl.stanford.edu/hv681tf6817","title":"ニコラエフスク近傍二万五千分一圖","ckey":10425389,"web_map":"","available":"true","iiiUrl":"https://purl.stanford.edu/hv681tf6817/iiif/manifest"},"geometry":{"bbox":[140.875,52.833333,141,52.916666400000004],"type":"Polygon","coordinates":[[[140.875,52.833333],[140.875,52.916666400000004],[141,52.916666400000004],[141,52.833333],[140.875,52.833333]]]}},{"type":"Feature","properties":{"Id":0,"Sheet_ID":"SHEET 5","label":"SHEET 5","call_short":"G7064 .N54 A1 S25 .J3","call_num":"G7064 .N54 A1 S25 .J3 SHEET 5","recid":"ff341nm8752","websiteUrl":"https://purl.stanford.edu/ff341nm8752","title":"ニコラエフスク近傍二万五千分一圖","ckey":10425389,"web_map":"","available":"true","iiiUrl":"https://purl.stanford.edu/ff341nm8752/iiif/manifest"},"geometry":{"bbox":[141,52.833333,141.125,52.916666400000004],"type":"Polygon","coordinates":[[[141,52.833333],[141,52.916666400000004],[141.125,52.916666400000004],[141.125,52.833333],[141,52.833333]]]}},{"type":"Feature","properties":{"Id":0,"Sheet_ID":"SHEET 19","label":"SHEET 19","call_short":"G7064 .N54 A1 S25 .J3","call_num":"G7064 .N54 A1 S25 .J3 SHEET 19","recid":"nd965db7014","websiteUrl":"https://purl.stanford.edu/nd965db7014","title":"ニコラエフスク近傍二万五千分一圖","ckey":10425389,"web_map":"","available":"true","iiiUrl":"https://purl.stanford.edu/nd965db7014/iiif/manifest"},"geometry":{"bbox":[140.625,52.916666400000004,140.75,52.999999800000005],"type":"Polygon","coordinates":[[[140.625,52.916666400000004],[140.625,52.999999800000005],[140.75,52.999999800000005],[140.75,52.916666400000004],[140.625,52.916666400000004]]]}},{"type":"Feature","properties":{"Id":0,"Sheet_ID":"SHEET 14","label":"SHEET 14","call_short":"G7064 .N54 A1 S25 .J3","call_num":"G7064 .N54 A1 S25 .J3 SHEET 14","recid":"kj376bq7286","websiteUrl":"https://purl.stanford.edu/kj376bq7286","title":"ニコラエフスク近傍二万五千分一圖","ckey":10425389,"web_map":"","available":"true","iiiUrl":"https://purl.stanford.edu/kj376bq7286/iiif/manifest"},"geometry":{"bbox":[140.75,52.916666400000004,140.875,52.999999800000005],"type":"Polygon","coordinates":[[[140.75,52.916666400000004],[140.75,52.999999800000005],[140.875,52.999999800000005],[140.875,52.916666400000004],[140.75,52.916666400000004]]]}},{"type":"Feature","properties":{"Id":0,"Sheet_ID":"SHEET 9","label":"SHEET 9","call_short":"G7064 .N54 A1 S25 .J3","call_num":"G7064 .N54 A1 S25 .J3 SHEET 9","recid":"sg851yc5818","websiteUrl":"https://purl.stanford.edu/sg851yc5818","title":"ニコラエフスク近傍二万五千分一圖","ckey":10425389,"web_map":"","available":"true","iiiUrl":"https://purl.stanford.edu/sg851yc5818/iiif/manifest"},"geometry":{"bbox":[140.875,52.916666400000004,141,52.999999800000005],"type":"Polygon","coordinates":[[[140.875,52.916666400000004],[140.875,52.999999800000005],[141,52.999999800000005],[141,52.916666400000004],[140.875,52.916666400000004]]]}},{"type":"Feature","properties":{"Id":0,"Sheet_ID":"SHEET 22","label":"SHEET 22","call_short":"G7064 .N54 A1 S25 .J3","call_num":"G7064 .N54 A1 S25 .J3 SHEET 22","recid":"mb397yw1761","websiteUrl":"https://purl.stanford.edu/mb397yw1761","title":"ニコラエフスク近傍二万五千分一圖","ckey":10425389,"web_map":"","available":"true","iiiUrl":"https://purl.stanford.edu/mb397yw1761/iiif/manifest"},"geometry":{"bbox":[140.5,52.999999800000005,140.625,53.083333200000006],"type":"Polygon","coordinates":[[[140.5,52.999999800000005],[140.5,53.083333200000006],[140.625,53.083333200000006],[140.625,52.999999800000005],[140.5,52.999999800000005]]]}},{"type":"Feature","properties":{"Id":0,"Sheet_ID":"SHEET 18","label":"SHEET 18","call_short":"G7064 .N54 A1 S25 .J3","call_num":"G7064 .N54 A1 S25 .J3 SHEET 18","recid":"gh457sy3786","websiteUrl":"https://purl.stanford.edu/gh457sy3786","title":"ニコラエフスク近傍二万五千分一圖","ckey":10425389,"web_map":"","available":"true","iiiUrl":"https://purl.stanford.edu/gh457sy3786/iiif/manifest"},"geometry":{"bbox":[140.625,52.999999800000005,140.75,53.083333200000006],"type":"Polygon","coordinates":[[[140.625,52.999999800000005],[140.625,53.083333200000006],[140.75,53.083333200000006],[140.75,52.999999800000005],[140.625,52.999999800000005]]]}},{"type":"Feature","properties":{"Id":0,"Sheet_ID":"SHEET 13","label":"SHEET 13","call_short":"G7064 .N54 A1 S25 .J3","call_num":"G7064 .N54 A1 S25 .J3 SHEET 13","recid":"fp951sf6201","websiteUrl":"https://purl.stanford.edu/fp951sf6201","title":"ニコラエフスク近傍二万五千分一圖","ckey":10425389,"web_map":"","available":"true","iiiUrl":"https://purl.stanford.edu/fp951sf6201/iiif/manifest"},"geometry":{"bbox":[140.75,52.999999800000005,140.875,53.083333200000006],"type":"Polygon","coordinates":[[[140.75,52.999999800000005],[140.75,53.083333200000006],[140.875,53.083333200000006],[140.875,52.999999800000005],[140.75,52.999999800000005]]]}},{"type":"Feature","properties":{"Id":0,"Sheet_ID":"SHEET 8","label":"SHEET 8","call_short":"G7064 .N54 A1 S25 .J3","call_num":"G7064 .N54 A1 S25 .J3 SHEET 8","recid":"xz431yw8435","websiteUrl":"https://purl.stanford.edu/xz431yw8435","title":"ニコラエフスク近傍二万五千分一圖","ckey":10425389,"web_map":"","available":"true","iiiUrl":"https://purl.stanford.edu/xz431yw8435/iiif/manifest"},"geometry":{"bbox":[140.875,52.999999800000005,141,53.083333200000006],"type":"Polygon","coordinates":[[[140.875,52.999999800000005],[140.875,53.083333200000006],[141,53.083333200000006],[141,52.999999800000005],[140.875,52.999999800000005]]]}},{"type":"Feature","properties":{"Id":0,"Sheet_ID":"SHEET 4","label":"SHEET 4","call_short":"G7064 .N54 A1 S25 .J3","call_num":"G7064 .N54 A1 S25 .J3 SHEET 4","recid":"jx145bh4631","websiteUrl":"https://purl.stanford.edu/jx145bh4631","title":"ニコラエフスク近傍二万五千分一圖","ckey":10425389,"web_map":"","available":"true","iiiUrl":"https://purl.stanford.edu/jx145bh4631/iiif/manifest"},"geometry":{"bbox":[141,52.999999800000005,141.125,53.083333200000006],"type":"Polygon","coordinates":[[[141,52.999999800000005],[141,53.083333200000006],[141.125,53.083333200000006],[141.125,52.999999800000005],[141,52.999999800000005]]]}},{"type":"Feature","properties":{"Id":0,"Sheet_ID":"SHEET 2","label":"SHEET 2","call_short":"G7064 .N54 A1 S25 .J3","call_num":"G7064 .N54 A1 S25 .J3 SHEET 2","recid":"hb433wq4912","websiteUrl":"https://purl.stanford.edu/hb433wq4912","title":"ニコラエフスク近傍二万五千分一圖","ckey":10425389,"web_map":"","available":"true","iiiUrl":"https://purl.stanford.edu/hb433wq4912/iiif/manifest"},"geometry":{"bbox":[141.125,52.999999800000005,141.25,53.083333200000006],"type":"Polygon","coordinates":[[[141.125,52.999999800000005],[141.125,53.083333200000006],[141.25,53.083333200000006],[141.25,52.999999800000005],[141.125,52.999999800000005]]]}},{"type":"Feature","properties":{"Id":0,"Sheet_ID":"SHEET 21","label":"SHEET 21","call_short":"G7064 .N54 A1 S25 .J3","call_num":"G7064 .N54 A1 S25 .J3 SHEET 21","recid":"mr659kp9469","websiteUrl":"https://purl.stanford.edu/mr659kp9469","title":"ニコラエフスク近傍二万五千分一圖","ckey":10425389,"web_map":"","available":"true","iiiUrl":"https://purl.stanford.edu/mr659kp9469/iiif/manifest"},"geometry":{"bbox":[140.5,53.0833332,140.625,53.1666666],"type":"Polygon","coordinates":[[[140.5,53.0833332],[140.5,53.1666666],[140.625,53.1666666],[140.625,53.0833332],[140.5,53.0833332]]]}},{"type":"Feature","properties":{"Id":0,"Sheet_ID":"SHEET 17","label":"SHEET 17","call_short":"G7064 .N54 A1 S25 .J3","call_num":"G7064 .N54 A1 S25 .J3 SHEET 17","recid":"vm120tq3229","websiteUrl":"https://purl.stanford.edu/vm120tq3229","title":"ニコラエフスク近傍二万五千分一圖","ckey":10425389,"web_map":"","available":"true","iiiUrl":"https://purl.stanford.edu/vm120tq3229/iiif/manifest"},"geometry":{"bbox":[140.625,53.0833332,140.75,53.1666666],"type":"Polygon","coordinates":[[[140.625,53.0833332],[140.625,53.1666666],[140.75,53.1666666],[140.75,53.0833332],[140.625,53.0833332]]]}},{"type":"Feature","properties":{"Id":0,"Sheet_ID":"SHEET 12","label":"SHEET 12","call_short":"G7064 .N54 A1 S25 .J3","call_num":"G7064 .N54 A1 S25 .J3 SHEET 12","recid":"sm408zc4365","websiteUrl":"https://purl.stanford.edu/sm408zc4365","title":"ニコラエフスク近傍二万五千分一圖","ckey":10425389,"web_map":"","available":"true","iiiUrl":"https://purl.stanford.edu/sm408zc4365/iiif/manifest"},"geometry":{"bbox":[140.75,53.0833332,140.875,53.1666666],"type":"Polygon","coordinates":[[[140.75,53.0833332],[140.75,53.1666666],[140.875,53.1666666],[140.875,53.0833332],[140.75,53.0833332]]]}},{"type":"Feature","properties":{"Id":0,"Sheet_ID":"SHEET 7","label":"SHEET 7","call_short":"G7064 .N54 A1 S25 .J3","call_num":"G7064 .N54 A1 S25 .J3 SHEET 7","recid":"fy214rk5944","websiteUrl":"https://purl.stanford.edu/fy214rk5944","title":"ニコラエフスク近傍二万五千分一圖","ckey":10425389,"web_map":"","available":"true","iiiUrl":"https://purl.stanford.edu/fy214rk5944/iiif/manifest"},"geometry":{"bbox":[140.875,53.0833332,141,53.1666666],"type":"Polygon","coordinates":[[[140.875,53.0833332],[140.875,53.1666666],[141,53.1666666],[141,53.0833332],[140.875,53.0833332]]]}},{"type":"Feature","properties":{"Id":0,"Sheet_ID":"SHEET 3","label":"SHEET 3","call_short":"G7064 .N54 A1 S25 .J3","call_num":"G7064 .N54 A1 S25 .J3 SHEET 3","recid":"jm887qy6670","websiteUrl":"https://purl.stanford.edu/jm887qy6670","title":"ニコラエフスク近傍二万五千分一圖","ckey":10425389,"web_map":"","available":"true","iiiUrl":"https://purl.stanford.edu/jm887qy6670/iiif/manifest"},"geometry":{"bbox":[141,53.0833332,141.125,53.1666666],"type":"Polygon","coordinates":[[[141,53.0833332],[141,53.1666666],[141.125,53.1666666],[141.125,53.0833332],[141,53.0833332]]]}},{"type":"Feature","properties":{"Id":0,"Sheet_ID":"SHEET 1","label":"SHEET 1","call_short":"G7064 .N54 A1 S25 .J3","call_num":"G7064 .N54 A1 S25 .J3 SHEET 1","recid":"qm769gt5153","websiteUrl":"https://purl.stanford.edu/qm769gt5153","title":"ニコラエフスク近傍二万五千分一圖","ckey":10425389,"web_map":"","available":"true","iiiUrl":"https://purl.stanford.edu/qm769gt5153/iiif/manifest"},"geometry":{"bbox":[141.125,53.0833332,141.25,53.1666666],"type":"Polygon","coordinates":[[[141.125,53.0833332],[141.125,53.1666666],[141.25,53.1666666],[141.25,53.0833332],[141.125,53.0833332]]]}},{"type":"Feature","properties":{"Id":0,"Sheet_ID":"SHEET 16","label":"SHEET 16","call_short":"G7064 .N54 A1 S25 .J3","call_num":"G7064 .N54 A1 S25 .J3 SHEET 16","recid":"sv099zq3199","websiteUrl":"https://purl.stanford.edu/sv099zq3199","title":"ニコラエフスク近傍二万五千分一圖","ckey":10425389,"web_map":"","available":"true","iiiUrl":"https://purl.stanford.edu/sv099zq3199/iiif/manifest"},"geometry":{"bbox":[140.625,53.1666666,140.75,53.25],"type":"Polygon","coordinates":[[[140.625,53.1666666],[140.625,53.25],[140.75,53.25],[140.75,53.1666666],[140.625,53.1666666]]]}},{"type":"Feature","properties":{"Id":0,"Sheet_ID":"SHEET 11","label":"SHEET 11","call_short":"G7064 .N54 A1 S25 .J3","call_num":"G7064 .N54 A1 S25 .J3 SHEET 11","recid":"rh140kb3217","websiteUrl":"https://purl.stanford.edu/rh140kb3217","title":"ニコラエフスク近傍二万五千分一圖","ckey":10425389,"web_map":"","available":"true","iiiUrl":"https://purl.stanford.edu/rh140kb3217/iiif/manifest"},"geometry":{"bbox":[140.75,53.1666666,140.875,53.25],"type":"Polygon","coordinates":[[[140.75,53.1666666],[140.75,53.25],[140.875,53.25],[140.875,53.1666666],[140.75,53.1666666]]]}},{"type":"Feature","properties":{"Id":0,"Sheet_ID":"SHEET 6","label":"SHEET 6","call_short":"G7064 .N54 A1 S25 .J3","call_num":"G7064 .N54 A1 S25 .J3 SHEET 6","recid":"tb353th6476","websiteUrl":"https://purl.stanford.edu/tb353th6476","title":"ニコラエフスク近傍二万五千分一圖","ckey":10425389,"web_map":"","available":"true","iiiUrl":"https://purl.stanford.edu/tb353th6476/iiif/manifest"},"geometry":{"bbox":[140.875,53.1666666,141,53.25],"type":"Polygon","coordinates":[[[140.875,53.1666666],[140.875,53.25],[141,53.25],[141,53.1666666],[140.875,53.1666666]]]}}],"name":"index_10425389"}
