{
"type": "FeatureCollection",
"name": "index_map",
"xy_coordinate_resolution": 1e-07,
"features": [
{ "type": "Feature", "properties": { "Id": 0, "Sheet_ID": "20. 南陽", "label": "20. 南陽", "call_short": "0", "call_num": "0", "recid": "0", "websiteUrl": "0", "title": "0", "ckey": 0, "available": false, "iiifUrl": "0" }, "geometry": { "type": "Polygon", "coordinates": [ [ [ 112.5833333, 32.883333 ], [ 113.0833333, 32.883333 ], [ 113.0833333, 33.2166664 ], [ 112.5833333, 33.2166664 ], [ 112.5833333, 32.883333 ] ] ] } },
{ "type": "Feature", "properties": { "Id": 0, "Sheet_ID": "15. 春水", "label": "15. 春水", "call_short": "G7823 .X8 S100 .J3", "call_num": "G7823 .X8 S100 .J3 SHEET 15", "recid": "cx370sf5105", "websiteUrl": "https://purl.stanford.edu/cx370sf5105", "title": "假製 北支那十万分一圖 許州", "ckey": 10475230, "available": true, "iiifUrl": "https://purl.stanford.edu/cx370sf5105/iiif/manifest" }, "geometry": { "type": "Polygon", "coordinates": [ [ [ 113.0833333, 32.883333 ], [ 113.5833333, 32.883333 ], [ 113.5833333, 33.2166664 ], [ 113.0833333, 33.2166664 ], [ 113.0833333, 32.883333 ] ] ] } },
{ "type": "Feature", "properties": { "Id": 0, "Sheet_ID": "10. 遂平", "label": "10. 遂平", "call_short": "G7823 .X8 S100 .J3", "call_num": "G7823 .X8 S100 .J3 SHEET 10", "recid": "wj778fy8082", "websiteUrl": "https://purl.stanford.edu/wj778fy8082", "title": "假製 北支那十万分一圖 許州", "ckey": 10475230, "available": true, "iiifUrl": "https://purl.stanford.edu/wj778fy8082/iiif/manifest" }, "geometry": { "type": "Polygon", "coordinates": [ [ [ 113.5833333, 32.883333 ], [ 114.0833333, 32.883333 ], [ 114.0833333, 33.2166664 ], [ 113.5833333, 33.2166664 ], [ 113.5833333, 32.883333 ] ] ] } },
{ "type": "Feature", "properties": { "Id": 0, "Sheet_ID": "5. 汝南", "label": "5. 汝南", "call_short": "G7823 .X8 S100 .J3", "call_num": "G7823 .X8 S100 .J3 SHEET 5", "recid": "mm230mb9602", "websiteUrl": "https://purl.stanford.edu/mm230mb9602", "title": "假製 北支那十万分一圖 許州", "ckey": 10475230, "available": true, "iiifUrl": "https://purl.stanford.edu/mm230mb9602/iiif/manifest" }, "geometry": { "type": "Polygon", "coordinates": [ [ [ 114.0833333, 32.883333 ], [ 114.5833333, 32.883333 ], [ 114.5833333, 33.2166664 ], [ 114.0833333, 33.2166664 ], [ 114.0833333, 32.883333 ] ] ] } },
{ "type": "Feature", "properties": { "Id": 0, "Sheet_ID": "19. 裕州", "label": "19. 裕州", "call_short": "0", "call_num": "0", "recid": "0", "websiteUrl": "0", "title": "0", "ckey": 0, "available": false, "iiifUrl": "0" }, "geometry": { "type": "Polygon", "coordinates": [ [ [ 112.5833333, 33.2166664 ], [ 113.0833333, 33.2166664 ], [ 113.0833333, 33.5499998 ], [ 112.5833333, 33.5499998 ], [ 112.5833333, 33.2166664 ] ] ] } },
{ "type": "Feature", "properties": { "Id": 0, "Sheet_ID": "14. 保安鎭", "label": "14. 保安鎭", "call_short": "G7823 .X8 S100 .J3", "call_num": "G7823 .X8 S100 .J3 SHEET 14", "recid": "cz529cf6668", "websiteUrl": "https://purl.stanford.edu/cz529cf6668", "title": "假製 北支那十万分一圖 許州", "ckey": 10475230, "available": true, "iiifUrl": "https://purl.stanford.edu/cz529cf6668/iiif/manifest" }, "geometry": { "type": "Polygon", "coordinates": [ [ [ 113.0833333, 33.2166664 ], [ 113.5833333, 33.2166664 ], [ 113.5833333, 33.5499998 ], [ 113.0833333, 33.5499998 ], [ 113.0833333, 33.2166664 ] ] ] } },
{ "type": "Feature", "properties": { "Id": 0, "Sheet_ID": "9. 西平", "label": "9. 西平", "call_short": "G7823 .X8 S100 .J3", "call_num": "G7823 .X8 S100 .J3 SHEET 9", "recid": "zy008fk6094", "websiteUrl": "https://purl.stanford.edu/zy008fk6094", "title": "假製 北支那十万分一圖 許州", "ckey": 10475230, "available": true, "iiifUrl": "https://purl.stanford.edu/zy008fk6094/iiif/manifest" }, "geometry": { "type": "Polygon", "coordinates": [ [ [ 113.5833333, 33.2166664 ], [ 114.0833333, 33.2166664 ], [ 114.0833333, 33.5499998 ], [ 113.5833333, 33.5499998 ], [ 113.5833333, 33.2166664 ] ] ] } },
{ "type": "Feature", "properties": { "Id": 0, "Sheet_ID": "4. 上蔡縣", "label": "4. 上蔡縣", "call_short": "G7823 .X8 S100 .J3", "call_num": "G7823 .X8 S100 .J3 SHEET 4", "recid": "dm737nb6929", "websiteUrl": "https://purl.stanford.edu/dm737nb6929", "title": "假製 北支那十万分一圖 許州", "ckey": 10475230, "available": true, "iiifUrl": "https://purl.stanford.edu/dm737nb6929/iiif/manifest" }, "geometry": { "type": "Polygon", "coordinates": [ [ [ 114.0833333, 33.2166664 ], [ 114.5833333, 33.2166664 ], [ 114.5833333, 33.5499998 ], [ 114.0833333, 33.5499998 ], [ 114.0833333, 33.2166664 ] ] ] } },
{ "type": "Feature", "properties": { "Id": 0, "Sheet_ID": "13. 葉縣", "label": "13. 葉縣", "call_short": "0", "call_num": "0", "recid": "0", "websiteUrl": "0", "title": "0", "ckey": 0, "available": false, "iiifUrl": "0" }, "geometry": { "type": "Polygon", "coordinates": [ [ [ 113.0833333, 33.5499998 ], [ 113.5833333, 33.5499998 ], [ 113.5833333, 33.8833332 ], [ 113.0833333, 33.8833332 ], [ 113.0833333, 33.5499998 ] ] ] } },
{ "type": "Feature", "properties": { "Id": 0, "Sheet_ID": "8. 臨頴縣", "label": "8. 臨頴縣", "call_short": "G7823 .X8 S100 .J3", "call_num": "G7823 .X8 S100 .J3 SHEET 8", "recid": "gc887pj6721", "websiteUrl": "https://purl.stanford.edu/gc887pj6721", "title": "假製 北支那十万分一圖 許州", "ckey": 10475230, "available": true, "iiifUrl": "https://purl.stanford.edu/gc887pj6721/iiif/manifest" }, "geometry": { "type": "Polygon", "coordinates": [ [ [ 113.5833333, 33.5499998 ], [ 114.0833333, 33.5499998 ], [ 114.0833333, 33.8833332 ], [ 113.5833333, 33.8833332 ], [ 113.5833333, 33.5499998 ] ] ] } },
{ "type": "Feature", "properties": { "Id": 0, "Sheet_ID": "3. 西華縣", "label": "3. 西華縣", "call_short": "G7823 .X8 S100 .J3", "call_num": "G7823 .X8 S100 .J3 SHEET 3", "recid": "fx664xn1680", "websiteUrl": "https://purl.stanford.edu/fx664xn1680", "title": "假製 北支那十万分一圖 許州", "ckey": 10475230, "available": true, "iiifUrl": "https://purl.stanford.edu/fx664xn1680/iiif/manifest" }, "geometry": { "type": "Polygon", "coordinates": [ [ [ 114.0833333, 33.5499998 ], [ 114.5833333, 33.5499998 ], [ 114.5833333, 33.8833332 ], [ 114.0833333, 33.8833332 ], [ 114.0833333, 33.5499998 ] ] ] } },
{ "type": "Feature", "properties": { "Id": 0, "Sheet_ID": "12. 襄城", "label": "12. 襄城", "call_short": "0", "call_num": "0", "recid": "0", "websiteUrl": "0", "title": "0", "ckey": 0, "available": false, "iiifUrl": "0" }, "geometry": { "type": "Polygon", "coordinates": [ [ [ 113.0833333, 33.8833332 ], [ 113.5833333, 33.8833332 ], [ 113.5833333, 34.2166666 ], [ 113.0833333, 34.2166666 ], [ 113.0833333, 33.8833332 ] ] ] } },
{ "type": "Feature", "properties": { "Id": 0, "Sheet_ID": "7. 許州", "label": "7. 許州", "call_short": "G7823 .X8 S100 .J3", "call_num": "G7823 .X8 S100 .J3 SHEET 7", "recid": "db755nb4278", "websiteUrl": "https://purl.stanford.edu/db755nb4278", "title": "假製 北支那十万分一圖 許州", "ckey": 10475230, "available": true, "iiifUrl": "https://purl.stanford.edu/db755nb4278/iiif/manifest" }, "geometry": { "type": "Polygon", "coordinates": [ [ [ 113.5833333, 33.8833332 ], [ 114.0833333, 33.8833332 ], [ 114.0833333, 34.2166666 ], [ 113.5833333, 34.2166666 ], [ 113.5833333, 33.8833332 ] ] ] } },
{ "type": "Feature", "properties": { "Id": 0, "Sheet_ID": "2. 扶溝縣", "label": "2. 扶溝縣", "call_short": "G7823 .X8 S100 .J3", "call_num": "G7823 .X8 S100 .J3 SHEET 2", "recid": "jb736vn4461", "websiteUrl": "https://purl.stanford.edu/jb736vn4461", "title": "假製 北支那十万分一圖 許州", "ckey": 10475230, "available": true, "iiifUrl": "https://purl.stanford.edu/jb736vn4461/iiif/manifest" }, "geometry": { "type": "Polygon", "coordinates": [ [ [ 114.0833333, 33.8833332 ], [ 114.5833333, 33.8833332 ], [ 114.5833333, 34.2166666 ], [ 114.0833333, 34.2166666 ], [ 114.0833333, 33.8833332 ] ] ] } },
{ "type": "Feature", "properties": { "Id": 0, "Sheet_ID": "11. 禹縣", "label": "11. 禹縣", "call_short": "0", "call_num": "0", "recid": "0", "websiteUrl": "0", "title": "0", "ckey": 0, "available": false, "iiifUrl": "0" }, "geometry": { "type": "Polygon", "coordinates": [ [ [ 113.0833333, 34.2166666 ], [ 113.5833333, 34.2166666 ], [ 113.5833333, 34.55 ], [ 113.0833333, 34.55 ], [ 113.0833333, 34.2166666 ] ] ] } },
{ "type": "Feature", "properties": { "Id": 0, "Sheet_ID": "6. 新鄭縣", "label": "6. 新鄭縣", "call_short": "G7823 .X8 S100 .J3", "call_num": "G7823 .X8 S100 .J3 SHEET 6", "recid": "xc702dr3058", "websiteUrl": "https://purl.stanford.edu/xc702dr3058", "title": "假製 北支那十万分一圖 許州", "ckey": 10475230, "available": true, "iiifUrl": "https://purl.stanford.edu/xc702dr3058/iiif/manifest" }, "geometry": { "type": "Polygon", "coordinates": [ [ [ 113.5833333, 34.2166666 ], [ 114.0833333, 34.2166666 ], [ 114.0833333, 34.55 ], [ 113.5833333, 34.55 ], [ 113.5833333, 34.2166666 ] ] ] } },
{ "type": "Feature", "properties": { "Id": 0, "Sheet_ID": "1. 尉氏縣", "label": "1. 尉氏縣", "call_short": "G7823 .X8 S100 .J3", "call_num": "G7823 .X8 S100 .J3 SHEET 1", "recid": "js550gn2130", "websiteUrl": "https://purl.stanford.edu/js550gn2130", "title": "假製 北支那十万分一圖 許州", "ckey": 10475230, "available": true, "iiifUrl": "https://purl.stanford.edu/js550gn2130/iiif/manifest" }, "geometry": { "type": "Polygon", "coordinates": [ [ [ 114.0833333, 34.2166666 ], [ 114.5833333, 34.2166666 ], [ 114.5833333, 34.55 ], [ 114.0833333, 34.55 ], [ 114.0833333, 34.2166666 ] ] ] } }
]
}
