{"type":"FeatureCollection","features":[{"type":"Feature","properties":{"Id":0,"Sheet_ID":"SHEET 4","label":"SHEET 4","call_short":"G7824 .H135 A1 S25 .J3","call_num":"G7824 .H135 A1 S25 .J3 SHEET 4","recid":"rv291bk4235","websiteUrl":"https://purl.stanford.edu/rv291bk4235","title":"海拉爾附近圖","ckey":9937988,"web_map":"","available":"true","iiifUrl":"https://purl.stanford.edu/rv291bk4235/iiif/manifest"},"geometry":{"bbox":[119.55,49.066667,119.775,49.23333350000001],"type":"Polygon","coordinates":[[[119.55,49.066667],[119.55,49.23333350000001],[119.775,49.23333350000001],[119.775,49.066667],[119.55,49.066667]]]}},{"type":"Feature","properties":{"Id":0,"Sheet_ID":"SHEET 2","label":"SHEET 2","call_short":"G7824 .H135 A1 S25 .J3","call_num":"G7824 .H135 A1 S25 .J3 SHEET 2","recid":"nx416mg4098","websiteUrl":"https://purl.stanford.edu/nx416mg4098","title":"海拉爾附近圖","ckey":9937988,"web_map":"","available":"true","iiifUrl":"https://purl.stanford.edu/nx416mg4098/iiif/manifest"},"geometry":{"bbox":[119.775,49.066667,119.99999999999999,49.23333350000001],"type":"Polygon","coordinates":[[[119.775,49.066667],[119.775,49.23333350000001],[119.99999999999999,49.23333350000001],[119.99999999999999,49.066667],[119.775,49.066667]]]}},{"type":"Feature","properties":{"Id":0,"Sheet_ID":"SHEET 3","label":"SHEET 3","call_short":"G7824 .H135 A1 S25 .J3","call_num":"G7824 .H135 A1 S25 .J3 SHEET 3","recid":"xq323gs3853","websiteUrl":"https://purl.stanford.edu/xq323gs3853","title":"海拉爾附近圖","ckey":9937988,"web_map":"","available":"true","iiifUrl":"https://purl.stanford.edu/xq323gs3853/iiif/manifest"},"geometry":{"bbox":[119.55,49.23333350000001,119.775,49.4],"type":"Polygon","coordinates":[[[119.55,49.23333350000001],[119.55,49.4],[119.775,49.4],[119.775,49.23333350000001],[119.55,49.23333350000001]]]}},{"type":"Feature","properties":{"Id":0,"Sheet_ID":"SHEET 1","label":"SHEET 1","call_short":"G7824 .H135 A1 S25 .J3","call_num":"G7824 .H135 A1 S25 .J3 SHEET 1","recid":"nc103dh1915","websiteUrl":"https://purl.stanford.edu/nc103dh1915","title":"海拉爾附近圖","ckey":9937988,"web_map":"","available":"true","iiifUrl":"https://purl.stanford.edu/nc103dh1915/iiif/manifest"},"geometry":{"bbox":[119.775,49.23333350000001,119.99999999999999,49.4],"type":"Polygon","coordinates":[[[119.775,49.23333350000001],[119.775,49.4],[119.99999999999999,49.4],[119.99999999999999,49.23333350000001],[119.775,49.23333350000001]]]}}],"name":"index_9937988"}
