{
"type": "FeatureCollection",
"name": "index_map",
"xy_coordinate_resolution": 1e-07,
"features": [
{ "type": "Feature", "properties": { "Id": 0, "Sheet_ID": "111. 保定府", "label": "111. 保定府", "call_short": "G7823 .H26 S50 .J3", "call_num": "G7823 .H26 S50 .J3 SHEET 111", "recid": "ym348nh9657", "websiteUrl": "https://purl.stanford.edu/ym348nh9657", "title": "北支那", "ckey": 10164792, "available": true, "iiifUrl": "https://purl.stanford.edu/ym348nh9657/iiif/manifest" }, "geometry": { "type": "Polygon", "coordinates": [ [ [ 115.3, 38.8416663 ], [ 115.5858333, 38.8416663 ], [ 115.5858333, 39.0305552 ], [ 115.3, 39.0305552 ], [ 115.3, 38.8416663 ] ] ] } },
{ "type": "Feature", "properties": { "Id": 0, "Sheet_ID": "103. 安肅縣", "label": "103. 安肅縣", "call_short": "G7823 .H26 S50 .J3", "call_num": "G7823 .H26 S50 .J3 SHEET 103", "recid": "pq398st3142", "websiteUrl": "https://purl.stanford.edu/pq398st3142", "title": "北支那", "ckey": 10164792, "available": true, "iiifUrl": "https://purl.stanford.edu/pq398st3142/iiif/manifest" }, "geometry": { "type": "Polygon", "coordinates": [ [ [ 115.5858333, 38.8416663 ], [ 115.8716666, 38.8416663 ], [ 115.8716666, 39.0305552 ], [ 115.5858333, 39.0305552 ], [ 115.5858333, 38.8416663 ] ] ] } },
{ "type": "Feature", "properties": { "Id": 0, "Sheet_ID": "95. 雄縣", "label": "95. 雄縣", "call_short": "G7823 .H26 S50 .J3", "call_num": "G7823 .H26 S50 .J3 SHEET 95", "recid": "tn641fq8453", "websiteUrl": "https://purl.stanford.edu/tn641fq8453", "title": "北支那", "ckey": 10164792, "available": true, "iiifUrl": "https://purl.stanford.edu/tn641fq8453/iiif/manifest" }, "geometry": { "type": "Polygon", "coordinates": [ [ [ 115.8716666, 38.8416663 ], [ 116.1574999, 38.8416663 ], [ 116.1574999, 39.0305552 ], [ 115.8716666, 39.0305552 ], [ 115.8716666, 38.8416663 ] ] ] } },
{ "type": "Feature", "properties": { "Id": 0, "Sheet_ID": "86. 保定縣", "label": "86. 保定縣", "call_short": "G7823 .H26 S50 .J3", "call_num": "G7823 .H26 S50 .J3 SHEET 86", "recid": "pt080fq9015", "websiteUrl": "https://purl.stanford.edu/pt080fq9015", "title": "北支那", "ckey": 10164792, "available": true, "iiifUrl": "https://purl.stanford.edu/pt080fq9015/iiif/manifest" }, "geometry": { "type": "Polygon", "coordinates": [ [ [ 116.1574999, 38.8416663 ], [ 116.4433332, 38.8416663 ], [ 116.4433332, 39.0305552 ], [ 116.1574999, 39.0305552 ], [ 116.1574999, 38.8416663 ] ] ] } },
{ "type": "Feature", "properties": { "Id": 0, "Sheet_ID": "144. 蘇橋鎮", "label": "144. 蘇橋鎮", "call_short": "G7823 .H26 S50 .J3", "call_num": "G7823 .H26 S50 .J3 SHEET 144", "recid": "sc332bs0201", "websiteUrl": "https://purl.stanford.edu/sc332bs0201", "title": "北支那", "ckey": 10164792, "available": true, "iiifUrl": "https://purl.stanford.edu/sc332bs0201/iiif/manifest" }, "geometry": { "type": "Polygon", "coordinates": [ [ [ 116.4433332, 38.8416663 ], [ 116.7291666, 38.8416663 ], [ 116.7291666, 39.0305552 ], [ 116.4433332, 39.0305552 ], [ 116.4433332, 38.8416663 ] ] ] } },
{ "type": "Feature", "properties": { "Id": 0, "Sheet_ID": "136. 靜海縣", "label": "136. 靜海縣", "call_short": "G7823 .H26 S50 .J3", "call_num": "G7823 .H26 S50 .J3 SHEET 136", "recid": "mg901yj7287", "websiteUrl": "https://purl.stanford.edu/mg901yj7287", "title": "北支那", "ckey": 10164792, "available": true, "iiifUrl": "https://purl.stanford.edu/mg901yj7287/iiif/manifest" }, "geometry": { "type": "Polygon", "coordinates": [ [ [ 116.7291666, 38.8416663 ], [ 117.0149999, 38.8416663 ], [ 117.0149999, 39.0305552 ], [ 116.7291666, 39.0305552 ], [ 116.7291666, 38.8416663 ] ] ] } },
{ "type": "Feature", "properties": { "Id": 0, "Sheet_ID": "130. 良王莊", "label": "130. 良王莊", "call_short": "G7823 .H26 S50 .J3", "call_num": "G7823 .H26 S50 .J3 SHEET 130", "recid": "cb287yk4737", "websiteUrl": "https://purl.stanford.edu/cb287yk4737", "title": "北支那", "ckey": 10164792, "available": true, "iiifUrl": "https://purl.stanford.edu/cb287yk4737/iiif/manifest" }, "geometry": { "type": "Polygon", "coordinates": [ [ [ 117.0149999, 38.8416663 ], [ 117.3008332, 38.8416663 ], [ 117.3008332, 39.0305552 ], [ 117.0149999, 39.0305552 ], [ 117.0149999, 38.8416663 ] ] ] } },
{ "type": "Feature", "properties": { "Id": 0, "Sheet_ID": "127. 鹹水沽", "label": "127. 鹹水沽", "call_short": "G7823 .H26 S50 .J3", "call_num": "G7823 .H26 S50 .J3 SHEET 127", "recid": "vr592nm7882", "websiteUrl": "https://purl.stanford.edu/vr592nm7882", "title": "北支那", "ckey": 10164792, "available": true, "iiifUrl": "https://purl.stanford.edu/vr592nm7882/iiif/manifest" }, "geometry": { "type": "Polygon", "coordinates": [ [ [ 117.3008332, 38.8416663 ], [ 117.5866665, 38.8416663 ], [ 117.5866665, 39.0305552 ], [ 117.3008332, 39.0305552 ], [ 117.3008332, 38.8416663 ] ] ] } },
{ "type": "Feature", "properties": { "Id": 0, "Sheet_ID": "124. 大沽", "label": "124. 大沽", "call_short": "G7823 .H26 S50 .J3", "call_num": "G7823 .H26 S50 .J3 SHEET 124", "recid": "cr062gj2538", "websiteUrl": "https://purl.stanford.edu/cr062gj2538", "title": "北支那", "ckey": 10164792, "available": true, "iiifUrl": "https://purl.stanford.edu/cr062gj2538/iiif/manifest" }, "geometry": { "type": "Polygon", "coordinates": [ [ [ 117.5866665, 38.8416663 ], [ 117.8724998, 38.8416663 ], [ 117.8724998, 39.0305552 ], [ 117.5866665, 39.0305552 ], [ 117.5866665, 38.8416663 ] ] ] } },
{ "type": "Feature", "properties": { "Id": 0, "Sheet_ID": "[遂城]", "label": "[遂城]", "call_short": "0", "call_num": "0", "recid": "0", "websiteUrl": "0", "title": "0", "ckey": 0, "available": false, "iiifUrl": "0" }, "geometry": { "type": "Polygon", "coordinates": [ [ [ 115.3, 39.0305552 ], [ 115.5858333, 39.0305552 ], [ 115.5858333, 39.2194441 ], [ 115.3, 39.2194441 ], [ 115.3, 39.0305552 ] ] ] } },
{ "type": "Feature", "properties": { "Id": 0, "Sheet_ID": "102. 容城縣", "label": "102. 容城縣", "call_short": "G7823 .H26 S50 .J3", "call_num": "G7823 .H26 S50 .J3 SHEET 102", "recid": "by611dc0898", "websiteUrl": "https://purl.stanford.edu/by611dc0898", "title": "北支那", "ckey": 10164792, "available": true, "iiifUrl": "https://purl.stanford.edu/by611dc0898/iiif/manifest" }, "geometry": { "type": "Polygon", "coordinates": [ [ [ 115.5858333, 39.0305552 ], [ 115.8716666, 39.0305552 ], [ 115.8716666, 39.2194441 ], [ 115.5858333, 39.2194441 ], [ 115.5858333, 39.0305552 ] ] ] } },
{ "type": "Feature", "properties": { "Id": 0, "Sheet_ID": "94. 白溝河鎮", "label": "94. 白溝河鎮", "call_short": "G7823 .H26 S50 .J3", "call_num": "G7823 .H26 S50 .J3 SHEET 94", "recid": "zf449xw6390", "websiteUrl": "https://purl.stanford.edu/zf449xw6390", "title": "北支那", "ckey": 10164792, "available": true, "iiifUrl": "https://purl.stanford.edu/zf449xw6390/iiif/manifest" }, "geometry": { "type": "Polygon", "coordinates": [ [ [ 115.8716666, 39.0305552 ], [ 116.1574999, 39.0305552 ], [ 116.1574999, 39.2194441 ], [ 115.8716666, 39.2194441 ], [ 115.8716666, 39.0305552 ] ] ] } },
{ "type": "Feature", "properties": { "Id": 0, "Sheet_ID": "85. 霸州", "label": "85. 霸州", "call_short": "G7823 .H26 S50 .J3", "call_num": "G7823 .H26 S50 .J3 SHEET 85", "recid": "dr459mv0337", "websiteUrl": "https://purl.stanford.edu/dr459mv0337", "title": "北支那", "ckey": 10164792, "available": true, "iiifUrl": "https://purl.stanford.edu/dr459mv0337/iiif/manifest" }, "geometry": { "type": "Polygon", "coordinates": [ [ [ 116.1574999, 39.0305552 ], [ 116.4433332, 39.0305552 ], [ 116.4433332, 39.2194441 ], [ 116.1574999, 39.2194441 ], [ 116.1574999, 39.0305552 ] ] ] } },
{ "type": "Feature", "properties": { "Id": 0, "Sheet_ID": "143. 信安鎮", "label": "143. 信安鎮", "call_short": "G7823 .H26 S50 .J3", "call_num": "G7823 .H26 S50 .J3 SHEET 143", "recid": "gg251cm7641", "websiteUrl": "https://purl.stanford.edu/gg251cm7641", "title": "北支那", "ckey": 10164792, "available": true, "iiifUrl": "https://purl.stanford.edu/gg251cm7641/iiif/manifest" }, "geometry": { "type": "Polygon", "coordinates": [ [ [ 116.4433332, 39.0305552 ], [ 116.7291666, 39.0305552 ], [ 116.7291666, 39.2194441 ], [ 116.4433332, 39.2194441 ], [ 116.4433332, 39.0305552 ] ] ] } },
{ "type": "Feature", "properties": { "Id": 0, "Sheet_ID": "135. 勝芳鎮", "label": "135. 勝芳鎮", "call_short": "G7823 .H26 S50 .J3", "call_num": "G7823 .H26 S50 .J3 SHEET 135", "recid": "qh541vd7986", "websiteUrl": "https://purl.stanford.edu/qh541vd7986", "title": "北支那", "ckey": 10164792, "available": true, "iiifUrl": "https://purl.stanford.edu/qh541vd7986/iiif/manifest" }, "geometry": { "type": "Polygon", "coordinates": [ [ [ 116.7291666, 39.0305552 ], [ 117.0149999, 39.0305552 ], [ 117.0149999, 39.2194441 ], [ 116.7291666, 39.2194441 ], [ 116.7291666, 39.0305552 ] ] ] } },
{ "type": "Feature", "properties": { "Id": 0, "Sheet_ID": "68. 天津", "label": "68. 天津", "call_short": "G7823 .H26 S50 .J3", "call_num": "G7823 .H26 S50 .J3 SHEET 68", "recid": "rs031fr1394", "websiteUrl": "https://purl.stanford.edu/rs031fr1394", "title": "北支那", "ckey": 10164792, "available": true, "iiifUrl": "https://purl.stanford.edu/rs031fr1394/iiif/manifest" }, "geometry": { "type": "Polygon", "coordinates": [ [ [ 117.0149999, 39.0305552 ], [ 117.3008332, 39.0305552 ], [ 117.3008332, 39.2194441 ], [ 117.0149999, 39.2194441 ], [ 117.0149999, 39.0305552 ] ] ] } },
{ "type": "Feature", "properties": { "Id": 0, "Sheet_ID": "60. 范家庄", "label": "60. 范家庄", "call_short": "G7823 .H26 S50 .J3", "call_num": "G7823 .H26 S50 .J3 SHEET 60", "recid": "dh241qk7753", "websiteUrl": "https://purl.stanford.edu/dh241qk7753", "title": "北支那", "ckey": 10164792, "available": true, "iiifUrl": "https://purl.stanford.edu/dh241qk7753/iiif/manifest" }, "geometry": { "type": "Polygon", "coordinates": [ [ [ 117.3008332, 39.0305552 ], [ 117.5866665, 39.0305552 ], [ 117.5866665, 39.2194441 ], [ 117.3008332, 39.2194441 ], [ 117.3008332, 39.0305552 ] ] ] } },
{ "type": "Feature", "properties": { "Id": 0, "Sheet_ID": "52. 北塘", "label": "52. 北塘", "call_short": "G7823 .H26 S50 .J3", "call_num": "G7823 .H26 S50 .J3 SHEET 52", "recid": "qc212xt5353", "websiteUrl": "https://purl.stanford.edu/qc212xt5353", "title": "北支那", "ckey": 10164792, "available": true, "iiifUrl": "https://purl.stanford.edu/qc212xt5353/iiif/manifest" }, "geometry": { "type": "Polygon", "coordinates": [ [ [ 117.5866665, 39.0305552 ], [ 117.8724998, 39.0305552 ], [ 117.8724998, 39.2194441 ], [ 117.5866665, 39.2194441 ], [ 117.5866665, 39.0305552 ] ] ] } },
{ "type": "Feature", "properties": { "Id": 0, "Sheet_ID": "44. 大神堂", "label": "44. 大神堂", "call_short": "G7823 .H26 S50 .J3", "call_num": "G7823 .H26 S50 .J3 SHEET 44", "recid": "xj745ds9342", "websiteUrl": "https://purl.stanford.edu/xj745ds9342", "title": "北支那", "ckey": 10164792, "available": true, "iiifUrl": "https://purl.stanford.edu/xj745ds9342/iiif/manifest" }, "geometry": { "type": "Polygon", "coordinates": [ [ [ 117.8724998, 39.0305552 ], [ 118.1583331, 39.0305552 ], [ 118.1583331, 39.2194441 ], [ 117.8724998, 39.2194441 ], [ 117.8724998, 39.0305552 ] ] ] } },
{ "type": "Feature", "properties": { "Id": 0, "Sheet_ID": "37. 黒沿河", "label": "37. 黒沿河", "call_short": "G7823 .H26 S50 .J3", "call_num": "G7823 .H26 S50 .J3 SHEET 37", "recid": "sv567cp8374", "websiteUrl": "https://purl.stanford.edu/sv567cp8374", "title": "北支那", "ckey": 10164792, "available": true, "iiifUrl": "https://purl.stanford.edu/sv567cp8374/iiif/manifest" }, "geometry": { "type": "Polygon", "coordinates": [ [ [ 118.1583331, 39.0305552 ], [ 118.4441664, 39.0305552 ], [ 118.4441664, 39.2194441 ], [ 118.1583331, 39.2194441 ], [ 118.1583331, 39.0305552 ] ] ] } },
{ "type": "Feature", "properties": { "Id": 0, "Sheet_ID": "30. 斗坨", "label": "30. 斗坨", "call_short": "G7823 .H26 S50 .J3", "call_num": "G7823 .H26 S50 .J3 SHEET 30", "recid": "qs923gp2290", "websiteUrl": "https://purl.stanford.edu/qs923gp2290", "title": "北支那", "ckey": 10164792, "available": true, "iiifUrl": "https://purl.stanford.edu/qs923gp2290/iiif/manifest" }, "geometry": { "type": "Polygon", "coordinates": [ [ [ 118.4441664, 39.0305552 ], [ 118.7299998, 39.0305552 ], [ 118.7299998, 39.2194441 ], [ 118.4441664, 39.2194441 ], [ 118.4441664, 39.0305552 ] ] ] } },
{ "type": "Feature", "properties": { "Id": 0, "Sheet_ID": "23. 石臼陀", "label": "23. 石臼陀", "call_short": "G7823 .H26 S50 .J3", "call_num": "G7823 .H26 S50 .J3 SHEET 23", "recid": "jx618zp8206", "websiteUrl": "https://purl.stanford.edu/jx618zp8206", "title": "北支那", "ckey": 10164792, "available": true, "iiifUrl": "https://purl.stanford.edu/jx618zp8206/iiif/manifest" }, "geometry": { "type": "Polygon", "coordinates": [ [ [ 118.7299998, 39.0305552 ], [ 119.0158331, 39.0305552 ], [ 119.0158331, 39.2194441 ], [ 118.7299998, 39.2194441 ], [ 118.7299998, 39.0305552 ] ] ] } },
{ "type": "Feature", "properties": { "Id": 0, "Sheet_ID": "16. 大庙庄濱", "label": "16. 大庙庄濱", "call_short": "G7823 .H26 S50 .J3", "call_num": "G7823 .H26 S50 .J3 SHEET 16", "recid": "sh216zq1267", "websiteUrl": "https://purl.stanford.edu/sh216zq1267", "title": "北支那", "ckey": 10164792, "available": true, "iiifUrl": "https://purl.stanford.edu/sh216zq1267/iiif/manifest" }, "geometry": { "type": "Polygon", "coordinates": [ [ [ 119.0158331, 39.0305552 ], [ 119.3016664, 39.0305552 ], [ 119.3016664, 39.2194441 ], [ 119.0158331, 39.2194441 ], [ 119.0158331, 39.0305552 ] ] ] } },
{ "type": "Feature", "properties": { "Id": 0, "Sheet_ID": "[易州城]", "label": "[易州城]", "call_short": "0", "call_num": "0", "recid": "0", "websiteUrl": "0", "title": "0", "ckey": 0, "available": false, "iiifUrl": "0" }, "geometry": { "type": "Polygon", "coordinates": [ [ [ 115.3, 39.2194441 ], [ 115.5858333, 39.2194441 ], [ 115.5858333, 39.408333 ], [ 115.3, 39.408333 ], [ 115.3, 39.2194441 ] ] ] } },
{ "type": "Feature", "properties": { "Id": 0, "Sheet_ID": "101. 定興縣", "label": "101. 定興縣", "call_short": "G7823 .H26 S50 .J3", "call_num": "G7823 .H26 S50 .J3 SHEET 101", "recid": "xr146nz5874", "websiteUrl": "https://purl.stanford.edu/xr146nz5874", "title": "北支那", "ckey": 10164792, "available": true, "iiifUrl": "https://purl.stanford.edu/xr146nz5874/iiif/manifest" }, "geometry": { "type": "Polygon", "coordinates": [ [ [ 115.5858333, 39.2194441 ], [ 115.8716666, 39.2194441 ], [ 115.8716666, 39.408333 ], [ 115.5858333, 39.408333 ], [ 115.5858333, 39.2194441 ] ] ] } },
{ "type": "Feature", "properties": { "Id": 0, "Sheet_ID": "93. 新城", "label": "93. 新城", "call_short": "G7823 .H26 S50 .J3", "call_num": "G7823 .H26 S50 .J3 SHEET 93", "recid": "rc479kt0514", "websiteUrl": "https://purl.stanford.edu/rc479kt0514", "title": "北支那", "ckey": 10164792, "available": true, "iiifUrl": "https://purl.stanford.edu/rc479kt0514/iiif/manifest" }, "geometry": { "type": "Polygon", "coordinates": [ [ [ 115.8716666, 39.2194441 ], [ 116.1574999, 39.2194441 ], [ 116.1574999, 39.408333 ], [ 115.8716666, 39.408333 ], [ 115.8716666, 39.2194441 ] ] ] } },
{ "type": "Feature", "properties": { "Id": 0, "Sheet_ID": "84. 牛頭鎮", "label": "84. 牛頭鎮", "call_short": "G7823 .H26 S50 .J3", "call_num": "G7823 .H26 S50 .J3 SHEET 84", "recid": "yx560ky5589", "websiteUrl": "https://purl.stanford.edu/yx560ky5589", "title": "北支那", "ckey": 10164792, "available": true, "iiifUrl": "https://purl.stanford.edu/yx560ky5589/iiif/manifest" }, "geometry": { "type": "Polygon", "coordinates": [ [ [ 116.1574999, 39.2194441 ], [ 116.4433332, 39.2194441 ], [ 116.4433332, 39.408333 ], [ 116.1574999, 39.408333 ], [ 116.1574999, 39.2194441 ] ] ] } },
{ "type": "Feature", "properties": { "Id": 0, "Sheet_ID": "142. 永清縣", "label": "142. 永清縣", "call_short": "G7823 .H26 S50 .J3", "call_num": "G7823 .H26 S50 .J3 SHEET 142", "recid": "kz861cp2608", "websiteUrl": "https://purl.stanford.edu/kz861cp2608", "title": "北支那", "ckey": 10164792, "available": true, "iiifUrl": "https://purl.stanford.edu/kz861cp2608/iiif/manifest" }, "geometry": { "type": "Polygon", "coordinates": [ [ [ 116.4433332, 39.2194441 ], [ 116.7291666, 39.2194441 ], [ 116.7291666, 39.408333 ], [ 116.4433332, 39.408333 ], [ 116.4433332, 39.2194441 ] ] ] } },
{ "type": "Feature", "properties": { "Id": 0, "Sheet_ID": "134. 南香口", "label": "134. 南香口", "call_short": "G7823 .H26 S50 .J3", "call_num": "G7823 .H26 S50 .J3 SHEET 134", "recid": "pp140hp0370", "websiteUrl": "https://purl.stanford.edu/pp140hp0370", "title": "北支那", "ckey": 10164792, "available": true, "iiifUrl": "https://purl.stanford.edu/pp140hp0370/iiif/manifest" }, "geometry": { "type": "Polygon", "coordinates": [ [ [ 116.7291666, 39.2194441 ], [ 117.0149999, 39.2194441 ], [ 117.0149999, 39.408333 ], [ 116.7291666, 39.408333 ], [ 116.7291666, 39.2194441 ] ] ] } },
{ "type": "Feature", "properties": { "Id": 0, "Sheet_ID": "67. 楊村", "label": "67. 楊村", "call_short": "G7823 .H26 S50 .J3", "call_num": "G7823 .H26 S50 .J3 SHEET 67", "recid": "mb412wj3065", "websiteUrl": "https://purl.stanford.edu/mb412wj3065", "title": "北支那", "ckey": 10164792, "available": true, "iiifUrl": "https://purl.stanford.edu/mb412wj3065/iiif/manifest" }, "geometry": { "type": "Polygon", "coordinates": [ [ [ 117.0149999, 39.2194441 ], [ 117.3008332, 39.2194441 ], [ 117.3008332, 39.408333 ], [ 117.0149999, 39.408333 ], [ 117.0149999, 39.2194441 ] ] ] } },
{ "type": "Feature", "properties": { "Id": 0, "Sheet_ID": "59. 潘庄", "label": "59. 潘庄", "call_short": "G7823 .H26 S50 .J3", "call_num": "G7823 .H26 S50 .J3 SHEET 59", "recid": "gd511nz3888", "websiteUrl": "https://purl.stanford.edu/gd511nz3888", "title": "北支那", "ckey": 10164792, "available": true, "iiifUrl": "https://purl.stanford.edu/gd511nz3888/iiif/manifest" }, "geometry": { "type": "Polygon", "coordinates": [ [ [ 117.3008332, 39.2194441 ], [ 117.5866665, 39.2194441 ], [ 117.5866665, 39.408333 ], [ 117.3008332, 39.408333 ], [ 117.3008332, 39.2194441 ] ] ] } },
{ "type": "Feature", "properties": { "Id": 0, "Sheet_ID": "51. 蘆臺", "label": "51. 蘆臺", "call_short": "G7823 .H26 S50 .J3", "call_num": "G7823 .H26 S50 .J3 SHEET 51", "recid": "bt593nz2333", "websiteUrl": "https://purl.stanford.edu/bt593nz2333", "title": "北支那", "ckey": 10164792, "available": true, "iiifUrl": "https://purl.stanford.edu/bt593nz2333/iiif/manifest" }, "geometry": { "type": "Polygon", "coordinates": [ [ [ 117.5866665, 39.2194441 ], [ 117.8724998, 39.2194441 ], [ 117.8724998, 39.408333 ], [ 117.5866665, 39.408333 ], [ 117.5866665, 39.2194441 ] ] ] } },
{ "type": "Feature", "properties": { "Id": 0, "Sheet_ID": "43. 斗沽庄", "label": "43. 斗沽庄", "call_short": "G7823 .H26 S50 .J3", "call_num": "G7823 .H26 S50 .J3 SHEET 43", "recid": "rk064qp3330", "websiteUrl": "https://purl.stanford.edu/rk064qp3330", "title": "北支那", "ckey": 10164792, "available": true, "iiifUrl": "https://purl.stanford.edu/rk064qp3330/iiif/manifest" }, "geometry": { "type": "Polygon", "coordinates": [ [ [ 117.8724998, 39.2194441 ], [ 118.1583331, 39.2194441 ], [ 118.1583331, 39.408333 ], [ 117.8724998, 39.408333 ], [ 117.8724998, 39.2194441 ] ] ] } },
{ "type": "Feature", "properties": { "Id": 0, "Sheet_ID": "36. 曾集灣", "label": "36. 曾集灣", "call_short": "G7823 .H26 S50 .J3", "call_num": "G7823 .H26 S50 .J3 SHEET 36", "recid": "zr637xm8504", "websiteUrl": "https://purl.stanford.edu/zr637xm8504", "title": "北支那", "ckey": 10164792, "available": true, "iiifUrl": "https://purl.stanford.edu/zr637xm8504/iiif/manifest" }, "geometry": { "type": "Polygon", "coordinates": [ [ [ 118.1583331, 39.2194441 ], [ 118.4441664, 39.2194441 ], [ 118.4441664, 39.408333 ], [ 118.1583331, 39.408333 ], [ 118.1583331, 39.2194441 ] ] ] } },
{ "type": "Feature", "properties": { "Id": 0, "Sheet_ID": "29. 栢各庄", "label": "29. 栢各庄", "call_short": "G7823 .H26 S50 .J3", "call_num": "G7823 .H26 S50 .J3 SHEET 29", "recid": "yx281vd3695", "websiteUrl": "https://purl.stanford.edu/yx281vd3695", "title": "北支那", "ckey": 10164792, "available": true, "iiifUrl": "https://purl.stanford.edu/yx281vd3695/iiif/manifest" }, "geometry": { "type": "Polygon", "coordinates": [ [ [ 118.4441664, 39.2194441 ], [ 118.7299998, 39.2194441 ], [ 118.7299998, 39.408333 ], [ 118.4441664, 39.408333 ], [ 118.4441664, 39.2194441 ] ] ] } },
{ "type": "Feature", "properties": { "Id": 0, "Sheet_ID": "22. 馬頭營", "label": "22. 馬頭營", "call_short": "G7823 .H26 S50 .J3", "call_num": "G7823 .H26 S50 .J3 SHEET 22", "recid": "nv697jz5627", "websiteUrl": "https://purl.stanford.edu/nv697jz5627", "title": "北支那", "ckey": 10164792, "available": true, "iiifUrl": "https://purl.stanford.edu/nv697jz5627/iiif/manifest" }, "geometry": { "type": "Polygon", "coordinates": [ [ [ 118.7299998, 39.2194441 ], [ 119.0158331, 39.2194441 ], [ 119.0158331, 39.408333 ], [ 118.7299998, 39.408333 ], [ 118.7299998, 39.2194441 ] ] ] } },
{ "type": "Feature", "properties": { "Id": 0, "Sheet_ID": "15. 湯家河", "label": "15. 湯家河", "call_short": "G7823 .H26 S50 .J3", "call_num": "G7823 .H26 S50 .J3 SHEET 15", "recid": "pm555hj3673", "websiteUrl": "https://purl.stanford.edu/pm555hj3673", "title": "北支那", "ckey": 10164792, "available": true, "iiifUrl": "https://purl.stanford.edu/pm555hj3673/iiif/manifest" }, "geometry": { "type": "Polygon", "coordinates": [ [ [ 119.0158331, 39.2194441 ], [ 119.3016664, 39.2194441 ], [ 119.3016664, 39.408333 ], [ 119.0158331, 39.408333 ], [ 119.0158331, 39.2194441 ] ] ] } },
{ "type": "Feature", "properties": { "Id": 0, "Sheet_ID": "[三城]", "label": "[三城]", "call_short": "0", "call_num": "0", "recid": "0", "websiteUrl": "0", "title": "0", "ckey": 0, "available": false, "iiifUrl": "0" }, "geometry": { "type": "Polygon", "coordinates": [ [ [ 115.5858333, 39.408333 ], [ 115.8716666, 39.408333 ], [ 115.8716666, 39.5972219 ], [ 115.5858333, 39.5972219 ], [ 115.5858333, 39.408333 ] ] ] } },
{ "type": "Feature", "properties": { "Id": 0, "Sheet_ID": "92. 涿州", "label": "92. 涿州", "call_short": "G7823 .H26 S50 .J3", "call_num": "G7823 .H26 S50 .J3 SHEET 92", "recid": "sn445xs7324", "websiteUrl": "https://purl.stanford.edu/sn445xs7324", "title": "北支那", "ckey": 10164792, "available": true, "iiifUrl": "https://purl.stanford.edu/sn445xs7324/iiif/manifest" }, "geometry": { "type": "Polygon", "coordinates": [ [ [ 115.8716666, 39.408333 ], [ 116.1574999, 39.408333 ], [ 116.1574999, 39.5972219 ], [ 115.8716666, 39.5972219 ], [ 115.8716666, 39.408333 ] ] ] } },
{ "type": "Feature", "properties": { "Id": 0, "Sheet_ID": "83. 楡垡", "label": "83. 楡垡", "call_short": "G7823 .H26 S50 .J3", "call_num": "G7823 .H26 S50 .J3 SHEET 83", "recid": "wd641gy0726", "websiteUrl": "https://purl.stanford.edu/wd641gy0726", "title": "北支那", "ckey": 10164792, "available": true, "iiifUrl": "https://purl.stanford.edu/wd641gy0726/iiif/manifest" }, "geometry": { "type": "Polygon", "coordinates": [ [ [ 116.1574999, 39.408333 ], [ 116.4433332, 39.408333 ], [ 116.4433332, 39.5972219 ], [ 116.1574999, 39.5972219 ], [ 116.1574999, 39.408333 ] ] ] } },
{ "type": "Feature", "properties": { "Id": 0, "Sheet_ID": "141. 鳳河營", "label": "141. 鳳河營", "call_short": "G7823 .H26 S50 .J3", "call_num": "G7823 .H26 S50 .J3 SHEET 141", "recid": "jt720vb5331", "websiteUrl": "https://purl.stanford.edu/jt720vb5331", "title": "北支那", "ckey": 10164792, "available": true, "iiifUrl": "https://purl.stanford.edu/jt720vb5331/iiif/manifest" }, "geometry": { "type": "Polygon", "coordinates": [ [ [ 116.4433332, 39.408333 ], [ 116.7291666, 39.408333 ], [ 116.7291666, 39.5972219 ], [ 116.4433332, 39.5972219 ], [ 116.4433332, 39.408333 ] ] ] } },
{ "type": "Feature", "properties": { "Id": 0, "Sheet_ID": "133. 武清縣", "label": "133. 武清縣", "call_short": "G7823 .H26 S50 .J3", "call_num": "G7823 .H26 S50 .J3 SHEET 133", "recid": "jd628nw5229", "websiteUrl": "https://purl.stanford.edu/jd628nw5229", "title": "北支那", "ckey": 10164792, "available": true, "iiifUrl": "https://purl.stanford.edu/jd628nw5229/iiif/manifest" }, "geometry": { "type": "Polygon", "coordinates": [ [ [ 116.7291666, 39.408333 ], [ 117.0149999, 39.408333 ], [ 117.0149999, 39.5972219 ], [ 116.7291666, 39.5972219 ], [ 116.7291666, 39.408333 ] ] ] } },
{ "type": "Feature", "properties": { "Id": 0, "Sheet_ID": "66. 崔黄口鎭", "label": "66. 崔黄口鎭", "call_short": "G7823 .H26 S50 .J3", "call_num": "G7823 .H26 S50 .J3 SHEET 66", "recid": "gp494dp5923", "websiteUrl": "https://purl.stanford.edu/gp494dp5923", "title": "北支那", "ckey": 10164792, "available": true, "iiifUrl": "https://purl.stanford.edu/gp494dp5923/iiif/manifest" }, "geometry": { "type": "Polygon", "coordinates": [ [ [ 117.0149999, 39.408333 ], [ 117.3008332, 39.408333 ], [ 117.3008332, 39.5972219 ], [ 117.0149999, 39.5972219 ], [ 117.0149999, 39.408333 ] ] ] } },
{ "type": "Feature", "properties": { "Id": 0, "Sheet_ID": "58. 黄庄鎭", "label": "58. 黄庄鎭", "call_short": "G7823 .H26 S50 .J3", "call_num": "G7823 .H26 S50 .J3 SHEET 58", "recid": "gz442bd4526", "websiteUrl": "https://purl.stanford.edu/gz442bd4526", "title": "北支那", "ckey": 10164792, "available": true, "iiifUrl": "https://purl.stanford.edu/gz442bd4526/iiif/manifest" }, "geometry": { "type": "Polygon", "coordinates": [ [ [ 117.3008332, 39.408333 ], [ 117.5866665, 39.408333 ], [ 117.5866665, 39.5972219 ], [ 117.3008332, 39.5972219 ], [ 117.3008332, 39.408333 ] ] ] } },
{ "type": "Feature", "properties": { "Id": 0, "Sheet_ID": "50. 豐臺", "label": "50. 豐臺", "call_short": "G7823 .H26 S50 .J3", "call_num": "G7823 .H26 S50 .J3 SHEET 50", "recid": "mt024mq1821", "websiteUrl": "https://purl.stanford.edu/mt024mq1821", "title": "北支那", "ckey": 10164792, "available": true, "iiifUrl": "https://purl.stanford.edu/mt024mq1821/iiif/manifest" }, "geometry": { "type": "Polygon", "coordinates": [ [ [ 117.5866665, 39.408333 ], [ 117.8724998, 39.408333 ], [ 117.8724998, 39.5972219 ], [ 117.5866665, 39.5972219 ], [ 117.5866665, 39.408333 ] ] ] } },
{ "type": "Feature", "properties": { "Id": 0, "Sheet_ID": "42. 胥各庄", "label": "42. 胥各庄", "call_short": "G7823 .H26 S50 .J3", "call_num": "G7823 .H26 S50 .J3 SHEET 42", "recid": "mg108hs8671", "websiteUrl": "https://purl.stanford.edu/mg108hs8671", "title": "北支那", "ckey": 10164792, "available": true, "iiifUrl": "https://purl.stanford.edu/mg108hs8671/iiif/manifest" }, "geometry": { "type": "Polygon", "coordinates": [ [ [ 117.8724998, 39.408333 ], [ 118.1583331, 39.408333 ], [ 118.1583331, 39.5972219 ], [ 117.8724998, 39.5972219 ], [ 117.8724998, 39.408333 ] ] ] } },
{ "type": "Feature", "properties": { "Id": 0, "Sheet_ID": "35. 稻地鎭", "label": "35. 稻地鎭", "call_short": "G7823 .H26 S50 .J3", "call_num": "G7823 .H26 S50 .J3 SHEET 35", "recid": "nf974bg8720", "websiteUrl": "https://purl.stanford.edu/nf974bg8720", "title": "北支那", "ckey": 10164792, "available": true, "iiifUrl": "https://purl.stanford.edu/nf974bg8720/iiif/manifest" }, "geometry": { "type": "Polygon", "coordinates": [ [ [ 118.1583331, 39.408333 ], [ 118.4441664, 39.408333 ], [ 118.4441664, 39.5972219 ], [ 118.1583331, 39.5972219 ], [ 118.1583331, 39.408333 ] ] ] } },
{ "type": "Feature", "properties": { "Id": 0, "Sheet_ID": "28. 司集鎭", "label": "28. 司集鎭", "call_short": "G7823 .H26 S50 .J3", "call_num": "G7823 .H26 S50 .J3 SHEET 28", "recid": "nh140rm1393", "websiteUrl": "https://purl.stanford.edu/nh140rm1393", "title": "北支那", "ckey": 10164792, "available": true, "iiifUrl": "https://purl.stanford.edu/nh140rm1393/iiif/manifest" }, "geometry": { "type": "Polygon", "coordinates": [ [ [ 118.4441664, 39.408333 ], [ 118.7299998, 39.408333 ], [ 118.7299998, 39.5972219 ], [ 118.4441664, 39.5972219 ], [ 118.4441664, 39.408333 ] ] ] } },
{ "type": "Feature", "properties": { "Id": 0, "Sheet_ID": "21. 樂亭", "label": "21. 樂亭", "call_short": "G7823 .H26 S50 .J3", "call_num": "G7823 .H26 S50 .J3 SHEET 21", "recid": "jy981wm8780", "websiteUrl": "https://purl.stanford.edu/jy981wm8780", "title": "北支那", "ckey": 10164792, "available": true, "iiifUrl": "https://purl.stanford.edu/jy981wm8780/iiif/manifest" }, "geometry": { "type": "Polygon", "coordinates": [ [ [ 118.7299998, 39.408333 ], [ 119.0158331, 39.408333 ], [ 119.0158331, 39.5972219 ], [ 118.7299998, 39.5972219 ], [ 118.7299998, 39.408333 ] ] ] } },
{ "type": "Feature", "properties": { "Id": 0, "Sheet_ID": "14. 姜各庄", "label": "14. 姜各庄", "call_short": "G7823 .H26 S50 .J3", "call_num": "G7823 .H26 S50 .J3 SHEET 14", "recid": "qs338kk2435", "websiteUrl": "https://purl.stanford.edu/qs338kk2435", "title": "北支那", "ckey": 10164792, "available": true, "iiifUrl": "https://purl.stanford.edu/qs338kk2435/iiif/manifest" }, "geometry": { "type": "Polygon", "coordinates": [ [ [ 119.0158331, 39.408333 ], [ 119.3016664, 39.408333 ], [ 119.3016664, 39.5972219 ], [ 119.0158331, 39.5972219 ], [ 119.0158331, 39.408333 ] ] ] } },
{ "type": "Feature", "properties": { "Id": 0, "Sheet_ID": "91. 良郷", "label": "91. 良郷", "call_short": "G7823 .H26 S50 .J3", "call_num": "G7823 .H26 S50 .J3 SHEET 91", "recid": "gc968bg4614", "websiteUrl": "https://purl.stanford.edu/gc968bg4614", "title": "北支那", "ckey": 10164792, "available": true, "iiifUrl": "https://purl.stanford.edu/gc968bg4614/iiif/manifest" }, "geometry": { "type": "Polygon", "coordinates": [ [ [ 115.8716666, 39.5972219 ], [ 116.1574999, 39.5972219 ], [ 116.1574999, 39.7861108 ], [ 115.8716666, 39.7861108 ], [ 115.8716666, 39.5972219 ] ] ] } },
{ "type": "Feature", "properties": { "Id": 0, "Sheet_ID": "82. 黄村", "label": "82. 黄村", "call_short": "G7823 .H26 S50 .J3", "call_num": "G7823 .H26 S50 .J3 SHEET 82", "recid": "jk718xc9609", "websiteUrl": "https://purl.stanford.edu/jk718xc9609", "title": "北支那", "ckey": 10164792, "available": true, "iiifUrl": "https://purl.stanford.edu/jk718xc9609/iiif/manifest" }, "geometry": { "type": "Polygon", "coordinates": [ [ [ 116.1574999, 39.5972219 ], [ 116.4433332, 39.5972219 ], [ 116.4433332, 39.7861108 ], [ 116.1574999, 39.7861108 ], [ 116.1574999, 39.5972219 ] ] ] } },
{ "type": "Feature", "properties": { "Id": 0, "Sheet_ID": "140. 馬駒橋", "label": "140. 馬駒橋", "call_short": "G7823 .H26 S50 .J3", "call_num": "G7823 .H26 S50 .J3 SHEET 140", "recid": "rn288ys1184", "websiteUrl": "https://purl.stanford.edu/rn288ys1184", "title": "北支那", "ckey": 10164792, "available": true, "iiifUrl": "https://purl.stanford.edu/rn288ys1184/iiif/manifest" }, "geometry": { "type": "Polygon", "coordinates": [ [ [ 116.4433332, 39.5972219 ], [ 116.7291666, 39.5972219 ], [ 116.7291666, 39.7861108 ], [ 116.4433332, 39.7861108 ], [ 116.4433332, 39.5972219 ] ] ] } },
{ "type": "Feature", "properties": { "Id": 0, "Sheet_ID": "73. 安平", "label": "73. 安平", "call_short": "G7823 .H26 S50 .J3", "call_num": "G7823 .H26 S50 .J3 SHEET 73", "recid": "fn180xm5672", "websiteUrl": "https://purl.stanford.edu/fn180xm5672", "title": "北支那", "ckey": 10164792, "available": true, "iiifUrl": "https://purl.stanford.edu/fn180xm5672/iiif/manifest" }, "geometry": { "type": "Polygon", "coordinates": [ [ [ 116.7291666, 39.5972219 ], [ 117.0149999, 39.5972219 ], [ 117.0149999, 39.7861108 ], [ 116.7291666, 39.7861108 ], [ 116.7291666, 39.5972219 ] ] ] } },
{ "type": "Feature", "properties": { "Id": 0, "Sheet_ID": "65. 香河", "label": "65. 香河", "call_short": "G7823 .H26 S50 .J3", "call_num": "G7823 .H26 S50 .J3 SHEET 65", "recid": "kn837mk4705", "websiteUrl": "https://purl.stanford.edu/kn837mk4705", "title": "北支那", "ckey": 10164792, "available": true, "iiifUrl": "https://purl.stanford.edu/kn837mk4705/iiif/manifest" }, "geometry": { "type": "Polygon", "coordinates": [ [ [ 117.0149999, 39.5972219 ], [ 117.3008332, 39.5972219 ], [ 117.3008332, 39.7861108 ], [ 117.0149999, 39.7861108 ], [ 117.0149999, 39.5972219 ] ] ] } },
{ "type": "Feature", "properties": { "Id": 0, "Sheet_ID": "57. 寳坻", "label": "57. 寳坻", "call_short": "G7823 .H26 S50 .J3", "call_num": "G7823 .H26 S50 .J3 SHEET 57", "recid": "gc128jm8589", "websiteUrl": "https://purl.stanford.edu/gc128jm8589", "title": "北支那", "ckey": 10164792, "available": true, "iiifUrl": "https://purl.stanford.edu/gc128jm8589/iiif/manifest" }, "geometry": { "type": "Polygon", "coordinates": [ [ [ 117.3008332, 39.5972219 ], [ 117.5866665, 39.5972219 ], [ 117.5866665, 39.7861108 ], [ 117.3008332, 39.7861108 ], [ 117.3008332, 39.5972219 ] ] ] } },
{ "type": "Feature", "properties": { "Id": 0, "Sheet_ID": "49. 窩洛沽鎭", "label": "49. 窩洛沽鎭", "call_short": "G7823 .H26 S50 .J3", "call_num": "G7823 .H26 S50 .J3 SHEET 49", "recid": "wd864xf2395", "websiteUrl": "https://purl.stanford.edu/wd864xf2395", "title": "北支那", "ckey": 10164792, "available": true, "iiifUrl": "https://purl.stanford.edu/wd864xf2395/iiif/manifest" }, "geometry": { "type": "Polygon", "coordinates": [ [ [ 117.5866665, 39.5972219 ], [ 117.8724998, 39.5972219 ], [ 117.8724998, 39.7861108 ], [ 117.5866665, 39.7861108 ], [ 117.5866665, 39.5972219 ] ] ] } },
{ "type": "Feature", "properties": { "Id": 0, "Sheet_ID": "41. 韓城", "label": "41. 韓城", "call_short": "G7823 .H26 S50 .J3", "call_num": "G7823 .H26 S50 .J3 SHEET 41", "recid": "kw733pw5135", "websiteUrl": "https://purl.stanford.edu/kw733pw5135", "title": "北支那", "ckey": 10164792, "available": true, "iiifUrl": "https://purl.stanford.edu/kw733pw5135/iiif/manifest" }, "geometry": { "type": "Polygon", "coordinates": [ [ [ 117.8724998, 39.5972219 ], [ 118.1583331, 39.5972219 ], [ 118.1583331, 39.7861108 ], [ 117.8724998, 39.7861108 ], [ 117.8724998, 39.5972219 ] ] ] } },
{ "type": "Feature", "properties": { "Id": 0, "Sheet_ID": "34. 唐山", "label": "34. 唐山", "call_short": "G7823 .H26 S50 .J3", "call_num": "G7823 .H26 S50 .J3 SHEET 34", "recid": "kb803sb2252", "websiteUrl": "https://purl.stanford.edu/kb803sb2252", "title": "北支那", "ckey": 10164792, "available": true, "iiifUrl": "https://purl.stanford.edu/kb803sb2252/iiif/manifest" }, "geometry": { "type": "Polygon", "coordinates": [ [ [ 118.1583331, 39.5972219 ], [ 118.4441664, 39.5972219 ], [ 118.4441664, 39.7861108 ], [ 118.1583331, 39.7861108 ], [ 118.1583331, 39.5972219 ] ] ] } },
{ "type": "Feature", "properties": { "Id": 0, "Sheet_ID": "27. 張各庄", "label": "27. 張各庄", "call_short": "G7823 .H26 S50 .J3", "call_num": "G7823 .H26 S50 .J3 SHEET 27", "recid": "xp903th5783", "websiteUrl": "https://purl.stanford.edu/xp903th5783", "title": "北支那", "ckey": 10164792, "available": true, "iiifUrl": "https://purl.stanford.edu/xp903th5783/iiif/manifest" }, "geometry": { "type": "Polygon", "coordinates": [ [ [ 118.4441664, 39.5972219 ], [ 118.7299998, 39.5972219 ], [ 118.7299998, 39.7861108 ], [ 118.4441664, 39.7861108 ], [ 118.4441664, 39.5972219 ] ] ] } },
{ "type": "Feature", "properties": { "Id": 0, "Sheet_ID": "20. 灤州", "label": "20. 灤州", "call_short": "G7823 .H26 S50 .J3", "call_num": "G7823 .H26 S50 .J3 SHEET 20", "recid": "cn349nq4808", "websiteUrl": "https://purl.stanford.edu/cn349nq4808", "title": "北支那", "ckey": 10164792, "available": true, "iiifUrl": "https://purl.stanford.edu/cn349nq4808/iiif/manifest" }, "geometry": { "type": "Polygon", "coordinates": [ [ [ 118.7299998, 39.5972219 ], [ 119.0158331, 39.5972219 ], [ 119.0158331, 39.7861108 ], [ 118.7299998, 39.7861108 ], [ 118.7299998, 39.5972219 ] ] ] } },
{ "type": "Feature", "properties": { "Id": 0, "Sheet_ID": "13. 昌黎", "label": "13. 昌黎", "call_short": "G7823 .H26 S50 .J3", "call_num": "G7823 .H26 S50 .J3 SHEET 13", "recid": "hv113dh9423", "websiteUrl": "https://purl.stanford.edu/hv113dh9423", "title": "北支那", "ckey": 10164792, "available": true, "iiifUrl": "https://purl.stanford.edu/hv113dh9423/iiif/manifest" }, "geometry": { "type": "Polygon", "coordinates": [ [ [ 119.0158331, 39.5972219 ], [ 119.3016664, 39.5972219 ], [ 119.3016664, 39.7861108 ], [ 119.0158331, 39.7861108 ], [ 119.0158331, 39.5972219 ] ] ] } },
{ "type": "Feature", "properties": { "Id": 0, "Sheet_ID": "7. 大蒲河", "label": "7. 大蒲河", "call_short": "G7823 .H26 S50 .J3", "call_num": "G7823 .H26 S50 .J3 SHEET 7", "recid": "qb659cd1800", "websiteUrl": "https://purl.stanford.edu/qb659cd1800", "title": "北支那", "ckey": 10164792, "available": true, "iiifUrl": "https://purl.stanford.edu/qb659cd1800/iiif/manifest" }, "geometry": { "type": "Polygon", "coordinates": [ [ [ 119.3016664, 39.5972219 ], [ 119.5874997, 39.5972219 ], [ 119.5874997, 39.7861108 ], [ 119.3016664, 39.7861108 ], [ 119.3016664, 39.5972219 ] ] ] } },
{ "type": "Feature", "properties": { "Id": 0, "Sheet_ID": "90. 大會厰", "label": "90. 大會厰", "call_short": "G7823 .H26 S50 .J3", "call_num": "G7823 .H26 S50 .J3 SHEET 90", "recid": "vw799xm1458", "websiteUrl": "https://purl.stanford.edu/vw799xm1458", "title": "北支那", "ckey": 10164792, "available": true, "iiifUrl": "https://purl.stanford.edu/vw799xm1458/iiif/manifest" }, "geometry": { "type": "Polygon", "coordinates": [ [ [ 115.8716666, 39.7861108 ], [ 116.1574999, 39.7861108 ], [ 116.1574999, 39.9749997 ], [ 115.8716666, 39.9749997 ], [ 115.8716666, 39.7861108 ] ] ] } },
{ "type": "Feature", "properties": { "Id": 0, "Sheet_ID": "81. 北京", "label": "81. 北京", "call_short": "G7823 .H26 S50 .J3", "call_num": "G7823 .H26 S50 .J3 SHEET 81", "recid": "yr303hd3959", "websiteUrl": "https://purl.stanford.edu/yr303hd3959", "title": "北支那", "ckey": 10164792, "available": true, "iiifUrl": "https://purl.stanford.edu/yr303hd3959/iiif/manifest" }, "geometry": { "type": "Polygon", "coordinates": [ [ [ 116.1574999, 39.7861108 ], [ 116.4433332, 39.7861108 ], [ 116.4433332, 39.9749997 ], [ 116.1574999, 39.9749997 ], [ 116.1574999, 39.7861108 ] ] ] } },
{ "type": "Feature", "properties": { "Id": 0, "Sheet_ID": "77. 通州", "label": "77. 通州", "call_short": "G7823 .H26 S50 .J3", "call_num": "G7823 .H26 S50 .J3 SHEET 77", "recid": "nz528hs0910", "websiteUrl": "https://purl.stanford.edu/nz528hs0910", "title": "北支那", "ckey": 10164792, "available": true, "iiifUrl": "https://purl.stanford.edu/nz528hs0910/iiif/manifest" }, "geometry": { "type": "Polygon", "coordinates": [ [ [ 116.4433332, 39.7861108 ], [ 116.7291666, 39.7861108 ], [ 116.7291666, 39.9749997 ], [ 116.4433332, 39.9749997 ], [ 116.4433332, 39.7861108 ] ] ] } },
{ "type": "Feature", "properties": { "Id": 0, "Sheet_ID": "72. 夏店", "label": "72. 夏店", "call_short": "G7823 .H26 S50 .J3", "call_num": "G7823 .H26 S50 .J3 SHEET 72", "recid": "mc544dt9995", "websiteUrl": "https://purl.stanford.edu/mc544dt9995", "title": "北支那", "ckey": 10164792, "available": true, "iiifUrl": "https://purl.stanford.edu/mc544dt9995/iiif/manifest" }, "geometry": { "type": "Polygon", "coordinates": [ [ [ 116.7291666, 39.7861108 ], [ 117.0149999, 39.7861108 ], [ 117.0149999, 39.9749997 ], [ 116.7291666, 39.9749997 ], [ 116.7291666, 39.7861108 ] ] ] } },
{ "type": "Feature", "properties": { "Id": 0, "Sheet_ID": "64. 百福圖", "label": "64. 百福圖", "call_short": "G7823 .H26 S50 .J3", "call_num": "G7823 .H26 S50 .J3 SHEET 64", "recid": "zm440bg3757", "websiteUrl": "https://purl.stanford.edu/zm440bg3757", "title": "北支那", "ckey": 10164792, "available": true, "iiifUrl": "https://purl.stanford.edu/zm440bg3757/iiif/manifest" }, "geometry": { "type": "Polygon", "coordinates": [ [ [ 117.0149999, 39.7861108 ], [ 117.3008332, 39.7861108 ], [ 117.3008332, 39.9749997 ], [ 117.0149999, 39.9749997 ], [ 117.0149999, 39.7861108 ] ] ] } },
{ "type": "Feature", "properties": { "Id": 0, "Sheet_ID": "56. 別山", "label": "56. 別山", "call_short": "G7823 .H26 S50 .J3", "call_num": "G7823 .H26 S50 .J3 SHEET 56", "recid": "td721ny0103", "websiteUrl": "https://purl.stanford.edu/td721ny0103", "title": "北支那", "ckey": 10164792, "available": true, "iiifUrl": "https://purl.stanford.edu/td721ny0103/iiif/manifest" }, "geometry": { "type": "Polygon", "coordinates": [ [ [ 117.3008332, 39.7861108 ], [ 117.5866665, 39.7861108 ], [ 117.5866665, 39.9749997 ], [ 117.3008332, 39.9749997 ], [ 117.3008332, 39.7861108 ] ] ] } },
{ "type": "Feature", "properties": { "Id": 0, "Sheet_ID": "48. 玉田", "label": "48. 玉田", "call_short": "G7823 .H26 S50 .J3", "call_num": "G7823 .H26 S50 .J3 SHEET 48", "recid": "ds678df0339", "websiteUrl": "https://purl.stanford.edu/ds678df0339", "title": "北支那", "ckey": 10164792, "available": true, "iiifUrl": "https://purl.stanford.edu/ds678df0339/iiif/manifest" }, "geometry": { "type": "Polygon", "coordinates": [ [ [ 117.5866665, 39.7861108 ], [ 117.8724998, 39.7861108 ], [ 117.8724998, 39.9749997 ], [ 117.5866665, 39.9749997 ], [ 117.5866665, 39.7861108 ] ] ] } },
{ "type": "Feature", "properties": { "Id": 0, "Sheet_ID": "40. 豐潤", "label": "40. 豐潤", "call_short": "G7823 .H26 S50 .J3", "call_num": "G7823 .H26 S50 .J3 SHEET 40", "recid": "rk849bg8388", "websiteUrl": "https://purl.stanford.edu/rk849bg8388", "title": "北支那", "ckey": 10164792, "available": true, "iiifUrl": "https://purl.stanford.edu/rk849bg8388/iiif/manifest" }, "geometry": { "type": "Polygon", "coordinates": [ [ [ 117.8724998, 39.7861108 ], [ 118.1583331, 39.7861108 ], [ 118.1583331, 39.9749997 ], [ 117.8724998, 39.9749997 ], [ 117.8724998, 39.7861108 ] ] ] } },
{ "type": "Feature", "properties": { "Id": 0, "Sheet_ID": "33. 榛子鎭", "label": "33. 榛子鎭", "call_short": "G7823 .H26 S50 .J3", "call_num": "G7823 .H26 S50 .J3 SHEET 33", "recid": "th734cj3522", "websiteUrl": "https://purl.stanford.edu/th734cj3522", "title": "北支那", "ckey": 10164792, "available": true, "iiifUrl": "https://purl.stanford.edu/th734cj3522/iiif/manifest" }, "geometry": { "type": "Polygon", "coordinates": [ [ [ 118.1583331, 39.7861108 ], [ 118.4441664, 39.7861108 ], [ 118.4441664, 39.9749997 ], [ 118.1583331, 39.9749997 ], [ 118.1583331, 39.7861108 ] ] ] } },
{ "type": "Feature", "properties": { "Id": 0, "Sheet_ID": "26. 沙河驛", "label": "26. 沙河驛", "call_short": "G7823 .H26 S50 .J3", "call_num": "G7823 .H26 S50 .J3 SHEET 26", "recid": "wq162tt7638", "websiteUrl": "https://purl.stanford.edu/wq162tt7638", "title": "北支那", "ckey": 10164792, "available": true, "iiifUrl": "https://purl.stanford.edu/wq162tt7638/iiif/manifest" }, "geometry": { "type": "Polygon", "coordinates": [ [ [ 118.4441664, 39.7861108 ], [ 118.7299998, 39.7861108 ], [ 118.7299998, 39.9749997 ], [ 118.4441664, 39.9749997 ], [ 118.4441664, 39.7861108 ] ] ] } },
{ "type": "Feature", "properties": { "Id": 0, "Sheet_ID": "19. 永平", "label": "19. 永平", "call_short": "G7823 .H26 S50 .J3", "call_num": "G7823 .H26 S50 .J3 SHEET 19", "recid": "fn878nc9459", "websiteUrl": "https://purl.stanford.edu/fn878nc9459", "title": "北支那", "ckey": 10164792, "available": true, "iiifUrl": "https://purl.stanford.edu/fn878nc9459/iiif/manifest" }, "geometry": { "type": "Polygon", "coordinates": [ [ [ 118.7299998, 39.7861108 ], [ 119.0158331, 39.7861108 ], [ 119.0158331, 39.9749997 ], [ 118.7299998, 39.9749997 ], [ 118.7299998, 39.7861108 ] ] ] } },
{ "type": "Feature", "properties": { "Id": 0, "Sheet_ID": "12. 撫寧", "label": "12. 撫寧", "call_short": "G7823 .H26 S50 .J3", "call_num": "G7823 .H26 S50 .J3 SHEET 12", "recid": "pr307nh6945", "websiteUrl": "https://purl.stanford.edu/pr307nh6945", "title": "北支那", "ckey": 10164792, "available": true, "iiifUrl": "https://purl.stanford.edu/pr307nh6945/iiif/manifest" }, "geometry": { "type": "Polygon", "coordinates": [ [ [ 119.0158331, 39.7861108 ], [ 119.3016664, 39.7861108 ], [ 119.3016664, 39.9749997 ], [ 119.0158331, 39.9749997 ], [ 119.0158331, 39.7861108 ] ] ] } },
{ "type": "Feature", "properties": { "Id": 0, "Sheet_ID": "6. 留守營", "label": "6. 留守營", "call_short": "G7823 .H26 S50 .J3", "call_num": "G7823 .H26 S50 .J3 SHEET 6", "recid": "fb656vt2458", "websiteUrl": "https://purl.stanford.edu/fb656vt2458", "title": "北支那", "ckey": 10164792, "available": true, "iiifUrl": "https://purl.stanford.edu/fb656vt2458/iiif/manifest" }, "geometry": { "type": "Polygon", "coordinates": [ [ [ 119.3016664, 39.7861108 ], [ 119.5874997, 39.7861108 ], [ 119.5874997, 39.9749997 ], [ 119.3016664, 39.9749997 ], [ 119.3016664, 39.7861108 ] ] ] } },
{ "type": "Feature", "properties": { "Id": 0, "Sheet_ID": "3. 秦王嶋", "label": "3. 秦王嶋", "call_short": "G7823 .H26 S50 .J3", "call_num": "G7823 .H26 S50 .J3 SHEET 3", "recid": "vq169hf2429", "websiteUrl": "https://purl.stanford.edu/vq169hf2429", "title": "北支那", "ckey": 10164792, "available": true, "iiifUrl": "https://purl.stanford.edu/vq169hf2429/iiif/manifest" }, "geometry": { "type": "Polygon", "coordinates": [ [ [ 119.5874997, 39.7861108 ], [ 119.873333, 39.7861108 ], [ 119.873333, 39.9749997 ], [ 119.5874997, 39.9749997 ], [ 119.5874997, 39.7861108 ] ] ] } },
{ "type": "Feature", "properties": { "Id": 0, "Sheet_ID": "[北安河]", "label": "[北安河]", "call_short": "0", "call_num": "0", "recid": "0", "websiteUrl": "0", "title": "0", "ckey": 0, "available": false, "iiifUrl": "0" }, "geometry": { "type": "Polygon", "coordinates": [ [ [ 115.8716666, 39.9749997 ], [ 116.1574999, 39.9749997 ], [ 116.1574999, 40.1638886 ], [ 115.8716666, 40.1638886 ], [ 115.8716666, 39.9749997 ] ] ] } },
{ "type": "Feature", "properties": { "Id": 0, "Sheet_ID": "76. 順義", "label": "76. 順義", "call_short": "G7823 .H26 S50 .J3", "call_num": "G7823 .H26 S50 .J3 SHEET 76", "recid": "qz246jx3535", "websiteUrl": "https://purl.stanford.edu/qz246jx3535", "title": "北支那", "ckey": 10164792, "available": true, "iiifUrl": "https://purl.stanford.edu/qz246jx3535/iiif/manifest" }, "geometry": { "type": "Polygon", "coordinates": [ [ [ 116.4433332, 39.9749997 ], [ 116.7291666, 39.9749997 ], [ 116.7291666, 40.1638886 ], [ 116.4433332, 40.1638886 ], [ 116.4433332, 39.9749997 ] ] ] } },
{ "type": "Feature", "properties": { "Id": 0, "Sheet_ID": "71. 楊各庄", "label": "71. 楊各庄", "call_short": "G7823 .H26 S50 .J3", "call_num": "G7823 .H26 S50 .J3 SHEET 71", "recid": "dy845ns6099", "websiteUrl": "https://purl.stanford.edu/dy845ns6099", "title": "北支那", "ckey": 10164792, "available": true, "iiifUrl": "https://purl.stanford.edu/dy845ns6099/iiif/manifest" }, "geometry": { "type": "Polygon", "coordinates": [ [ [ 116.7291666, 39.9749997 ], [ 117.0149999, 39.9749997 ], [ 117.0149999, 40.1638886 ], [ 116.7291666, 40.1638886 ], [ 116.7291666, 39.9749997 ] ] ] } },
{ "type": "Feature", "properties": { "Id": 0, "Sheet_ID": "63. 三河", "label": "63. 三河", "call_short": "G7823 .H26 S50 .J3", "call_num": "G7823 .H26 S50 .J3 SHEET 63", "recid": "br537hr1383", "websiteUrl": "https://purl.stanford.edu/br537hr1383", "title": "北支那", "ckey": 10164792, "available": true, "iiifUrl": "https://purl.stanford.edu/br537hr1383/iiif/manifest" }, "geometry": { "type": "Polygon", "coordinates": [ [ [ 117.0149999, 39.9749997 ], [ 117.3008332, 39.9749997 ], [ 117.3008332, 40.1638886 ], [ 117.0149999, 40.1638886 ], [ 117.0149999, 39.9749997 ] ] ] } },
{ "type": "Feature", "properties": { "Id": 0, "Sheet_ID": "55. 薊州", "label": "55. 薊州", "call_short": "G7823 .H26 S50 .J3", "call_num": "G7823 .H26 S50 .J3 SHEET 55", "recid": "cr778vq5479", "websiteUrl": "https://purl.stanford.edu/cr778vq5479", "title": "北支那", "ckey": 10164792, "available": true, "iiifUrl": "https://purl.stanford.edu/cr778vq5479/iiif/manifest" }, "geometry": { "type": "Polygon", "coordinates": [ [ [ 117.3008332, 39.9749997 ], [ 117.5866665, 39.9749997 ], [ 117.5866665, 40.1638886 ], [ 117.3008332, 40.1638886 ], [ 117.3008332, 39.9749997 ] ] ] } },
{ "type": "Feature", "properties": { "Id": 0, "Sheet_ID": "47. 石門鎭", "label": "47. 石門鎭", "call_short": "G7823 .H26 S50 .J3", "call_num": "G7823 .H26 S50 .J3 SHEET 47", "recid": "gc410ym9963", "websiteUrl": "https://purl.stanford.edu/gc410ym9963", "title": "北支那", "ckey": 10164792, "available": true, "iiifUrl": "https://purl.stanford.edu/gc410ym9963/iiif/manifest" }, "geometry": { "type": "Polygon", "coordinates": [ [ [ 117.5866665, 39.9749997 ], [ 117.8724998, 39.9749997 ], [ 117.8724998, 40.1638886 ], [ 117.5866665, 40.1638886 ], [ 117.5866665, 39.9749997 ] ] ] } },
{ "type": "Feature", "properties": { "Id": 0, "Sheet_ID": "39. 左家務", "label": "39. 左家務", "call_short": "G7823 .H26 S50 .J3", "call_num": "G7823 .H26 S50 .J3 SHEET 39", "recid": "vm070cn6541", "websiteUrl": "https://purl.stanford.edu/vm070cn6541", "title": "北支那", "ckey": 10164792, "available": true, "iiifUrl": "https://purl.stanford.edu/vm070cn6541/iiif/manifest" }, "geometry": { "type": "Polygon", "coordinates": [ [ [ 117.8724998, 39.9749997 ], [ 118.1583331, 39.9749997 ], [ 118.1583331, 40.1638886 ], [ 117.8724998, 40.1638886 ], [ 117.8724998, 39.9749997 ] ] ] } },
{ "type": "Feature", "properties": { "Id": 0, "Sheet_ID": "32. 鉄厰鎭", "label": "32. 鉄厰鎭", "call_short": "G7823 .H26 S50 .J3", "call_num": "G7823 .H26 S50 .J3 SHEET 32", "recid": "hv036hp3769", "websiteUrl": "https://purl.stanford.edu/hv036hp3769", "title": "北支那", "ckey": 10164792, "available": true, "iiifUrl": "https://purl.stanford.edu/hv036hp3769/iiif/manifest" }, "geometry": { "type": "Polygon", "coordinates": [ [ [ 118.1583331, 39.9749997 ], [ 118.4441664, 39.9749997 ], [ 118.4441664, 40.1638886 ], [ 118.1583331, 40.1638886 ], [ 118.1583331, 39.9749997 ] ] ] } },
{ "type": "Feature", "properties": { "Id": 0, "Sheet_ID": "25. 遷安縣", "label": "25. 遷安縣", "call_short": "G7823 .H26 S50 .J3", "call_num": "G7823 .H26 S50 .J3 SHEET 25", "recid": "dw074xn5137", "websiteUrl": "https://purl.stanford.edu/dw074xn5137", "title": "北支那", "ckey": 10164792, "available": true, "iiifUrl": "https://purl.stanford.edu/dw074xn5137/iiif/manifest" }, "geometry": { "type": "Polygon", "coordinates": [ [ [ 118.4441664, 39.9749997 ], [ 118.7299998, 39.9749997 ], [ 118.7299998, 40.1638886 ], [ 118.4441664, 40.1638886 ], [ 118.4441664, 39.9749997 ] ] ] } },
{ "type": "Feature", "properties": { "Id": 0, "Sheet_ID": "18. 劉家營", "label": "18. 劉家營", "call_short": "G7823 .H26 S50 .J3", "call_num": "G7823 .H26 S50 .J3 SHEET 18", "recid": "dj151cd7967", "websiteUrl": "https://purl.stanford.edu/dj151cd7967", "title": "北支那", "ckey": 10164792, "available": true, "iiifUrl": "https://purl.stanford.edu/dj151cd7967/iiif/manifest" }, "geometry": { "type": "Polygon", "coordinates": [ [ [ 118.7299998, 39.9749997 ], [ 119.0158331, 39.9749997 ], [ 119.0158331, 40.1638886 ], [ 118.7299998, 40.1638886 ], [ 118.7299998, 39.9749997 ] ] ] } },
{ "type": "Feature", "properties": { "Id": 0, "Sheet_ID": "11. 抬頭營", "label": "11. 抬頭營", "call_short": "G7823 .H26 S50 .J3", "call_num": "G7823 .H26 S50 .J3 SHEET 11", "recid": "gw538rv4864", "websiteUrl": "https://purl.stanford.edu/gw538rv4864", "title": "北支那", "ckey": 10164792, "available": true, "iiifUrl": "https://purl.stanford.edu/gw538rv4864/iiif/manifest" }, "geometry": { "type": "Polygon", "coordinates": [ [ [ 119.0158331, 39.9749997 ], [ 119.3016664, 39.9749997 ], [ 119.3016664, 40.1638886 ], [ 119.0158331, 40.1638886 ], [ 119.0158331, 39.9749997 ] ] ] } },
{ "type": "Feature", "properties": { "Id": 0, "Sheet_ID": "5. 海陽鎭", "label": "5. 海陽鎭", "call_short": "G7823 .H26 S50 .J3", "call_num": "G7823 .H26 S50 .J3 SHEET 5", "recid": "rf009rp9343", "websiteUrl": "https://purl.stanford.edu/rf009rp9343", "title": "北支那", "ckey": 10164792, "available": true, "iiifUrl": "https://purl.stanford.edu/rf009rp9343/iiif/manifest" }, "geometry": { "type": "Polygon", "coordinates": [ [ [ 119.3016664, 39.9749997 ], [ 119.5874997, 39.9749997 ], [ 119.5874997, 40.1638886 ], [ 119.3016664, 40.1638886 ], [ 119.3016664, 39.9749997 ] ] ] } },
{ "type": "Feature", "properties": { "Id": 0, "Sheet_ID": "2. 山海關", "label": "2. 山海關", "call_short": "G7823 .H26 S50 .J3", "call_num": "G7823 .H26 S50 .J3 SHEET 2", "recid": "cp639nt2041", "websiteUrl": "https://purl.stanford.edu/cp639nt2041", "title": "北支那", "ckey": 10164792, "available": true, "iiifUrl": "https://purl.stanford.edu/cp639nt2041/iiif/manifest" }, "geometry": { "type": "Polygon", "coordinates": [ [ [ 119.5874997, 39.9749997 ], [ 119.873333, 39.9749997 ], [ 119.873333, 40.1638886 ], [ 119.5874997, 40.1638886 ], [ 119.5874997, 39.9749997 ] ] ] } },
{ "type": "Feature", "properties": { "Id": 0, "Sheet_ID": "75. 懐柔", "label": "75. 懐柔", "call_short": "G7823 .H26 S50 .J3", "call_num": "G7823 .H26 S50 .J3 SHEET 75", "recid": "tp921fp4654", "websiteUrl": "https://purl.stanford.edu/tp921fp4654", "title": "北支那", "ckey": 10164792, "available": true, "iiifUrl": "https://purl.stanford.edu/tp921fp4654/iiif/manifest" }, "geometry": { "type": "Polygon", "coordinates": [ [ [ 116.4433332, 40.1638886 ], [ 116.7291666, 40.1638886 ], [ 116.7291666, 40.3527774 ], [ 116.4433332, 40.3527774 ], [ 116.4433332, 40.1638886 ] ] ] } },
{ "type": "Feature", "properties": { "Id": 0, "Sheet_ID": "70. 峪口鎮", "label": "70. 峪口鎮", "call_short": "G7823 .H26 S50 .J3", "call_num": "G7823 .H26 S50 .J3 SHEET 70", "recid": "cw278yp9589", "websiteUrl": "https://purl.stanford.edu/cw278yp9589", "title": "北支那", "ckey": 10164792, "available": true, "iiifUrl": "https://purl.stanford.edu/cw278yp9589/iiif/manifest" }, "geometry": { "type": "Polygon", "coordinates": [ [ [ 116.7291666, 40.1638886 ], [ 117.0149999, 40.1638886 ], [ 117.0149999, 40.3527774 ], [ 116.7291666, 40.3527774 ], [ 116.7291666, 40.1638886 ] ] ] } },
{ "type": "Feature", "properties": { "Id": 0, "Sheet_ID": "62. 南獨樂河", "label": "62. 南獨樂河", "call_short": "G7823 .H26 S50 .J3", "call_num": "G7823 .H26 S50 .J3 SHEET 62", "recid": "qb351gx2772", "websiteUrl": "https://purl.stanford.edu/qb351gx2772", "title": "北支那", "ckey": 10164792, "available": true, "iiifUrl": "https://purl.stanford.edu/qb351gx2772/iiif/manifest" }, "geometry": { "type": "Polygon", "coordinates": [ [ [ 117.0149999, 40.1638886 ], [ 117.3008332, 40.1638886 ], [ 117.3008332, 40.3527774 ], [ 117.0149999, 40.3527774 ], [ 117.0149999, 40.1638886 ] ] ] } },
{ "type": "Feature", "properties": { "Id": 0, "Sheet_ID": "54. 靠山集", "label": "54. 靠山集", "call_short": "G7823 .H26 S50 .J3", "call_num": "G7823 .H26 S50 .J3 SHEET 54", "recid": "pv915cq4802", "websiteUrl": "https://purl.stanford.edu/pv915cq4802", "title": "北支那", "ckey": 10164792, "available": true, "iiifUrl": "https://purl.stanford.edu/pv915cq4802/iiif/manifest" }, "geometry": { "type": "Polygon", "coordinates": [ [ [ 117.3008332, 40.1638886 ], [ 117.5866665, 40.1638886 ], [ 117.5866665, 40.3527774 ], [ 117.3008332, 40.3527774 ], [ 117.3008332, 40.1638886 ] ] ] } },
{ "type": "Feature", "properties": { "Id": 0, "Sheet_ID": "46. 馬蘭峪", "label": "46. 馬蘭峪", "call_short": "G7823 .H26 S50 .J3", "call_num": "G7823 .H26 S50 .J3 SHEET 46", "recid": "kt585kc6619", "websiteUrl": "https://purl.stanford.edu/kt585kc6619", "title": "北支那", "ckey": 10164792, "available": true, "iiifUrl": "https://purl.stanford.edu/kt585kc6619/iiif/manifest" }, "geometry": { "type": "Polygon", "coordinates": [ [ [ 117.5866665, 40.1638886 ], [ 117.8724998, 40.1638886 ], [ 117.8724998, 40.3527774 ], [ 117.5866665, 40.3527774 ], [ 117.5866665, 40.1638886 ] ] ] } },
{ "type": "Feature", "properties": { "Id": 0, "Sheet_ID": "38. 遵化州", "label": "38. 遵化州", "call_short": "G7823 .H26 S50 .J3", "call_num": "G7823 .H26 S50 .J3 SHEET 38", "recid": "fk852gc4196", "websiteUrl": "https://purl.stanford.edu/fk852gc4196", "title": "北支那", "ckey": 10164792, "available": true, "iiifUrl": "https://purl.stanford.edu/fk852gc4196/iiif/manifest" }, "geometry": { "type": "Polygon", "coordinates": [ [ [ 117.8724998, 40.1638886 ], [ 118.1583331, 40.1638886 ], [ 118.1583331, 40.3527774 ], [ 117.8724998, 40.3527774 ], [ 117.8724998, 40.1638886 ] ] ] } },
{ "type": "Feature", "properties": { "Id": 0, "Sheet_ID": "31. 三屯營", "label": "31. 三屯營", "call_short": "G7823 .H26 S50 .J3", "call_num": "G7823 .H26 S50 .J3 SHEET 31", "recid": "xd226xf7890", "websiteUrl": "https://purl.stanford.edu/xd226xf7890", "title": "北支那", "ckey": 10164792, "available": true, "iiifUrl": "https://purl.stanford.edu/xd226xf7890/iiif/manifest" }, "geometry": { "type": "Polygon", "coordinates": [ [ [ 118.1583331, 40.1638886 ], [ 118.4441664, 40.1638886 ], [ 118.4441664, 40.3527774 ], [ 118.1583331, 40.3527774 ], [ 118.1583331, 40.1638886 ] ] ] } },
{ "type": "Feature", "properties": { "Id": 0, "Sheet_ID": "24. 太平寨", "label": "24. 太平寨", "call_short": "G7823 .H26 S50 .J3", "call_num": "G7823 .H26 S50 .J3 SHEET 24", "recid": "km284jq6208", "websiteUrl": "https://purl.stanford.edu/km284jq6208", "title": "北支那", "ckey": 10164792, "available": true, "iiifUrl": "https://purl.stanford.edu/km284jq6208/iiif/manifest" }, "geometry": { "type": "Polygon", "coordinates": [ [ [ 118.4441664, 40.1638886 ], [ 118.7299998, 40.1638886 ], [ 118.7299998, 40.3527774 ], [ 118.4441664, 40.3527774 ], [ 118.4441664, 40.1638886 ] ] ] } },
{ "type": "Feature", "properties": { "Id": 0, "Sheet_ID": "17. 建昌營", "label": "17. 建昌營", "call_short": "G7823 .H26 S50 .J3", "call_num": "G7823 .H26 S50 .J3 SHEET 17", "recid": "nc877jv3893", "websiteUrl": "https://purl.stanford.edu/nc877jv3893", "title": "北支那", "ckey": 10164792, "available": true, "iiifUrl": "https://purl.stanford.edu/nc877jv3893/iiif/manifest" }, "geometry": { "type": "Polygon", "coordinates": [ [ [ 118.7299998, 40.1638886 ], [ 119.0158331, 40.1638886 ], [ 119.0158331, 40.3527774 ], [ 118.7299998, 40.3527774 ], [ 118.7299998, 40.1638886 ] ] ] } },
{ "type": "Feature", "properties": { "Id": 0, "Sheet_ID": "10. 界嶺口", "label": "10. 界嶺口", "call_short": "G7823 .H26 S50 .J3", "call_num": "G7823 .H26 S50 .J3 SHEET 10", "recid": "pp357qp0023", "websiteUrl": "https://purl.stanford.edu/pp357qp0023", "title": "北支那", "ckey": 10164792, "available": true, "iiifUrl": "https://purl.stanford.edu/pp357qp0023/iiif/manifest" }, "geometry": { "type": "Polygon", "coordinates": [ [ [ 119.0158331, 40.1638886 ], [ 119.3016664, 40.1638886 ], [ 119.3016664, 40.3527774 ], [ 119.0158331, 40.3527774 ], [ 119.0158331, 40.1638886 ] ] ] } },
{ "type": "Feature", "properties": { "Id": 0, "Sheet_ID": "4. 義院口", "label": "4. 義院口", "call_short": "G7823 .H26 S50 .J3", "call_num": "G7823 .H26 S50 .J3 SHEET 4", "recid": "fg035xd8942", "websiteUrl": "https://purl.stanford.edu/fg035xd8942", "title": "北支那", "ckey": 10164792, "available": true, "iiifUrl": "https://purl.stanford.edu/fg035xd8942/iiif/manifest" }, "geometry": { "type": "Polygon", "coordinates": [ [ [ 119.3016664, 40.1638886 ], [ 119.5874997, 40.1638886 ], [ 119.5874997, 40.3527774 ], [ 119.3016664, 40.3527774 ], [ 119.3016664, 40.1638886 ] ] ] } },
{ "type": "Feature", "properties": { "Id": 0, "Sheet_ID": "1. 駐操營", "label": "1. 駐操營", "call_short": "G7823 .H26 S50 .J3", "call_num": "G7823 .H26 S50 .J3 SHEET 1", "recid": "tx558zp7203", "websiteUrl": "https://purl.stanford.edu/tx558zp7203", "title": "北支那", "ckey": 10164792, "available": true, "iiifUrl": "https://purl.stanford.edu/tx558zp7203/iiif/manifest" }, "geometry": { "type": "Polygon", "coordinates": [ [ [ 119.5874997, 40.1638886 ], [ 119.873333, 40.1638886 ], [ 119.873333, 40.3527774 ], [ 119.5874997, 40.3527774 ], [ 119.5874997, 40.1638886 ] ] ] } },
{ "type": "Feature", "properties": { "Id": 0, "Sheet_ID": "74. 渤海所", "label": "74. 渤海所", "call_short": "G7823 .H26 S50 .J3", "call_num": "G7823 .H26 S50 .J3 SHEET 74", "recid": "pt412wv9366", "websiteUrl": "https://purl.stanford.edu/pt412wv9366", "title": "北支那", "ckey": 10164792, "available": true, "iiifUrl": "https://purl.stanford.edu/pt412wv9366/iiif/manifest" }, "geometry": { "type": "Polygon", "coordinates": [ [ [ 116.4433332, 40.3527774 ], [ 116.7291666, 40.3527774 ], [ 116.7291666, 40.5416663 ], [ 116.4433332, 40.5416663 ], [ 116.4433332, 40.3527774 ] ] ] } },
{ "type": "Feature", "properties": { "Id": 0, "Sheet_ID": "69. 密雲", "label": "69. 密雲", "call_short": "G7823 .H26 S50 .J3", "call_num": "G7823 .H26 S50 .J3 SHEET 69", "recid": "kw317mm5244", "websiteUrl": "https://purl.stanford.edu/kw317mm5244", "title": "北支那", "ckey": 10164792, "available": true, "iiifUrl": "https://purl.stanford.edu/kw317mm5244/iiif/manifest" }, "geometry": { "type": "Polygon", "coordinates": [ [ [ 116.7291666, 40.3527774 ], [ 117.0149999, 40.3527774 ], [ 117.0149999, 40.5416663 ], [ 116.7291666, 40.5416663 ], [ 116.7291666, 40.3527774 ] ] ] } },
{ "type": "Feature", "properties": { "Id": 0, "Sheet_ID": "61. 鎮羅營", "label": "61. 鎮羅營", "call_short": "G7823 .H26 S50 .J3", "call_num": "G7823 .H26 S50 .J3 SHEET 61", "recid": "py217vm2827", "websiteUrl": "https://purl.stanford.edu/py217vm2827", "title": "北支那", "ckey": 10164792, "available": true, "iiifUrl": "https://purl.stanford.edu/py217vm2827/iiif/manifest" }, "geometry": { "type": "Polygon", "coordinates": [ [ [ 117.0149999, 40.3527774 ], [ 117.3008332, 40.3527774 ], [ 117.3008332, 40.5416663 ], [ 117.0149999, 40.5416663 ], [ 117.0149999, 40.3527774 ] ] ] } },
{ "type": "Feature", "properties": { "Id": 0, "Sheet_ID": "2東. 老軍屯", "label": "2東. 老軍屯", "call_short": "G7823 .H26 S50 .J3", "call_num": "G7823 .H26 S50 .J3 SHEET 2 EAST", "recid": "gb526rd8007", "websiteUrl": "https://purl.stanford.edu/gb526rd8007", "title": "北支那", "ckey": 10164792, "available": true, "iiifUrl": "https://purl.stanford.edu/gb526rd8007/iiif/manifest" }, "geometry": { "type": "Polygon", "coordinates": [ [ [ 119.873333, 39.9749997 ], [ 120.1591663, 39.9749997 ], [ 120.1591663, 40.1638886 ], [ 119.873333, 40.1638886 ], [ 119.873333, 39.9749997 ] ] ] } },
{ "type": "Feature", "properties": { "Id": 0, "Sheet_ID": "[大荘鎮]", "label": "[大荘鎮]", "call_short": "0", "call_num": "0", "recid": "0", "websiteUrl": "0", "title": "0", "ckey": 0, "available": false, "iiifUrl": "0" }, "geometry": { "type": "Polygon", "coordinates": [ [ [ 115.3, 38.6527774 ], [ 115.5858333, 38.6527774 ], [ 115.5858333, 38.8416663 ], [ 115.3, 38.8416663 ], [ 115.3, 38.6527774 ] ] ] } },
{ "type": "Feature", "properties": { "Id": 0, "Sheet_ID": "[文安]", "label": "[文安]", "call_short": "0", "call_num": "0", "recid": "0", "websiteUrl": "0", "title": "0", "ckey": 0, "available": false, "iiifUrl": "0" }, "geometry": { "type": "Polygon", "coordinates": [ [ [ 116.4433333, 38.6527774 ], [ 116.7291666, 38.6527774 ], [ 116.7291666, 38.8416663 ], [ 116.4433333, 38.8416663 ], [ 116.4433333, 38.6527774 ] ] ] } },
{ "type": "Feature", "properties": { "Id": 0, "Sheet_ID": "[任邱縣]", "label": "[任邱縣]", "call_short": "0", "call_num": "0", "recid": "0", "websiteUrl": "0", "title": "0", "ckey": 0, "available": false, "iiifUrl": "0" }, "geometry": { "type": "Polygon", "coordinates": [ [ [ 115.8716666, 38.6527774 ], [ 116.1574999, 38.6527774 ], [ 116.1574999, 38.8416663 ], [ 115.8716666, 38.8416663 ], [ 115.8716666, 38.6527774 ] ] ] } },
{ "type": "Feature", "properties": { "Id": 0, "Sheet_ID": "[陳官屯]", "label": "[陳官屯]", "call_short": "0", "call_num": "0", "recid": "0", "websiteUrl": "0", "title": "0", "ckey": 0, "available": false, "iiifUrl": "0" }, "geometry": { "type": "Polygon", "coordinates": [ [ [ 116.7291666, 38.6527774 ], [ 117.0149999, 38.6527774 ], [ 117.0149999, 38.8416663 ], [ 116.7291666, 38.8416663 ], [ 116.7291666, 38.6527774 ] ] ] } },
{ "type": "Feature", "properties": { "Id": 0, "Sheet_ID": "[蔡村]", "label": "[蔡村]", "call_short": "0", "call_num": "0", "recid": "0", "websiteUrl": "0", "title": "0", "ckey": 0, "available": false, "iiifUrl": "0" }, "geometry": { "type": "Polygon", "coordinates": [ [ [ 116.1574999, 38.6527774 ], [ 116.4433333, 38.6527774 ], [ 116.4433333, 38.8416663 ], [ 116.1574999, 38.8416663 ], [ 116.1574999, 38.6527774 ] ] ] } },
{ "type": "Feature", "properties": { "Id": 0, "Sheet_ID": "[高陽縣]", "label": "[高陽縣]", "call_short": "0", "call_num": "0", "recid": "0", "websiteUrl": "0", "title": "0", "ckey": 0, "available": false, "iiifUrl": "0" }, "geometry": { "type": "Polygon", "coordinates": [ [ [ 115.5858333, 38.6527774 ], [ 115.8716666, 38.6527774 ], [ 115.8716666, 38.8416663 ], [ 115.5858333, 38.8416663 ], [ 115.5858333, 38.6527774 ] ] ] } },
{ "type": "Feature", "properties": { "Id": 0, "Sheet_ID": "[六峯]", "label": "[六峯]", "call_short": "0", "call_num": "0", "recid": "0", "websiteUrl": "0", "title": "0", "ckey": 0, "available": false, "iiifUrl": "0" }, "geometry": { "type": "Polygon", "coordinates": [ [ [ 117.5866665, 38.6527774 ], [ 117.8724998, 38.6527774 ], [ 117.8724998, 38.8416663 ], [ 117.5866665, 38.8416663 ], [ 117.5866665, 38.6527774 ] ] ] } }
]
}
