{"type":"FeatureCollection","features":[{"type":"Feature","properties":{"Id":0,"Sheet_ID":"SHEET 1","label":"SHEET 1","call_short":"G8132 .K3 S100 .J3","call_num":"G8132 .K3 S100 .J3 SHEET 1","recid":"jj126zj1465","websiteUrl":"https://purl.stanford.edu/jj126zj1465","title":"ケイ諸島 / 十万分一陸海編合圖","ckey":10652597,"web_map":"","available":"true","iiifUrl":"https://purl.stanford.edu/jj126zj1465/iiif/manifest"},"geometry":{"bbox":[132.833333,-6.016667,133.333333,-5.266667],"type":"Polygon","coordinates":[[[132.833333,-6.016667],[132.833333,-5.266667],[133.333333,-5.266667],[133.333333,-6.016667],[132.833333,-6.016667]]]}},{"type":"Feature","properties":{"Id":0,"Sheet_ID":"SHEET 2","label":"SHEET 2","call_short":"","call_num":"","recid":"","websiteUrl":"","title":"","ckey":0,"web_map":"","available":"false","iiifUrl":""},"geometry":{"bbox":[131.833333,-6.066667,132.833333,-5.066667],"type":"Polygon","coordinates":[[[131.833333,-6.066667],[131.833333,-5.066667],[132.833333,-5.066667],[132.833333,-6.066667],[131.833333,-6.066667]]]}}],"name":"index_10652597"}
