{
"type": "FeatureCollection",
"name": "index_map",
"features": [
{ "type": "Feature", "properties": { "Id": 0, "Sheet_ID": "1. 日本北部 - シベリヤ東部", "label": "1. 日本北部 - シベリヤ東部", "call_short": "G7801 .P6 S2000 .J28", "call_num": "G7801 .P6 S2000 .J28 SHEET 1", "recid": "qf331pm3870", "websiteUrl": "https://purl.stanford.edu/qf331pm3870", "title": "二百万分一航空圖", "ckey": 10436352, "available": true, "iiifUrl": "https://purl.stanford.edu/qf331pm3870/iiif/manifest" }, "geometry": { "type": "Polygon", "coordinates": [ [ [ 129.0, 40.5 ], [ 146.0, 40.5 ], [ 146.0, 56.0 ], [ 129.0, 56.0 ], [ 129.0, 40.5 ] ] ] } },
{ "type": "Feature", "properties": { "Id": 0, "Sheet_ID": "2. [日本]", "label": "2. [日本]", "call_short": null, "call_num": null, "recid": null, "websiteUrl": null, "title": null, "ckey": 0, "available": false, "iiifUrl": null }, "geometry": { "type": "Polygon", "coordinates": [ [ [ 129.0, 27.5 ], [ 146.0, 27.5 ], [ 146.0, 44.0 ], [ 129.0, 44.0 ], [ 129.0, 27.5 ] ] ] } },
{ "type": "Feature", "properties": { "Id": 0, "Sheet_ID": "3. シベリヤ中部 - 満州北部", "label": "3. シベリヤ中部 - 満州北部", "call_short": "G7801 .P6 S2000 .J28", "call_num": "G7801 .P6 S2000 .J28 SHEET 3", "recid": "vr613fz3318", "websiteUrl": "https://purl.stanford.edu/vr613fz3318", "title": "二百万分一航空圖", "ckey": 10436352, "available": true, "iiifUrl": "https://purl.stanford.edu/vr613fz3318/iiif/manifest" }, "geometry": { "type": "Polygon", "coordinates": [ [ [ 116.5, 43.0 ], [ 133.0, 43.0 ], [ 133.0, 58.0 ], [ 116.5, 58.0 ], [ 116.5, 43.0 ] ] ] } },
{ "type": "Feature", "properties": { "Id": 0, "Sheet_ID": "4. 日本西部 - 満洲", "label": "4. 日本西部 - 満洲", "call_short": "G7801 .P6 S2000 .J28", "call_num": "G7801 .P6 S2000 .J28 SHEET 4", "recid": "cm927fg3695", "websiteUrl": "https://purl.stanford.edu/cm927fg3695", "title": "二百万分一航空圖", "ckey": 10436352, "available": true, "iiifUrl": "https://purl.stanford.edu/cm927fg3695/iiif/manifest" }, "geometry": { "type": "Polygon", "coordinates": [ [ [ 116.333333, 32.0 ], [ 133.0, 32.0 ], [ 133.0, 50.0 ], [ 116.333333, 50.0 ], [ 116.333333, 32.0 ] ] ] } },
{ "type": "Feature", "properties": { "Id": 0, "Sheet_ID": "5. 日本西部 - 支那東部", "label": "5. 日本西部 - 支那東部", "call_short": "G7801 .P6 S2000 .J28", "call_num": "G7801 .P6 S2000 .J28 SHEET 5", "recid": "bh383tr4608", "websiteUrl": "https://purl.stanford.edu/bh383tr4608", "title": "二百万分一航空圖", "ckey": 10436352, "available": true, "iiifUrl": "https://purl.stanford.edu/bh383tr4608/iiif/manifest" }, "geometry": { "type": "Polygon", "coordinates": [ [ [ 109.5, 21.5 ], [ 133.0, 21.5 ], [ 133.0, 35.5 ], [ 109.5, 35.5 ], [ 109.5, 21.5 ] ] ] } },
{ "type": "Feature", "properties": { "Id": 0, "Sheet_ID": "6. シベリヤ西部 - 後貝加爾", "label": "6. シベリヤ西部 - 後貝加爾", "call_short": "G7801 .P6 S2000 .J28", "call_num": "G7801 .P6 S2000 .J28 SHEET 6", "recid": "rj654dt3454", "websiteUrl": "https://purl.stanford.edu/rj654dt3454", "title": "二百万分一航空圖", "ckey": 10436352, "available": true, "iiifUrl": "https://purl.stanford.edu/rj654dt3454/iiif/manifest" }, "geometry": { "type": "Polygon", "coordinates": [ [ [ 100.0, 47.833333 ], [ 121.0, 47.833333 ], [ 121.0, 58.0 ], [ 100.0, 58.0 ], [ 100.0, 47.833333 ] ] ] } },
{ "type": "Feature", "properties": { "Id": 0, "Sheet_ID": "7. 蒙古東部 - 支那北部 素圖", "label": "7. 蒙古東部 - 支那北部 素圖", "call_short": "G7801 .P6 S2000 .J28", "call_num": "G7801 .P6 S2000 .J28 SHEET 7 ED.2", "recid": "pv831ph9691", "websiteUrl": "https://purl.stanford.edu/pv831ph9691", "title": "二百万分一航空圖", "ckey": 10436352, "available": true, "iiifUrl": "https://purl.stanford.edu/pv831ph9691/iiif/manifest" }, "geometry": { "type": "Polygon", "coordinates": [ [ [ 104.5, 33.0 ], [ 121.0, 33.0 ], [ 121.0, 50.0 ], [ 104.5, 50.0 ], [ 104.5, 33.0 ] ] ] } },
{ "type": "Feature", "properties": { "Id": 0, "Sheet_ID": "8. 支那南部", "label": "8. 支那南部", "call_short": "G7801 .P6 S2000 .J28", "call_num": "G7801 .P6 S2000 .J28 SHEET 8", "recid": "rw478sz0083", "websiteUrl": "https://purl.stanford.edu/rw478sz0083", "title": "二百万分一圖", "ckey": 10436352, "available": true, "iiifUrl": "https://purl.stanford.edu/rw478sz0083/iiif/manifest" }, "geometry": { "type": "Polygon", "coordinates": [ [ [ 100.0, 21.0 ], [ 123.5, 21.0 ], [ 123.5, 35.5 ], [ 100.0, 35.5 ], [ 100.0, 21.0 ] ] ] } },
{ "type": "Feature", "properties": { "Id": 0, "Sheet_ID": "9. 支那南部 - フィリッピン", "label": "9. 支那南部 - フィリッピン", "call_short": "G7801 .P6 S2000 .J28", "call_num": "G7801 .P6 S2000 .J28 SHEET 9", "recid": "xq929xc1250", "websiteUrl": "https://purl.stanford.edu/xq929xc1250", "title": "二百万分一圖", "ckey": 10436352, "available": true, "iiifUrl": "https://purl.stanford.edu/xq929xc1250/iiif/manifest" }, "geometry": { "type": "Polygon", "coordinates": [ [ [ 102.0, 11.5 ], [ 125.0, 11.5 ], [ 125.0, 27.583333 ], [ 102.0, 27.583333 ], [ 102.0, 11.5 ] ] ] } },
{ "type": "Feature", "properties": { "Id": 0, "Sheet_ID": "5. 日本西部 - 支那東部 ED.2", "label": "5. 日本西部 - 支那東部 ED.2", "call_short": "G7801 .P6 S2000 .J28", "call_num": "G7801 .P6 S2000 .J28 SHEET 5 ED.2", "recid": "ty690dq1774", "websiteUrl": "https://purl.stanford.edu/ty690dq1774", "title": "二百万分一航空圖", "ckey": 10436352, "available": true, "iiifUrl": "https://purl.stanford.edu/ty690dq1774/iiif/manifest" }, "geometry": { "type": "Polygon", "coordinates": [ [ [ 109.5, 21.5 ], [ 133.0, 21.5 ], [ 133.0, 35.5 ], [ 109.5, 35.5 ], [ 109.5, 21.5 ] ] ] } },
{ "type": "Feature", "properties": { "Id": 0, "Sheet_ID": "7. 蒙古東部 - 支那北部", "label": "7. 蒙古東部 - 支那北部", "call_short": "G7801 .P6 S2000 .J28", "call_num": "G7801 .P6 S2000 .J28 SHEET 7", "recid": "tj760ry5586", "websiteUrl": "https://purl.stanford.edu/tj760ry5586", "title": "二百万分一航空圖", "ckey": 10436352, "available": true, "iiifUrl": "https://purl.stanford.edu/tj760ry5586/iiif/manifest" }, "geometry": { "type": "Polygon", "coordinates": [ [ [ 104.5, 33.0 ], [ 121.0, 33.0 ], [ 121.0, 50.0 ], [ 104.5, 50.0 ], [ 104.5, 33.0 ] ] ] } }
]
}
