{
"type": "FeatureCollection",
"name": "index_map",
"features": [
{ "type": "Feature", "properties": { "Id": 0, "Sheet_ID": "ウラカス島", "label": "ウラカス島", "call_short": "G9410 1944 .J36", "call_num": "G9410 1944 .J36 SHEET 1", "recid": "pp642vz8564", "websiteUrl": "https://purl.stanford.edu/pp642vz8564", "title": "[北マリアナ諸島 概況圖]", "ckey": 12377778, "web_map": null, "available": true, "iiifUrl": "https://purl.stanford.edu/pp642vz8564/iiif/manifest" }, "geometry": { "type": "Polygon", "coordinates": [ [ [ 144.879167, 20.530556 ], [ 144.909722, 20.530556 ], [ 144.909722, 20.558333 ], [ 144.879167, 20.558333 ], [ 144.879167, 20.530556 ] ] ] } },
{ "type": "Feature", "properties": { "Id": 0, "Sheet_ID": "モウグ島", "label": "モウグ島", "call_short": "G9410 1944 .J36", "call_num": "G9410 1944 .J36 SHEET 2", "recid": "gd683rz8961", "websiteUrl": "https://purl.stanford.edu/gd683rz8961", "title": "[北マリアナ諸島 概況圖]", "ckey": 12377778, "web_map": null, "available": true, "iiifUrl": "https://purl.stanford.edu/gd683rz8961/iiif/manifest" }, "geometry": { "type": "Polygon", "coordinates": [ [ [ 145.2, 20.0 ], [ 145.245833, 20.0 ], [ 145.245833, 20.041667 ], [ 145.2, 20.041667 ], [ 145.2, 20.0 ] ] ] } },
{ "type": "Feature", "properties": { "Id": 0, "Sheet_ID": "アツソングソン島", "label": "アツソングソン島", "call_short": "G9410 1944 .J36", "call_num": "G9410 1944 .J36 SHEET 3", "recid": "zv933nb8567", "websiteUrl": "https://purl.stanford.edu/zv933nb8567", "title": "[北マリアナ諸島 概況圖]", "ckey": 12377778, "web_map": null, "available": true, "iiifUrl": "https://purl.stanford.edu/zv933nb8567/iiif/manifest" }, "geometry": { "type": "Polygon", "coordinates": [ [ [ 145.375, 19.666667 ], [ 145.433333, 19.666667 ], [ 145.433333, 19.716667 ], [ 145.375, 19.716667 ], [ 145.375, 19.666667 ] ] ] } },
{ "type": "Feature", "properties": { "Id": 0, "Sheet_ID": "アグリガン島", "label": "アグリガン島", "call_short": "G9410 1944 .J36", "call_num": "G9410 1944 .J36 SHEET 4", "recid": "bn557tj3697", "websiteUrl": "https://purl.stanford.edu/bn557tj3697", "title": "[北マリアナ諸島 概況圖]", "ckey": 12377778, "web_map": null, "available": true, "iiifUrl": "https://purl.stanford.edu/bn557tj3697/iiif/manifest" }, "geometry": { "type": "Polygon", "coordinates": [ [ [ 145.583333, 18.7 ], [ 145.75, 18.7 ], [ 145.75, 18.833333 ], [ 145.583333, 18.833333 ], [ 145.583333, 18.7 ] ] ] } },
{ "type": "Feature", "properties": { "Id": 0, "Sheet_ID": "パガン島", "label": "パガン島", "call_short": "G9410 1944 .J36", "call_num": "G9410 1944 .J36 SHEET 5", "recid": "rm356zb2174", "websiteUrl": "https://purl.stanford.edu/rm356zb2174", "title": "[北マリアナ諸島 概況圖]", "ckey": 12377778, "web_map": null, "available": true, "iiifUrl": "https://purl.stanford.edu/rm356zb2174/iiif/manifest" }, "geometry": { "type": "Polygon", "coordinates": [ [ [ 145.691667, 18.016667 ], [ 145.833333, 18.016667 ], [ 145.833333, 18.2 ], [ 145.691667, 18.2 ], [ 145.691667, 18.016667 ] ] ] } },
{ "type": "Feature", "properties": { "Id": 0, "Sheet_ID": "アラマガン島", "label": "アラマガン島", "call_short": "G9410 1944 .J36", "call_num": "G9410 1944 .J36 SHEET 6", "recid": "cs986rn5340", "websiteUrl": "https://purl.stanford.edu/cs986rn5340", "title": "[北マリアナ諸島 概況圖]", "ckey": 12377778, "web_map": null, "available": true, "iiifUrl": "https://purl.stanford.edu/cs986rn5340/iiif/manifest" }, "geometry": { "type": "Polygon", "coordinates": [ [ [ 145.8, 17.566667 ], [ 145.866667, 17.566667 ], [ 145.866667, 17.633333 ], [ 145.8, 17.633333 ], [ 145.8, 17.566667 ] ] ] } },
{ "type": "Feature", "properties": { "Id": 0, "Sheet_ID": "グーグワン島", "label": "グーグワン島", "call_short": "G9410 1944 .J36", "call_num": "G9410 1944 .J36 SHEET 7", "recid": "cg822xr5897", "websiteUrl": "https://purl.stanford.edu/cg822xr5897", "title": "[北マリアナ諸島 概況圖]", "ckey": 12377778, "web_map": null, "available": true, "iiifUrl": "https://purl.stanford.edu/cg822xr5897/iiif/manifest" }, "geometry": { "type": "Polygon", "coordinates": [ [ [ 145.816667, 17.283333 ], [ 145.866667, 17.283333 ], [ 145.866667, 17.333333 ], [ 145.816667, 17.333333 ], [ 145.816667, 17.283333 ] ] ] } },
{ "type": "Feature", "properties": { "Id": 0, "Sheet_ID": "サリグワン島", "label": "サリグワン島", "call_short": "G9410 1944 .J36", "call_num": "G9410 1944 .J36 SHEET 8", "recid": "bb960cn1450", "websiteUrl": "https://purl.stanford.edu/bb960cn1450", "title": "[北マリアナ諸島 概況圖]", "ckey": 12377778, "web_map": null, "available": true, "iiifUrl": "https://purl.stanford.edu/bb960cn1450/iiif/manifest" }, "geometry": { "type": "Polygon", "coordinates": [ [ [ 145.75, 16.666667 ], [ 145.816667, 16.666667 ], [ 145.816667, 16.75 ], [ 145.75, 16.75 ], [ 145.75, 16.666667 ] ] ] } },
{ "type": "Feature", "properties": { "Id": 0, "Sheet_ID": "アナタハン島", "label": "アナタハン島", "call_short": "G9410 1944 .J36", "call_num": "G9410 1944 .J36 SHEET 9", "recid": "nk012tz2924", "websiteUrl": "https://purl.stanford.edu/nk012tz2924", "title": "[北マリアナ諸島 概況圖]", "ckey": 12377778, "web_map": null, "available": true, "iiifUrl": "https://purl.stanford.edu/nk012tz2924/iiif/manifest" }, "geometry": { "type": "Polygon", "coordinates": [ [ [ 145.6, 16.283333 ], [ 145.75, 16.283333 ], [ 145.75, 16.416667 ], [ 145.6, 16.416667 ], [ 145.6, 16.283333 ] ] ] } },
{ "type": "Feature", "properties": { "Id": 0, "Sheet_ID": "メディニージヤ島", "label": "メディニージヤ島", "call_short": "G9410 1944 .J36", "call_num": "G9410 1944 .J36 SHEET 10", "recid": "jp616zj7497", "websiteUrl": "https://purl.stanford.edu/jp616zj7497", "title": "[北マリアナ諸島 概況圖]", "ckey": 12377778, "web_map": null, "available": true, "iiifUrl": "https://purl.stanford.edu/jp616zj7497/iiif/manifest" }, "geometry": { "type": "Polygon", "coordinates": [ [ [ 146.025, 15.991667 ], [ 146.1, 15.991667 ], [ 146.1, 16.058333 ], [ 146.025, 16.058333 ], [ 146.025, 15.991667 ] ] ] } },
{ "type": "Feature", "properties": { "Id": 0, "Sheet_ID": "サイパン島", "label": "サイパン島", "call_short": "G9410 1944 .J36", "call_num": "G9410 1944 .J36 SHEET 11", "recid": "fd908ck8123", "websiteUrl": "https://purl.stanford.edu/fd908ck8123", "title": "[北マリアナ諸島 概況圖]", "ckey": 12377778, "web_map": null, "available": true, "iiifUrl": "https://purl.stanford.edu/fd908ck8123/iiif/manifest" }, "geometry": { "type": "Polygon", "coordinates": [ [ [ 145.5, 15.016667 ], [ 146.0, 15.016667 ], [ 146.0, 15.366667 ], [ 145.5, 15.366667 ], [ 145.5, 15.016667 ] ] ] } },
{ "type": "Feature", "properties": { "Id": 0, "Sheet_ID": "サイパン港 (分圖)", "label": "サイパン港 (分圖)", "call_short": "G9410 1944 .J36", "call_num": "G9410 1944 .J36 SHEET 11D", "recid": "yg064wn6574", "websiteUrl": "https://purl.stanford.edu/yg064wn6574", "title": "[北マリアナ諸島 概況圖]", "ckey": 12377778, "web_map": null, "available": true, "iiifUrl": "https://purl.stanford.edu/yg064wn6574/iiif/manifest" }, "geometry": { "type": "Polygon", "coordinates": [ [ [ 145.658333, 15.125 ], [ 145.766667, 15.125 ], [ 145.766667, 15.283333 ], [ 145.658333, 15.283333 ], [ 145.658333, 15.125 ] ] ] } },
{ "type": "Feature", "properties": { "Id": 0, "Sheet_ID": "テニアン島", "label": "テニアン島", "call_short": "G9410 1944 .J36", "call_num": "G9410 1944 .J36 SHEET 12", "recid": "dq323yv5480", "websiteUrl": "https://purl.stanford.edu/dq323yv5480", "title": "[北マリアナ諸島 概況圖]", "ckey": 12377778, "web_map": null, "available": true, "iiifUrl": "https://purl.stanford.edu/dq323yv5480/iiif/manifest" }, "geometry": { "type": "Polygon", "coordinates": [ [ [ 145.45, 14.85 ], [ 145.95, 14.85 ], [ 145.95, 15.183333 ], [ 145.45, 15.183333 ], [ 145.45, 14.85 ] ] ] } },
{ "type": "Feature", "properties": { "Id": 0, "Sheet_ID": "アギグアン島", "label": "アギグアン島", "call_short": "G9410 1944 .J36", "call_num": "G9410 1944 .J36 SHEET 13", "recid": "zf690ck4399", "websiteUrl": "https://purl.stanford.edu/zf690ck4399", "title": "[北マリアナ諸島 概況圖]", "ckey": 12377778, "web_map": null, "available": true, "iiifUrl": "https://purl.stanford.edu/zf690ck4399/iiif/manifest" }, "geometry": { "type": "Polygon", "coordinates": [ [ [ 145.366667, 14.683333 ], [ 145.833333, 14.683333 ], [ 145.833333, 15.016667 ], [ 145.366667, 15.016667 ], [ 145.366667, 14.683333 ] ] ] } },
{ "type": "Feature", "properties": { "Id": 0, "Sheet_ID": "ロタ島", "label": "ロタ島", "call_short": "G9410 1944 .J36", "call_num": "G9410 1944 .J36 SHEET 14", "recid": "dp010ht2020", "websiteUrl": "https://purl.stanford.edu/dp010ht2020", "title": "[北マリアナ諸島 概況圖]", "ckey": 12377778, "web_map": null, "available": true, "iiifUrl": "https://purl.stanford.edu/dp010ht2020/iiif/manifest" }, "geometry": { "type": "Polygon", "coordinates": [ [ [ 145.016667, 14.033333 ], [ 145.366667, 14.033333 ], [ 145.366667, 14.25 ], [ 145.016667, 14.25 ], [ 145.016667, 14.033333 ] ] ] } },
{ "type": "Feature", "properties": { "Id": 0, "Sheet_ID": "ロタ港 (分圖)", "label": "ロタ港 (分圖)", "call_short": "G9410 1944 .J36", "call_num": "G9410 1944 .J36 SHEET 14D", "recid": "yf769pq8500", "websiteUrl": "https://purl.stanford.edu/yf769pq8500", "title": "[北マリアナ諸島 概況圖]", "ckey": 12377778, "web_map": null, "available": true, "iiifUrl": "https://purl.stanford.edu/yf769pq8500/iiif/manifest" }, "geometry": { "type": "Polygon", "coordinates": [ [ [ 145.1, 14.108333 ], [ 145.183333, 14.108333 ], [ 145.183333, 14.158333 ], [ 145.1, 14.158333 ], [ 145.1, 14.108333 ] ] ] } },
{ "type": "Feature", "properties": { "Id": 0, "Sheet_ID": "テニアン港 (分圖)", "label": "テニアン港 (分圖)", "call_short": "G9410 1944 .J36", "call_num": "G9410 1944 .J36 SHEET 12D", "recid": "rq855np2330", "websiteUrl": "https://purl.stanford.edu/rq855np2330", "title": "[北マリアナ諸島 概況圖]", "ckey": 12377778, "web_map": null, "available": true, "iiifUrl": "https://purl.stanford.edu/rq855np2330/iiif/manifest" }, "geometry": { "type": "Polygon", "coordinates": [ [ [ 145.575, 14.925 ], [ 145.641667, 14.925 ], [ 145.641667, 14.983333 ], [ 145.575, 14.983333 ], [ 145.575, 14.925 ] ] ] } }
]
}
