{
"type": "FeatureCollection",
"name": "index_map",
"xy_coordinate_resolution": 1e-07,
"features": [
{ "type": "Feature", "properties": { "Id": 0, "Sheet_ID": "W6S4S: 許愛", "label": "W6S4S: 許愛", "call_short": "G7400 S1000 .J35", "call_num": "G7400 S1000 .J35 F-16", "recid": "xn338mb9297", "websiteUrl": "https://purl.stanford.edu/xn338mb9297", "title": "東亞輿地圖", "ckey": 9590333, "available": true, "iiifUrl": "https://purl.stanford.edu/xn338mb9297/iiif/manifest" }, "geometry": { "type": "Polygon", "coordinates": [ [ [ 105.0, 15.0 ], [ 110.0, 15.0 ], [ 110.0, 17.5 ], [ 105.0, 17.5 ], [ 105.0, 15.0 ] ] ] } },
{ "type": "Feature", "properties": { "Id": 0, "Sheet_ID": "W7S4N: 路安布拉盤", "label": "W7S4N: 路安布拉盤", "call_short": "G7400 S1000 .J35", "call_num": "G7400 S1000 .J35 G-15", "recid": "kr144fz8319", "websiteUrl": "https://purl.stanford.edu/kr144fz8319", "title": "東亞輿地圖", "ckey": 9590333, "available": true, "iiifUrl": "https://purl.stanford.edu/kr144fz8319/iiif/manifest" }, "geometry": { "type": "Polygon", "coordinates": [ [ [ 100.0, 17.5 ], [ 105.0, 17.5 ], [ 105.0, 20.0 ], [ 100.0, 20.0 ], [ 100.0, 17.5 ] ] ] } },
{ "type": "Feature", "properties": { "Id": 0, "Sheet_ID": "W6S4N: 清華", "label": "W6S4N: 清華", "call_short": "G7400 S1000 .J35", "call_num": "G7400 S1000 .J35 F-15", "recid": "tw071zp8937", "websiteUrl": "https://purl.stanford.edu/tw071zp8937", "title": "東亞輿地圖", "ckey": 9590333, "available": true, "iiifUrl": "https://purl.stanford.edu/tw071zp8937/iiif/manifest" }, "geometry": { "type": "Polygon", "coordinates": [ [ [ 105.0, 17.5 ], [ 110.0, 17.5 ], [ 110.0, 20.0 ], [ 105.0, 20.0 ], [ 105.0, 17.5 ] ] ] } },
{ "type": "Feature", "properties": { "Id": 0, "Sheet_ID": "W5S4N: 萬州", "label": "W5S4N: 萬州", "call_short": "G7400 S1000 .J35", "call_num": "G7400 S1000 .J35 E-15", "recid": "sk465vh7472", "websiteUrl": "https://purl.stanford.edu/sk465vh7472", "title": "東亞輿地圖", "ckey": 9590333, "available": true, "iiifUrl": "https://purl.stanford.edu/sk465vh7472/iiif/manifest" }, "geometry": { "type": "Polygon", "coordinates": [ [ [ 110.0, 17.5 ], [ 115.0, 17.5 ], [ 115.0, 20.0 ], [ 110.0, 20.0 ], [ 110.0, 17.5 ] ] ] } },
{ "type": "Feature", "properties": { "Id": 0, "Sheet_ID": "W7S3S: 建笨", "label": "W7S3S: 建笨", "call_short": "G7400 S1000 .J35", "call_num": "G7400 S1000 .J35 G-14", "recid": "bf147yb4698", "websiteUrl": "https://purl.stanford.edu/bf147yb4698", "title": "東亞輿地圖", "ckey": 9590333, "available": true, "iiifUrl": "https://purl.stanford.edu/bf147yb4698/iiif/manifest" }, "geometry": { "type": "Polygon", "coordinates": [ [ [ 100.0, 20.0 ], [ 105.0, 20.0 ], [ 105.0, 22.5 ], [ 100.0, 22.5 ], [ 100.0, 20.0 ] ] ] } },
{ "type": "Feature", "properties": { "Id": 0, "Sheet_ID": "W6S3S: 河内", "label": "W6S3S: 河内", "call_short": "G7400 S1000 .J35", "call_num": "G7400 S1000 .J35 F-14", "recid": "js575zh7639", "websiteUrl": "https://purl.stanford.edu/js575zh7639", "title": "東亞輿地圖", "ckey": 9590333, "available": true, "iiifUrl": "https://purl.stanford.edu/js575zh7639/iiif/manifest" }, "geometry": { "type": "Polygon", "coordinates": [ [ [ 105.0, 20.0 ], [ 110.0, 20.0 ], [ 110.0, 22.5 ], [ 105.0, 22.5 ], [ 105.0, 20.0 ] ] ] } },
{ "type": "Feature", "properties": { "Id": 0, "Sheet_ID": "W5S3S: 香港", "label": "W5S3S: 香港", "call_short": "G7400 S1000 .J35", "call_num": "G7400 S1000 .J35 E-14", "recid": "sy717jw2311", "websiteUrl": "https://purl.stanford.edu/sy717jw2311", "title": "東亞輿地圖", "ckey": 9590333, "available": true, "iiifUrl": "https://purl.stanford.edu/sy717jw2311/iiif/manifest" }, "geometry": { "type": "Polygon", "coordinates": [ [ [ 110.0, 20.0 ], [ 115.0, 20.0 ], [ 115.0, 22.5 ], [ 110.0, 22.5 ], [ 110.0, 20.0 ] ] ] } },
{ "type": "Feature", "properties": { "Id": 0, "Sheet_ID": "W3S3N: 恒春", "label": "W3S3N: 恒春", "call_short": null, "call_num": null, "recid": null, "websiteUrl": null, "title": null, "ckey": 0, "available": false, "iiifUrl": null }, "geometry": { "type": "Polygon", "coordinates": [ [ [ 120.0, 20.0 ], [ 125.0, 20.0 ], [ 125.0, 22.5 ], [ 120.0, 22.5 ], [ 120.0, 20.0 ] ] ] } },
{ "type": "Feature", "properties": { "Id": 0, "Sheet_ID": "W7S3N: 雲南", "label": "W7S3N: 雲南", "call_short": "G7400 S1000 .J35", "call_num": "G7400 S1000 .J35 G-13", "recid": "wv804wz5224", "websiteUrl": "https://purl.stanford.edu/wv804wz5224", "title": "東亞輿地圖", "ckey": 9590333, "available": true, "iiifUrl": "https://purl.stanford.edu/wv804wz5224/iiif/manifest" }, "geometry": { "type": "Polygon", "coordinates": [ [ [ 100.0, 22.5 ], [ 105.0, 22.5 ], [ 105.0, 25.0 ], [ 100.0, 25.0 ], [ 100.0, 22.5 ] ] ] } },
{ "type": "Feature", "properties": { "Id": 0, "Sheet_ID": "W6S3N: 慶遠", "label": "W6S3N: 慶遠", "call_short": "G7400 S1000 .J35", "call_num": "G7400 S1000 .J35 F-13", "recid": "qy782kt4225", "websiteUrl": "https://purl.stanford.edu/qy782kt4225", "title": "東亞輿地圖", "ckey": 9590333, "available": true, "iiifUrl": "https://purl.stanford.edu/qy782kt4225/iiif/manifest" }, "geometry": { "type": "Polygon", "coordinates": [ [ [ 105.0, 22.5 ], [ 110.0, 22.5 ], [ 110.0, 25.0 ], [ 105.0, 25.0 ], [ 105.0, 22.5 ] ] ] } },
{ "type": "Feature", "properties": { "Id": 0, "Sheet_ID": "W5S3N: 廣東", "label": "W5S3N: 廣東", "call_short": "G7400 S1000 .J35", "call_num": "G7400 S1000 .J35 E-13", "recid": "fs510mm5015", "websiteUrl": "https://purl.stanford.edu/fs510mm5015", "title": "東亞輿地圖", "ckey": 9590333, "available": true, "iiifUrl": "https://purl.stanford.edu/fs510mm5015/iiif/manifest" }, "geometry": { "type": "Polygon", "coordinates": [ [ [ 110.0, 22.5 ], [ 115.0, 22.5 ], [ 115.0, 25.0 ], [ 110.0, 25.0 ], [ 110.0, 22.5 ] ] ] } },
{ "type": "Feature", "properties": { "Id": 0, "Sheet_ID": "W4S3N: 厦門", "label": "W4S3N: 厦門", "call_short": "G7400 S1000 .J35", "call_num": "G7400 S1000 .J35 D-13", "recid": "rm817bz1980", "websiteUrl": "https://purl.stanford.edu/rm817bz1980", "title": "東亞輿地圖", "ckey": 9590333, "available": true, "iiifUrl": "https://purl.stanford.edu/rm817bz1980/iiif/manifest" }, "geometry": { "type": "Polygon", "coordinates": [ [ [ 115.0, 22.5 ], [ 120.0, 22.5 ], [ 120.0, 25.0 ], [ 115.0, 25.0 ], [ 115.0, 22.5 ] ] ] } },
{ "type": "Feature", "properties": { "Id": 0, "Sheet_ID": "W3S3N: 臺南", "label": "W3S3N: 臺南", "call_short": "G7400 S1000 .J35", "call_num": "G7400 S1000 .J35 C-13", "recid": "kc149cc0698", "websiteUrl": "https://purl.stanford.edu/kc149cc0698", "title": "東亞輿地圖", "ckey": 9590333, "available": true, "iiifUrl": "https://purl.stanford.edu/kc149cc0698/iiif/manifest" }, "geometry": { "type": "Polygon", "coordinates": [ [ [ 120.0, 22.5 ], [ 125.0, 22.5 ], [ 125.0, 25.0 ], [ 120.0, 25.0 ], [ 120.0, 22.5 ] ] ] } },
{ "type": "Feature", "properties": { "Id": 0, "Sheet_ID": "W7S2S: 曲靖", "label": "W7S2S: 曲靖", "call_short": "G7400 S1000 .J35", "call_num": "G7400 S1000 .J35 G-12", "recid": "nq548cc9618", "websiteUrl": "https://purl.stanford.edu/nq548cc9618", "title": "東亞輿地圖", "ckey": 9590333, "available": true, "iiifUrl": "https://purl.stanford.edu/nq548cc9618/iiif/manifest" }, "geometry": { "type": "Polygon", "coordinates": [ [ [ 100.0, 25.0 ], [ 105.0, 25.0 ], [ 105.0, 27.5 ], [ 100.0, 27.5 ], [ 100.0, 25.0 ] ] ] } },
{ "type": "Feature", "properties": { "Id": 0, "Sheet_ID": "W6S2S: 貴陽", "label": "W6S2S: 貴陽", "call_short": "G7400 S1000 .J35", "call_num": "G7400 S1000 .J35 F-12", "recid": "zn136km0968", "websiteUrl": "https://purl.stanford.edu/zn136km0968", "title": "東亞輿地圖", "ckey": 9590333, "available": true, "iiifUrl": "https://purl.stanford.edu/zn136km0968/iiif/manifest" }, "geometry": { "type": "Polygon", "coordinates": [ [ [ 105.0, 25.0 ], [ 110.0, 25.0 ], [ 110.0, 27.5 ], [ 105.0, 27.5 ], [ 105.0, 25.0 ] ] ] } },
{ "type": "Feature", "properties": { "Id": 0, "Sheet_ID": "W5S2S: 桂林", "label": "W5S2S: 桂林", "call_short": "G7400 S1000 .J35", "call_num": "G7400 S1000 .J35 E-12", "recid": "rj134mx8107", "websiteUrl": "https://purl.stanford.edu/rj134mx8107", "title": "東亞輿地圖", "ckey": 9590333, "available": true, "iiifUrl": "https://purl.stanford.edu/rj134mx8107/iiif/manifest" }, "geometry": { "type": "Polygon", "coordinates": [ [ [ 110.0, 25.0 ], [ 115.0, 25.0 ], [ 115.0, 27.5 ], [ 110.0, 27.5 ], [ 110.0, 25.0 ] ] ] } },
{ "type": "Feature", "properties": { "Id": 0, "Sheet_ID": "W4S2S: 福州", "label": "W4S2S: 福州", "call_short": "G7400 S1000 .J35", "call_num": "G7400 S1000 .J35 D-12", "recid": "pb555xc0071", "websiteUrl": "https://purl.stanford.edu/pb555xc0071", "title": "東亞輿地圖", "ckey": 9590333, "available": true, "iiifUrl": "https://purl.stanford.edu/pb555xc0071/iiif/manifest" }, "geometry": { "type": "Polygon", "coordinates": [ [ [ 115.0, 25.0 ], [ 120.0, 25.0 ], [ 120.0, 27.5 ], [ 115.0, 27.5 ], [ 115.0, 25.0 ] ] ] } },
{ "type": "Feature", "properties": { "Id": 0, "Sheet_ID": "W3S2S: 臺北", "label": "W3S2S: 臺北", "call_short": "G7400 S1000 .J35", "call_num": "G7400 S1000 .J35 C-12", "recid": "xp429tq4657", "websiteUrl": "https://purl.stanford.edu/xp429tq4657", "title": "東亞輿地圖", "ckey": 9590333, "available": true, "iiifUrl": "https://purl.stanford.edu/xp429tq4657/iiif/manifest" }, "geometry": { "type": "Polygon", "coordinates": [ [ [ 120.0, 25.0 ], [ 125.0, 25.0 ], [ 125.0, 27.5 ], [ 120.0, 27.5 ], [ 120.0, 25.0 ] ] ] } },
{ "type": "Feature", "properties": { "Id": 0, "Sheet_ID": "W7S2N: 嘉定", "label": "W7S2N: 嘉定", "call_short": "G7400 S1000 .J35", "call_num": "G7400 S1000 .J35 G-11", "recid": "kt772pc4554", "websiteUrl": "https://purl.stanford.edu/kt772pc4554", "title": "東亞輿地圖", "ckey": 9590333, "available": true, "iiifUrl": "https://purl.stanford.edu/kt772pc4554/iiif/manifest" }, "geometry": { "type": "Polygon", "coordinates": [ [ [ 100.0, 27.5 ], [ 105.0, 27.5 ], [ 105.0, 30.0 ], [ 100.0, 30.0 ], [ 100.0, 27.5 ] ] ] } },
{ "type": "Feature", "properties": { "Id": 0, "Sheet_ID": "W6S2N: 重慶", "label": "W6S2N: 重慶", "call_short": null, "call_num": null, "recid": null, "websiteUrl": null, "title": null, "ckey": 0, "available": false, "iiifUrl": null }, "geometry": { "type": "Polygon", "coordinates": [ [ [ 105.0, 27.5 ], [ 110.0, 27.5 ], [ 110.0, 30.0 ], [ 105.0, 30.0 ], [ 105.0, 27.5 ] ] ] } },
{ "type": "Feature", "properties": { "Id": 0, "Sheet_ID": "W5S2N: 長沙", "label": "W5S2N: 長沙", "call_short": "G7400 S1000 .J35", "call_num": "G7400 S1000 .J35 E-11", "recid": "hv026nz6599", "websiteUrl": "https://purl.stanford.edu/hv026nz6599", "title": "東亞輿地圖", "ckey": 9590333, "available": true, "iiifUrl": "https://purl.stanford.edu/hv026nz6599/iiif/manifest" }, "geometry": { "type": "Polygon", "coordinates": [ [ [ 110.0, 27.5 ], [ 115.0, 27.5 ], [ 115.0, 30.0 ], [ 110.0, 30.0 ], [ 110.0, 27.5 ] ] ] } },
{ "type": "Feature", "properties": { "Id": 0, "Sheet_ID": "W4S2N: 南昌", "label": "W4S2N: 南昌", "call_short": "G7400 S1000 .J35", "call_num": "G7400 S1000 .J35 D-11", "recid": "cm237tt4183", "websiteUrl": "https://purl.stanford.edu/cm237tt4183", "title": "東亞輿地圖", "ckey": 9590333, "available": true, "iiifUrl": "https://purl.stanford.edu/cm237tt4183/iiif/manifest" }, "geometry": { "type": "Polygon", "coordinates": [ [ [ 115.0, 27.5 ], [ 120.0, 27.5 ], [ 120.0, 30.0 ], [ 115.0, 30.0 ], [ 115.0, 27.5 ] ] ] } },
{ "type": "Feature", "properties": { "Id": 0, "Sheet_ID": "W3S2N: 甯波", "label": "W3S2N: 甯波", "call_short": "G7400 S1000 .J35", "call_num": "G7400 S1000 .J35 C-11", "recid": "wz592sw2451", "websiteUrl": "https://purl.stanford.edu/wz592sw2451", "title": "東亞輿地圖", "ckey": 9590333, "available": true, "iiifUrl": "https://purl.stanford.edu/wz592sw2451/iiif/manifest" }, "geometry": { "type": "Polygon", "coordinates": [ [ [ 120.0, 27.5 ], [ 125.0, 27.5 ], [ 125.0, 30.0 ], [ 120.0, 30.0 ], [ 120.0, 27.5 ] ] ] } },
{ "type": "Feature", "properties": { "Id": 0, "Sheet_ID": "W7S1S: 成都", "label": "W7S1S: 成都", "call_short": "G7400 S1000 .J35", "call_num": "G7400 S1000 .J35 G-10", "recid": "wz283rb3494", "websiteUrl": "https://purl.stanford.edu/wz283rb3494", "title": "東亞輿地圖", "ckey": 9590333, "available": true, "iiifUrl": "https://purl.stanford.edu/wz283rb3494/iiif/manifest" }, "geometry": { "type": "Polygon", "coordinates": [ [ [ 100.0, 30.0 ], [ 105.0, 30.0 ], [ 105.0, 32.5 ], [ 100.0, 32.5 ], [ 100.0, 30.0 ] ] ] } },
{ "type": "Feature", "properties": { "Id": 0, "Sheet_ID": "W6S1S: 綏定", "label": "W6S1S: 綏定", "call_short": "G7400 S1000 .J35", "call_num": "G7400 S1000 .J35 F-10", "recid": "sy026sr9703", "websiteUrl": "https://purl.stanford.edu/sy026sr9703", "title": "東亞輿地圖", "ckey": 9590333, "available": true, "iiifUrl": "https://purl.stanford.edu/sy026sr9703/iiif/manifest" }, "geometry": { "type": "Polygon", "coordinates": [ [ [ 105.0, 30.0 ], [ 110.0, 30.0 ], [ 110.0, 32.5 ], [ 105.0, 32.5 ], [ 105.0, 30.0 ] ] ] } },
{ "type": "Feature", "properties": { "Id": 0, "Sheet_ID": "W5S1S: 武昌", "label": "W5S1S: 武昌", "call_short": "G7400 S1000 .J35", "call_num": "G7400 S1000 .J35 E-10", "recid": "mr425sv6727", "websiteUrl": "https://purl.stanford.edu/mr425sv6727", "title": "東亞輿地圖", "ckey": 9590333, "available": true, "iiifUrl": "https://purl.stanford.edu/mr425sv6727/iiif/manifest" }, "geometry": { "type": "Polygon", "coordinates": [ [ [ 110.0, 30.0 ], [ 115.0, 30.0 ], [ 115.0, 32.5 ], [ 110.0, 32.5 ], [ 110.0, 30.0 ] ] ] } },
{ "type": "Feature", "properties": { "Id": 0, "Sheet_ID": "W4S1S: 南京", "label": "W4S1S: 南京", "call_short": "G7400 S1000 .J35", "call_num": "G7400 S1000 .J35 D-10", "recid": "vq974vr8577", "websiteUrl": "https://purl.stanford.edu/vq974vr8577", "title": "東亞輿地圖", "ckey": 9590333, "available": true, "iiifUrl": "https://purl.stanford.edu/vq974vr8577/iiif/manifest" }, "geometry": { "type": "Polygon", "coordinates": [ [ [ 115.0, 30.0 ], [ 120.0, 30.0 ], [ 120.0, 32.5 ], [ 115.0, 32.5 ], [ 115.0, 30.0 ] ] ] } },
{ "type": "Feature", "properties": { "Id": 0, "Sheet_ID": "W3S1S: 上海", "label": "W3S1S: 上海", "call_short": "G7400 S1000 .J35", "call_num": "G7400 S1000 .J35 C-10", "recid": "rg633wt1818", "websiteUrl": "https://purl.stanford.edu/rg633wt1818", "title": "東亞輿地圖", "ckey": 9590333, "available": true, "iiifUrl": "https://purl.stanford.edu/rg633wt1818/iiif/manifest" }, "geometry": { "type": "Polygon", "coordinates": [ [ [ 120.0, 30.0 ], [ 125.0, 30.0 ], [ 125.0, 32.5 ], [ 120.0, 32.5 ], [ 120.0, 30.0 ] ] ] } },
{ "type": "Feature", "properties": { "Id": 0, "Sheet_ID": "W7S1N: 岷州", "label": "W7S1N: 岷州", "call_short": "G7400 S1000 .J35", "call_num": "G7400 S1000 .J35 G-09", "recid": "ww010dk3480", "websiteUrl": "https://purl.stanford.edu/ww010dk3480", "title": "東亞輿地圖", "ckey": 9590333, "available": true, "iiifUrl": "https://purl.stanford.edu/ww010dk3480/iiif/manifest" }, "geometry": { "type": "Polygon", "coordinates": [ [ [ 100.0, 32.5 ], [ 105.0, 32.5 ], [ 105.0, 35.0 ], [ 100.0, 35.0 ], [ 100.0, 32.5 ] ] ] } },
{ "type": "Feature", "properties": { "Id": 0, "Sheet_ID": "W6S1N: 西安", "label": "W6S1N: 西安", "call_short": "G7400 S1000 .J35", "call_num": "G7400 S1000 .J35 F-09", "recid": "jb115dd5232", "websiteUrl": "https://purl.stanford.edu/jb115dd5232", "title": "東亞輿地圖", "ckey": 9590333, "available": true, "iiifUrl": "https://purl.stanford.edu/jb115dd5232/iiif/manifest" }, "geometry": { "type": "Polygon", "coordinates": [ [ [ 105.0, 32.5 ], [ 110.0, 32.5 ], [ 110.0, 35.0 ], [ 105.0, 35.0 ], [ 105.0, 32.5 ] ] ] } },
{ "type": "Feature", "properties": { "Id": 0, "Sheet_ID": "W5S1N: 開封", "label": "W5S1N: 開封", "call_short": "G7400 S1000 .J35", "call_num": "G7400 S1000 .J35 E-09", "recid": "bq730bp4694", "websiteUrl": "https://purl.stanford.edu/bq730bp4694", "title": "東亞輿地圖", "ckey": 9590333, "available": true, "iiifUrl": "https://purl.stanford.edu/bq730bp4694/iiif/manifest" }, "geometry": { "type": "Polygon", "coordinates": [ [ [ 110.0, 32.5 ], [ 115.0, 32.5 ], [ 115.0, 35.0 ], [ 110.0, 35.0 ], [ 110.0, 32.5 ] ] ] } },
{ "type": "Feature", "properties": { "Id": 0, "Sheet_ID": "W4S1N: 鳳陽", "label": "W4S1N: 鳳陽", "call_short": "G7400 S1000 .J35", "call_num": "G7400 S1000 .J35 D-09", "recid": "nh841dd1731", "websiteUrl": "https://purl.stanford.edu/nh841dd1731", "title": "東亞輿地圖", "ckey": 9590333, "available": true, "iiifUrl": "https://purl.stanford.edu/nh841dd1731/iiif/manifest" }, "geometry": { "type": "Polygon", "coordinates": [ [ [ 115.0, 32.5 ], [ 120.0, 32.5 ], [ 120.0, 35.0 ], [ 115.0, 35.0 ], [ 115.0, 32.5 ] ] ] } },
{ "type": "Feature", "properties": { "Id": 0, "Sheet_ID": "W3S1N: 鹽城", "label": "W3S1N: 鹽城", "call_short": "G7400 S1000 .J35", "call_num": "G7400 S1000 .J35 C-09", "recid": "wc408rx8574", "websiteUrl": "https://purl.stanford.edu/wc408rx8574", "title": "東亞輿地圖", "ckey": 9590333, "available": true, "iiifUrl": "https://purl.stanford.edu/wc408rx8574/iiif/manifest" }, "geometry": { "type": "Polygon", "coordinates": [ [ [ 120.0, 32.5 ], [ 125.0, 32.5 ], [ 125.0, 35.0 ], [ 120.0, 35.0 ], [ 120.0, 32.5 ] ] ] } },
{ "type": "Feature", "properties": { "Id": 0, "Sheet_ID": "W7N1S: 蘭州", "label": "W7N1S: 蘭州", "call_short": "G7400 S1000 .J35", "call_num": "G7400 S1000 .J35 G-08", "recid": "kp581cc3120", "websiteUrl": "https://purl.stanford.edu/kp581cc3120", "title": "東亞輿地圖", "ckey": 9590333, "available": true, "iiifUrl": "https://purl.stanford.edu/kp581cc3120/iiif/manifest" }, "geometry": { "type": "Polygon", "coordinates": [ [ [ 100.0, 35.0 ], [ 105.0, 35.0 ], [ 105.0, 37.5 ], [ 100.0, 37.5 ], [ 100.0, 35.0 ] ] ] } },
{ "type": "Feature", "properties": { "Id": 0, "Sheet_ID": "W6N1S: 平凉", "label": "W6N1S: 平凉", "call_short": "G7400 S1000 .J35", "call_num": "G7400 S1000 .J35 F-08", "recid": "tc389yt9018", "websiteUrl": "https://purl.stanford.edu/tc389yt9018", "title": "東亞輿地圖", "ckey": 9590333, "available": true, "iiifUrl": "https://purl.stanford.edu/tc389yt9018/iiif/manifest" }, "geometry": { "type": "Polygon", "coordinates": [ [ [ 105.0, 35.0 ], [ 110.0, 35.0 ], [ 110.0, 37.5 ], [ 105.0, 37.5 ], [ 105.0, 35.0 ] ] ] } },
{ "type": "Feature", "properties": { "Id": 0, "Sheet_ID": "W5N1S: 平陽", "label": "W5N1S: 平陽", "call_short": "G7400 S1000 .J35", "call_num": "G7400 S1000 .J35 E-08", "recid": "gs234wn4436", "websiteUrl": "https://purl.stanford.edu/gs234wn4436", "title": "東亞輿地圖", "ckey": 9590333, "available": true, "iiifUrl": "https://purl.stanford.edu/gs234wn4436/iiif/manifest" }, "geometry": { "type": "Polygon", "coordinates": [ [ [ 110.0, 35.0 ], [ 115.0, 35.0 ], [ 115.0, 37.5 ], [ 110.0, 37.5 ], [ 110.0, 35.0 ] ] ] } },
{ "type": "Feature", "properties": { "Id": 0, "Sheet_ID": "W4N1S: 濟南", "label": "W4N1S: 濟南", "call_short": "G7400 S1000 .J35", "call_num": "G7400 S1000 .J35 D-08", "recid": "pt171rq5152", "websiteUrl": "https://purl.stanford.edu/pt171rq5152", "title": "東亞輿地圖", "ckey": 9590333, "available": true, "iiifUrl": "https://purl.stanford.edu/pt171rq5152/iiif/manifest" }, "geometry": { "type": "Polygon", "coordinates": [ [ [ 115.0, 35.0 ], [ 120.0, 35.0 ], [ 120.0, 37.5 ], [ 115.0, 37.5 ], [ 115.0, 35.0 ] ] ] } },
{ "type": "Feature", "properties": { "Id": 0, "Sheet_ID": "W3N1S: 膠州", "label": "W3N1S: 膠州", "call_short": "G7400 S1000 .J35", "call_num": "G7400 S1000 .J35 C-08", "recid": "bp110wj2317", "websiteUrl": "https://purl.stanford.edu/bp110wj2317", "title": "東亞輿地圖", "ckey": 9590333, "available": true, "iiifUrl": "https://purl.stanford.edu/bp110wj2317/iiif/manifest" }, "geometry": { "type": "Polygon", "coordinates": [ [ [ 120.0, 35.0 ], [ 125.0, 35.0 ], [ 125.0, 37.5 ], [ 120.0, 37.5 ], [ 120.0, 35.0 ] ] ] } },
{ "type": "Feature", "properties": { "Id": 0, "Sheet_ID": "W2N1S: 釜山", "label": "W2N1S: 釜山", "call_short": null, "call_num": null, "recid": null, "websiteUrl": null, "title": null, "ckey": 0, "available": false, "iiifUrl": null }, "geometry": { "type": "Polygon", "coordinates": [ [ [ 125.0, 35.0 ], [ 130.0, 35.0 ], [ 130.0, 37.5 ], [ 125.0, 37.5 ], [ 125.0, 35.0 ] ] ] } },
{ "type": "Feature", "properties": { "Id": 0, "Sheet_ID": "W7N1N: 甘州", "label": "W7N1N: 甘州", "call_short": "G7400 S1000 .J35", "call_num": "G7400 S1000 .J35 G-07", "recid": "tk219sx5631", "websiteUrl": "https://purl.stanford.edu/tk219sx5631", "title": "東亞輿地圖", "ckey": 9590333, "available": true, "iiifUrl": "https://purl.stanford.edu/tk219sx5631/iiif/manifest" }, "geometry": { "type": "Polygon", "coordinates": [ [ [ 100.0, 37.5 ], [ 105.0, 37.5 ], [ 105.0, 40.0 ], [ 100.0, 40.0 ], [ 100.0, 37.5 ] ] ] } },
{ "type": "Feature", "properties": { "Id": 0, "Sheet_ID": "W6N1N: 楡林", "label": "W6N1N: 楡林", "call_short": "G7400 S1000 .J35", "call_num": "G7400 S1000 .J35 F-07", "recid": "sr248gb1377", "websiteUrl": "https://purl.stanford.edu/sr248gb1377", "title": "東亞輿地圖", "ckey": 9590333, "available": true, "iiifUrl": "https://purl.stanford.edu/sr248gb1377/iiif/manifest" }, "geometry": { "type": "Polygon", "coordinates": [ [ [ 105.0, 37.5 ], [ 110.0, 37.5 ], [ 110.0, 40.0 ], [ 105.0, 40.0 ], [ 105.0, 37.5 ] ] ] } },
{ "type": "Feature", "properties": { "Id": 0, "Sheet_ID": "W5N1N: 太原", "label": "W5N1N: 太原", "call_short": "G7400 S1000 .J35", "call_num": "G7400 S1000 .J35 E-07", "recid": "vc366pz0912", "websiteUrl": "https://purl.stanford.edu/vc366pz0912", "title": "東亞輿地圖", "ckey": 9590333, "available": true, "iiifUrl": "https://purl.stanford.edu/vc366pz0912/iiif/manifest" }, "geometry": { "type": "Polygon", "coordinates": [ [ [ 110.0, 37.5 ], [ 115.0, 37.5 ], [ 115.0, 40.0 ], [ 110.0, 40.0 ], [ 110.0, 37.5 ] ] ] } },
{ "type": "Feature", "properties": { "Id": 0, "Sheet_ID": "W4N1N: 北京", "label": "W4N1N: 北京", "call_short": "G7400 S1000 .J35", "call_num": "G7400 S1000 .J35 D-07", "recid": "ww756xg3050", "websiteUrl": "https://purl.stanford.edu/ww756xg3050", "title": "東亞輿地圖", "ckey": 9590333, "available": true, "iiifUrl": "https://purl.stanford.edu/ww756xg3050/iiif/manifest" }, "geometry": { "type": "Polygon", "coordinates": [ [ [ 115.0, 37.5 ], [ 120.0, 37.5 ], [ 120.0, 40.0 ], [ 115.0, 40.0 ], [ 115.0, 37.5 ] ] ] } },
{ "type": "Feature", "properties": { "Id": 0, "Sheet_ID": "W3N1N: 旅順", "label": "W3N1N: 旅順", "call_short": "G7400 S1000 .J35", "call_num": "G7400 S1000 .J35 C-07", "recid": "gm150cx0185", "websiteUrl": "https://purl.stanford.edu/gm150cx0185", "title": "東亞輿地圖", "ckey": 9590333, "available": true, "iiifUrl": "https://purl.stanford.edu/gm150cx0185/iiif/manifest" }, "geometry": { "type": "Polygon", "coordinates": [ [ [ 120.0, 37.5 ], [ 125.0, 37.5 ], [ 125.0, 40.0 ], [ 120.0, 40.0 ], [ 120.0, 37.5 ] ] ] } },
{ "type": "Feature", "properties": { "Id": 0, "Sheet_ID": "W2N1N: 京城", "label": "W2N1N: 京城", "call_short": "G7400 S1000 .J35", "call_num": "G7400 S1000 .J35 B-07", "recid": "br805wz2074", "websiteUrl": "https://purl.stanford.edu/br805wz2074", "title": "東亞輿地圖", "ckey": 9590333, "available": true, "iiifUrl": "https://purl.stanford.edu/br805wz2074/iiif/manifest" }, "geometry": { "type": "Polygon", "coordinates": [ [ [ 125.0, 37.5 ], [ 130.0, 37.5 ], [ 130.0, 40.0 ], [ 125.0, 40.0 ], [ 125.0, 37.5 ] ] ] } },
{ "type": "Feature", "properties": { "Id": 0, "Sheet_ID": "W7N2S: 昌寧湖", "label": "W7N2S: 昌寧湖", "call_short": "G7400 S1000 .J35", "call_num": "G7400 S1000 .J35 G-06", "recid": "pg922tw2321", "websiteUrl": "https://purl.stanford.edu/pg922tw2321", "title": "東亞輿地圖", "ckey": 9590333, "available": true, "iiifUrl": "https://purl.stanford.edu/pg922tw2321/iiif/manifest" }, "geometry": { "type": "Polygon", "coordinates": [ [ [ 100.0, 40.0 ], [ 105.0, 40.0 ], [ 105.0, 42.5 ], [ 100.0, 42.5 ], [ 100.0, 40.0 ] ] ] } },
{ "type": "Feature", "properties": { "Id": 0, "Sheet_ID": "W6N2S: 包頭", "label": "W6N2S: 包頭", "call_short": "G7400 S1000 .J35", "call_num": "G7400 S1000 .J35 F-06", "recid": "pt941dg1716", "websiteUrl": "https://purl.stanford.edu/pt941dg1716", "title": "東亞輿地圖", "ckey": 9590333, "available": true, "iiifUrl": "https://purl.stanford.edu/pt941dg1716/iiif/manifest" }, "geometry": { "type": "Polygon", "coordinates": [ [ [ 105.0, 40.0 ], [ 110.0, 40.0 ], [ 110.0, 42.5 ], [ 105.0, 42.5 ], [ 105.0, 40.0 ] ] ] } },
{ "type": "Feature", "properties": { "Id": 0, "Sheet_ID": "W5N2S: 朔平", "label": "W5N2S: 朔平", "call_short": "G7400 S1000 .J35", "call_num": "G7400 S1000 .J35 E-06", "recid": "mx882zx5928", "websiteUrl": "https://purl.stanford.edu/mx882zx5928", "title": "東亞輿地圖", "ckey": 9590333, "available": true, "iiifUrl": "https://purl.stanford.edu/mx882zx5928/iiif/manifest" }, "geometry": { "type": "Polygon", "coordinates": [ [ [ 110.0, 40.0 ], [ 115.0, 40.0 ], [ 115.0, 42.5 ], [ 110.0, 42.5 ], [ 110.0, 40.0 ] ] ] } },
{ "type": "Feature", "properties": { "Id": 0, "Sheet_ID": "W4N2S: 承徳", "label": "W4N2S: 承徳", "call_short": "G7400 S1000 .J35", "call_num": "G7400 S1000 .J35 D-06", "recid": "mp566vn3317", "websiteUrl": "https://purl.stanford.edu/mp566vn3317", "title": "東亞輿地圖", "ckey": 9590333, "available": true, "iiifUrl": "https://purl.stanford.edu/mp566vn3317/iiif/manifest" }, "geometry": { "type": "Polygon", "coordinates": [ [ [ 115.0, 40.0 ], [ 120.0, 40.0 ], [ 120.0, 42.5 ], [ 115.0, 42.5 ], [ 115.0, 40.0 ] ] ] } },
{ "type": "Feature", "properties": { "Id": 0, "Sheet_ID": "W3N2S: 奉天", "label": "W3N2S: 奉天", "call_short": "G7400 S1000 .J35", "call_num": "G7400 S1000 .J35 C-06", "recid": "bs876tk6817", "websiteUrl": "https://purl.stanford.edu/bs876tk6817", "title": "東亞輿地圖", "ckey": 9590333, "available": true, "iiifUrl": "https://purl.stanford.edu/bs876tk6817/iiif/manifest" }, "geometry": { "type": "Polygon", "coordinates": [ [ [ 120.0, 40.0 ], [ 125.0, 40.0 ], [ 125.0, 42.5 ], [ 120.0, 42.5 ], [ 120.0, 40.0 ] ] ] } },
{ "type": "Feature", "properties": { "Id": 0, "Sheet_ID": "W2N2S: 鏡城", "label": "W2N2S: 鏡城", "call_short": "G7400 S1000 .J35", "call_num": "G7400 S1000 .J35 B-06", "recid": "fj278cm4668", "websiteUrl": "https://purl.stanford.edu/fj278cm4668", "title": "東亞輿地圖", "ckey": 9590333, "available": true, "iiifUrl": "https://purl.stanford.edu/fj278cm4668/iiif/manifest" }, "geometry": { "type": "Polygon", "coordinates": [ [ [ 125.0, 40.0 ], [ 130.0, 40.0 ], [ 130.0, 42.5 ], [ 125.0, 42.5 ], [ 125.0, 40.0 ] ] ] } },
{ "type": "Feature", "properties": { "Id": 0, "Sheet_ID": "W7N2N: 察罕托羅海", "label": "W7N2N: 察罕托羅海", "call_short": "G7400 S1000 .J35", "call_num": "G7400 S1000 .J35 G-05", "recid": "hy898kh0138", "websiteUrl": "https://purl.stanford.edu/hy898kh0138", "title": "東亞輿地圖", "ckey": 9590333, "available": true, "iiifUrl": "https://purl.stanford.edu/hy898kh0138/iiif/manifest" }, "geometry": { "type": "Polygon", "coordinates": [ [ [ 100.0, 42.5 ], [ 105.0, 42.5 ], [ 105.0, 45.0 ], [ 100.0, 45.0 ], [ 100.0, 42.5 ] ] ] } },
{ "type": "Feature", "properties": { "Id": 0, "Sheet_ID": "W6N2N: 賽爾烏蘇", "label": "W6N2N: 賽爾烏蘇", "call_short": "G7400 S1000 .J35", "call_num": "G7400 S1000 .J35 F-05", "recid": "bx000by2716", "websiteUrl": "https://purl.stanford.edu/bx000by2716", "title": "東亞輿地圖", "ckey": 9590333, "available": true, "iiifUrl": "https://purl.stanford.edu/bx000by2716/iiif/manifest" }, "geometry": { "type": "Polygon", "coordinates": [ [ [ 105.0, 42.5 ], [ 110.0, 42.5 ], [ 110.0, 45.0 ], [ 105.0, 45.0 ], [ 105.0, 42.5 ] ] ] } },
{ "type": "Feature", "properties": { "Id": 0, "Sheet_ID": "W5N2N: 明安", "label": "W5N2N: 明安", "call_short": "G7400 S1000 .J35", "call_num": "G7400 S1000 .J35 E-05", "recid": "st357pv6076", "websiteUrl": "https://purl.stanford.edu/st357pv6076", "title": "東亞輿地圖", "ckey": 9590333, "available": true, "iiifUrl": "https://purl.stanford.edu/st357pv6076/iiif/manifest" }, "geometry": { "type": "Polygon", "coordinates": [ [ [ 110.0, 42.5 ], [ 115.0, 42.5 ], [ 115.0, 45.0 ], [ 110.0, 45.0 ], [ 110.0, 42.5 ] ] ] } },
{ "type": "Feature", "properties": { "Id": 0, "Sheet_ID": "W4N2N: 多倫諾爾", "label": "W4N2N: 多倫諾爾", "call_short": "G7400 S1000 .J35", "call_num": "G7400 S1000 .J35 D-05", "recid": "wq064nm8293", "websiteUrl": "https://purl.stanford.edu/wq064nm8293", "title": "東亞輿地圖", "ckey": 9590333, "available": true, "iiifUrl": "https://purl.stanford.edu/wq064nm8293/iiif/manifest" }, "geometry": { "type": "Polygon", "coordinates": [ [ [ 115.0, 42.5 ], [ 120.0, 42.5 ], [ 120.0, 45.0 ], [ 115.0, 45.0 ], [ 115.0, 42.5 ] ] ] } },
{ "type": "Feature", "properties": { "Id": 0, "Sheet_ID": "W3N2N: 昌圖", "label": "W3N2N: 昌圖", "call_short": "G7400 S1000 .J35", "call_num": "G7400 S1000 .J35 C-05", "recid": "ft770jc4330", "websiteUrl": "https://purl.stanford.edu/ft770jc4330", "title": "東亞輿地圖", "ckey": 9590333, "available": true, "iiifUrl": "https://purl.stanford.edu/ft770jc4330/iiif/manifest" }, "geometry": { "type": "Polygon", "coordinates": [ [ [ 120.0, 42.5 ], [ 125.0, 42.5 ], [ 125.0, 45.0 ], [ 120.0, 45.0 ], [ 120.0, 42.5 ] ] ] } },
{ "type": "Feature", "properties": { "Id": 0, "Sheet_ID": "W2N2N: 吉林", "label": "W2N2N: 吉林", "call_short": "G7400 S1000 .J35", "call_num": "G7400 S1000 .J35 B-05", "recid": "yt845kt0257", "websiteUrl": "https://purl.stanford.edu/yt845kt0257", "title": "東亞輿地圖", "ckey": 9590333, "available": true, "iiifUrl": "https://purl.stanford.edu/yt845kt0257/iiif/manifest" }, "geometry": { "type": "Polygon", "coordinates": [ [ [ 125.0, 42.5 ], [ 130.0, 42.5 ], [ 130.0, 45.0 ], [ 125.0, 45.0 ], [ 125.0, 42.5 ] ] ] } },
{ "type": "Feature", "properties": { "Id": 0, "Sheet_ID": "W7N3S: 西庫倫", "label": "W7N3S: 西庫倫", "call_short": "G7400 S1000 .J35", "call_num": "G7400 S1000 .J35 G-04", "recid": "zm721rm8212", "websiteUrl": "https://purl.stanford.edu/zm721rm8212", "title": "東亞輿地圖", "ckey": 9590333, "available": true, "iiifUrl": "https://purl.stanford.edu/zm721rm8212/iiif/manifest" }, "geometry": { "type": "Polygon", "coordinates": [ [ [ 100.0, 45.0 ], [ 105.0, 45.0 ], [ 105.0, 47.5 ], [ 100.0, 47.5 ], [ 100.0, 45.0 ] ] ] } },
{ "type": "Feature", "properties": { "Id": 0, "Sheet_ID": "W6N3S: 多倫", "label": "W6N3S: 多倫", "call_short": "G7400 S1000 .J35", "call_num": "G7400 S1000 .J35 F-04", "recid": "dk668rz2880", "websiteUrl": "https://purl.stanford.edu/dk668rz2880", "title": "東亞輿地圖", "ckey": 9590333, "available": true, "iiifUrl": "https://purl.stanford.edu/dk668rz2880/iiif/manifest" }, "geometry": { "type": "Polygon", "coordinates": [ [ [ 105.0, 45.0 ], [ 110.0, 45.0 ], [ 110.0, 47.5 ], [ 105.0, 47.5 ], [ 105.0, 45.0 ] ] ] } },
{ "type": "Feature", "properties": { "Id": 0, "Sheet_ID": "W5N3S: 額爾吉", "label": "W5N3S: 額爾吉", "call_short": "G7400 S1000 .J35", "call_num": "G7400 S1000 .J35 E-04", "recid": "wj669kw7961", "websiteUrl": "https://purl.stanford.edu/wj669kw7961", "title": "東亞輿地圖", "ckey": 9590333, "available": true, "iiifUrl": "https://purl.stanford.edu/wj669kw7961/iiif/manifest" }, "geometry": { "type": "Polygon", "coordinates": [ [ [ 110.0, 45.0 ], [ 115.0, 45.0 ], [ 115.0, 47.5 ], [ 110.0, 47.5 ], [ 110.0, 45.0 ] ] ] } },
{ "type": "Feature", "properties": { "Id": 0, "Sheet_ID": "W4N3S: 和岳爾西巴爾", "label": "W4N3S: 和岳爾西巴爾", "call_short": "G7400 S1000 .J35", "call_num": "G7400 S1000 .J35 D-04", "recid": "gx170wy7325", "websiteUrl": "https://purl.stanford.edu/gx170wy7325", "title": "東亞輿地圖", "ckey": 9590333, "available": true, "iiifUrl": "https://purl.stanford.edu/gx170wy7325/iiif/manifest" }, "geometry": { "type": "Polygon", "coordinates": [ [ [ 115.0, 45.0 ], [ 120.0, 45.0 ], [ 120.0, 47.5 ], [ 115.0, 47.5 ], [ 115.0, 45.0 ] ] ] } },
{ "type": "Feature", "properties": { "Id": 0, "Sheet_ID": "W3N3S: 齊齊哈爾", "label": "W3N3S: 齊齊哈爾", "call_short": "G7400 S1000 .J35", "call_num": "G7400 S1000 .J35 C-04", "recid": "yf550ps5807", "websiteUrl": "https://purl.stanford.edu/yf550ps5807", "title": "東亞輿地圖", "ckey": 9590333, "available": true, "iiifUrl": "https://purl.stanford.edu/yf550ps5807/iiif/manifest" }, "geometry": { "type": "Polygon", "coordinates": [ [ [ 120.0, 45.0 ], [ 125.0, 45.0 ], [ 125.0, 47.5 ], [ 120.0, 47.5 ], [ 120.0, 45.0 ] ] ] } },
{ "type": "Feature", "properties": { "Id": 0, "Sheet_ID": "W2N3S: 呼蘭", "label": "W2N3S: 呼蘭", "call_short": "G7400 S1000 .J35", "call_num": "G7400 S1000 .J35 B-04", "recid": "yy016yd0366", "websiteUrl": "https://purl.stanford.edu/yy016yd0366", "title": "東亞輿地圖", "ckey": 9590333, "available": true, "iiifUrl": "https://purl.stanford.edu/yy016yd0366/iiif/manifest" }, "geometry": { "type": "Polygon", "coordinates": [ [ [ 125.0, 45.0 ], [ 130.0, 45.0 ], [ 130.0, 47.5 ], [ 125.0, 47.5 ], [ 125.0, 45.0 ] ] ] } },
{ "type": "Feature", "properties": { "Id": 0, "Sheet_ID": "W7N3N: 沙布克台", "label": "W7N3N: 沙布克台", "call_short": "G7400 S1000 .J35", "call_num": "G7400 S1000 .J35 G-03", "recid": "bn469cx4967", "websiteUrl": "https://purl.stanford.edu/bn469cx4967", "title": "東亞輿地圖", "ckey": 9590333, "available": true, "iiifUrl": "https://purl.stanford.edu/bn469cx4967/iiif/manifest" }, "geometry": { "type": "Polygon", "coordinates": [ [ [ 100.0, 47.5 ], [ 105.0, 47.5 ], [ 105.0, 50.0 ], [ 100.0, 50.0 ], [ 100.0, 47.5 ] ] ] } },
{ "type": "Feature", "properties": { "Id": 0, "Sheet_ID": "W6N3N: 庫倫", "label": "W6N3N: 庫倫", "call_short": "G7400 S1000 .J35", "call_num": "G7400 S1000 .J35 F-03", "recid": "sc394rf8964", "websiteUrl": "https://purl.stanford.edu/sc394rf8964", "title": "東亞輿地圖", "ckey": 9590333, "available": true, "iiifUrl": "https://purl.stanford.edu/sc394rf8964/iiif/manifest" }, "geometry": { "type": "Polygon", "coordinates": [ [ [ 105.0, 47.5 ], [ 110.0, 47.5 ], [ 110.0, 50.0 ], [ 105.0, 50.0 ], [ 105.0, 47.5 ] ] ] } },
{ "type": "Feature", "properties": { "Id": 0, "Sheet_ID": "W5N3N: 克魯倫", "label": "W5N3N: 克魯倫", "call_short": "G7400 S1000 .J35", "call_num": "G7400 S1000 .J35 E-03", "recid": "vb178py5872", "websiteUrl": "https://purl.stanford.edu/vb178py5872", "title": "東亞輿地圖", "ckey": 9590333, "available": true, "iiifUrl": "https://purl.stanford.edu/vb178py5872/iiif/manifest" }, "geometry": { "type": "Polygon", "coordinates": [ [ [ 110.0, 47.5 ], [ 115.0, 47.5 ], [ 115.0, 50.0 ], [ 110.0, 50.0 ], [ 110.0, 47.5 ] ] ] } },
{ "type": "Feature", "properties": { "Id": 0, "Sheet_ID": "W4N3N: 海拉爾站", "label": "W4N3N: 海拉爾站", "call_short": "G7400 S1000 .J35", "call_num": "G7400 S1000 .J35 D-03", "recid": "jp307st1689", "websiteUrl": "https://purl.stanford.edu/jp307st1689", "title": "東亞輿地圖", "ckey": 9590333, "available": true, "iiifUrl": "https://purl.stanford.edu/jp307st1689/iiif/manifest" }, "geometry": { "type": "Polygon", "coordinates": [ [ [ 115.0, 47.5 ], [ 120.0, 47.5 ], [ 120.0, 50.0 ], [ 115.0, 50.0 ], [ 115.0, 47.5 ] ] ] } },
{ "type": "Feature", "properties": { "Id": 0, "Sheet_ID": "W3N3N: 博爾多站", "label": "W3N3N: 博爾多站", "call_short": "G7400 S1000 .J35", "call_num": "G7400 S1000 .J35 C-03", "recid": "xx080qp8627", "websiteUrl": "https://purl.stanford.edu/xx080qp8627", "title": "東亞輿地圖", "ckey": 9590333, "available": true, "iiifUrl": "https://purl.stanford.edu/xx080qp8627/iiif/manifest" }, "geometry": { "type": "Polygon", "coordinates": [ [ [ 120.0, 47.5 ], [ 125.0, 47.5 ], [ 125.0, 50.0 ], [ 120.0, 50.0 ], [ 120.0, 47.5 ] ] ] } },
{ "type": "Feature", "properties": { "Id": 0, "Sheet_ID": "W2N3N: 墨爾根", "label": "W2N3N: 墨爾根", "call_short": "G7400 S1000 .J35", "call_num": "G7400 S1000 .J35 B-03", "recid": "gx750pt9193", "websiteUrl": "https://purl.stanford.edu/gx750pt9193", "title": "東亞輿地圖", "ckey": 9590333, "available": true, "iiifUrl": "https://purl.stanford.edu/gx750pt9193/iiif/manifest" }, "geometry": { "type": "Polygon", "coordinates": [ [ [ 125.0, 47.5 ], [ 130.0, 47.5 ], [ 130.0, 50.0 ], [ 125.0, 50.0 ], [ 125.0, 47.5 ] ] ] } },
{ "type": "Feature", "properties": { "Id": 0, "Sheet_ID": "W7N4S: 義爾古徳斯克", "label": "W7N4S: 義爾古徳斯克", "call_short": "G7400 S1000 .J35", "call_num": "G7400 S1000 .J35 G-02", "recid": "jk655ng3207", "websiteUrl": "https://purl.stanford.edu/jk655ng3207", "title": "東亞輿地圖", "ckey": 9590333, "available": true, "iiifUrl": "https://purl.stanford.edu/jk655ng3207/iiif/manifest" }, "geometry": { "type": "Polygon", "coordinates": [ [ [ 100.0, 50.0 ], [ 105.0, 50.0 ], [ 105.0, 52.5 ], [ 100.0, 52.5 ], [ 100.0, 50.0 ] ] ] } },
{ "type": "Feature", "properties": { "Id": 0, "Sheet_ID": "W6N4S: 恰克圖", "label": "W6N4S: 恰克圖", "call_short": "G7400 S1000 .J35", "call_num": "G7400 S1000 .J35 F-02", "recid": "ms280pm1847", "websiteUrl": "https://purl.stanford.edu/ms280pm1847", "title": "東亞輿地圖", "ckey": 9590333, "available": true, "iiifUrl": "https://purl.stanford.edu/ms280pm1847/iiif/manifest" }, "geometry": { "type": "Polygon", "coordinates": [ [ [ 105.0, 50.0 ], [ 110.0, 50.0 ], [ 110.0, 52.5 ], [ 105.0, 52.5 ], [ 105.0, 50.0 ] ] ] } },
{ "type": "Feature", "properties": { "Id": 0, "Sheet_ID": "W5N4S: 乞搭", "label": "W5N4S: 乞搭", "call_short": "G7400 S1000 .J35", "call_num": "G7400 S1000 .J35 E-02", "recid": "jg003sq8333", "websiteUrl": "https://purl.stanford.edu/jg003sq8333", "title": "東亞輿地圖", "ckey": 9590333, "available": true, "iiifUrl": "https://purl.stanford.edu/jg003sq8333/iiif/manifest" }, "geometry": { "type": "Polygon", "coordinates": [ [ [ 110.0, 50.0 ], [ 115.0, 50.0 ], [ 115.0, 52.5 ], [ 110.0, 52.5 ], [ 110.0, 50.0 ] ] ] } },
{ "type": "Feature", "properties": { "Id": 0, "Sheet_ID": "W4N4S: 乃耳青斯克", "label": "W4N4S: 乃耳青斯克", "call_short": "G7400 S1000 .J35", "call_num": "G7400 S1000 .J35 D-02", "recid": "qq325qy9780", "websiteUrl": "https://purl.stanford.edu/qq325qy9780", "title": "東亞輿地圖", "ckey": 9590333, "available": true, "iiifUrl": "https://purl.stanford.edu/qq325qy9780/iiif/manifest" }, "geometry": { "type": "Polygon", "coordinates": [ [ [ 115.0, 50.0 ], [ 120.0, 50.0 ], [ 120.0, 52.5 ], [ 115.0, 52.5 ], [ 115.0, 50.0 ] ] ] } },
{ "type": "Feature", "properties": { "Id": 0, "Sheet_ID": "W3N4S: 烏魯伯斯古也", "label": "W3N4S: 烏魯伯斯古也", "call_short": "G7400 S1000 .J35", "call_num": "G7400 S1000 .J35 C-02", "recid": "xg393cd5735", "websiteUrl": "https://purl.stanford.edu/xg393cd5735", "title": "東亞輿地圖", "ckey": 9590333, "available": true, "iiifUrl": "https://purl.stanford.edu/xg393cd5735/iiif/manifest" }, "geometry": { "type": "Polygon", "coordinates": [ [ [ 120.0, 50.0 ], [ 125.0, 50.0 ], [ 125.0, 52.5 ], [ 120.0, 52.5 ], [ 120.0, 50.0 ] ] ] } },
{ "type": "Feature", "properties": { "Id": 0, "Sheet_ID": "W2N4S: 伯拉郭威什琛斯克", "label": "W2N4S: 伯拉郭威什琛斯克", "call_short": "G7400 S1000 .J35", "call_num": "G7400 S1000 .J35 B-02", "recid": "wp231ys6569", "websiteUrl": "https://purl.stanford.edu/wp231ys6569", "title": "東亞輿地圖", "ckey": 9590333, "available": true, "iiifUrl": "https://purl.stanford.edu/wp231ys6569/iiif/manifest" }, "geometry": { "type": "Polygon", "coordinates": [ [ [ 125.0, 50.0 ], [ 130.0, 50.0 ], [ 130.0, 52.5 ], [ 125.0, 52.5 ], [ 125.0, 50.0 ] ] ] } }
]
}
