{"type":"FeatureCollection","features":[{"type":"Feature","properties":{"Id":0,"Sheet_ID":"13. セイロン","label":"13. セイロン","call_short":"","call_num":"","recid":"","websiteUrl":"","title":"","ckey":0,"web_map":"","available":"false","iiiUrl":""},"geometry":{"bbox":[78,4,84,8],"type":"Polygon","coordinates":[[[78,4],[78,8],[84,8],[84,4],[78,4]]]}},{"type":"Feature","properties":{"Id":0,"Sheet_ID":"21. コモリン岬","label":"21. コモリン岬","call_short":"","call_num":"","recid":"","websiteUrl":"","title":"","ckey":0,"web_map":"","available":"false","iiiUrl":""},"geometry":{"bbox":[72,8,78,12.000000000000002],"type":"Polygon","coordinates":[[[72,8],[72,12.000000000000002],[78,12.000000000000002],[78,8],[72,8]]]}},{"type":"Feature","properties":{"Id":0,"Sheet_ID":"12. トリチノポリ","label":"12. トリチノポリ","call_short":"","call_num":"","recid":"","websiteUrl":"","title":"","ckey":0,"web_map":"","available":"false","iiiUrl":""},"geometry":{"bbox":[78,8,84,12.000000000000002],"type":"Polygon","coordinates":[[[78,8],[78,12.000000000000002],[84,12.000000000000002],[84,8],[78,8]]]}},{"type":"Feature","properties":{"Id":0,"Sheet_ID":"20. マイソール","label":"20. マイソール","call_short":"","call_num":"","recid":"","websiteUrl":"","title":"","ckey":0,"web_map":"","available":"false","iiiUrl":""},"geometry":{"bbox":[72,12.000000000000002,78,16],"type":"Polygon","coordinates":[[[72,12.000000000000002],[72,16],[78,16],[78,12.000000000000002],[72,12.000000000000002]]]}},{"type":"Feature","properties":{"Id":0,"Sheet_ID":"11. マドラス","label":"11. マドラス","call_short":"","call_num":"","recid":"","websiteUrl":"","title":"","ckey":0,"web_map":"","available":"false","iiiUrl":""},"geometry":{"bbox":[78,12.000000000000002,84,16],"type":"Polygon","coordinates":[[[78,12.000000000000002],[78,16],[84,16],[84,12.000000000000002],[78,12.000000000000002]]]}},{"type":"Feature","properties":{"Id":0,"Sheet_ID":"19. ボンベイ","label":"19. ボンベイ","call_short":"","call_num":"","recid":"","websiteUrl":"","title":"","ckey":0,"web_map":"","available":"false","iiiUrl":""},"geometry":{"bbox":[72,16,78,20],"type":"Polygon","coordinates":[[[72,16],[72,20],[78,20],[78,16],[72,16]]]}},{"type":"Feature","properties":{"Id":0,"Sheet_ID":"10. ゴダヴァリ","label":"10. ゴダヴァリ","call_short":"","call_num":"","recid":"","websiteUrl":"","title":"","ckey":0,"web_map":"","available":"false","iiiUrl":""},"geometry":{"bbox":[78,16,84,20],"type":"Polygon","coordinates":[[[78,16],[78,20],[84,20],[84,16],[78,16]]]}},{"type":"Feature","properties":{"Id":0,"Sheet_ID":"5. ジャガンナース","label":"5. ジャガンナース","call_short":"","call_num":"","recid":"","websiteUrl":"","title":"","ckey":0,"web_map":"","available":"false","iiiUrl":""},"geometry":{"bbox":[84,16,90,20],"type":"Polygon","coordinates":[[[84,16],[84,20],[90,20],[90,16],[84,16]]]}},{"type":"Feature","properties":{"Id":0,"Sheet_ID":"25. カチアワル半島","label":"25. カチアワル半島","call_short":"","call_num":"","recid":"","websiteUrl":"","title":"","ckey":0,"web_map":"","available":"false","iiiUrl":""},"geometry":{"bbox":[66,20,72,24.000000000000004],"type":"Polygon","coordinates":[[[66,20],[66,24.000000000000004],[72,24.000000000000004],[72,20],[66,20]]]}},{"type":"Feature","properties":{"Id":0,"Sheet_ID":"18. サートプラー山脈","label":"18. サートプラー山脈","call_short":"","call_num":"","recid":"","websiteUrl":"","title":"","ckey":0,"web_map":"","available":"false","iiiUrl":""},"geometry":{"bbox":[72,20,78,24.000000000000004],"type":"Polygon","coordinates":[[[72,20],[72,24.000000000000004],[78,24.000000000000004],[78,20],[72,20]]]}},{"type":"Feature","properties":{"Id":0,"Sheet_ID":"9. ワインガンガ","label":"9. ワインガンガ","call_short":"","call_num":"","recid":"","websiteUrl":"","title":"","ckey":0,"web_map":"","available":"false","iiiUrl":""},"geometry":{"bbox":[78,20,84,24.000000000000004],"type":"Polygon","coordinates":[[[78,20],[78,24.000000000000004],[84,24.000000000000004],[84,20],[78,20]]]}},{"type":"Feature","properties":{"Id":0,"Sheet_ID":"4. カルカッタ","label":"4. カルカッタ","call_short":"G7651 .P6 1942 .J3","call_num":"G7651 .P6 1942 .J3 SHEET 4","recid":"sb340ks5733","websiteUrl":"https://purl.stanford.edu/sb340ks5733","title":"印度百万分一圖","ckey":9927203,"web_map":"","available":"true","iiiUrl":"https://purl.stanford.edu/sb340ks5733/iiif/manifest"},"geometry":{"bbox":[84,20,90,24.000000000000004],"type":"Polygon","coordinates":[[[84,20],[84,24.000000000000004],[90,24.000000000000004],[90,20],[84,20]]]}},{"type":"Feature","properties":{"Id":0,"Sheet_ID":"2. ガンジス河口","label":"2. ガンジス河口","call_short":"G7651 .P6 1942 .J3","call_num":"G7651 .P6 1942 .J3 SHEET 2","recid":"yh140pd1258","websiteUrl":"https://purl.stanford.edu/yh140pd1258","title":"印度百万分一圖","ckey":9927203,"web_map":"","available":"true","iiiUrl":"https://purl.stanford.edu/yh140pd1258/iiif/manifest"},"geometry":{"bbox":[90,20,96.00000000000001,24.000000000000004],"type":"Polygon","coordinates":[[[90,20],[90,24.000000000000004],[96.00000000000001,24.000000000000004],[96.00000000000001,20],[90,20]]]}},{"type":"Feature","properties":{"Id":0,"Sheet_ID":"27. マクラン","label":"27. マクラン","call_short":"","call_num":"","recid":"","websiteUrl":"","title":"","ckey":0,"web_map":"","available":"false","iiiUrl":""},"geometry":{"bbox":[59.99999999999999,24.000000000000004,66,28],"type":"Polygon","coordinates":[[[59.99999999999999,24.000000000000004],[59.99999999999999,28],[66,28],[66,24.000000000000004],[59.99999999999999,24.000000000000004]]]}},{"type":"Feature","properties":{"Id":0,"Sheet_ID":"24. シンド","label":"24. シンド","call_short":"","call_num":"","recid":"","websiteUrl":"","title":"","ckey":0,"web_map":"","available":"false","iiiUrl":""},"geometry":{"bbox":[66,24.000000000000004,72,28],"type":"Polygon","coordinates":[[[66,24.000000000000004],[66,28],[72,28],[72,24.000000000000004],[66,24.000000000000004]]]}},{"type":"Feature","properties":{"Id":0,"Sheet_ID":"17. ラヂプタナ","label":"17. ラヂプタナ","call_short":"","call_num":"","recid":"","websiteUrl":"","title":"","ckey":0,"web_map":"","available":"false","iiiUrl":""},"geometry":{"bbox":[72,24.000000000000004,78,28],"type":"Polygon","coordinates":[[[72,24.000000000000004],[72,28],[78,28],[78,24.000000000000004],[72,24.000000000000004]]]}},{"type":"Feature","properties":{"Id":0,"Sheet_ID":"8. アラハバード","label":"8. アラハバード","call_short":"","call_num":"","recid":"","websiteUrl":"","title":"","ckey":0,"web_map":"","available":"false","iiiUrl":""},"geometry":{"bbox":[78,24.000000000000004,84,28],"type":"Polygon","coordinates":[[[78,24.000000000000004],[78,28],[84,28],[84,24.000000000000004],[78,24.000000000000004]]]}},{"type":"Feature","properties":{"Id":0,"Sheet_ID":"3. ビハール・オリッサ","label":"3. ビハール・オリッサ","call_short":"","call_num":"","recid":"","websiteUrl":"","title":"","ckey":0,"web_map":"","available":"false","iiiUrl":""},"geometry":{"bbox":[84,24.000000000000004,90,28],"type":"Polygon","coordinates":[[[84,24.000000000000004],[84,28],[90,28],[90,24.000000000000004],[84,24.000000000000004]]]}},{"type":"Feature","properties":{"Id":0,"Sheet_ID":"1. アッサム","label":"1. アッサム","call_short":"","call_num":"","recid":"","websiteUrl":"","title":"","ckey":0,"web_map":"","available":"false","iiiUrl":""},"geometry":{"bbox":[90,24.000000000000004,96.00000000000001,28],"type":"Polygon","coordinates":[[[90,24.000000000000004],[90,28],[96.00000000000001,28],[96.00000000000001,24.000000000000004],[90,24.000000000000004]]]}},{"type":"Feature","properties":{"Id":0,"Sheet_ID":"26. シスタン","label":"26. シスタン","call_short":"","call_num":"","recid":"","websiteUrl":"","title":"","ckey":0,"web_map":"","available":"false","iiiUrl":""},"geometry":{"bbox":[59.99999999999999,28,66,32],"type":"Polygon","coordinates":[[[59.99999999999999,28],[59.99999999999999,32],[66,32],[66,28],[59.99999999999999,28]]]}},{"type":"Feature","properties":{"Id":0,"Sheet_ID":"23. スライマン山脈","label":"23. スライマン山脈","call_short":"","call_num":"","recid":"","websiteUrl":"","title":"","ckey":0,"web_map":"","available":"false","iiiUrl":""},"geometry":{"bbox":[66,28,72,32],"type":"Polygon","coordinates":[[[66,28],[66,32],[72,32],[72,28],[66,28]]]}},{"type":"Feature","properties":{"Id":0,"Sheet_ID":"16. デリー","label":"16. デリー","call_short":"","call_num":"","recid":"","websiteUrl":"","title":"","ckey":0,"web_map":"","available":"false","iiiUrl":""},"geometry":{"bbox":[72,28,78,32],"type":"Polygon","coordinates":[[[72,28],[72,32],[78,32],[78,28],[72,28]]]}},{"type":"Feature","properties":{"Id":0,"Sheet_ID":"7. バレイリ","label":"7. バレイリ","call_short":"","call_num":"","recid":"","websiteUrl":"","title":"","ckey":0,"web_map":"","available":"false","iiiUrl":""},"geometry":{"bbox":[78,28,84,32],"type":"Polygon","coordinates":[[[78,28],[78,32],[84,32],[84,28],[78,28]]]}},{"type":"Feature","properties":{"Id":0,"Sheet_ID":"22. カブール","label":"22. カブール","call_short":"","call_num":"","recid":"","websiteUrl":"","title":"","ckey":0,"web_map":"","available":"false","iiiUrl":""},"geometry":{"bbox":[66,32,72,36],"type":"Polygon","coordinates":[[[66,32],[66,36],[72,36],[72,32],[66,32]]]}},{"type":"Feature","properties":{"Id":0,"Sheet_ID":"15. スリーナガル","label":"15. スリーナガル","call_short":"","call_num":"","recid":"","websiteUrl":"","title":"","ckey":0,"web_map":"","available":"false","iiiUrl":""},"geometry":{"bbox":[72,32,78,36],"type":"Polygon","coordinates":[[[72,32],[72,36],[78,36],[78,32],[72,32]]]}},{"type":"Feature","properties":{"Id":0,"Sheet_ID":"6. トークヂャルン","label":"6. トークヂャルン","call_short":"","call_num":"","recid":"","websiteUrl":"","title":"","ckey":0,"web_map":"","available":"false","iiiUrl":""},"geometry":{"bbox":[78,32,84,36],"type":"Polygon","coordinates":[[[78,32],[78,36],[84,36],[84,32],[78,32]]]}},{"type":"Feature","properties":{"Id":0,"Sheet_ID":"14. パミール高原","label":"14. パミール高原","call_short":"","call_num":"","recid":"","websiteUrl":"","title":"","ckey":0,"web_map":"","available":"false","iiiUrl":""},"geometry":{"bbox":[72,36,78,40],"type":"Polygon","coordinates":[[[72,36],[72,40],[78,40],[78,36],[72,36]]]}}],"name":"index_9927203"}
