{
"type": "FeatureCollection",
"name": "index_map",
"xy_coordinate_resolution": 1e-07,
"features": [
{ "type": "Feature", "properties": { "Id": 0, "Sheet_ID": "北知床 5", "label": "北知床 5", "call_short": "G7331 .S67 S50 .J3", "call_num": "G7331 .S67 S50 .J3 C-5", "recid": "bx458nk9866", "websiteUrl": "https://purl.stanford.edu/bx458nk9866", "title": "五万分一地形圖 [樺太]", "ckey": 10505240, "available": true, "iiifUrl": "https://purl.stanford.edu/bx458nk9866/iiif/manifest" }, "geometry": { "type": "Polygon", "coordinates": [ [ [ 144.5, 48.5 ], [ 144.75, 48.5 ], [ 144.75, 48.6666667 ], [ 144.5, 48.6666667 ], [ 144.5, 48.5 ] ] ] } },
{ "type": "Feature", "properties": { "Id": 0, "Sheet_ID": "散江 8", "label": "散江 8", "call_short": "0", "call_num": "0", "recid": "0", "websiteUrl": "0", "title": "0", "ckey": 0, "available": false, "iiifUrl": "0" }, "geometry": { "type": "Polygon", "coordinates": [ [ [ 144.5, 48.6666667 ], [ 144.75, 48.6666667 ], [ 144.75, 48.8333333 ], [ 144.5, 48.8333333 ], [ 144.5, 48.6666667 ] ] ] } },
{ "type": "Feature", "properties": { "Id": 0, "Sheet_ID": "散江 11", "label": "散江 11", "call_short": "0", "call_num": "0", "recid": "0", "websiteUrl": "0", "title": "0", "ckey": 0, "available": false, "iiifUrl": "0" }, "geometry": { "type": "Polygon", "coordinates": [ [ [ 144.25, 48.8333333 ], [ 144.5, 48.8333333 ], [ 144.5, 49.0 ], [ 144.25, 49.0 ], [ 144.25, 48.8333333 ] ] ] } },
{ "type": "Feature", "properties": { "Id": 0, "Sheet_ID": "散江 7", "label": "散江 7", "call_short": "0", "call_num": "0", "recid": "0", "websiteUrl": "0", "title": "0", "ckey": 0, "available": false, "iiifUrl": "0" }, "geometry": { "type": "Polygon", "coordinates": [ [ [ 144.5, 48.8333333 ], [ 144.75, 48.8333333 ], [ 144.75, 49.0 ], [ 144.5, 49.0 ], [ 144.5, 48.8333333 ] ] ] } },
{ "type": "Feature", "properties": { "Id": 0, "Sheet_ID": "散江 14", "label": "散江 14", "call_short": "G7331 .S67 S50 .J3", "call_num": "G7331 .S67 S50 .J3 B-14", "recid": "zp404mq9785", "websiteUrl": "https://purl.stanford.edu/zp404mq9785", "title": "五万分一地形圖 [樺太]", "ckey": 10505240, "available": true, "iiifUrl": "https://purl.stanford.edu/zp404mq9785/iiif/manifest" }, "geometry": { "type": "Polygon", "coordinates": [ [ [ 144.0, 49.0 ], [ 144.25, 49.0 ], [ 144.25, 49.1666667 ], [ 144.0, 49.1666667 ], [ 144.0, 49.0 ] ] ] } },
{ "type": "Feature", "properties": { "Id": 0, "Sheet_ID": "散江 10", "label": "散江 10", "call_short": "0", "call_num": "0", "recid": "0", "websiteUrl": "0", "title": "0", "ckey": 0, "available": false, "iiifUrl": "0" }, "geometry": { "type": "Polygon", "coordinates": [ [ [ 144.25, 49.0 ], [ 144.5, 49.0 ], [ 144.5, 49.1666667 ], [ 144.25, 49.1666667 ], [ 144.25, 49.0 ] ] ] } },
{ "type": "Feature", "properties": { "Id": 0, "Sheet_ID": "散江 13", "label": "散江 13", "call_short": "0", "call_num": "0", "recid": "0", "websiteUrl": "0", "title": "0", "ckey": 0, "available": false, "iiifUrl": "0" }, "geometry": { "type": "Polygon", "coordinates": [ [ [ 144.0, 49.1666667 ], [ 144.25, 49.1666667 ], [ 144.25, 49.3333333 ], [ 144.0, 49.3333333 ], [ 144.0, 49.1666667 ] ] ] } },
{ "type": "Feature", "properties": { "Id": 0, "Sheet_ID": "散江 9", "label": "散江 9", "call_short": "0", "call_num": "0", "recid": "0", "websiteUrl": "0", "title": "0", "ckey": 0, "available": false, "iiifUrl": "0" }, "geometry": { "type": "Polygon", "coordinates": [ [ [ 144.25, 49.1666667 ], [ 144.5, 49.1666667 ], [ 144.5, 49.3333333 ], [ 144.25, 49.3333333 ], [ 144.25, 49.1666667 ] ] ] } },
{ "type": "Feature", "properties": { "Id": 0, "Sheet_ID": "散頃 16", "label": "散頃 16", "call_short": "0", "call_num": "0", "recid": "0", "websiteUrl": "0", "title": "0", "ckey": 0, "available": false, "iiifUrl": "0" }, "geometry": { "type": "Polygon", "coordinates": [ [ [ 144.0, 49.3333333 ], [ 144.25, 49.3333333 ], [ 144.25, 49.5 ], [ 144.0, 49.5 ], [ 144.0, 49.3333333 ] ] ] } },
{ "type": "Feature", "properties": { "Id": 0, "Sheet_ID": "散頃 15", "label": "散頃 15", "call_short": "0", "call_num": "0", "recid": "0", "websiteUrl": "0", "title": "0", "ckey": 0, "available": false, "iiifUrl": "0" }, "geometry": { "type": "Polygon", "coordinates": [ [ [ 144.0, 49.5 ], [ 144.25, 49.5 ], [ 144.25, 49.6666667 ], [ 144.0, 49.6666667 ], [ 144.0, 49.5 ] ] ] } },
{ "type": "Feature", "properties": { "Id": 0, "Sheet_ID": "散頃 14", "label": "散頃 14", "call_short": "0", "call_num": "0", "recid": "0", "websiteUrl": "0", "title": "0", "ckey": 0, "available": false, "iiifUrl": "0" }, "geometry": { "type": "Polygon", "coordinates": [ [ [ 144.0, 49.6666667 ], [ 144.25, 49.6666667 ], [ 144.25, 49.8333333 ], [ 144.0, 49.8333333 ], [ 144.0, 49.6666667 ] ] ] } },
{ "type": "Feature", "properties": { "Id": 0, "Sheet_ID": "散頃 13", "label": "散頃 13", "call_short": "0", "call_num": "0", "recid": "0", "websiteUrl": "0", "title": "0", "ckey": 0, "available": false, "iiifUrl": "0" }, "geometry": { "type": "Polygon", "coordinates": [ [ [ 144.0, 49.8333333 ], [ 144.25, 49.8333333 ], [ 144.25, 50.0 ], [ 144.0, 50.0 ], [ 144.0, 49.8333333 ] ] ] } },
{ "type": "Feature", "properties": { "Id": 0, "Sheet_ID": "敷香 13", "label": "敷香 13", "call_short": "0", "call_num": "0", "recid": "0", "websiteUrl": "0", "title": "0", "ckey": 0, "available": false, "iiifUrl": "0" }, "geometry": { "type": "Polygon", "coordinates": [ [ [ 143.0, 49.166667 ], [ 143.25, 49.166667 ], [ 143.25, 49.3333336 ], [ 143.0, 49.3333336 ], [ 143.0, 49.166667 ] ] ] } },
{ "type": "Feature", "properties": { "Id": 0, "Sheet_ID": "敷香 9", "label": "敷香 9", "call_short": "G7331 .S67 S50 .J3", "call_num": "G7331 .S67 S50 .J3 E-9", "recid": "zv137cb6353", "websiteUrl": "https://purl.stanford.edu/zv137cb6353", "title": "五万分一地形圖 [樺太]", "ckey": 10505240, "available": true, "iiifUrl": "https://purl.stanford.edu/zv137cb6353/iiif/manifest" }, "geometry": { "type": "Polygon", "coordinates": [ [ [ 143.25, 49.166667 ], [ 143.5, 49.166667 ], [ 143.5, 49.3333336 ], [ 143.25, 49.3333336 ], [ 143.25, 49.166667 ] ] ] } },
{ "type": "Feature", "properties": { "Id": 0, "Sheet_ID": "敷香 5", "label": "敷香 5", "call_short": "0", "call_num": "0", "recid": "0", "websiteUrl": "0", "title": "0", "ckey": 0, "available": false, "iiifUrl": "0" }, "geometry": { "type": "Polygon", "coordinates": [ [ [ 143.5, 49.166667 ], [ 143.75, 49.166667 ], [ 143.75, 49.3333336 ], [ 143.5, 49.3333336 ], [ 143.5, 49.166667 ] ] ] } },
{ "type": "Feature", "properties": { "Id": 0, "Sheet_ID": "敷香 1", "label": "敷香 1", "call_short": "0", "call_num": "0", "recid": "0", "websiteUrl": "0", "title": "0", "ckey": 0, "available": false, "iiifUrl": "0" }, "geometry": { "type": "Polygon", "coordinates": [ [ [ 143.75, 49.166667 ], [ 144.0, 49.166667 ], [ 144.0, 49.3333336 ], [ 143.75, 49.3333336 ], [ 143.75, 49.166667 ] ] ] } },
{ "type": "Feature", "properties": { "Id": 0, "Sheet_ID": "多来加湖 16", "label": "多来加湖 16", "call_short": "0", "call_num": "0", "recid": "0", "websiteUrl": "0", "title": "0", "ckey": 0, "available": false, "iiifUrl": "0" }, "geometry": { "type": "Polygon", "coordinates": [ [ [ 143.0, 49.3333336 ], [ 143.25, 49.3333336 ], [ 143.25, 49.5000002 ], [ 143.0, 49.5000002 ], [ 143.0, 49.3333336 ] ] ] } },
{ "type": "Feature", "properties": { "Id": 0, "Sheet_ID": "多来加湖 12", "label": "多来加湖 12", "call_short": "0", "call_num": "0", "recid": "0", "websiteUrl": "0", "title": "0", "ckey": 0, "available": false, "iiifUrl": "0" }, "geometry": { "type": "Polygon", "coordinates": [ [ [ 143.25, 49.3333336 ], [ 143.5, 49.3333336 ], [ 143.5, 49.5000002 ], [ 143.25, 49.5000002 ], [ 143.25, 49.3333336 ] ] ] } },
{ "type": "Feature", "properties": { "Id": 0, "Sheet_ID": "多来加湖 8", "label": "多来加湖 8", "call_short": "0", "call_num": "0", "recid": "0", "websiteUrl": "0", "title": "0", "ckey": 0, "available": false, "iiifUrl": "0" }, "geometry": { "type": "Polygon", "coordinates": [ [ [ 143.5, 49.3333336 ], [ 143.75, 49.3333336 ], [ 143.75, 49.5000002 ], [ 143.5, 49.5000002 ], [ 143.5, 49.3333336 ] ] ] } },
{ "type": "Feature", "properties": { "Id": 0, "Sheet_ID": "多来加湖 15", "label": "多来加湖 15", "call_short": "G7331 .S67 S50 .J3", "call_num": "G7331 .S67 S50 .J3 D-15", "recid": "sq760hb3020", "websiteUrl": "https://purl.stanford.edu/sq760hb3020", "title": "五万分一地形圖 [樺太]", "ckey": 10505240, "available": true, "iiifUrl": "https://purl.stanford.edu/sq760hb3020/iiif/manifest" }, "geometry": { "type": "Polygon", "coordinates": [ [ [ 143.0, 49.5000002 ], [ 143.25, 49.5000002 ], [ 143.25, 49.6666668 ], [ 143.0, 49.6666668 ], [ 143.0, 49.5000002 ] ] ] } },
{ "type": "Feature", "properties": { "Id": 0, "Sheet_ID": "多来加湖 14", "label": "多来加湖 14", "call_short": "0", "call_num": "0", "recid": "0", "websiteUrl": "0", "title": "0", "ckey": 0, "available": false, "iiifUrl": "0" }, "geometry": { "type": "Polygon", "coordinates": [ [ [ 143.0, 49.6666668 ], [ 143.25, 49.6666668 ], [ 143.25, 49.8333334 ], [ 143.0, 49.8333334 ], [ 143.0, 49.6666668 ] ] ] } },
{ "type": "Feature", "properties": { "Id": 0, "Sheet_ID": "多来加湖 10", "label": "多来加湖 10", "call_short": "0", "call_num": "0", "recid": "0", "websiteUrl": "0", "title": "0", "ckey": 0, "available": false, "iiifUrl": "0" }, "geometry": { "type": "Polygon", "coordinates": [ [ [ 143.25, 49.6666668 ], [ 143.5, 49.6666668 ], [ 143.5, 49.8333334 ], [ 143.25, 49.8333334 ], [ 143.25, 49.6666668 ] ] ] } },
{ "type": "Feature", "properties": { "Id": 0, "Sheet_ID": "多来加湖 13", "label": "多来加湖 13", "call_short": "0", "call_num": "0", "recid": "0", "websiteUrl": "0", "title": "0", "ckey": 0, "available": false, "iiifUrl": "0" }, "geometry": { "type": "Polygon", "coordinates": [ [ [ 143.0, 49.8333334 ], [ 143.25, 49.8333334 ], [ 143.25, 50.0 ], [ 143.0, 50.0 ], [ 143.0, 49.8333334 ] ] ] } },
{ "type": "Feature", "properties": { "Id": 0, "Sheet_ID": "多来加湖 9", "label": "多来加湖 9", "call_short": "0", "call_num": "0", "recid": "0", "websiteUrl": "0", "title": "0", "ckey": 0, "available": false, "iiifUrl": "0" }, "geometry": { "type": "Polygon", "coordinates": [ [ [ 143.25, 49.8333334 ], [ 143.5, 49.8333334 ], [ 143.5, 50.0 ], [ 143.25, 50.0 ], [ 143.25, 49.8333334 ] ] ] } },
{ "type": "Feature", "properties": { "Id": 0, "Sheet_ID": "多来加湖 5", "label": "多来加湖 5", "call_short": "0", "call_num": "0", "recid": "0", "websiteUrl": "0", "title": "0", "ckey": 0, "available": false, "iiifUrl": "0" }, "geometry": { "type": "Polygon", "coordinates": [ [ [ 143.5, 49.8333334 ], [ 143.75, 49.8333334 ], [ 143.75, 50.0 ], [ 143.5, 50.0 ], [ 143.5, 49.8333334 ] ] ] } },
{ "type": "Feature", "properties": { "Id": 0, "Sheet_ID": "多来加湖 1", "label": "多来加湖 1", "call_short": "0", "call_num": "0", "recid": "0", "websiteUrl": "0", "title": "0", "ckey": 0, "available": false, "iiifUrl": "0" }, "geometry": { "type": "Polygon", "coordinates": [ [ [ 143.75, 49.8333334 ], [ 144.0, 49.8333334 ], [ 144.0, 50.0 ], [ 143.75, 50.0 ], [ 143.75, 49.8333334 ] ] ] } },
{ "type": "Feature", "properties": { "Id": 0, "Sheet_ID": "西能登呂岬 14", "label": "西能登呂岬 14", "call_short": "0", "call_num": "0", "recid": "0", "websiteUrl": "0", "title": "0", "ckey": 0, "available": false, "iiifUrl": "0" }, "geometry": { "type": "Polygon", "coordinates": [ [ [ 142.0, 45.666667 ], [ 142.25, 45.666667 ], [ 142.25, 45.8333337 ], [ 142.0, 45.8333337 ], [ 142.0, 45.666667 ] ] ] } },
{ "type": "Feature", "properties": { "Id": 0, "Sheet_ID": "西能登呂岬 13", "label": "西能登呂岬 13", "call_short": "0", "call_num": "0", "recid": "0", "websiteUrl": "0", "title": "0", "ckey": 0, "available": false, "iiifUrl": "0" }, "geometry": { "type": "Polygon", "coordinates": [ [ [ 141.97, 45.8333337 ], [ 142.25, 45.8333337 ], [ 142.25, 46.0000003 ], [ 141.97, 46.0000003 ], [ 141.97, 45.8333337 ] ] ] } },
{ "type": "Feature", "properties": { "Id": 0, "Sheet_ID": "大泊 16", "label": "大泊 16", "call_short": "0", "call_num": "0", "recid": "0", "websiteUrl": "0", "title": "0", "ckey": 0, "available": false, "iiifUrl": "0" }, "geometry": { "type": "Polygon", "coordinates": [ [ [ 142.0, 46.0000003 ], [ 142.25, 46.0000003 ], [ 142.25, 46.166667 ], [ 142.0, 46.166667 ], [ 142.0, 46.0000003 ] ] ] } },
{ "type": "Feature", "properties": { "Id": 0, "Sheet_ID": "大泊 15", "label": "大泊 15", "call_short": "0", "call_num": "0", "recid": "0", "websiteUrl": "0", "title": "0", "ckey": 0, "available": false, "iiifUrl": "0" }, "geometry": { "type": "Polygon", "coordinates": [ [ [ 142.0, 46.166667 ], [ 142.25, 46.166667 ], [ 142.25, 46.3333336 ], [ 142.0, 46.3333336 ], [ 142.0, 46.166667 ] ] ] } },
{ "type": "Feature", "properties": { "Id": 0, "Sheet_ID": "大泊 14", "label": "大泊 14", "call_short": "0", "call_num": "0", "recid": "0", "websiteUrl": "0", "title": "0", "ckey": 0, "available": false, "iiifUrl": "0" }, "geometry": { "type": "Polygon", "coordinates": [ [ [ 142.0, 46.3333336 ], [ 142.25, 46.3333336 ], [ 142.25, 46.5000003 ], [ 142.0, 46.5000003 ], [ 142.0, 46.3333336 ] ] ] } },
{ "type": "Feature", "properties": { "Id": 0, "Sheet_ID": "大泊 10", "label": "大泊 10", "call_short": "0", "call_num": "0", "recid": "0", "websiteUrl": "0", "title": "0", "ckey": 0, "available": false, "iiifUrl": "0" }, "geometry": { "type": "Polygon", "coordinates": [ [ [ 142.25, 46.3333336 ], [ 142.5, 46.3333336 ], [ 142.5, 46.5000003 ], [ 142.25, 46.5000003 ], [ 142.25, 46.3333336 ] ] ] } },
{ "type": "Feature", "properties": { "Id": 0, "Sheet_ID": "大泊 13", "label": "大泊 13", "call_short": "G7331 .S67 S50 .J3", "call_num": "G7331 .S67 S50 .J3 N-13", "recid": "qr982tx4592", "websiteUrl": "https://purl.stanford.edu/qr982tx4592", "title": "五万分一地形圖 [樺太]", "ckey": 10505240, "available": true, "iiifUrl": "https://purl.stanford.edu/qr982tx4592/iiif/manifest" }, "geometry": { "type": "Polygon", "coordinates": [ [ [ 142.0, 46.5000003 ], [ 142.25, 46.5000003 ], [ 142.25, 46.6666669 ], [ 142.0, 46.6666669 ], [ 142.0, 46.5000003 ] ] ] } },
{ "type": "Feature", "properties": { "Id": 0, "Sheet_ID": "大泊 9", "label": "大泊 9", "call_short": "0", "call_num": "0", "recid": "0", "websiteUrl": "0", "title": "0", "ckey": 0, "available": false, "iiifUrl": "0" }, "geometry": { "type": "Polygon", "coordinates": [ [ [ 142.25, 46.5000003 ], [ 142.5, 46.5000003 ], [ 142.5, 46.6666669 ], [ 142.25, 46.6666669 ], [ 142.25, 46.5000003 ] ] ] } },
{ "type": "Feature", "properties": { "Id": 0, "Sheet_ID": "大泊 1", "label": "大泊 1", "call_short": "0", "call_num": "0", "recid": "0", "websiteUrl": "0", "title": "0", "ckey": 0, "available": false, "iiifUrl": "0" }, "geometry": { "type": "Polygon", "coordinates": [ [ [ 142.75, 46.5000003 ], [ 143.0, 46.5000003 ], [ 143.0, 46.6666669 ], [ 142.75, 46.6666669 ], [ 142.75, 46.5000003 ] ] ] } },
{ "type": "Feature", "properties": { "Id": 0, "Sheet_ID": "豐原 16", "label": "豐原 16", "call_short": "0", "call_num": "0", "recid": "0", "websiteUrl": "0", "title": "0", "ckey": 0, "available": false, "iiifUrl": "0" }, "geometry": { "type": "Polygon", "coordinates": [ [ [ 142.0, 46.6666669 ], [ 142.25, 46.6666669 ], [ 142.25, 46.8333336 ], [ 142.0, 46.8333336 ], [ 142.0, 46.6666669 ] ] ] } },
{ "type": "Feature", "properties": { "Id": 0, "Sheet_ID": "豐原 12", "label": "豐原 12", "call_short": "0", "call_num": "0", "recid": "0", "websiteUrl": "0", "title": "0", "ckey": 0, "available": false, "iiifUrl": "0" }, "geometry": { "type": "Polygon", "coordinates": [ [ [ 142.25, 46.6666669 ], [ 142.5, 46.6666669 ], [ 142.5, 46.8333336 ], [ 142.25, 46.8333336 ], [ 142.25, 46.6666669 ] ] ] } },
{ "type": "Feature", "properties": { "Id": 0, "Sheet_ID": "豐原 8", "label": "豐原 8", "call_short": "0", "call_num": "0", "recid": "0", "websiteUrl": "0", "title": "0", "ckey": 0, "available": false, "iiifUrl": "0" }, "geometry": { "type": "Polygon", "coordinates": [ [ [ 142.5, 46.6666669 ], [ 142.75, 46.6666669 ], [ 142.75, 46.8333336 ], [ 142.5, 46.8333336 ], [ 142.5, 46.6666669 ] ] ] } },
{ "type": "Feature", "properties": { "Id": 0, "Sheet_ID": "豐原 4", "label": "豐原 4", "call_short": "0", "call_num": "0", "recid": "0", "websiteUrl": "0", "title": "0", "ckey": 0, "available": false, "iiifUrl": "0" }, "geometry": { "type": "Polygon", "coordinates": [ [ [ 142.75, 46.6666669 ], [ 143.0, 46.6666669 ], [ 143.0, 46.8333336 ], [ 142.75, 46.8333336 ], [ 142.75, 46.6666669 ] ] ] } },
{ "type": "Feature", "properties": { "Id": 0, "Sheet_ID": "豊原 15", "label": "豊原 15", "call_short": "G7331 .S67 S50 .J3", "call_num": "G7331 .S67 S50 .J3 K-15", "recid": "dw970zy2339", "websiteUrl": "https://purl.stanford.edu/dw970zy2339", "title": "五万分一地形圖 [樺太]", "ckey": 10505240, "available": true, "iiifUrl": "https://purl.stanford.edu/dw970zy2339/iiif/manifest" }, "geometry": { "type": "Polygon", "coordinates": [ [ [ 142.0, 46.8333336 ], [ 142.25, 46.8333336 ], [ 142.25, 47.0000002 ], [ 142.0, 47.0000002 ], [ 142.0, 46.8333336 ] ] ] } },
{ "type": "Feature", "properties": { "Id": 0, "Sheet_ID": "豊原 11", "label": "豊原 11", "call_short": "G7331 .S67 S50 .J3", "call_num": "G7331 .S67 S50 .J3 K-11", "recid": "gv716ws1339", "websiteUrl": "https://purl.stanford.edu/gv716ws1339", "title": "五万分一地形圖 [樺太]", "ckey": 10505240, "available": true, "iiifUrl": "https://purl.stanford.edu/gv716ws1339/iiif/manifest" }, "geometry": { "type": "Polygon", "coordinates": [ [ [ 142.25, 46.8333336 ], [ 142.5, 46.8333336 ], [ 142.5, 47.0000002 ], [ 142.25, 47.0000002 ], [ 142.25, 46.8333336 ] ] ] } },
{ "type": "Feature", "properties": { "Id": 0, "Sheet_ID": "豐原 7", "label": "豐原 7", "call_short": "0", "call_num": "0", "recid": "0", "websiteUrl": "0", "title": "0", "ckey": 0, "available": false, "iiifUrl": "0" }, "geometry": { "type": "Polygon", "coordinates": [ [ [ 142.5, 46.8333336 ], [ 142.75, 46.8333336 ], [ 142.75, 47.0000002 ], [ 142.5, 47.0000002 ], [ 142.5, 46.8333336 ] ] ] } },
{ "type": "Feature", "properties": { "Id": 0, "Sheet_ID": "豐原 3", "label": "豐原 3", "call_short": "0", "call_num": "0", "recid": "0", "websiteUrl": "0", "title": "0", "ckey": 0, "available": false, "iiifUrl": "0" }, "geometry": { "type": "Polygon", "coordinates": [ [ [ 142.75, 46.8333336 ], [ 143.0, 46.8333336 ], [ 143.0, 47.0000002 ], [ 142.75, 47.0000002 ], [ 142.75, 46.8333336 ] ] ] } },
{ "type": "Feature", "properties": { "Id": 0, "Sheet_ID": "豐原 14", "label": "豐原 14", "call_short": "0", "call_num": "0", "recid": "0", "websiteUrl": "0", "title": "0", "ckey": 0, "available": false, "iiifUrl": "0" }, "geometry": { "type": "Polygon", "coordinates": [ [ [ 142.0, 47.0000002 ], [ 142.25, 47.0000002 ], [ 142.25, 47.1666669 ], [ 142.0, 47.1666669 ], [ 142.0, 47.0000002 ] ] ] } },
{ "type": "Feature", "properties": { "Id": 0, "Sheet_ID": "豊原 10", "label": "豊原 10", "call_short": "G7331 .S67 S50 .J3", "call_num": "G7331 .S67 S50 .J3 K-10", "recid": "xj240wq5742", "websiteUrl": "https://purl.stanford.edu/xj240wq5742", "title": "五万分一地形圖 [樺太]", "ckey": 10505240, "available": true, "iiifUrl": "https://purl.stanford.edu/xj240wq5742/iiif/manifest" }, "geometry": { "type": "Polygon", "coordinates": [ [ [ 142.25, 47.0000002 ], [ 142.5, 47.0000002 ], [ 142.5, 47.1666669 ], [ 142.25, 47.1666669 ], [ 142.25, 47.0000002 ] ] ] } },
{ "type": "Feature", "properties": { "Id": 0, "Sheet_ID": "豐原 6", "label": "豐原 6", "call_short": "0", "call_num": "0", "recid": "0", "websiteUrl": "0", "title": "0", "ckey": 0, "available": false, "iiifUrl": "0" }, "geometry": { "type": "Polygon", "coordinates": [ [ [ 142.5, 47.0000002 ], [ 142.75, 47.0000002 ], [ 142.75, 47.1666669 ], [ 142.5, 47.1666669 ], [ 142.5, 47.0000002 ] ] ] } },
{ "type": "Feature", "properties": { "Id": 0, "Sheet_ID": "豐原 2", "label": "豐原 2", "call_short": "0", "call_num": "0", "recid": "0", "websiteUrl": "0", "title": "0", "ckey": 0, "available": false, "iiifUrl": "0" }, "geometry": { "type": "Polygon", "coordinates": [ [ [ 142.75, 47.0000002 ], [ 143.0, 47.0000002 ], [ 143.0, 47.1666669 ], [ 142.75, 47.1666669 ], [ 142.75, 47.0000002 ] ] ] } },
{ "type": "Feature", "properties": { "Id": 0, "Sheet_ID": "豐原 13", "label": "豐原 13", "call_short": "0", "call_num": "0", "recid": "0", "websiteUrl": "0", "title": "0", "ckey": 0, "available": false, "iiifUrl": "0" }, "geometry": { "type": "Polygon", "coordinates": [ [ [ 141.95, 47.1666669 ], [ 142.25, 47.1666669 ], [ 142.25, 47.3333335 ], [ 141.95, 47.3333335 ], [ 141.95, 47.1666669 ] ] ] } },
{ "type": "Feature", "properties": { "Id": 0, "Sheet_ID": "豐原 9", "label": "豐原 9", "call_short": "0", "call_num": "0", "recid": "0", "websiteUrl": "0", "title": "0", "ckey": 0, "available": false, "iiifUrl": "0" }, "geometry": { "type": "Polygon", "coordinates": [ [ [ 142.25, 47.1666669 ], [ 142.5, 47.1666669 ], [ 142.5, 47.3333335 ], [ 142.25, 47.3333335 ], [ 142.25, 47.1666669 ] ] ] } },
{ "type": "Feature", "properties": { "Id": 0, "Sheet_ID": "豐原 5", "label": "豐原 5", "call_short": "0", "call_num": "0", "recid": "0", "websiteUrl": "0", "title": "0", "ckey": 0, "available": false, "iiifUrl": "0" }, "geometry": { "type": "Polygon", "coordinates": [ [ [ 142.5, 47.1666669 ], [ 142.75, 47.1666669 ], [ 142.75, 47.3333335 ], [ 142.5, 47.3333335 ], [ 142.5, 47.1666669 ] ] ] } },
{ "type": "Feature", "properties": { "Id": 0, "Sheet_ID": "豊原 1", "label": "豊原 1", "call_short": "G7331 .S67 S50 .J3", "call_num": "G7331 .S67 S50 .J3 K-1", "recid": "cc165mn4563", "websiteUrl": "https://purl.stanford.edu/cc165mn4563", "title": "五万分一地形圖 [樺太]", "ckey": 10505240, "available": true, "iiifUrl": "https://purl.stanford.edu/cc165mn4563/iiif/manifest" }, "geometry": { "type": "Polygon", "coordinates": [ [ [ 142.75, 47.1666669 ], [ 143.0, 47.1666669 ], [ 143.0, 47.3333335 ], [ 142.75, 47.3333335 ], [ 142.75, 47.1666669 ] ] ] } },
{ "type": "Feature", "properties": { "Id": 0, "Sheet_ID": "泊居 16", "label": "泊居 16", "call_short": "0", "call_num": "0", "recid": "0", "websiteUrl": "0", "title": "0", "ckey": 0, "available": false, "iiifUrl": "0" }, "geometry": { "type": "Polygon", "coordinates": [ [ [ 141.95, 47.3333335 ], [ 142.25, 47.3333335 ], [ 142.25, 47.5000002 ], [ 141.95, 47.5000002 ], [ 141.95, 47.3333335 ] ] ] } },
{ "type": "Feature", "properties": { "Id": 0, "Sheet_ID": "泊居 12", "label": "泊居 12", "call_short": "0", "call_num": "0", "recid": "0", "websiteUrl": "0", "title": "0", "ckey": 0, "available": false, "iiifUrl": "0" }, "geometry": { "type": "Polygon", "coordinates": [ [ [ 142.25, 47.3333335 ], [ 142.5, 47.3333335 ], [ 142.5, 47.5000002 ], [ 142.25, 47.5000002 ], [ 142.25, 47.3333335 ] ] ] } },
{ "type": "Feature", "properties": { "Id": 0, "Sheet_ID": "泊居 8", "label": "泊居 8", "call_short": "0", "call_num": "0", "recid": "0", "websiteUrl": "0", "title": "0", "ckey": 0, "available": false, "iiifUrl": "0" }, "geometry": { "type": "Polygon", "coordinates": [ [ [ 142.5, 47.3333335 ], [ 142.75, 47.3333335 ], [ 142.75, 47.5000002 ], [ 142.5, 47.5000002 ], [ 142.5, 47.3333335 ] ] ] } },
{ "type": "Feature", "properties": { "Id": 0, "Sheet_ID": "泊居 4", "label": "泊居 4", "call_short": "0", "call_num": "0", "recid": "0", "websiteUrl": "0", "title": "0", "ckey": 0, "available": false, "iiifUrl": "0" }, "geometry": { "type": "Polygon", "coordinates": [ [ [ 142.75, 47.3333335 ], [ 143.0, 47.3333335 ], [ 143.0, 47.5000002 ], [ 142.75, 47.5000002 ], [ 142.75, 47.3333335 ] ] ] } },
{ "type": "Feature", "properties": { "Id": 0, "Sheet_ID": "泊居 15", "label": "泊居 15", "call_short": "G7331 .S67 S50 .J3", "call_num": "G7331 .S67 S50 .J3 I-15", "recid": "hz564kr9053", "websiteUrl": "https://purl.stanford.edu/hz564kr9053", "title": "五万分一地形圖 [樺太]", "ckey": 10505240, "available": true, "iiifUrl": "https://purl.stanford.edu/hz564kr9053/iiif/manifest" }, "geometry": { "type": "Polygon", "coordinates": [ [ [ 141.95, 47.5000002 ], [ 142.25, 47.5000002 ], [ 142.25, 47.6666668 ], [ 141.95, 47.6666668 ], [ 141.95, 47.5000002 ] ] ] } },
{ "type": "Feature", "properties": { "Id": 0, "Sheet_ID": "泊居 11", "label": "泊居 11", "call_short": "0", "call_num": "0", "recid": "0", "websiteUrl": "0", "title": "0", "ckey": 0, "available": false, "iiifUrl": "0" }, "geometry": { "type": "Polygon", "coordinates": [ [ [ 142.25, 47.5000002 ], [ 142.5, 47.5000002 ], [ 142.5, 47.6666668 ], [ 142.25, 47.6666668 ], [ 142.25, 47.5000002 ] ] ] } },
{ "type": "Feature", "properties": { "Id": 0, "Sheet_ID": "泊居 7", "label": "泊居 7", "call_short": "0", "call_num": "0", "recid": "0", "websiteUrl": "0", "title": "0", "ckey": 0, "available": false, "iiifUrl": "0" }, "geometry": { "type": "Polygon", "coordinates": [ [ [ 142.5, 47.5000002 ], [ 142.75, 47.5000002 ], [ 142.75, 47.6666668 ], [ 142.5, 47.6666668 ], [ 142.5, 47.5000002 ] ] ] } },
{ "type": "Feature", "properties": { "Id": 0, "Sheet_ID": "泊居 14", "label": "泊居 14", "call_short": "0", "call_num": "0", "recid": "0", "websiteUrl": "0", "title": "0", "ckey": 0, "available": false, "iiifUrl": "0" }, "geometry": { "type": "Polygon", "coordinates": [ [ [ 142.0, 47.6666668 ], [ 142.25, 47.6666668 ], [ 142.25, 47.8333335 ], [ 142.0, 47.8333335 ], [ 142.0, 47.6666668 ] ] ] } },
{ "type": "Feature", "properties": { "Id": 0, "Sheet_ID": "泊居 10", "label": "泊居 10", "call_short": "0", "call_num": "0", "recid": "0", "websiteUrl": "0", "title": "0", "ckey": 0, "available": false, "iiifUrl": "0" }, "geometry": { "type": "Polygon", "coordinates": [ [ [ 142.25, 47.6666668 ], [ 142.5, 47.6666668 ], [ 142.5, 47.8333335 ], [ 142.25, 47.8333335 ], [ 142.25, 47.6666668 ] ] ] } },
{ "type": "Feature", "properties": { "Id": 0, "Sheet_ID": "泊居 6", "label": "泊居 6", "call_short": "0", "call_num": "0", "recid": "0", "websiteUrl": "0", "title": "0", "ckey": 0, "available": false, "iiifUrl": "0" }, "geometry": { "type": "Polygon", "coordinates": [ [ [ 142.5, 47.6666668 ], [ 142.75, 47.6666668 ], [ 142.75, 47.8333335 ], [ 142.5, 47.8333335 ], [ 142.5, 47.6666668 ] ] ] } },
{ "type": "Feature", "properties": { "Id": 0, "Sheet_ID": "泊居 13", "label": "泊居 13", "call_short": "0", "call_num": "0", "recid": "0", "websiteUrl": "0", "title": "0", "ckey": 0, "available": false, "iiifUrl": "0" }, "geometry": { "type": "Polygon", "coordinates": [ [ [ 142.0, 47.8333335 ], [ 142.25, 47.8333335 ], [ 142.25, 48.0000002 ], [ 142.0, 48.0000002 ], [ 142.0, 47.8333335 ] ] ] } },
{ "type": "Feature", "properties": { "Id": 0, "Sheet_ID": "泊居 9", "label": "泊居 9", "call_short": "0", "call_num": "0", "recid": "0", "websiteUrl": "0", "title": "0", "ckey": 0, "available": false, "iiifUrl": "0" }, "geometry": { "type": "Polygon", "coordinates": [ [ [ 142.25, 47.8333335 ], [ 142.5, 47.8333335 ], [ 142.5, 48.0000002 ], [ 142.25, 48.0000002 ], [ 142.25, 47.8333335 ] ] ] } },
{ "type": "Feature", "properties": { "Id": 0, "Sheet_ID": "泊居 5", "label": "泊居 5", "call_short": "0", "call_num": "0", "recid": "0", "websiteUrl": "0", "title": "0", "ckey": 0, "available": false, "iiifUrl": "0" }, "geometry": { "type": "Polygon", "coordinates": [ [ [ 142.5, 47.8333335 ], [ 142.75, 47.8333335 ], [ 142.75, 48.0000002 ], [ 142.5, 48.0000002 ], [ 142.5, 47.8333335 ] ] ] } },
{ "type": "Feature", "properties": { "Id": 0, "Sheet_ID": "知取 16", "label": "知取 16", "call_short": "G7331 .S67 S50 .J3", "call_num": "G7331 .S67 S50 .J3 H-16", "recid": "ry732xx4767", "websiteUrl": "https://purl.stanford.edu/ry732xx4767", "title": "五万分一地形圖 [樺太]", "ckey": 10505240, "available": true, "iiifUrl": "https://purl.stanford.edu/ry732xx4767/iiif/manifest" }, "geometry": { "type": "Polygon", "coordinates": [ [ [ 142.0, 48.0000002 ], [ 142.25, 48.0000002 ], [ 142.25, 48.1666668 ], [ 142.0, 48.1666668 ], [ 142.0, 48.0000002 ] ] ] } },
{ "type": "Feature", "properties": { "Id": 0, "Sheet_ID": "知取 12", "label": "知取 12", "call_short": "0", "call_num": "0", "recid": "0", "websiteUrl": "0", "title": "0", "ckey": 0, "available": false, "iiifUrl": "0" }, "geometry": { "type": "Polygon", "coordinates": [ [ [ 142.25, 48.0000002 ], [ 142.5, 48.0000002 ], [ 142.5, 48.1666668 ], [ 142.25, 48.1666668 ], [ 142.25, 48.0000002 ] ] ] } },
{ "type": "Feature", "properties": { "Id": 0, "Sheet_ID": "知取 8", "label": "知取 8", "call_short": "0", "call_num": "0", "recid": "0", "websiteUrl": "0", "title": "0", "ckey": 0, "available": false, "iiifUrl": "0" }, "geometry": { "type": "Polygon", "coordinates": [ [ [ 142.5, 48.0000002 ], [ 142.75, 48.0000002 ], [ 142.75, 48.1666668 ], [ 142.5, 48.1666668 ], [ 142.5, 48.0000002 ] ] ] } },
{ "type": "Feature", "properties": { "Id": 0, "Sheet_ID": "知取 15", "label": "知取 15", "call_short": "0", "call_num": "0", "recid": "0", "websiteUrl": "0", "title": "0", "ckey": 0, "available": false, "iiifUrl": "0" }, "geometry": { "type": "Polygon", "coordinates": [ [ [ 142.0, 48.1666668 ], [ 142.25, 48.1666668 ], [ 142.25, 48.3333335 ], [ 142.0, 48.3333335 ], [ 142.0, 48.1666668 ] ] ] } },
{ "type": "Feature", "properties": { "Id": 0, "Sheet_ID": "知取 11", "label": "知取 11", "call_short": "0", "call_num": "0", "recid": "0", "websiteUrl": "0", "title": "0", "ckey": 0, "available": false, "iiifUrl": "0" }, "geometry": { "type": "Polygon", "coordinates": [ [ [ 142.25, 48.1666668 ], [ 142.5, 48.1666668 ], [ 142.5, 48.3333335 ], [ 142.25, 48.3333335 ], [ 142.25, 48.1666668 ] ] ] } },
{ "type": "Feature", "properties": { "Id": 0, "Sheet_ID": "知取 7", "label": "知取 7", "call_short": "0", "call_num": "0", "recid": "0", "websiteUrl": "0", "title": "0", "ckey": 0, "available": false, "iiifUrl": "0" }, "geometry": { "type": "Polygon", "coordinates": [ [ [ 142.5, 48.1666668 ], [ 142.75, 48.1666668 ], [ 142.75, 48.3333335 ], [ 142.5, 48.3333335 ], [ 142.5, 48.1666668 ] ] ] } },
{ "type": "Feature", "properties": { "Id": 0, "Sheet_ID": "知取 14", "label": "知取 14", "call_short": "0", "call_num": "0", "recid": "0", "websiteUrl": "0", "title": "0", "ckey": 0, "available": false, "iiifUrl": "0" }, "geometry": { "type": "Polygon", "coordinates": [ [ [ 142.0, 48.3333335 ], [ 142.25, 48.3333335 ], [ 142.25, 48.5000001 ], [ 142.0, 48.5000001 ], [ 142.0, 48.3333335 ] ] ] } },
{ "type": "Feature", "properties": { "Id": 0, "Sheet_ID": "知取 10", "label": "知取 10", "call_short": "0", "call_num": "0", "recid": "0", "websiteUrl": "0", "title": "0", "ckey": 0, "available": false, "iiifUrl": "0" }, "geometry": { "type": "Polygon", "coordinates": [ [ [ 142.25, 48.3333335 ], [ 142.5, 48.3333335 ], [ 142.5, 48.5000001 ], [ 142.25, 48.5000001 ], [ 142.25, 48.3333335 ] ] ] } },
{ "type": "Feature", "properties": { "Id": 0, "Sheet_ID": "知取 6", "label": "知取 6", "call_short": "0", "call_num": "0", "recid": "0", "websiteUrl": "0", "title": "0", "ckey": 0, "available": false, "iiifUrl": "0" }, "geometry": { "type": "Polygon", "coordinates": [ [ [ 142.5, 48.3333335 ], [ 142.75, 48.3333335 ], [ 142.75, 48.5000001 ], [ 142.5, 48.5000001 ], [ 142.5, 48.3333335 ] ] ] } },
{ "type": "Feature", "properties": { "Id": 0, "Sheet_ID": "知取 13", "label": "知取 13", "call_short": "0", "call_num": "0", "recid": "0", "websiteUrl": "0", "title": "0", "ckey": 0, "available": false, "iiifUrl": "0" }, "geometry": { "type": "Polygon", "coordinates": [ [ [ 142.0, 48.5000001 ], [ 142.25, 48.5000001 ], [ 142.25, 48.6666668 ], [ 142.0, 48.6666668 ], [ 142.0, 48.5000001 ] ] ] } },
{ "type": "Feature", "properties": { "Id": 0, "Sheet_ID": "知取 9", "label": "知取 9", "call_short": "G7331 .S67 S50 .J3", "call_num": "G7331 .S67 S50 .J3 H-9", "recid": "br645tb9552", "websiteUrl": "https://purl.stanford.edu/br645tb9552", "title": "五万分一地形圖 [樺太]", "ckey": 10505240, "available": true, "iiifUrl": "https://purl.stanford.edu/br645tb9552/iiif/manifest" }, "geometry": { "type": "Polygon", "coordinates": [ [ [ 142.25, 48.5000001 ], [ 142.5, 48.5000001 ], [ 142.5, 48.6666668 ], [ 142.25, 48.6666668 ], [ 142.25, 48.5000001 ] ] ] } },
{ "type": "Feature", "properties": { "Id": 0, "Sheet_ID": "知取 5", "label": "知取 5", "call_short": "0", "call_num": "0", "recid": "0", "websiteUrl": "0", "title": "0", "ckey": 0, "available": false, "iiifUrl": "0" }, "geometry": { "type": "Polygon", "coordinates": [ [ [ 142.5, 48.5000001 ], [ 142.75, 48.5000001 ], [ 142.75, 48.6666668 ], [ 142.5, 48.6666668 ], [ 142.5, 48.5000001 ] ] ] } },
{ "type": "Feature", "properties": { "Id": 0, "Sheet_ID": "知取 1", "label": "知取 1", "call_short": "G7331 .S67 S50 .J3", "call_num": "G7331 .S67 S50 .J3 H-1", "recid": "pr168rn3527", "websiteUrl": "https://purl.stanford.edu/pr168rn3527", "title": "五万分一地形圖 [樺太]", "ckey": 10505240, "available": true, "iiifUrl": "https://purl.stanford.edu/pr168rn3527/iiif/manifest" }, "geometry": { "type": "Polygon", "coordinates": [ [ [ 142.75, 48.5000001 ], [ 143.0, 48.5000001 ], [ 143.0, 48.6666668 ], [ 142.75, 48.6666668 ], [ 142.75, 48.5000001 ] ] ] } },
{ "type": "Feature", "properties": { "Id": 0, "Sheet_ID": "惠須取 16", "label": "惠須取 16", "call_short": "0", "call_num": "0", "recid": "0", "websiteUrl": "0", "title": "0", "ckey": 0, "available": false, "iiifUrl": "0" }, "geometry": { "type": "Polygon", "coordinates": [ [ [ 142.0, 48.6666668 ], [ 142.25, 48.6666668 ], [ 142.25, 48.8333334 ], [ 142.0, 48.8333334 ], [ 142.0, 48.6666668 ] ] ] } },
{ "type": "Feature", "properties": { "Id": 0, "Sheet_ID": "惠須取 12", "label": "惠須取 12", "call_short": "0", "call_num": "0", "recid": "0", "websiteUrl": "0", "title": "0", "ckey": 0, "available": false, "iiifUrl": "0" }, "geometry": { "type": "Polygon", "coordinates": [ [ [ 142.25, 48.6666668 ], [ 142.5, 48.6666668 ], [ 142.5, 48.8333334 ], [ 142.25, 48.8333334 ], [ 142.25, 48.6666668 ] ] ] } },
{ "type": "Feature", "properties": { "Id": 0, "Sheet_ID": "惠須取 8 / 内路 8", "label": "惠須取 8 / 内路 8", "call_short": "0", "call_num": "0", "recid": "0", "websiteUrl": "0", "title": "0", "ckey": 0, "available": false, "iiifUrl": "0" }, "geometry": { "type": "Polygon", "coordinates": [ [ [ 142.5, 48.6666668 ], [ 142.75, 48.6666668 ], [ 142.75, 48.8333334 ], [ 142.5, 48.8333334 ], [ 142.5, 48.6666668 ] ] ] } },
{ "type": "Feature", "properties": { "Id": 0, "Sheet_ID": "惠須取 4", "label": "惠須取 4", "call_short": "0", "call_num": "0", "recid": "0", "websiteUrl": "0", "title": "0", "ckey": 0, "available": false, "iiifUrl": "0" }, "geometry": { "type": "Polygon", "coordinates": [ [ [ 142.75, 48.6666668 ], [ 143.0, 48.6666668 ], [ 143.0, 48.8333334 ], [ 142.75, 48.8333334 ], [ 142.75, 48.6666668 ] ] ] } },
{ "type": "Feature", "properties": { "Id": 0, "Sheet_ID": "惠須取 15", "label": "惠須取 15", "call_short": "0", "call_num": "0", "recid": "0", "websiteUrl": "0", "title": "0", "ckey": 0, "available": false, "iiifUrl": "0" }, "geometry": { "type": "Polygon", "coordinates": [ [ [ 142.0, 48.8333334 ], [ 142.25, 48.8333334 ], [ 142.25, 49.0000001 ], [ 142.0, 49.0000001 ], [ 142.0, 48.8333334 ] ] ] } },
{ "type": "Feature", "properties": { "Id": 0, "Sheet_ID": "惠須取 11 / 内路 11", "label": "惠須取 11 / 内路 11", "call_short": "0", "call_num": "0", "recid": "0", "websiteUrl": "0", "title": "0", "ckey": 0, "available": false, "iiifUrl": "0" }, "geometry": { "type": "Polygon", "coordinates": [ [ [ 142.25, 48.8333334 ], [ 142.5, 48.8333334 ], [ 142.5, 49.0000001 ], [ 142.25, 49.0000001 ], [ 142.25, 48.8333334 ] ] ] } },
{ "type": "Feature", "properties": { "Id": 0, "Sheet_ID": "惠須取 7", "label": "惠須取 7", "call_short": "0", "call_num": "0", "recid": "0", "websiteUrl": "0", "title": "0", "ckey": 0, "available": false, "iiifUrl": "0" }, "geometry": { "type": "Polygon", "coordinates": [ [ [ 142.5, 48.8333334 ], [ 142.75, 48.8333334 ], [ 142.75, 49.0000001 ], [ 142.5, 49.0000001 ], [ 142.5, 48.8333334 ] ] ] } },
{ "type": "Feature", "properties": { "Id": 0, "Sheet_ID": "惠須取 3", "label": "惠須取 3", "call_short": "0", "call_num": "0", "recid": "0", "websiteUrl": "0", "title": "0", "ckey": 0, "available": false, "iiifUrl": "0" }, "geometry": { "type": "Polygon", "coordinates": [ [ [ 142.75, 48.8333334 ], [ 143.0, 48.8333334 ], [ 143.0, 49.0000001 ], [ 142.75, 49.0000001 ], [ 142.75, 48.8333334 ] ] ] } },
{ "type": "Feature", "properties": { "Id": 0, "Sheet_ID": "惠須取 14", "label": "惠須取 14", "call_short": "0", "call_num": "0", "recid": "0", "websiteUrl": "0", "title": "0", "ckey": 0, "available": false, "iiifUrl": "0" }, "geometry": { "type": "Polygon", "coordinates": [ [ [ 142.0, 49.0000001 ], [ 142.25, 49.0000001 ], [ 142.25, 49.1666667 ], [ 142.0, 49.1666667 ], [ 142.0, 49.0000001 ] ] ] } },
{ "type": "Feature", "properties": { "Id": 0, "Sheet_ID": "惠須取 10", "label": "惠須取 10", "call_short": "0", "call_num": "0", "recid": "0", "websiteUrl": "0", "title": "0", "ckey": 0, "available": false, "iiifUrl": "0" }, "geometry": { "type": "Polygon", "coordinates": [ [ [ 142.25, 49.0000001 ], [ 142.5, 49.0000001 ], [ 142.5, 49.1666667 ], [ 142.25, 49.1666667 ], [ 142.25, 49.0000001 ] ] ] } },
{ "type": "Feature", "properties": { "Id": 0, "Sheet_ID": "惠須取 6", "label": "惠須取 6", "call_short": "0", "call_num": "0", "recid": "0", "websiteUrl": "0", "title": "0", "ckey": 0, "available": false, "iiifUrl": "0" }, "geometry": { "type": "Polygon", "coordinates": [ [ [ 142.5, 49.0000001 ], [ 142.75, 49.0000001 ], [ 142.75, 49.1666667 ], [ 142.5, 49.1666667 ], [ 142.5, 49.0000001 ] ] ] } },
{ "type": "Feature", "properties": { "Id": 0, "Sheet_ID": "惠須取 2", "label": "惠須取 2", "call_short": "0", "call_num": "0", "recid": "0", "websiteUrl": "0", "title": "0", "ckey": 0, "available": false, "iiifUrl": "0" }, "geometry": { "type": "Polygon", "coordinates": [ [ [ 142.75, 49.0000001 ], [ 143.0, 49.0000001 ], [ 143.0, 49.1666667 ], [ 142.75, 49.1666667 ], [ 142.75, 49.0000001 ] ] ] } },
{ "type": "Feature", "properties": { "Id": 0, "Sheet_ID": "惠須取 13", "label": "惠須取 13", "call_short": "0", "call_num": "0", "recid": "0", "websiteUrl": "0", "title": "0", "ckey": 0, "available": false, "iiifUrl": "0" }, "geometry": { "type": "Polygon", "coordinates": [ [ [ 142.0, 49.1666667 ], [ 142.25, 49.1666667 ], [ 142.25, 49.3333334 ], [ 142.0, 49.3333334 ], [ 142.0, 49.1666667 ] ] ] } },
{ "type": "Feature", "properties": { "Id": 0, "Sheet_ID": "惠須取 9", "label": "惠須取 9", "call_short": "0", "call_num": "0", "recid": "0", "websiteUrl": "0", "title": "0", "ckey": 0, "available": false, "iiifUrl": "0" }, "geometry": { "type": "Polygon", "coordinates": [ [ [ 142.25, 49.1666667 ], [ 142.5, 49.1666667 ], [ 142.5, 49.3333334 ], [ 142.25, 49.3333334 ], [ 142.25, 49.1666667 ] ] ] } },
{ "type": "Feature", "properties": { "Id": 0, "Sheet_ID": "惠須取 5", "label": "惠須取 5", "call_short": "0", "call_num": "0", "recid": "0", "websiteUrl": "0", "title": "0", "ckey": 0, "available": false, "iiifUrl": "0" }, "geometry": { "type": "Polygon", "coordinates": [ [ [ 142.5, 49.1666667 ], [ 142.75, 49.1666667 ], [ 142.75, 49.3333334 ], [ 142.5, 49.3333334 ], [ 142.5, 49.1666667 ] ] ] } },
{ "type": "Feature", "properties": { "Id": 0, "Sheet_ID": "惠須取 1", "label": "惠須取 1", "call_short": "0", "call_num": "0", "recid": "0", "websiteUrl": "0", "title": "0", "ckey": 0, "available": false, "iiifUrl": "0" }, "geometry": { "type": "Polygon", "coordinates": [ [ [ 142.75, 49.1666667 ], [ 143.0, 49.1666667 ], [ 143.0, 49.3333334 ], [ 142.75, 49.3333334 ], [ 142.75, 49.1666667 ] ] ] } },
{ "type": "Feature", "properties": { "Id": 0, "Sheet_ID": "名好 16", "label": "名好 16", "call_short": "0", "call_num": "0", "recid": "0", "websiteUrl": "0", "title": "0", "ckey": 0, "available": false, "iiifUrl": "0" }, "geometry": { "type": "Polygon", "coordinates": [ [ [ 142.0, 49.3333334 ], [ 142.25, 49.3333334 ], [ 142.25, 49.5 ], [ 142.0, 49.5 ], [ 142.0, 49.3333334 ] ] ] } },
{ "type": "Feature", "properties": { "Id": 0, "Sheet_ID": "名好 12", "label": "名好 12", "call_short": "G7331 .S67 S50 .J3", "call_num": "G7331 .S67 S50 .J3 F-12", "recid": "br000yw6677", "websiteUrl": "https://purl.stanford.edu/br000yw6677", "title": "五万分一地形圖 [樺太]", "ckey": 10505240, "available": true, "iiifUrl": "https://purl.stanford.edu/br000yw6677/iiif/manifest" }, "geometry": { "type": "Polygon", "coordinates": [ [ [ 142.25, 49.3333334 ], [ 142.5, 49.3333334 ], [ 142.5, 49.5 ], [ 142.25, 49.5 ], [ 142.25, 49.3333334 ] ] ] } },
{ "type": "Feature", "properties": { "Id": 0, "Sheet_ID": "名好 8", "label": "名好 8", "call_short": "0", "call_num": "0", "recid": "0", "websiteUrl": "0", "title": "0", "ckey": 0, "available": false, "iiifUrl": "0" }, "geometry": { "type": "Polygon", "coordinates": [ [ [ 142.5, 49.3333334 ], [ 142.75, 49.3333334 ], [ 142.75, 49.5 ], [ 142.5, 49.5 ], [ 142.5, 49.3333334 ] ] ] } },
{ "type": "Feature", "properties": { "Id": 0, "Sheet_ID": "名好 4", "label": "名好 4", "call_short": "0", "call_num": "0", "recid": "0", "websiteUrl": "0", "title": "0", "ckey": 0, "available": false, "iiifUrl": "0" }, "geometry": { "type": "Polygon", "coordinates": [ [ [ 142.75, 49.3333334 ], [ 143.0, 49.3333334 ], [ 143.0, 49.5 ], [ 142.75, 49.5 ], [ 142.75, 49.3333334 ] ] ] } },
{ "type": "Feature", "properties": { "Id": 0, "Sheet_ID": "名好 15", "label": "名好 15", "call_short": "0", "call_num": "0", "recid": "0", "websiteUrl": "0", "title": "0", "ckey": 0, "available": false, "iiifUrl": "0" }, "geometry": { "type": "Polygon", "coordinates": [ [ [ 142.0, 49.5 ], [ 142.25, 49.5 ], [ 142.25, 49.6666667 ], [ 142.0, 49.6666667 ], [ 142.0, 49.5 ] ] ] } },
{ "type": "Feature", "properties": { "Id": 0, "Sheet_ID": "名好 11", "label": "名好 11", "call_short": "0", "call_num": "0", "recid": "0", "websiteUrl": "0", "title": "0", "ckey": 0, "available": false, "iiifUrl": "0" }, "geometry": { "type": "Polygon", "coordinates": [ [ [ 142.25, 49.5 ], [ 142.5, 49.5 ], [ 142.5, 49.6666667 ], [ 142.25, 49.6666667 ], [ 142.25, 49.5 ] ] ] } },
{ "type": "Feature", "properties": { "Id": 0, "Sheet_ID": "名好 7", "label": "名好 7", "call_short": "0", "call_num": "0", "recid": "0", "websiteUrl": "0", "title": "0", "ckey": 0, "available": false, "iiifUrl": "0" }, "geometry": { "type": "Polygon", "coordinates": [ [ [ 142.5, 49.5 ], [ 142.75, 49.5 ], [ 142.75, 49.6666667 ], [ 142.5, 49.6666667 ], [ 142.5, 49.5 ] ] ] } },
{ "type": "Feature", "properties": { "Id": 0, "Sheet_ID": "名好 3", "label": "名好 3", "call_short": "0", "call_num": "0", "recid": "0", "websiteUrl": "0", "title": "0", "ckey": 0, "available": false, "iiifUrl": "0" }, "geometry": { "type": "Polygon", "coordinates": [ [ [ 142.75, 49.5 ], [ 143.0, 49.5 ], [ 143.0, 49.6666667 ], [ 142.75, 49.6666667 ], [ 142.75, 49.5 ] ] ] } },
{ "type": "Feature", "properties": { "Id": 0, "Sheet_ID": "名好 2", "label": "名好 2", "call_short": "0", "call_num": "0", "recid": "0", "websiteUrl": "0", "title": "0", "ckey": 0, "available": false, "iiifUrl": "0" }, "geometry": { "type": "Polygon", "coordinates": [ [ [ 142.75, 49.6666667 ], [ 143.0, 49.6666667 ], [ 143.0, 49.8333333 ], [ 142.75, 49.8333333 ], [ 142.75, 49.6666667 ] ] ] } },
{ "type": "Feature", "properties": { "Id": 0, "Sheet_ID": "知取 13西部", "label": "知取 13西部", "call_short": "0", "call_num": "0", "recid": "0", "websiteUrl": "0", "title": "0", "ckey": 0, "available": false, "iiifUrl": "0" }, "geometry": { "type": "Polygon", "coordinates": [ [ [ 141.75, 48.5 ], [ 142.0, 48.5 ], [ 142.0, 48.6666667 ], [ 141.75, 48.6666667 ], [ 141.75, 48.5 ] ] ] } },
{ "type": "Feature", "properties": { "Id": 0, "Sheet_ID": "恵須取 16西部", "label": "恵須取 16西部", "call_short": "G7331 .S67 S50 .J3", "call_num": "G7331 .S67 S50 .J3 G-16 WEST", "recid": "hw542sx2019", "websiteUrl": "https://purl.stanford.edu/hw542sx2019", "title": "五万分一地形圖 [樺太]", "ckey": 10505240, "available": true, "iiifUrl": "https://purl.stanford.edu/hw542sx2019/iiif/manifest" }, "geometry": { "type": "Polygon", "coordinates": [ [ [ 141.75, 48.6666667 ], [ 142.0, 48.6666667 ], [ 142.0, 48.8333333 ], [ 141.75, 48.8333333 ], [ 141.75, 48.6666667 ] ] ] } },
{ "type": "Feature", "properties": { "Id": 0, "Sheet_ID": "惠須取 15西部", "label": "惠須取 15西部", "call_short": "0", "call_num": "0", "recid": "0", "websiteUrl": "0", "title": "0", "ckey": 0, "available": false, "iiifUrl": "0" }, "geometry": { "type": "Polygon", "coordinates": [ [ [ 141.75, 48.8333333 ], [ 142.0, 48.8333333 ], [ 142.0, 49.0 ], [ 141.75, 49.0 ], [ 141.75, 48.8333333 ] ] ] } },
{ "type": "Feature", "properties": { "Id": 0, "Sheet_ID": "内幌 4", "label": "内幌 4", "call_short": "0", "call_num": "0", "recid": "0", "websiteUrl": "0", "title": "0", "ckey": 0, "available": false, "iiifUrl": "0" }, "geometry": { "type": "Polygon", "coordinates": [ [ [ 141.75, 46.0 ], [ 142.0, 46.0 ], [ 142.0, 46.1666667 ], [ 141.75, 46.1666667 ], [ 141.75, 46.0 ] ] ] } },
{ "type": "Feature", "properties": { "Id": 0, "Sheet_ID": "内幌 3", "label": "内幌 3", "call_short": "G7331 .S67 S50 .J3", "call_num": "G7331 .S67 S50 .J3 P-3", "recid": "pj716nt6561", "websiteUrl": "https://purl.stanford.edu/pj716nt6561", "title": "五万分一地形圖 [樺太]", "ckey": 10505240, "available": true, "iiifUrl": "https://purl.stanford.edu/pj716nt6561/iiif/manifest" }, "geometry": { "type": "Polygon", "coordinates": [ [ [ 141.75, 46.1666667 ], [ 142.0, 46.1666667 ], [ 142.0, 46.3333333 ], [ 141.75, 46.3333333 ], [ 141.75, 46.1666667 ] ] ] } },
{ "type": "Feature", "properties": { "Id": 0, "Sheet_ID": "内幌 2", "label": "内幌 2", "call_short": "0", "call_num": "0", "recid": "0", "websiteUrl": "0", "title": "0", "ckey": 0, "available": false, "iiifUrl": "0" }, "geometry": { "type": "Polygon", "coordinates": [ [ [ 141.75, 46.3333333 ], [ 142.0, 46.3333333 ], [ 142.0, 46.5 ], [ 141.75, 46.5 ], [ 141.75, 46.3333333 ] ] ] } },
{ "type": "Feature", "properties": { "Id": 0, "Sheet_ID": "内幌 1", "label": "内幌 1", "call_short": "0", "call_num": "0", "recid": "0", "websiteUrl": "0", "title": "0", "ckey": 0, "available": false, "iiifUrl": "0" }, "geometry": { "type": "Polygon", "coordinates": [ [ [ 141.75, 46.5 ], [ 142.0, 46.5 ], [ 142.0, 46.6666667 ], [ 141.75, 46.6666667 ], [ 141.75, 46.5 ] ] ] } },
{ "type": "Feature", "properties": { "Id": 0, "Sheet_ID": "豐原 16西部 / 本斗 4", "label": "豐原 16西部 / 本斗 4", "call_short": "0", "call_num": "0", "recid": "0", "websiteUrl": "0", "title": "0", "ckey": 0, "available": false, "iiifUrl": "0" }, "geometry": { "type": "Polygon", "coordinates": [ [ [ 141.75, 46.6666667 ], [ 142.0, 46.6666667 ], [ 142.0, 46.8333333 ], [ 141.75, 46.8333333 ], [ 141.75, 46.6666667 ] ] ] } },
{ "type": "Feature", "properties": { "Id": 0, "Sheet_ID": "本斗 3", "label": "本斗 3", "call_short": "0", "call_num": "0", "recid": "0", "websiteUrl": "0", "title": "0", "ckey": 0, "available": false, "iiifUrl": "0" }, "geometry": { "type": "Polygon", "coordinates": [ [ [ 141.75, 46.8333333 ], [ 142.0, 46.8333333 ], [ 142.0, 47.0 ], [ 141.75, 47.0 ], [ 141.75, 46.8333333 ] ] ] } },
{ "type": "Feature", "properties": { "Id": 0, "Sheet_ID": "内幌 15", "label": "内幌 15", "call_short": "0", "call_num": "0", "recid": "0", "websiteUrl": "0", "title": "0", "ckey": 0, "available": false, "iiifUrl": "0" }, "geometry": { "type": "Polygon", "coordinates": [ [ [ 141.025, 46.1666667 ], [ 141.275, 46.1666667 ], [ 141.275, 46.3333333 ], [ 141.025, 46.3333333 ], [ 141.025, 46.1666667 ] ] ] } },
{ "type": "Feature", "properties": { "Id": 0, "Sheet_ID": "中知床岬 12", "label": "中知床岬 12", "call_short": "0", "call_num": "0", "recid": "0", "websiteUrl": "0", "title": "0", "ckey": 0, "available": false, "iiifUrl": "0" }, "geometry": { "type": "Polygon", "coordinates": [ [ [ 143.25, 46.0 ], [ 143.5, 46.0 ], [ 143.5, 46.1666666 ], [ 143.25, 46.1666666 ], [ 143.25, 46.0 ] ] ] } },
{ "type": "Feature", "properties": { "Id": 0, "Sheet_ID": "中知床岬 11", "label": "中知床岬 11", "call_short": "0", "call_num": "0", "recid": "0", "websiteUrl": "0", "title": "0", "ckey": 0, "available": false, "iiifUrl": "0" }, "geometry": { "type": "Polygon", "coordinates": [ [ [ 143.25, 46.1666666 ], [ 143.5, 46.1666666 ], [ 143.5, 46.3333332 ], [ 143.25, 46.3333332 ], [ 143.25, 46.1666666 ] ] ] } },
{ "type": "Feature", "properties": { "Id": 0, "Sheet_ID": "中知床岬 7", "label": "中知床岬 7", "call_short": "G7331 .S67 S50 .J3", "call_num": "G7331 .S67 S50 .J3 M-7", "recid": "bp144jk9644", "websiteUrl": "https://purl.stanford.edu/bp144jk9644", "title": "五万分一地形圖 [樺太]", "ckey": 10505240, "available": true, "iiifUrl": "https://purl.stanford.edu/bp144jk9644/iiif/manifest" }, "geometry": { "type": "Polygon", "coordinates": [ [ [ 143.5, 46.1666666 ], [ 143.75, 46.1666666 ], [ 143.75, 46.3333332 ], [ 143.5, 46.3333332 ], [ 143.5, 46.1666666 ] ] ] } },
{ "type": "Feature", "properties": { "Id": 0, "Sheet_ID": "中知床岬 10", "label": "中知床岬 10", "call_short": "0", "call_num": "0", "recid": "0", "websiteUrl": "0", "title": "0", "ckey": 0, "available": false, "iiifUrl": "0" }, "geometry": { "type": "Polygon", "coordinates": [ [ [ 143.25, 46.3333333 ], [ 143.5, 46.3333333 ], [ 143.5, 46.4999999 ], [ 143.25, 46.4999999 ], [ 143.25, 46.3333333 ] ] ] } },
{ "type": "Feature", "properties": { "Id": 0, "Sheet_ID": "中知床岬 6", "label": "中知床岬 6", "call_short": "0", "call_num": "0", "recid": "0", "websiteUrl": "0", "title": "0", "ckey": 0, "available": false, "iiifUrl": "0" }, "geometry": { "type": "Polygon", "coordinates": [ [ [ 143.5, 46.3333333 ], [ 143.75, 46.3333333 ], [ 143.75, 46.4999999 ], [ 143.5, 46.4999999 ], [ 143.5, 46.3333333 ] ] ] } },
{ "type": "Feature", "properties": { "Id": 0, "Sheet_ID": "中知床岬 13", "label": "中知床岬 13", "call_short": "0", "call_num": "0", "recid": "0", "websiteUrl": "0", "title": "0", "ckey": 0, "available": false, "iiifUrl": "0" }, "geometry": { "type": "Polygon", "coordinates": [ [ [ 143.0, 46.4999999 ], [ 143.25, 46.4999999 ], [ 143.25, 46.6666665 ], [ 143.0, 46.6666665 ], [ 143.0, 46.4999999 ] ] ] } },
{ "type": "Feature", "properties": { "Id": 0, "Sheet_ID": "中知床岬 9", "label": "中知床岬 9", "call_short": "0", "call_num": "0", "recid": "0", "websiteUrl": "0", "title": "0", "ckey": 0, "available": false, "iiifUrl": "0" }, "geometry": { "type": "Polygon", "coordinates": [ [ [ 143.25, 46.4999999 ], [ 143.5, 46.4999999 ], [ 143.5, 46.6666665 ], [ 143.25, 46.6666665 ], [ 143.25, 46.4999999 ] ] ] } },
{ "type": "Feature", "properties": { "Id": 0, "Sheet_ID": "中知床岬 5", "label": "中知床岬 5", "call_short": "0", "call_num": "0", "recid": "0", "websiteUrl": "0", "title": "0", "ckey": 0, "available": false, "iiifUrl": "0" }, "geometry": { "type": "Polygon", "coordinates": [ [ [ 143.5, 46.4999999 ], [ 143.75, 46.4999999 ], [ 143.75, 46.6666665 ], [ 143.5, 46.6666665 ], [ 143.5, 46.4999999 ] ] ] } },
{ "type": "Feature", "properties": { "Id": 0, "Sheet_ID": "富内 16", "label": "富内 16", "call_short": "0", "call_num": "0", "recid": "0", "websiteUrl": "0", "title": "0", "ckey": 0, "available": false, "iiifUrl": "0" }, "geometry": { "type": "Polygon", "coordinates": [ [ [ 143.0, 46.6666665 ], [ 143.25, 46.6666665 ], [ 143.25, 46.8333331 ], [ 143.0, 46.8333331 ], [ 143.0, 46.6666665 ] ] ] } },
{ "type": "Feature", "properties": { "Id": 0, "Sheet_ID": "富内 12", "label": "富内 12", "call_short": "0", "call_num": "0", "recid": "0", "websiteUrl": "0", "title": "0", "ckey": 0, "available": false, "iiifUrl": "0" }, "geometry": { "type": "Polygon", "coordinates": [ [ [ 143.25, 46.6666665 ], [ 143.5, 46.6666665 ], [ 143.5, 46.8333331 ], [ 143.25, 46.8333331 ], [ 143.25, 46.6666665 ] ] ] } },
{ "type": "Feature", "properties": { "Id": 0, "Sheet_ID": "富内 8", "label": "富内 8", "call_short": "0", "call_num": "0", "recid": "0", "websiteUrl": "0", "title": "0", "ckey": 0, "available": false, "iiifUrl": "0" }, "geometry": { "type": "Polygon", "coordinates": [ [ [ 143.5, 46.6666665 ], [ 143.75, 46.6666665 ], [ 143.75, 46.8333331 ], [ 143.5, 46.8333331 ], [ 143.5, 46.6666665 ] ] ] } },
{ "type": "Feature", "properties": { "Id": 0, "Sheet_ID": "富内 15", "label": "富内 15", "call_short": "0", "call_num": "0", "recid": "0", "websiteUrl": "0", "title": "0", "ckey": 0, "available": false, "iiifUrl": "0" }, "geometry": { "type": "Polygon", "coordinates": [ [ [ 143.0, 46.8333331 ], [ 143.25, 46.8333331 ], [ 143.25, 46.9999998 ], [ 143.0, 46.9999998 ], [ 143.0, 46.8333331 ] ] ] } },
{ "type": "Feature", "properties": { "Id": 0, "Sheet_ID": "富内 11", "label": "富内 11", "call_short": "0", "call_num": "0", "recid": "0", "websiteUrl": "0", "title": "0", "ckey": 0, "available": false, "iiifUrl": "0" }, "geometry": { "type": "Polygon", "coordinates": [ [ [ 143.25, 46.8333331 ], [ 143.5, 46.8333331 ], [ 143.5, 46.9999998 ], [ 143.25, 46.9999998 ], [ 143.25, 46.8333331 ] ] ] } },
{ "type": "Feature", "properties": { "Id": 0, "Sheet_ID": "富内 14", "label": "富内 14", "call_short": "G7331 .S67 S50 .J3", "call_num": "G7331 .S67 S50 .J3 J-14", "recid": "mm913rc5989", "websiteUrl": "https://purl.stanford.edu/mm913rc5989", "title": "五万分一地形圖 [樺太]", "ckey": 10505240, "available": true, "iiifUrl": "https://purl.stanford.edu/mm913rc5989/iiif/manifest" }, "geometry": { "type": "Polygon", "coordinates": [ [ [ 143.0, 46.9999998 ], [ 143.25, 46.9999998 ], [ 143.25, 47.1666664 ], [ 143.0, 47.1666664 ], [ 143.0, 46.9999998 ] ] ] } },
{ "type": "Feature", "properties": { "Id": 0, "Sheet_ID": "富内 13", "label": "富内 13", "call_short": "0", "call_num": "0", "recid": "0", "websiteUrl": "0", "title": "0", "ckey": 0, "available": false, "iiifUrl": "0" }, "geometry": { "type": "Polygon", "coordinates": [ [ [ 143.0, 47.1666664 ], [ 143.25, 47.1666664 ], [ 143.25, 47.333333 ], [ 143.0, 47.333333 ], [ 143.0, 47.1666664 ] ] ] } }
]
}
