{
"type": "FeatureCollection",
"name": "index_map",
"features": [
{ "type": "Feature", "properties": { "Id": 0, "Sheet_ID": "パラオ諸島 概況 (其1/其2)", "label": "パラオ諸島 概況 (其1/其2)", "call_short": "G9420 S100 .J3", "call_num": "G9420 S100 .J3 P1", "recid": "rb989vc0488", "websiteUrl": "https://purl.stanford.edu/rb989vc0488", "title": "十万分一圖カロリン諸島", "ckey": 12378948, "available": true, "iiifUrl": "https://purl.stanford.edu/rb989vc0488/iiif/manifest" }, "geometry": { "type": "Polygon", "coordinates": [ [ [ 134.716667, 6.875 ], [ 134.716667, 7.791667 ], [ 134.791667, 7.791667 ], [ 134.791667, 8.25 ], [ 134.433333, 8.25 ], [ 134.433333, 7.791667 ], [ 134.083333, 7.791667 ], [ 134.083333, 6.875 ], [ 134.716667, 6.875 ] ] ] } },
{ "type": "Feature", "properties": { "Id": 0, "Sheet_ID": "パラオ諸島中央部 (分圖 21)", "label": "パラオ諸島中央部 (分圖 21)", "call_short": "G9420 S100 .J3", "call_num": "G9420 S100 .J3 P1-DETAIL 21", "recid": "vq626mt8351", "websiteUrl": "https://purl.stanford.edu/vq626mt8351", "title": "[カロリン諸島]", "ckey": 12378948, "available": true, "iiifUrl": "https://purl.stanford.edu/vq626mt8351/iiif/manifest" }, "geometry": { "type": "Polygon", "coordinates": [ [ [ 134.266667, 7.016667 ], [ 134.65, 7.016667 ], [ 134.65, 7.6 ], [ 134.266667, 7.6 ], [ 134.266667, 7.016667 ] ] ] } },
{ "type": "Feature", "properties": { "Id": 0, "Sheet_ID": "パラオ港 コロール島付近 (分圖 22)", "label": "パラオ港 コロール島付近 (分圖 22)", "call_short": "G9420 S100 .J3", "call_num": "G9420 S100 .J3 P1-DETAIL 22", "recid": "zp431hh8832", "websiteUrl": "https://purl.stanford.edu/zp431hh8832", "title": "[カロリン諸島]", "ckey": 12378948, "available": true, "iiifUrl": "https://purl.stanford.edu/zp431hh8832/iiif/manifest" }, "geometry": { "type": "Polygon", "coordinates": [ [ [ 134.358333, 7.25 ], [ 134.583333, 7.25 ], [ 134.583333, 7.4 ], [ 134.358333, 7.4 ], [ 134.358333, 7.25 ] ] ] } },
{ "type": "Feature", "properties": { "Id": 0, "Sheet_ID": "ガラスマオ泊地 (分圖 23)", "label": "ガラスマオ泊地 (分圖 23)", "call_short": "G9420 S100 .J3", "call_num": "G9420 S100 .J3 P1-DETAIL 23", "recid": "cs164pz8751", "websiteUrl": "https://purl.stanford.edu/cs164pz8751", "title": "[カロリン諸島]", "ckey": 12378948, "available": true, "iiifUrl": "https://purl.stanford.edu/cs164pz8751/iiif/manifest" }, "geometry": { "type": "Polygon", "coordinates": [ [ [ 134.511111, 7.5833337 ], [ 134.645833, 7.583333 ], [ 134.645833, 7.66875 ], [ 134.511111, 7.66875 ], [ 134.511111, 7.5833337 ] ] ] } },
{ "type": "Feature", "properties": { "Id": 0, "Sheet_ID": "アンガウル島 概況 (分圖 25)", "label": "アンガウル島 概況 (分圖 25)", "call_short": "G9420 S100 .J3", "call_num": "G9420 S100 .J3 P1-DETAIL 25", "recid": "rw808st6939", "websiteUrl": "https://purl.stanford.edu/rw808st6939", "title": "[カロリン諸島]", "ckey": 12378948, "available": true, "iiifUrl": "https://purl.stanford.edu/rw808st6939/iiif/manifest" }, "geometry": { "type": "Polygon", "coordinates": [ [ [ 134.113333, 6.8625 ], [ 134.175, 6.8625 ], [ 134.175, 6.94 ], [ 134.113333, 6.94 ], [ 134.113333, 6.8625 ] ] ] } },
{ "type": "Feature", "properties": { "Id": 0, "Sheet_ID": "パラオ南西方離島_ソンソル諸島 概況", "label": "パラオ南西方離島_ソンソル諸島 概況", "call_short": "G9420 S100 .J3", "call_num": "G9420 S100 .J3 P2", "recid": "dn378qk2200", "websiteUrl": "https://purl.stanford.edu/dn378qk2200", "title": "[カロリン諸島]", "ckey": 12378948, "available": true, "iiifUrl": "https://purl.stanford.edu/dn378qk2200/iiif/manifest" }, "geometry": { "type": "Polygon", "coordinates": [ [ [ 132.191667, 5.25 ], [ 132.275, 5.25 ], [ 132.275, 5.391667 ], [ 132.191667, 5.391667 ], [ 132.191667, 5.25 ] ] ] } },
{ "type": "Feature", "properties": { "Id": 0, "Sheet_ID": "パラオ南西方離島_プル島 概況", "label": "パラオ南西方離島_プル島 概況", "call_short": "G9420 S100 .J3", "call_num": "G9420 S100 .J3 P2", "recid": "dn378qk2200", "websiteUrl": "https://purl.stanford.edu/dn378qk2200", "title": "[カロリン諸島]", "ckey": 12378948, "available": true, "iiifUrl": "https://purl.stanford.edu/dn378qk2200/iiif/manifest" }, "geometry": { "type": "Polygon", "coordinates": [ [ [ 131.9, 4.616667 ], [ 131.983333, 4.616667 ], [ 131.983333, 4.683333 ], [ 131.9, 4.683333 ], [ 131.9, 4.616667 ] ] ] } },
{ "type": "Feature", "properties": { "Id": 0, "Sheet_ID": "パラオ南西方離島_トコベイ島 概況", "label": "パラオ南西方離島_トコベイ島 概況", "call_short": "G9420 S100 .J3", "call_num": "G9420 S100 .J3 P2", "recid": "dn378qk2200", "websiteUrl": "https://purl.stanford.edu/dn378qk2200", "title": "[カロリン諸島]", "ckey": 12378948, "available": true, "iiifUrl": "https://purl.stanford.edu/dn378qk2200/iiif/manifest" }, "geometry": { "type": "Polygon", "coordinates": [ [ [ 131.075, 2.966667 ], [ 131.175, 2.966667 ], [ 131.175, 3.033333 ], [ 131.075, 3.033333 ], [ 131.075, 2.966667 ] ] ] } },
{ "type": "Feature", "properties": { "Id": 0, "Sheet_ID": "パラオ南西方離島_メリル島 概況", "label": "パラオ南西方離島_メリル島 概況", "call_short": "G9420 S100 .J3", "call_num": "G9420 S100 .J3 P2", "recid": "dn378qk2200", "websiteUrl": "https://purl.stanford.edu/dn378qk2200", "title": "[カロリン諸島]", "ckey": 12378948, "available": true, "iiifUrl": "https://purl.stanford.edu/dn378qk2200/iiif/manifest" }, "geometry": { "type": "Polygon", "coordinates": [ [ [ 132.258333, 4.25 ], [ 132.358333, 4.25 ], [ 132.358333, 4.391667 ], [ 132.258333, 4.391667 ], [ 132.258333, 4.25 ] ] ] } },
{ "type": "Feature", "properties": { "Id": 0, "Sheet_ID": "ヘレン礁", "label": "ヘレン礁", "call_short": "G9420 S100 .J3", "call_num": "G9420 S100 .J3 P3 ED.2", "recid": "xk619ct2174", "websiteUrl": "https://purl.stanford.edu/xk619ct2174", "title": "十万分一圖カロリン諸島", "ckey": 12378948, "available": true, "iiifUrl": "https://purl.stanford.edu/xk619ct2174/iiif/manifest" }, "geometry": { "type": "Polygon", "coordinates": [ [ [ 131.583333, 2.75 ], [ 131.916667, 2.75 ], [ 131.916667, 3.083333 ], [ 131.583333, 3.083333 ], [ 131.583333, 2.75 ] ] ] } },
{ "type": "Feature", "properties": { "Id": 0, "Sheet_ID": "ヘレン礁 概況", "label": "ヘレン礁 概況", "call_short": "G9420 S100 .J3", "call_num": "G9420 S100 .J3 P3", "recid": "wt125hv7185", "websiteUrl": "https://purl.stanford.edu/wt125hv7185", "title": "十万分一圖カロリン諸島", "ckey": 12378948, "available": true, "iiifUrl": "https://purl.stanford.edu/wt125hv7185/iiif/manifest" }, "geometry": { "type": "Polygon", "coordinates": [ [ [ 131.583333, 2.75 ], [ 131.916667, 2.75 ], [ 131.916667, 3.083333 ], [ 131.583333, 3.083333 ], [ 131.583333, 2.75 ] ] ] } },
{ "type": "Feature", "properties": { "Id": 0, "Sheet_ID": "クッルー島", "label": "クッルー島", "call_short": "G9420 S100 .J3", "call_num": "G9420 S100 .J3 M1 ED.2", "recid": "qm596wm0353", "websiteUrl": "https://purl.stanford.edu/qm596wm0353", "title": "十万分一圖カロリン諸島", "ckey": 12378948, "available": true, "iiifUrl": "https://purl.stanford.edu/qm596wm0353/iiif/manifest" }, "geometry": { "type": "Polygon", "coordinates": [ [ [ 137.3, 8.216667 ], [ 137.633333, 8.216667 ], [ 137.633333, 8.633333 ], [ 137.3, 8.633333 ], [ 137.3, 8.216667 ] ] ] } },
{ "type": "Feature", "properties": { "Id": 0, "Sheet_ID": "クッルー島 概況", "label": "クッルー島 概況", "call_short": "G9420 S100 .J3", "call_num": "G9420 S100 .J3 M1", "recid": "rn537ck7322", "websiteUrl": "https://purl.stanford.edu/rn537ck7322", "title": "十万分一圖カロリン諸島", "ckey": 12378948, "available": true, "iiifUrl": "https://purl.stanford.edu/rn537ck7322/iiif/manifest" }, "geometry": { "type": "Polygon", "coordinates": [ [ [ 137.3, 8.216667 ], [ 137.633333, 8.216667 ], [ 137.633333, 8.633333 ], [ 137.3, 8.633333 ], [ 137.3, 8.216667 ] ] ] } },
{ "type": "Feature", "properties": { "Id": 0, "Sheet_ID": "ヤップ島 概況", "label": "ヤップ島 概況", "call_short": "G9420 S100 .J3", "call_num": "G9420 S100 .J3 M2", "recid": "my965pr0469", "websiteUrl": "https://purl.stanford.edu/my965pr0469", "title": "[カロリン諸島]", "ckey": 12378948, "available": true, "iiifUrl": "https://purl.stanford.edu/my965pr0469/iiif/manifest" }, "geometry": { "type": "Polygon", "coordinates": [ [ [ 137.983333, 9.333333 ], [ 138.291667, 9.333333 ], [ 138.291667, 9.741667 ], [ 137.983333, 9.741667 ], [ 137.983333, 9.333333 ] ] ] } },
{ "type": "Feature", "properties": { "Id": 0, "Sheet_ID": "ヤップ港 トミル港 概要 (分圖 29)", "label": "ヤップ港 トミル港 概要 (分圖 29)", "call_short": "G9420 S100 .J3", "call_num": "G9420 S100 .J3 M2-DETAIL 29", "recid": "sh893xx5130", "websiteUrl": "https://purl.stanford.edu/sh893xx5130", "title": "[カロリン諸島]", "ckey": 12378948, "available": true, "iiifUrl": "https://purl.stanford.edu/sh893xx5130/iiif/manifest" }, "geometry": { "type": "Polygon", "coordinates": [ [ [ 138.108333, 9.470833 ], [ 138.175, 9.470833 ], [ 138.175, 9.545833 ], [ 138.108333, 9.545833 ], [ 138.108333, 9.470833 ] ] ] } },
{ "type": "Feature", "properties": { "Id": 0, "Sheet_ID": "ウルシ島 概況", "label": "ウルシ島 概況", "call_short": "G9420 S100 .J3", "call_num": "G9420 S100 .J3 M3", "recid": "rx250fh3224", "websiteUrl": "https://purl.stanford.edu/rx250fh3224", "title": "十万分一圖カロリン諸島", "ckey": 12378948, "available": true, "iiifUrl": "https://purl.stanford.edu/rx250fh3224/iiif/manifest" }, "geometry": { "type": "Polygon", "coordinates": [ [ [ 139.5, 9.666667 ], [ 140.083333, 9.666667 ], [ 140.083333, 10.166667 ], [ 139.5, 10.166667 ], [ 139.5, 9.666667 ] ] ] } },
{ "type": "Feature", "properties": { "Id": 0, "Sheet_ID": "フハエス島", "label": "フハエス島", "call_short": "G9420 S100 .J3", "call_num": "G9420 S100 .J3 M4 ED.2", "recid": "qb913fm2322", "websiteUrl": "https://purl.stanford.edu/qb913fm2322", "title": "十万分一圖カロリン諸島", "ckey": 12378948, "available": true, "iiifUrl": "https://purl.stanford.edu/qb913fm2322/iiif/manifest" }, "geometry": { "type": "Polygon", "coordinates": [ [ [ 140.3, 9.583333 ], [ 140.733333, 9.583333 ], [ 140.733333, 9.916667 ], [ 140.3, 9.916667 ], [ 140.3, 9.583333 ] ] ] } },
{ "type": "Feature", "properties": { "Id": 0, "Sheet_ID": "フハエス島 概況", "label": "フハエス島 概況", "call_short": "G9420 S100 .J3", "call_num": "G9420 S100 .J3 M4", "recid": "gx737fc3057", "websiteUrl": "https://purl.stanford.edu/gx737fc3057", "title": "十万分一圖カロリン諸島", "ckey": 12378948, "available": true, "iiifUrl": "https://purl.stanford.edu/gx737fc3057/iiif/manifest" }, "geometry": { "type": "Polygon", "coordinates": [ [ [ 140.3, 9.583333 ], [ 140.733333, 9.583333 ], [ 140.733333, 9.916667 ], [ 140.3, 9.916667 ], [ 140.3, 9.583333 ] ] ] } },
{ "type": "Feature", "properties": { "Id": 0, "Sheet_ID": "ソロール島 概況", "label": "ソロール島 概況", "call_short": "G9420 S100 .J3", "call_num": "G9420 S100 .J3 M5", "recid": "zj317hp8830", "websiteUrl": "https://purl.stanford.edu/zj317hp8830", "title": "[カロリン諸島]", "ckey": 12378948, "available": true, "iiifUrl": "https://purl.stanford.edu/zj317hp8830/iiif/manifest" }, "geometry": { "type": "Polygon", "coordinates": [ [ [ 140.25, 8.066667 ], [ 140.5, 8.066667 ], [ 140.5, 8.216667 ], [ 140.25, 8.216667 ], [ 140.25, 8.066667 ] ] ] } },
{ "type": "Feature", "properties": { "Id": 0, "Sheet_ID": "ヨルピック島 概況", "label": "ヨルピック島 概況", "call_short": "G9420 S100 .J3", "call_num": "G9420 S100 .J3 M6", "recid": "zg098nn6018", "websiteUrl": "https://purl.stanford.edu/zg098nn6018", "title": "[カロリン諸島]", "ckey": 12378948, "available": true, "iiifUrl": "https://purl.stanford.edu/zg098nn6018/iiif/manifest" }, "geometry": { "type": "Polygon", "coordinates": [ [ [ 142.966667, 6.633333 ], [ 143.116667, 6.633333 ], [ 143.116667, 6.766667 ], [ 142.966667, 6.766667 ], [ 142.966667, 6.633333 ] ] ] } },
{ "type": "Feature", "properties": { "Id": 0, "Sheet_ID": "フラァラップ島 概況", "label": "フラァラップ島 概況", "call_short": "G9420 S100 .J3", "call_num": "G9420 S100 .J3 M7", "recid": "ky916wp9272", "websiteUrl": "https://purl.stanford.edu/ky916wp9272", "title": "十万分一圖カロリン諸島", "ckey": 12378948, "available": true, "iiifUrl": "https://purl.stanford.edu/ky916wp9272/iiif/manifest" }, "geometry": { "type": "Polygon", "coordinates": [ [ [ 144.416667, 8.383333 ], [ 144.666667, 8.383333 ], [ 144.666667, 8.75 ], [ 144.416667, 8.75 ], [ 144.416667, 8.383333 ] ] ] } },
{ "type": "Feature", "properties": { "Id": 0, "Sheet_ID": "メレヨン島 概況", "label": "メレヨン島 概況", "call_short": "G9420 S100 .J3", "call_num": "G9420 S100 .J3 M7", "recid": "ky916wp9272", "websiteUrl": "https://purl.stanford.edu/ky916wp9272", "title": "十万分一圖カロリン諸島", "ckey": 12378948, "available": true, "iiifUrl": "https://purl.stanford.edu/ky916wp9272/iiif/manifest" }, "geometry": { "type": "Polygon", "coordinates": [ [ [ 143.75, 7.133333 ], [ 144.0, 7.133333 ], [ 144.0, 7.5 ], [ 143.75, 7.5 ], [ 143.75, 7.133333 ] ] ] } },
{ "type": "Feature", "properties": { "Id": 0, "Sheet_ID": "フルック島 概況", "label": "フルック島 概況", "call_short": "G9420 S100 .J3", "call_num": "G9420 S100 .J3 M8", "recid": "yq904gr8236", "websiteUrl": "https://purl.stanford.edu/yq904gr8236", "title": "[カロリン諸島]", "ckey": 12378948, "available": true, "iiifUrl": "https://purl.stanford.edu/yq904gr8236/iiif/manifest" }, "geometry": { "type": "Polygon", "coordinates": [ [ [ 144.4125, 7.225 ], [ 144.483333, 7.225 ], [ 144.483333, 7.291667 ], [ 144.4125, 7.291667 ], [ 144.4125, 7.225 ] ] ] } },
{ "type": "Feature", "properties": { "Id": 0, "Sheet_ID": "グリメス島 概況", "label": "グリメス島 概況", "call_short": "G9420 S100 .J3", "call_num": "G9420 S100 .J3 M9", "recid": "cg887dn2088", "websiteUrl": "https://purl.stanford.edu/cg887dn2088", "title": "[カロリン諸島]", "ckey": 12378948, "available": true, "iiifUrl": "https://purl.stanford.edu/cg887dn2088/iiif/manifest" }, "geometry": { "type": "Polygon", "coordinates": [ [ [ 145.341667, 9.2 ], [ 145.433333, 9.2 ], [ 145.4333331, 9.258333 ], [ 145.341667, 9.258333 ], [ 145.341667, 9.2 ] ] ] } },
{ "type": "Feature", "properties": { "Id": 0, "Sheet_ID": "オノマライ島 概況", "label": "オノマライ島 概況", "call_short": "G9420 S100 .J3", "call_num": "G9420 S100 .J3 M10", "recid": "kr118fg0356", "websiteUrl": "https://purl.stanford.edu/kr118fg0356", "title": "[カロリン諸島]", "ckey": 12378948, "available": true, "iiifUrl": "https://purl.stanford.edu/kr118fg0356/iiif/manifest" }, "geometry": { "type": "Polygon", "coordinates": [ [ [ 145.8, 7.6 ], [ 145.933333, 7.6 ], [ 145.933333, 7.766667 ], [ 145.8, 7.766667 ], [ 145.8, 7.6 ] ] ] } },
{ "type": "Feature", "properties": { "Id": 0, "Sheet_ID": "ナモチック島及エラト諸島", "label": "ナモチック島及エラト諸島", "call_short": "G9420 S100 .J3", "call_num": "G9420 S100 .J3 M11 ED.2", "recid": "gm188gy2838", "websiteUrl": "https://purl.stanford.edu/gm188gy2838", "title": "十万分一圖カロリン諸島", "ckey": 12378948, "available": true, "iiifUrl": "https://purl.stanford.edu/gm188gy2838/iiif/manifest" }, "geometry": { "type": "Polygon", "coordinates": [ [ [ 146.05, 7.233333 ], [ 146.5, 7.233333 ], [ 146.5, 7.666667 ], [ 146.05, 7.666667 ], [ 146.05, 7.233333 ] ] ] } },
{ "type": "Feature", "properties": { "Id": 0, "Sheet_ID": "エラト諸島及ナモチック島 概況", "label": "エラト諸島及ナモチック島 概況", "call_short": "G9420 S100 .J3", "call_num": "G9420 S100 .J3 M11", "recid": "vw751zj1017", "websiteUrl": "https://purl.stanford.edu/vw751zj1017", "title": "十万分一圖カロリン諸島", "ckey": 12378948, "available": true, "iiifUrl": "https://purl.stanford.edu/vw751zj1017/iiif/manifest" }, "geometry": { "type": "Polygon", "coordinates": [ [ [ 146.05, 7.233333 ], [ 146.5, 7.233333 ], [ 146.5, 7.666667 ], [ 146.05, 7.666667 ], [ 146.05, 7.233333 ] ] ] } },
{ "type": "Feature", "properties": { "Id": 0, "Sheet_ID": "フイヤオ島 概況", "label": "フイヤオ島 概況", "call_short": "G9420 S100 .J3", "call_num": "G9420 S100 .J3 M12", "recid": "ph292vp8412", "websiteUrl": "https://purl.stanford.edu/ph292vp8412", "title": "[カロリン諸島]", "ckey": 12378948, "available": true, "iiifUrl": "https://purl.stanford.edu/ph292vp8412/iiif/manifest" }, "geometry": { "type": "Polygon", "coordinates": [ [ [ 146.691667, 8.041667 ], [ 146.783333, 8.041667 ], [ 146.783333, 8.116667 ], [ 146.691667, 8.116667 ], [ 146.691667, 8.041667 ] ] ] } },
{ "type": "Feature", "properties": { "Id": 0, "Sheet_ID": "ササオン島 概況", "label": "ササオン島 概況", "call_short": "G9420 S100 .J3", "call_num": "G9420 S100 .J3 M13", "recid": "ym996zq3828", "websiteUrl": "https://purl.stanford.edu/ym996zq3828", "title": "[カロリン諸島]", "ckey": 12378948, "available": true, "iiifUrl": "https://purl.stanford.edu/ym996zq3828/iiif/manifest" }, "geometry": { "type": "Polygon", "coordinates": [ [ [ 146.95, 7.283333 ], [ 147.133333, 7.283333 ], [ 147.133333, 7.4 ], [ 146.95, 7.4 ], [ 146.95, 7.283333 ] ] ] } },
{ "type": "Feature", "properties": { "Id": 0, "Sheet_ID": "ピゲロット島 概況", "label": "ピゲロット島 概況", "call_short": "G9420 S100 .J3", "call_num": "G9420 S100 .J3 M14", "recid": "dz656rn7957", "websiteUrl": "https://purl.stanford.edu/dz656rn7957", "title": "[カロリン諸島]", "ckey": 12378948, "available": true, "iiifUrl": "https://purl.stanford.edu/dz656rn7957/iiif/manifest" }, "geometry": { "type": "Polygon", "coordinates": [ [ [ 147.608333, 8.058333 ], [ 147.658333, 8.058333 ], [ 147.658333, 8.116667 ], [ 147.608333, 8.116667 ], [ 147.608333, 8.058333 ] ] ] } },
{ "type": "Feature", "properties": { "Id": 0, "Sheet_ID": "シュック島 概況", "label": "シュック島 概況", "call_short": "G9420 S100 .J3", "call_num": "G9420 S100 .J3 M15", "recid": "hw036bd2082", "websiteUrl": "https://purl.stanford.edu/hw036bd2082", "title": "[カロリン諸島]", "ckey": 12378948, "available": true, "iiifUrl": "https://purl.stanford.edu/hw036bd2082/iiif/manifest" }, "geometry": { "type": "Polygon", "coordinates": [ [ [ 149.275, 6.666667 ], [ 149.358333, 6.666667 ], [ 149.358333, 6.725 ], [ 149.275, 6.725 ], [ 149.275, 6.666667 ] ] ] } },
{ "type": "Feature", "properties": { "Id": 0, "Sheet_ID": "エンダービー諸島 概況", "label": "エンダービー諸島 概況", "call_short": "G9420 S100 .J3", "call_num": "G9420 S100 .J3 M16", "recid": "gg293zb4593", "websiteUrl": "https://purl.stanford.edu/gg293zb4593", "title": "[カロリン諸島]", "ckey": 12378948, "available": true, "iiifUrl": "https://purl.stanford.edu/gg293zb4593/iiif/manifest" }, "geometry": { "type": "Polygon", "coordinates": [ [ [ 149.158333, 7.316667 ], [ 149.225, 7.316667 ], [ 149.225, 7.383333 ], [ 149.158333, 7.383333 ], [ 149.158333, 7.316667 ] ] ] } },
{ "type": "Feature", "properties": { "Id": 0, "Sheet_ID": "ポウラップ諸島 概況", "label": "ポウラップ諸島 概況", "call_short": "G9420 S100 .J3", "call_num": "G9420 S100 .J3 M17", "recid": "ns280fc9516", "websiteUrl": "https://purl.stanford.edu/ns280fc9516", "title": "[カロリン諸島]", "ckey": 12378948, "available": true, "iiifUrl": "https://purl.stanford.edu/ns280fc9516/iiif/manifest" }, "geometry": { "type": "Polygon", "coordinates": [ [ [ 149.366667, 7.525 ], [ 149.466667, 7.525 ], [ 149.466667, 7.666667 ], [ 149.366667, 7.666667 ], [ 149.366667, 7.525 ] ] ] } },
{ "type": "Feature", "properties": { "Id": 0, "Sheet_ID": "オロール諸島", "label": "オロール諸島", "call_short": "G9420 S100 .J3", "call_num": "G9420 S100 .J3 M18 ED.2", "recid": "fc777wf9641", "websiteUrl": "https://purl.stanford.edu/fc777wf9641", "title": "十万分一圖カロリン諸島", "ckey": 12378948, "available": true, "iiifUrl": "https://purl.stanford.edu/fc777wf9641/iiif/manifest" }, "geometry": { "type": "Polygon", "coordinates": [ [ [ 149.616667, 8.416667 ], [ 150.5, 8.416667 ], [ 150.5, 9.033333 ], [ 149.616667, 9.033333 ], [ 149.616667, 8.416667 ] ] ] } },
{ "type": "Feature", "properties": { "Id": 0, "Sheet_ID": "オロール諸島 概況", "label": "オロール諸島 概況", "call_short": "G9420 S100 .J3", "call_num": "G9420 S100 .J3 M18", "recid": "vk076wf8392", "websiteUrl": "https://purl.stanford.edu/vk076wf8392", "title": "十万分一圖カロリン諸島", "ckey": 12378948, "available": true, "iiifUrl": "https://purl.stanford.edu/vk076wf8392/iiif/manifest" }, "geometry": { "type": "Polygon", "coordinates": [ [ [ 149.616667, 8.416667 ], [ 150.5, 8.416667 ], [ 150.5, 9.033333 ], [ 149.616667, 9.033333 ], [ 149.616667, 8.416667 ] ] ] } },
{ "type": "Feature", "properties": { "Id": 0, "Sheet_ID": "オロール島 (分圖 47)", "label": "オロール島 (分圖 47)", "call_short": null, "call_num": null, "recid": null, "websiteUrl": null, "title": null, "ckey": 0, "available": false, "iiifUrl": null }, "geometry": { "type": "Polygon", "coordinates": [ [ [ 149.625, 8.541667 ], [ 149.75, 8.541667 ], [ 149.75, 8.625 ], [ 149.625, 8.625 ], [ 149.625, 8.541667 ] ] ] } },
{ "type": "Feature", "properties": { "Id": 0, "Sheet_ID": "ルクテー島 概況", "label": "ルクテー島 概況", "call_short": "G9420 S100 .J3", "call_num": "G9420 S100 .J3 M19", "recid": "ht270qv9691", "websiteUrl": "https://purl.stanford.edu/ht270qv9691", "title": "[カロリン諸島]", "ckey": 12378948, "available": true, "iiifUrl": "https://purl.stanford.edu/ht270qv9691/iiif/manifest" }, "geometry": { "type": "Polygon", "coordinates": [ [ [ 151.308333, 8.516667 ], [ 151.375, 8.516667 ], [ 151.375, 8.575 ], [ 151.308333, 8.575 ], [ 151.308333, 8.516667 ] ] ] } },
{ "type": "Feature", "properties": { "Id": 0, "Sheet_ID": "ホール諸島 概況", "label": "ホール諸島 概況", "call_short": "G9420 S100 .J3", "call_num": "G9420 S100 .J3 M20", "recid": "py810jj9040", "websiteUrl": "https://purl.stanford.edu/py810jj9040", "title": "十万分一圖カロリン諸島", "ckey": 12378948, "available": true, "iiifUrl": "https://purl.stanford.edu/py810jj9040/iiif/manifest" }, "geometry": { "type": "Polygon", "coordinates": [ [ [ 151.65, 8.333333 ], [ 152.383333, 8.333333 ], [ 152.383333, 8.833333 ], [ 151.65, 8.833333 ], [ 151.65, 8.333333 ] ] ] } },
{ "type": "Feature", "properties": { "Id": 0, "Sheet_ID": "トラック島 (其1)", "label": "トラック島 (其1)", "call_short": "G9420 S100 .J3", "call_num": "G9420 S100 .J3 M21 ED.2", "recid": "pr526nr1384", "websiteUrl": "https://purl.stanford.edu/pr526nr1384", "title": "十万分一圖カロリン諸島", "ckey": 12378948, "available": true, "iiifUrl": "https://purl.stanford.edu/pr526nr1384/iiif/manifest" }, "geometry": { "type": "Polygon", "coordinates": [ [ [ 151.416667, 6.916667 ], [ 152.083333, 6.916667 ], [ 152.083333, 7.833333 ], [ 151.416667, 7.833333 ], [ 151.416667, 6.916667 ] ] ] } },
{ "type": "Feature", "properties": { "Id": 0, "Sheet_ID": "トラック諸島 概況", "label": "トラック諸島 概況", "call_short": "G9420 S100 .J3", "call_num": "G9420 S100 .J3 M21", "recid": "hm169pf1058", "websiteUrl": "https://purl.stanford.edu/hm169pf1058", "title": "十万分一圖カロリン諸島", "ckey": 12378948, "available": true, "iiifUrl": "https://purl.stanford.edu/hm169pf1058/iiif/manifest" }, "geometry": { "type": "Polygon", "coordinates": [ [ [ 151.416667, 6.916667 ], [ 152.083333, 6.916667 ], [ 152.083333, 7.833333 ], [ 151.416667, 7.833333 ], [ 151.416667, 6.916667 ] ] ] } },
{ "type": "Feature", "properties": { "Id": 0, "Sheet_ID": "トラック港 (分圖 51)", "label": "トラック港 (分圖 51)", "call_short": "G9420 S100 .J3", "call_num": "G9420 S100 .J3 M21-DETAIL 51", "recid": "bf427cv4784", "websiteUrl": "https://purl.stanford.edu/bf427cv4784", "title": "[カロリン諸島]", "ckey": 12378948, "available": true, "iiifUrl": "https://purl.stanford.edu/bf427cv4784/iiif/manifest" }, "geometry": { "type": "Polygon", "coordinates": [ [ [ 151.816667, 7.333333 ], [ 151.929167, 7.333333 ], [ 151.929167, 7.408333 ], [ 151.816667, 7.408333 ], [ 151.816667, 7.333333 ] ] ] } },
{ "type": "Feature", "properties": { "Id": 0, "Sheet_ID": "ナモールック島 概況", "label": "ナモールック島 概況", "call_short": "G9420 S100 .J3", "call_num": "G9420 S100 .J3 M22", "recid": "pk799cj9819", "websiteUrl": "https://purl.stanford.edu/pk799cj9819", "title": "[カロリン諸島]", "ckey": 12378948, "available": true, "iiifUrl": "https://purl.stanford.edu/pk799cj9819/iiif/manifest" }, "geometry": { "type": "Polygon", "coordinates": [ [ [ 153.091667, 5.883333 ], [ 153.175, 5.883333 ], [ 153.175, 5.941667 ], [ 153.091667, 5.941667 ], [ 153.091667, 5.883333 ] ] ] } },
{ "type": "Feature", "properties": { "Id": 0, "Sheet_ID": "モートロック諸島 概況", "label": "モートロック諸島 概況", "call_short": "G9420 S100 .J3", "call_num": "G9420 S100 .J3 M23", "recid": "ph515wc5928", "websiteUrl": "https://purl.stanford.edu/ph515wc5928", "title": "十万分一圖カロリン諸島", "ckey": 12378948, "available": true, "iiifUrl": "https://purl.stanford.edu/ph515wc5928/iiif/manifest" }, "geometry": { "type": "Polygon", "coordinates": [ [ [ 153.416667, 5.25 ], [ 153.916667, 5.25 ], [ 153.916667, 5.625 ], [ 153.416667, 5.625 ], [ 153.416667, 5.25 ] ] ] } },
{ "type": "Feature", "properties": { "Id": 0, "Sheet_ID": "サトウワン島 (分圖 55)", "label": "サトウワン島 (分圖 55)", "call_short": "G9420 S100 .J3", "call_num": "G9420 S100 .J3 M23-DETAIL 55", "recid": "fg518sf3823", "websiteUrl": "https://purl.stanford.edu/fg518sf3823", "title": "[カロリン諸島]", "ckey": 12378948, "available": true, "iiifUrl": "https://purl.stanford.edu/fg518sf3823/iiif/manifest" }, "geometry": { "type": "Polygon", "coordinates": [ [ [ 153.666667, 5.291667 ], [ 153.75, 5.291667 ], [ 153.75, 5.354167 ], [ 153.666667, 5.354167 ], [ 153.666667, 5.291667 ] ] ] } },
{ "type": "Feature", "properties": { "Id": 0, "Sheet_ID": "ルクノール島 (分圖 56)", "label": "ルクノール島 (分圖 56)", "call_short": "G9420 S100 .J3", "call_num": "G9420 S100 .J3 M23-DETAIL 56", "recid": "rw728mz4543", "websiteUrl": "https://purl.stanford.edu/rw728mz4543", "title": "[カロリン諸島]", "ckey": 12378948, "available": true, "iiifUrl": "https://purl.stanford.edu/rw728mz4543/iiif/manifest" }, "geometry": { "type": "Polygon", "coordinates": [ [ [ 153.775, 5.479167 ], [ 153.829167, 5.479167 ], [ 153.829167, 5.5375 ], [ 153.775, 5.5375 ], [ 153.775, 5.479167 ] ] ] } },
{ "type": "Feature", "properties": { "Id": 0, "Sheet_ID": "グリーニッチ島 概況", "label": "グリーニッチ島 概況", "call_short": "G9420 S100 .J3", "call_num": "G9420 S100 .J3 M24", "recid": "vw554sg3198", "websiteUrl": "https://purl.stanford.edu/vw554sg3198", "title": "十万分一圖カロリン諸島", "ckey": 12378948, "available": true, "iiifUrl": "https://purl.stanford.edu/vw554sg3198/iiif/manifest" }, "geometry": { "type": "Polygon", "coordinates": [ [ [ 154.633333, 1.0 ], [ 154.983333, 1.0 ], [ 154.983333, 1.15 ], [ 154.633333, 1.15 ], [ 154.633333, 1.0 ] ] ] } },
{ "type": "Feature", "properties": { "Id": 0, "Sheet_ID": "ヌゴール島 概況", "label": "ヌゴール島 概況", "call_short": "G9420 S100 .J3", "call_num": "G9420 S100 .J3 M25", "recid": "jk482cc1418", "websiteUrl": "https://purl.stanford.edu/jk482cc1418", "title": "十万分一圖カロリン諸島", "ckey": 12378948, "available": true, "iiifUrl": "https://purl.stanford.edu/jk482cc1418/iiif/manifest" }, "geometry": { "type": "Polygon", "coordinates": [ [ [ 154.85, 3.783333 ], [ 155.2, 3.783333 ], [ 155.2, 3.933333 ], [ 154.85, 3.933333 ], [ 154.85, 3.783333 ] ] ] } },
{ "type": "Feature", "properties": { "Id": 0, "Sheet_ID": "オロルック島", "label": "オロルック島", "call_short": "G9420 S100 .J3", "call_num": "G9420 S100 .J3 M26 ED.2", "recid": "jv800tj6431", "websiteUrl": "https://purl.stanford.edu/jv800tj6431", "title": "十万分一圖カロリン諸島", "ckey": 12378948, "available": true, "iiifUrl": "https://purl.stanford.edu/jv800tj6431/iiif/manifest" }, "geometry": { "type": "Polygon", "coordinates": [ [ [ 155.033333, 7.366667 ], [ 155.5, 7.366667 ], [ 155.5, 7.7 ], [ 155.033333, 7.7 ], [ 155.033333, 7.366667 ] ] ] } },
{ "type": "Feature", "properties": { "Id": 0, "Sheet_ID": "オロルック島 概況", "label": "オロルック島 概況", "call_short": "G9420 S100 .J3", "call_num": "G9420 S100 .J3 M26", "recid": "rg507jd8249", "websiteUrl": "https://purl.stanford.edu/rg507jd8249", "title": "十万分一圖カロリン諸島", "ckey": 12378948, "available": true, "iiifUrl": "https://purl.stanford.edu/rg507jd8249/iiif/manifest" }, "geometry": { "type": "Polygon", "coordinates": [ [ [ 155.033333, 7.366667 ], [ 155.5, 7.366667 ], [ 155.5, 7.7 ], [ 155.033333, 7.7 ], [ 155.033333, 7.366667 ] ] ] } },
{ "type": "Feature", "properties": { "Id": 0, "Sheet_ID": "ポナペ島", "label": "ポナペ島", "call_short": null, "call_num": null, "recid": null, "websiteUrl": null, "title": null, "ckey": 0, "available": false, "iiifUrl": null }, "geometry": { "type": "Polygon", "coordinates": [ [ [ 157.75, 6.666667 ], [ 158.416667, 6.666667 ], [ 158.416667, 7.166667 ], [ 157.75, 7.166667 ], [ 157.75, 6.666667 ] ] ] } },
{ "type": "Feature", "properties": { "Id": 0, "Sheet_ID": "ポナペ港 (分圖)", "label": "ポナペ港 (分圖)", "call_short": "G9420 S100 .J3", "call_num": "G9420 S100 .J3 M27-DETAIL", "recid": "dn672bf1348", "websiteUrl": "https://purl.stanford.edu/dn672bf1348", "title": "[カロリン諸島]", "ckey": 12378948, "available": true, "iiifUrl": "https://purl.stanford.edu/dn672bf1348/iiif/manifest" }, "geometry": { "type": "Polygon", "coordinates": [ [ [ 158.172222, 6.96 ], [ 158.3375, 6.96 ], [ 158.3375, 7.065 ], [ 158.172222, 7.065 ], [ 158.172222, 6.96 ] ] ] } },
{ "type": "Feature", "properties": { "Id": 0, "Sheet_ID": "モキール島 概況", "label": "モキール島 概況", "call_short": "G9420 S100 .J3", "call_num": "G9420 S100 .J3 M28", "recid": "ff562tf6475", "websiteUrl": "https://purl.stanford.edu/ff562tf6475", "title": "[カロリン諸島]", "ckey": 12378948, "available": true, "iiifUrl": "https://purl.stanford.edu/ff562tf6475/iiif/manifest" }, "geometry": { "type": "Polygon", "coordinates": [ [ [ 159.733333, 6.65 ], [ 159.783333, 6.65 ], [ 159.783333, 6.7 ], [ 159.733333, 6.7 ], [ 159.733333, 6.65 ] ] ] } },
{ "type": "Feature", "properties": { "Id": 0, "Sheet_ID": "ピゲンラップ島 概況", "label": "ピゲンラップ島 概況", "call_short": "G9420 S100 .J3", "call_num": "G9420 S100 .J3 M29", "recid": "nx057zk1267", "websiteUrl": "https://purl.stanford.edu/nx057zk1267", "title": "[カロリン諸島]", "ckey": 12378948, "available": true, "iiifUrl": "https://purl.stanford.edu/nx057zk1267/iiif/manifest" }, "geometry": { "type": "Polygon", "coordinates": [ [ [ 160.658333, 6.1875 ], [ 160.741667, 6.1875 ], [ 160.741667, 6.245833 ], [ 160.658333, 6.245833 ], [ 160.658333, 6.1875 ] ] ] } },
{ "type": "Feature", "properties": { "Id": 0, "Sheet_ID": "クサイ島 概況", "label": "クサイ島 概況", "call_short": "G9420 S100 .J3", "call_num": "G9420 S100 .J3 M30", "recid": "db229nv7286", "websiteUrl": "https://purl.stanford.edu/db229nv7286", "title": "[カロリン諸島]", "ckey": 12378948, "available": true, "iiifUrl": "https://purl.stanford.edu/db229nv7286/iiif/manifest" }, "geometry": { "type": "Polygon", "coordinates": [ [ [ 162.866667, 5.233333 ], [ 163.15, 5.233333 ], [ 163.15, 5.416667 ], [ 162.866667, 5.416667 ], [ 162.866667, 5.233333 ] ] ] } },
{ "type": "Feature", "properties": { "Id": 0, "Sheet_ID": "コキール港 (分圖)", "label": "コキール港 (分圖)", "call_short": "G9420 S100 .J3", "call_num": "G9420 S100 .J3 M30-DETAIL 1", "recid": "zw073zg6834", "websiteUrl": "https://purl.stanford.edu/zw073zg6834", "title": "[カロリン諸島]", "ckey": 12378948, "available": true, "iiifUrl": "https://purl.stanford.edu/zw073zg6834/iiif/manifest" }, "geometry": { "type": "Polygon", "coordinates": [ [ [ 162.925, 5.320833 ], [ 162.966667, 5.320833 ], [ 162.966667, 5.358333 ], [ 162.925, 5.358333 ], [ 162.925, 5.320833 ] ] ] } },
{ "type": "Feature", "properties": { "Id": 0, "Sheet_ID": "クサイ港 (分圖)", "label": "クサイ港 (分圖)", "call_short": "G9420 S100 .J3", "call_num": "G9420 S100 .J3 M30-DETAIL 2", "recid": "wn914bg1289", "websiteUrl": "https://purl.stanford.edu/wn914bg1289", "title": "[カロリン諸島]", "ckey": 12378948, "available": true, "iiifUrl": "https://purl.stanford.edu/wn914bg1289/iiif/manifest" }, "geometry": { "type": "Polygon", "coordinates": [ [ [ 163.011111, 5.316667 ], [ 163.044444, 5.316667 ], [ 163.044444, 5.340278 ], [ 163.011111, 5.340278 ], [ 163.011111, 5.316667 ] ] ] } },
{ "type": "Feature", "properties": { "Id": 0, "Sheet_ID": "ロッテイン港 (分圖)", "label": "ロッテイン港 (分圖)", "call_short": "G9420 S100 .J3", "call_num": "G9420 S100 .J3 M30-DETAIL 3", "recid": "gr466vw4034", "websiteUrl": "https://purl.stanford.edu/gr466vw4034", "title": "[カロリン諸島]", "ckey": 12378948, "available": true, "iiifUrl": "https://purl.stanford.edu/gr466vw4034/iiif/manifest" }, "geometry": { "type": "Polygon", "coordinates": [ [ [ 162.958333, 5.266667 ], [ 162.979167, 5.266667 ], [ 162.979167, 5.283333 ], [ 162.958333, 5.283333 ], [ 162.958333, 5.266667 ] ] ] } }
]
}
