{
"type": "FeatureCollection",
"name": "index_map",
"xy_coordinate_resolution": 1e-07,
"features": [
{ "type": "Feature", "properties": { "Id": 0, "Sheet_ID": "壹参タ220. ボルジャ", "label": "壹参タ220. ボルジャ", "call_short": "G7800 S200 .J3", "call_num": "G7800 S200 .J3 13TA-220", "recid": "qz457wb4456", "websiteUrl": "https://purl.stanford.edu/qz457wb4456", "title": "二十万分一地誌圖 / 蒙古及西伯利兵要二十万分一圖", "ckey": 10651269, "available": true, "iiifUrl": "https://purl.stanford.edu/qz457wb4456/iiif/manifest" }, "geometry": { "type": "Polygon", "coordinates": [ [ [ 116.0, 50.0 ], [ 117.0, 50.0 ], [ 117.0, 50.6666667 ], [ 116.0, 50.6666667 ], [ 116.0, 50.0 ] ] ] } },
{ "type": "Feature", "properties": { "Id": 0, "Sheet_ID": "壹参タ215. ツァガンオルーエフスカヤ", "label": "壹参タ215. ツァガンオルーエフスカヤ", "call_short": "G7800 S200 .J3", "call_num": "G7800 S200 .J3 13TA-215", "recid": "hc396zd8757", "websiteUrl": "https://purl.stanford.edu/hc396zd8757", "title": "二十万分一地誌圖 / 西伯利兵要二十万分一圖", "ckey": 10651269, "available": true, "iiifUrl": "https://purl.stanford.edu/hc396zd8757/iiif/manifest" }, "geometry": { "type": "Polygon", "coordinates": [ [ [ 117.0, 50.0 ], [ 118.0, 50.0 ], [ 118.0, 50.6666667 ], [ 117.0, 50.6666667 ], [ 117.0, 50.0 ] ] ] } },
{ "type": "Feature", "properties": { "Id": 0, "Sheet_ID": "壹参タ219. ブルリャートゥイ", "label": "壹参タ219. ブルリャートゥイ", "call_short": "G7800 S200 .J3", "call_num": "G7800 S200 .J3 13TA-219", "recid": "gg142cj0153", "websiteUrl": "https://purl.stanford.edu/gg142cj0153", "title": "二十万分一地誌圖 / 西伯利兵要二十万分一圖", "ckey": 10651269, "available": true, "iiifUrl": "https://purl.stanford.edu/gg142cj0153/iiif/manifest" }, "geometry": { "type": "Polygon", "coordinates": [ [ [ 116.0, 50.6666667 ], [ 117.0, 50.6666667 ], [ 117.0, 51.3333333 ], [ 116.0, 51.3333333 ], [ 116.0, 50.6666667 ] ] ] } },
{ "type": "Feature", "properties": { "Id": 0, "Sheet_ID": "壹参タ214. アレキサンドロフスキー・ザウォード", "label": "壹参タ214. アレキサンドロフスキー・ザウォード", "call_short": "G7800 S200 .J3", "call_num": "G7800 S200 .J3 13TA-214", "recid": "nd753kk5051", "websiteUrl": "https://purl.stanford.edu/nd753kk5051", "title": "二十万分一地誌圖 / 西伯利兵要二十万分一圖", "ckey": 10651269, "available": true, "iiifUrl": "https://purl.stanford.edu/nd753kk5051/iiif/manifest" }, "geometry": { "type": "Polygon", "coordinates": [ [ [ 117.0, 50.6666667 ], [ 118.0, 50.6666667 ], [ 118.0, 51.3333333 ], [ 117.0, 51.3333333 ], [ 117.0, 50.6666667 ] ] ] } },
{ "type": "Feature", "properties": { "Id": 0, "Sheet_ID": "壹参タ218. ネルチンスク", "label": "壹参タ218. ネルチンスク", "call_short": "G7800 S200 .J3", "call_num": "G7800 S200 .J3 13TA-218", "recid": "bc669xd8015", "websiteUrl": "https://purl.stanford.edu/bc669xd8015", "title": "二十万分一地誌圖 / 西伯利兵要二十万分一圖", "ckey": 10651269, "available": true, "iiifUrl": "https://purl.stanford.edu/bc669xd8015/iiif/manifest" }, "geometry": { "type": "Polygon", "coordinates": [ [ [ 116.0, 51.3333333 ], [ 117.0, 51.3333333 ], [ 117.0, 52.0 ], [ 116.0, 52.0 ], [ 116.0, 51.3333333 ] ] ] } },
{ "type": "Feature", "properties": { "Id": 0, "Sheet_ID": "壹貳タ223. 古納", "label": "壹貳タ223. 古納", "call_short": "G7800 S200 .J3", "call_num": "G7800 S200 .J3 12TA-223", "recid": "zt529yc5521", "websiteUrl": "https://purl.stanford.edu/zt529yc5521", "title": "二十万分一地誌圖 / 満州及西伯利兵要二十万分一圖", "ckey": 10651269, "available": true, "iiifUrl": "https://purl.stanford.edu/zt529yc5521/iiif/manifest" }, "geometry": { "type": "Polygon", "coordinates": [ [ [ 120.0, 51.3333333 ], [ 121.0, 51.3333333 ], [ 121.0, 52.0 ], [ 120.0, 52.0 ], [ 120.0, 51.3333333 ] ] ] } }
]
}
