{
"type": "FeatureCollection",
"name": "index_map",
"xy_coordinate_resolution": 1e-07,
"features": [
{ "type": "Feature", "properties": { "Id": 0, "Sheet_ID": "壹五へ501. 崖州", "label": "壹五へ501. 崖州", "call_short": "G7400 S500 .J3", "call_num": "G7400 S500 .J3 O-23", "recid": "zh125zv8361", "websiteUrl": "https://purl.stanford.edu/zh125zv8361", "title": "東亞五十万分一圖", "ckey": 9589153, "available": true, "iiifUrl": "https://purl.stanford.edu/zh125zv8361/iiif/manifest" }, "geometry": { "type": "Polygon", "coordinates": [ [ [ 107.5, 18.333333 ], [ 110.0, 18.333333 ], [ 110.0, 19.9999997 ], [ 107.5, 19.9999997 ], [ 107.5, 18.333333 ] ] ] } },
{ "type": "Feature", "properties": { "Id": 0, "Sheet_ID": "壹四ヘ503. 文昌", "label": "壹四ヘ503. 文昌", "call_short": "G7400 S500 .J3", "call_num": "G7400 S500 .J3 N-23", "recid": "fh656bq8876", "websiteUrl": "https://purl.stanford.edu/fh656bq8876", "title": "東亞五十万分一圖", "ckey": 9589153, "available": true, "iiifUrl": "https://purl.stanford.edu/fh656bq8876/iiif/manifest" }, "geometry": { "type": "Polygon", "coordinates": [ [ [ 110.0, 18.333333 ], [ 112.5, 18.333333 ], [ 112.5, 19.9999997 ], [ 110.0, 19.9999997 ], [ 110.0, 18.333333 ] ] ] } },
{ "type": "Feature", "properties": { "Id": 0, "Sheet_ID": "壹五ト502. 北海", "label": "壹五ト502. 北海", "call_short": "G7400 S500 .J3", "call_num": "G7400 S500 .J3 O-22", "recid": "qf095jh6401", "websiteUrl": "https://purl.stanford.edu/qf095jh6401", "title": "東亞五十万分一圖", "ckey": 9589153, "available": true, "iiifUrl": "https://purl.stanford.edu/qf095jh6401/iiif/manifest" }, "geometry": { "type": "Polygon", "coordinates": [ [ [ 107.5, 19.9999997 ], [ 110.0, 19.9999997 ], [ 110.0, 21.6666664 ], [ 107.5, 21.6666664 ], [ 107.5, 19.9999997 ] ] ] } },
{ "type": "Feature", "properties": { "Id": 0, "Sheet_ID": "壹四ト504. 雷州", "label": "壹四ト504. 雷州", "call_short": "G7400 S500 .J3", "call_num": "G7400 S500 .J3 N-22", "recid": "rv450xf9141", "websiteUrl": "https://purl.stanford.edu/rv450xf9141", "title": "東亞五十万分一圖", "ckey": 9589153, "available": true, "iiifUrl": "https://purl.stanford.edu/rv450xf9141/iiif/manifest" }, "geometry": { "type": "Polygon", "coordinates": [ [ [ 110.0, 19.9999997 ], [ 112.5, 19.9999997 ], [ 112.5, 21.6666664 ], [ 110.0, 21.6666664 ], [ 110.0, 19.9999997 ] ] ] } },
{ "type": "Feature", "properties": { "Id": 0, "Sheet_ID": "壹六ト501. 蒙自", "label": "壹六ト501. 蒙自", "call_short": "0", "call_num": "0", "recid": "0", "websiteUrl": "0", "title": "0", "ckey": 0, "available": false, "iiifUrl": "0" }, "geometry": { "type": "Polygon", "coordinates": [ [ [ 102.5, 21.6666664 ], [ 105.0, 21.6666664 ], [ 105.0, 23.3333331 ], [ 102.5, 23.3333331 ], [ 102.5, 21.6666664 ] ] ] } },
{ "type": "Feature", "properties": { "Id": 0, "Sheet_ID": "壹五ト503. 龍州", "label": "壹五ト503. 龍州", "call_short": "G7400 S500 .J3", "call_num": "G7400 S500 .J3 P-21", "recid": "bb023fw1977", "websiteUrl": "https://purl.stanford.edu/bb023fw1977", "title": "東亞五十万分一圖", "ckey": 9589153, "available": true, "iiifUrl": "https://purl.stanford.edu/bb023fw1977/iiif/manifest" }, "geometry": { "type": "Polygon", "coordinates": [ [ [ 105.0, 21.6666664 ], [ 107.5, 21.6666664 ], [ 107.5, 23.3333331 ], [ 105.0, 23.3333331 ], [ 105.0, 21.6666664 ] ] ] } },
{ "type": "Feature", "properties": { "Id": 0, "Sheet_ID": "壹五ト501. 南寧", "label": "壹五ト501. 南寧", "call_short": "G7400 S500 .J3", "call_num": "G7400 S500 .J3 O-21", "recid": "dj078cp7195", "websiteUrl": "https://purl.stanford.edu/dj078cp7195", "title": "東亞五十万分一圖", "ckey": 9589153, "available": true, "iiifUrl": "https://purl.stanford.edu/dj078cp7195/iiif/manifest" }, "geometry": { "type": "Polygon", "coordinates": [ [ [ 107.5, 21.6666664 ], [ 110.0, 21.6666664 ], [ 110.0, 23.3333331 ], [ 107.5, 23.3333331 ], [ 107.5, 21.6666664 ] ] ] } },
{ "type": "Feature", "properties": { "Id": 0, "Sheet_ID": "壹四ト503. 肇慶", "label": "壹四ト503. 肇慶", "call_short": "G7400 S500 .J3", "call_num": "G7400 S500 .J3 N-21", "recid": "nz358bw3956", "websiteUrl": "https://purl.stanford.edu/nz358bw3956", "title": "東亞五十万分一圖", "ckey": 9589153, "available": true, "iiifUrl": "https://purl.stanford.edu/nz358bw3956/iiif/manifest" }, "geometry": { "type": "Polygon", "coordinates": [ [ [ 110.0, 21.6666664 ], [ 112.5, 21.6666664 ], [ 112.5, 23.3333331 ], [ 110.0, 23.3333331 ], [ 110.0, 21.6666664 ] ] ] } },
{ "type": "Feature", "properties": { "Id": 0, "Sheet_ID": "壹四ト501. 香港", "label": "壹四ト501. 香港", "call_short": "G7400 S500 .J3", "call_num": "G7400 S500 .J3 M-21", "recid": "dk151gc3927", "websiteUrl": "https://purl.stanford.edu/dk151gc3927", "title": "東亞五十万分一圖", "ckey": 9589153, "available": true, "iiifUrl": "https://purl.stanford.edu/dk151gc3927/iiif/manifest" }, "geometry": { "type": "Polygon", "coordinates": [ [ [ 112.5, 21.6666664 ], [ 115.0, 21.6666664 ], [ 115.0, 23.3333331 ], [ 112.5, 23.3333331 ], [ 112.5, 21.6666664 ] ] ] } },
{ "type": "Feature", "properties": { "Id": 0, "Sheet_ID": "壹参ト503. 恵來", "label": "壹参ト503. 恵來", "call_short": "G7400 S500 .J3", "call_num": "G7400 S500 .J3 L-21", "recid": "py849cc8942", "websiteUrl": "https://purl.stanford.edu/py849cc8942", "title": "東亞五十万分一圖", "ckey": 9589153, "available": true, "iiifUrl": "https://purl.stanford.edu/py849cc8942/iiif/manifest" }, "geometry": { "type": "Polygon", "coordinates": [ [ [ 115.0, 21.6666664 ], [ 117.5, 21.6666664 ], [ 117.5, 23.3333331 ], [ 115.0, 23.3333331 ], [ 115.0, 21.6666664 ] ] ] } },
{ "type": "Feature", "properties": { "Id": 0, "Sheet_ID": "壹六チ502. 臨安", "label": "壹六チ502. 臨安", "call_short": "0", "call_num": "0", "recid": "0", "websiteUrl": "0", "title": "0", "ckey": 0, "available": false, "iiifUrl": "0" }, "geometry": { "type": "Polygon", "coordinates": [ [ [ 102.5, 23.3333331 ], [ 105.0, 23.3333331 ], [ 105.0, 24.9999998 ], [ 102.5, 24.9999998 ], [ 102.5, 23.3333331 ] ] ] } },
{ "type": "Feature", "properties": { "Id": 0, "Sheet_ID": "壹五チ504. 泗城", "label": "壹五チ504. 泗城", "call_short": "G7400 S500 .J3", "call_num": "G7400 S500 .J3 P-20", "recid": "rq066rm2008", "websiteUrl": "https://purl.stanford.edu/rq066rm2008", "title": "東亞五十万分一圖", "ckey": 9589153, "available": true, "iiifUrl": "https://purl.stanford.edu/rq066rm2008/iiif/manifest" }, "geometry": { "type": "Polygon", "coordinates": [ [ [ 105.0, 23.3333331 ], [ 107.5, 23.3333331 ], [ 107.5, 24.9999998 ], [ 105.0, 24.9999998 ], [ 105.0, 23.3333331 ] ] ] } },
{ "type": "Feature", "properties": { "Id": 0, "Sheet_ID": "西11行南7段. 柳州", "label": "西11行南7段. 柳州", "call_short": "G7400 S500 .J3", "call_num": "G7400 S500 .J3 O-20", "recid": "cn614rs6508", "websiteUrl": "https://purl.stanford.edu/cn614rs6508", "title": "東亞五十万分一圖", "ckey": 9589153, "available": true, "iiifUrl": "https://purl.stanford.edu/cn614rs6508/iiif/manifest" }, "geometry": { "type": "Polygon", "coordinates": [ [ [ 107.5, 23.3333331 ], [ 110.0, 23.3333331 ], [ 110.0, 24.9999998 ], [ 107.5, 24.9999998 ], [ 107.5, 23.3333331 ] ] ] } },
{ "type": "Feature", "properties": { "Id": 0, "Sheet_ID": "壹四チ504. 梧州", "label": "壹四チ504. 梧州", "call_short": "G7400 S500 .J3", "call_num": "G7400 S500 .J3 N-20", "recid": "vd659cn3372", "websiteUrl": "https://purl.stanford.edu/vd659cn3372", "title": "東亞五十万分一圖", "ckey": 9589153, "available": true, "iiifUrl": "https://purl.stanford.edu/vd659cn3372/iiif/manifest" }, "geometry": { "type": "Polygon", "coordinates": [ [ [ 110.0, 23.3333331 ], [ 112.5, 23.3333331 ], [ 112.5, 24.9999998 ], [ 110.0, 24.9999998 ], [ 110.0, 23.3333331 ] ] ] } },
{ "type": "Feature", "properties": { "Id": 0, "Sheet_ID": "壹四チ502. 韶州", "label": "壹四チ502. 韶州", "call_short": "G7400 S500 .J3", "call_num": "G7400 S500 .J3 M-20", "recid": "bj736qk2710", "websiteUrl": "https://purl.stanford.edu/bj736qk2710", "title": "東亞五十万分一圖", "ckey": 9589153, "available": true, "iiifUrl": "https://purl.stanford.edu/bj736qk2710/iiif/manifest" }, "geometry": { "type": "Polygon", "coordinates": [ [ [ 112.5, 23.3333331 ], [ 115.0, 23.3333331 ], [ 115.0, 24.9999998 ], [ 112.5, 24.9999998 ], [ 112.5, 23.3333331 ] ] ] } },
{ "type": "Feature", "properties": { "Id": 0, "Sheet_ID": "壹参チ504. 潮州", "label": "壹参チ504. 潮州", "call_short": "G7400 S500 .J3", "call_num": "G7400 S500 .J3 L-20", "recid": "sm132gs8584", "websiteUrl": "https://purl.stanford.edu/sm132gs8584", "title": "東亞五十万分一圖", "ckey": 9589153, "available": true, "iiifUrl": "https://purl.stanford.edu/sm132gs8584/iiif/manifest" }, "geometry": { "type": "Polygon", "coordinates": [ [ [ 115.0, 23.3333331 ], [ 117.5, 23.3333331 ], [ 117.5, 24.9999998 ], [ 115.0, 24.9999998 ], [ 115.0, 23.3333331 ] ] ] } },
{ "type": "Feature", "properties": { "Id": 0, "Sheet_ID": "壹参チ502. 厦門", "label": "壹参チ502. 厦門", "call_short": "G7400 S500 .J3", "call_num": "G7400 S500 .J3 K-20", "recid": "wn315tv6427", "websiteUrl": "https://purl.stanford.edu/wn315tv6427", "title": "東亞五十万分一圖", "ckey": 9589153, "available": true, "iiifUrl": "https://purl.stanford.edu/wn315tv6427/iiif/manifest" }, "geometry": { "type": "Polygon", "coordinates": [ [ [ 117.5, 23.3333331 ], [ 120.0, 23.3333331 ], [ 120.0, 24.9999998 ], [ 117.5, 24.9999998 ], [ 117.5, 23.3333331 ] ] ] } },
{ "type": "Feature", "properties": { "Id": 0, "Sheet_ID": "壹六チ501. 雲南", "label": "壹六チ501. 雲南", "call_short": "G7400 S500 .J3", "call_num": "G7400 S500 .J3 Q-19", "recid": "cx872pt5772", "websiteUrl": "https://purl.stanford.edu/cx872pt5772", "title": "東亞五十万分一圖", "ckey": 9589153, "available": true, "iiifUrl": "https://purl.stanford.edu/cx872pt5772/iiif/manifest" }, "geometry": { "type": "Polygon", "coordinates": [ [ [ 102.5, 24.9999998 ], [ 105.0, 24.9999998 ], [ 105.0, 26.6666665 ], [ 102.5, 26.6666665 ], [ 102.5, 24.9999998 ] ] ] } },
{ "type": "Feature", "properties": { "Id": 0, "Sheet_ID": "壹五チ503. 貴陽", "label": "壹五チ503. 貴陽", "call_short": "G7400 S500 .J3", "call_num": "G7400 S500 .J3 P-19", "recid": "xf867ry6849", "websiteUrl": "https://purl.stanford.edu/xf867ry6849", "title": "東亞五十万分一圖", "ckey": 9589153, "available": true, "iiifUrl": "https://purl.stanford.edu/xf867ry6849/iiif/manifest" }, "geometry": { "type": "Polygon", "coordinates": [ [ [ 105.0, 24.9999998 ], [ 107.5, 24.9999998 ], [ 107.5, 26.6666665 ], [ 105.0, 26.6666665 ], [ 105.0, 24.9999998 ] ] ] } },
{ "type": "Feature", "properties": { "Id": 0, "Sheet_ID": "壹五チ501. 黎平", "label": "壹五チ501. 黎平", "call_short": "G7400 S500 .J3", "call_num": "G7400 S500 .J3 O-19", "recid": "dz982sd2657", "websiteUrl": "https://purl.stanford.edu/dz982sd2657", "title": "東亞五十万分一圖", "ckey": 9589153, "available": true, "iiifUrl": "https://purl.stanford.edu/dz982sd2657/iiif/manifest" }, "geometry": { "type": "Polygon", "coordinates": [ [ [ 107.5, 24.9999998 ], [ 110.0, 24.9999998 ], [ 110.0, 26.6666665 ], [ 107.5, 26.6666665 ], [ 107.5, 24.9999998 ] ] ] } },
{ "type": "Feature", "properties": { "Id": 0, "Sheet_ID": "壹四チ503. 桂林", "label": "壹四チ503. 桂林", "call_short": "G7400 S500 .J3", "call_num": "G7400 S500 .J3 N-19", "recid": "yz757rs5151", "websiteUrl": "https://purl.stanford.edu/yz757rs5151", "title": "東亞五十万分一圖", "ckey": 9589153, "available": true, "iiifUrl": "https://purl.stanford.edu/yz757rs5151/iiif/manifest" }, "geometry": { "type": "Polygon", "coordinates": [ [ [ 110.0, 24.9999998 ], [ 112.5, 24.9999998 ], [ 112.5, 26.6666665 ], [ 110.0, 26.6666665 ], [ 110.0, 24.9999998 ] ] ] } },
{ "type": "Feature", "properties": { "Id": 0, "Sheet_ID": "壹四チ501. 贛州", "label": "壹四チ501. 贛州", "call_short": "G7400 S500 .J3", "call_num": "G7400 S500 .J3 M-19", "recid": "rk430pr4690", "websiteUrl": "https://purl.stanford.edu/rk430pr4690", "title": "東亞五十万分一圖", "ckey": 9589153, "available": true, "iiifUrl": "https://purl.stanford.edu/rk430pr4690/iiif/manifest" }, "geometry": { "type": "Polygon", "coordinates": [ [ [ 112.5, 24.9999998 ], [ 115.0, 24.9999998 ], [ 115.0, 26.6666665 ], [ 112.5, 26.6666665 ], [ 112.5, 24.9999998 ] ] ] } },
{ "type": "Feature", "properties": { "Id": 0, "Sheet_ID": "壹参チ503. 汀州", "label": "壹参チ503. 汀州", "call_short": "G7400 S500 .J3", "call_num": "G7400 S500 .J3 L-19", "recid": "hb984hq5811", "websiteUrl": "https://purl.stanford.edu/hb984hq5811", "title": "東亞五十万分一圖", "ckey": 9589153, "available": true, "iiifUrl": "https://purl.stanford.edu/hb984hq5811/iiif/manifest" }, "geometry": { "type": "Polygon", "coordinates": [ [ [ 115.0, 24.9999998 ], [ 117.5, 24.9999998 ], [ 117.5, 26.6666665 ], [ 115.0, 26.6666665 ], [ 115.0, 24.9999998 ] ] ] } },
{ "type": "Feature", "properties": { "Id": 0, "Sheet_ID": "壹参チ501. 福州", "label": "壹参チ501. 福州", "call_short": "G7400 S500 .J3", "call_num": "G7400 S500 .J3 K-19", "recid": "hq091gj2352", "websiteUrl": "https://purl.stanford.edu/hq091gj2352", "title": "東亞五十万分一圖", "ckey": 9589153, "available": true, "iiifUrl": "https://purl.stanford.edu/hq091gj2352/iiif/manifest" }, "geometry": { "type": "Polygon", "coordinates": [ [ [ 117.5, 24.9999998 ], [ 120.0, 24.9999998 ], [ 120.0, 26.6666665 ], [ 117.5, 26.6666665 ], [ 117.5, 24.9999998 ] ] ] } },
{ "type": "Feature", "properties": { "Id": 0, "Sheet_ID": "壹六リ504. 寧遠", "label": "壹六リ504. 寧遠", "call_short": "G7400 S500 .J3", "call_num": "G7400 S500 .J3 R-18", "recid": "vy276vb3654", "websiteUrl": "https://purl.stanford.edu/vy276vb3654", "title": "東亞五十万分一圖", "ckey": 9589153, "available": true, "iiifUrl": "https://purl.stanford.edu/vy276vb3654/iiif/manifest" }, "geometry": { "type": "Polygon", "coordinates": [ [ [ 100.0, 26.6666665 ], [ 102.5, 26.6666665 ], [ 102.5, 28.3333332 ], [ 100.0, 28.3333332 ], [ 100.0, 26.6666665 ] ] ] } },
{ "type": "Feature", "properties": { "Id": 0, "Sheet_ID": "壹六リ502. 昭通", "label": "壹六リ502. 昭通", "call_short": "G7400 S500 .J3", "call_num": "G7400 S500 .J3 Q-18", "recid": "vg478hr0982", "websiteUrl": "https://purl.stanford.edu/vg478hr0982", "title": "東亞五十万分一圖", "ckey": 9589153, "available": true, "iiifUrl": "https://purl.stanford.edu/vg478hr0982/iiif/manifest" }, "geometry": { "type": "Polygon", "coordinates": [ [ [ 102.5, 26.6666665 ], [ 105.0, 26.6666665 ], [ 105.0, 28.3333332 ], [ 102.5, 28.3333332 ], [ 102.5, 26.6666665 ] ] ] } },
{ "type": "Feature", "properties": { "Id": 0, "Sheet_ID": "壹五リ504. 遵義", "label": "壹五リ504. 遵義", "call_short": "G7400 S500 .J3", "call_num": "G7400 S500 .J3 P-18", "recid": "yb542jk4997", "websiteUrl": "https://purl.stanford.edu/yb542jk4997", "title": "東亞五十万分一圖", "ckey": 9589153, "available": true, "iiifUrl": "https://purl.stanford.edu/yb542jk4997/iiif/manifest" }, "geometry": { "type": "Polygon", "coordinates": [ [ [ 105.0, 26.6666665 ], [ 107.5, 26.6666665 ], [ 107.5, 28.3333332 ], [ 105.0, 28.3333332 ], [ 105.0, 26.6666665 ] ] ] } },
{ "type": "Feature", "properties": { "Id": 0, "Sheet_ID": "壹五リ502. 鎮遠", "label": "壹五リ502. 鎮遠", "call_short": "G7400 S500 .J3", "call_num": "G7400 S500 .J3 O-18", "recid": "xk411kw0410", "websiteUrl": "https://purl.stanford.edu/xk411kw0410", "title": "東亞五十万分一圖", "ckey": 9589153, "available": true, "iiifUrl": "https://purl.stanford.edu/xk411kw0410/iiif/manifest" }, "geometry": { "type": "Polygon", "coordinates": [ [ [ 107.5, 26.6666665 ], [ 110.0, 26.6666665 ], [ 110.0, 28.3333332 ], [ 107.5, 28.3333332 ], [ 107.5, 26.6666665 ] ] ] } },
{ "type": "Feature", "properties": { "Id": 0, "Sheet_ID": "壹四リ504. 衡州", "label": "壹四リ504. 衡州", "call_short": "G7400 S500 .J3", "call_num": "G7400 S500 .J3 N-18", "recid": "yb733wz3406", "websiteUrl": "https://purl.stanford.edu/yb733wz3406", "title": "東亞五十万分一圖", "ckey": 9589153, "available": true, "iiifUrl": "https://purl.stanford.edu/yb733wz3406/iiif/manifest" }, "geometry": { "type": "Polygon", "coordinates": [ [ [ 110.0, 26.6666665 ], [ 112.5, 26.6666665 ], [ 112.5, 28.3333332 ], [ 110.0, 28.3333332 ], [ 110.0, 26.6666665 ] ] ] } },
{ "type": "Feature", "properties": { "Id": 0, "Sheet_ID": "壹四リ502. 長沙", "label": "壹四リ502. 長沙", "call_short": "G7400 S500 .J3", "call_num": "G7400 S500 .J3 M-18", "recid": "qr584fq4846", "websiteUrl": "https://purl.stanford.edu/qr584fq4846", "title": "東亞五十万分一圖", "ckey": 9589153, "available": true, "iiifUrl": "https://purl.stanford.edu/qr584fq4846/iiif/manifest" }, "geometry": { "type": "Polygon", "coordinates": [ [ [ 112.5, 26.6666665 ], [ 115.0, 26.6666665 ], [ 115.0, 28.3333332 ], [ 112.5, 28.3333332 ], [ 112.5, 26.6666665 ] ] ] } },
{ "type": "Feature", "properties": { "Id": 0, "Sheet_ID": "西8行南5段. 建昌", "label": "西8行南5段. 建昌", "call_short": "G7400 S500 .J3", "call_num": "G7400 S500 .J3 L-18", "recid": "yq332th1977", "websiteUrl": "https://purl.stanford.edu/yq332th1977", "title": "東亞五十万分一圖", "ckey": 9589153, "available": true, "iiifUrl": "https://purl.stanford.edu/yq332th1977/iiif/manifest" }, "geometry": { "type": "Polygon", "coordinates": [ [ [ 115.0, 26.6666665 ], [ 117.5, 26.6666665 ], [ 117.5, 28.3333332 ], [ 115.0, 28.3333332 ], [ 115.0, 26.6666665 ] ] ] } },
{ "type": "Feature", "properties": { "Id": 0, "Sheet_ID": "壹参リ502. 建甯", "label": "壹参リ502. 建甯", "call_short": "G7400 S500 .J3", "call_num": "G7400 S500 .J3 K-18", "recid": "nk102tm1331", "websiteUrl": "https://purl.stanford.edu/nk102tm1331", "title": "東亞五十万分一圖", "ckey": 9589153, "available": true, "iiifUrl": "https://purl.stanford.edu/nk102tm1331/iiif/manifest" }, "geometry": { "type": "Polygon", "coordinates": [ [ [ 117.5, 26.6666665 ], [ 120.0, 26.6666665 ], [ 120.0, 28.3333332 ], [ 117.5, 28.3333332 ], [ 117.5, 26.6666665 ] ] ] } },
{ "type": "Feature", "properties": { "Id": 0, "Sheet_ID": "壹貮リ504. 温州", "label": "壹貮リ504. 温州", "call_short": "G7400 S500 .J3", "call_num": "G7400 S500 .J3 J-18", "recid": "tx367tz2032", "websiteUrl": "https://purl.stanford.edu/tx367tz2032", "title": "東亞五十万分一圖", "ckey": 9589153, "available": true, "iiifUrl": "https://purl.stanford.edu/tx367tz2032/iiif/manifest" }, "geometry": { "type": "Polygon", "coordinates": [ [ [ 120.0, 26.6666665 ], [ 122.5, 26.6666665 ], [ 122.5, 28.3333332 ], [ 120.0, 28.3333332 ], [ 120.0, 26.6666665 ] ] ] } },
{ "type": "Feature", "properties": { "Id": 0, "Sheet_ID": "西14行南4段. 冕寧", "label": "西14行南4段. 冕寧", "call_short": "G7400 S500 .J3", "call_num": "G7400 S500 .J3 R-17", "recid": "mm999jq7785", "websiteUrl": "https://purl.stanford.edu/mm999jq7785", "title": "東亞五十万分一圖", "ckey": 9589153, "available": true, "iiifUrl": "https://purl.stanford.edu/mm999jq7785/iiif/manifest" }, "geometry": { "type": "Polygon", "coordinates": [ [ [ 100.0, 28.3333332 ], [ 102.5, 28.3333332 ], [ 102.5, 29.9999999 ], [ 100.0, 29.9999999 ], [ 100.0, 28.3333332 ] ] ] } },
{ "type": "Feature", "properties": { "Id": 0, "Sheet_ID": "壹六リ501. 敘州", "label": "壹六リ501. 敘州", "call_short": "0", "call_num": "0", "recid": "0", "websiteUrl": "0", "title": "0", "ckey": 0, "available": false, "iiifUrl": "0" }, "geometry": { "type": "Polygon", "coordinates": [ [ [ 102.5, 28.3333332 ], [ 105.0, 28.3333332 ], [ 105.0, 29.9999999 ], [ 102.5, 29.9999999 ], [ 102.5, 28.3333332 ] ] ] } },
{ "type": "Feature", "properties": { "Id": 0, "Sheet_ID": "西12行南4段. 重慶", "label": "西12行南4段. 重慶", "call_short": "G7400 S500 .J3", "call_num": "G7400 S500 .J3 P-17", "recid": "jg146kt1564", "websiteUrl": "https://purl.stanford.edu/jg146kt1564", "title": "東亞五十万分一圖", "ckey": 9589153, "available": true, "iiifUrl": "https://purl.stanford.edu/jg146kt1564/iiif/manifest" }, "geometry": { "type": "Polygon", "coordinates": [ [ [ 105.0, 28.3333332 ], [ 107.5, 28.3333332 ], [ 107.5, 29.9999999 ], [ 105.0, 29.9999999 ], [ 105.0, 28.3333332 ] ] ] } },
{ "type": "Feature", "properties": { "Id": 0, "Sheet_ID": "壹五リ501. 永順", "label": "壹五リ501. 永順", "call_short": "G7400 S500 .J3", "call_num": "G7400 S500 .J3 O-17", "recid": "hx574sk4349", "websiteUrl": "https://purl.stanford.edu/hx574sk4349", "title": "東亞五十万分一圖", "ckey": 9589153, "available": true, "iiifUrl": "https://purl.stanford.edu/hx574sk4349/iiif/manifest" }, "geometry": { "type": "Polygon", "coordinates": [ [ [ 107.5, 28.3333332 ], [ 110.0, 28.3333332 ], [ 110.0, 29.9999999 ], [ 107.5, 29.9999999 ], [ 107.5, 28.3333332 ] ] ] } },
{ "type": "Feature", "properties": { "Id": 0, "Sheet_ID": "西10行南4段. 常徳", "label": "西10行南4段. 常徳", "call_short": "G7400 S500 .J3", "call_num": "G7400 S500 .J3 N-17", "recid": "zf265ph4804", "websiteUrl": "https://purl.stanford.edu/zf265ph4804", "title": "東亞五十万分一圖", "ckey": 9589153, "available": true, "iiifUrl": "https://purl.stanford.edu/zf265ph4804/iiif/manifest" }, "geometry": { "type": "Polygon", "coordinates": [ [ [ 110.0, 28.3333332 ], [ 112.5, 28.3333332 ], [ 112.5, 29.9999999 ], [ 110.0, 29.9999999 ], [ 110.0, 28.3333332 ] ] ] } },
{ "type": "Feature", "properties": { "Id": 0, "Sheet_ID": "壹四リ501. 岳州", "label": "壹四リ501. 岳州", "call_short": "G7400 S500 .J3", "call_num": "G7400 S500 .J3 M-17", "recid": "gd801dw7630", "websiteUrl": "https://purl.stanford.edu/gd801dw7630", "title": "東亞五十万分一圖", "ckey": 9589153, "available": true, "iiifUrl": "https://purl.stanford.edu/gd801dw7630/iiif/manifest" }, "geometry": { "type": "Polygon", "coordinates": [ [ [ 112.5, 28.3333332 ], [ 115.0, 28.3333332 ], [ 115.0, 29.9999999 ], [ 112.5, 29.9999999 ], [ 112.5, 28.3333332 ] ] ] } },
{ "type": "Feature", "properties": { "Id": 0, "Sheet_ID": "壹参リ503. 南昌", "label": "壹参リ503. 南昌", "call_short": "0", "call_num": "0", "recid": "0", "websiteUrl": "0", "title": "0", "ckey": 0, "available": false, "iiifUrl": "0" }, "geometry": { "type": "Polygon", "coordinates": [ [ [ 115.0, 28.3333332 ], [ 117.5, 28.3333332 ], [ 117.5, 29.9999999 ], [ 115.0, 29.9999999 ], [ 115.0, 28.3333332 ] ] ] } },
{ "type": "Feature", "properties": { "Id": 0, "Sheet_ID": "壹参リ501. 廣信", "label": "壹参リ501. 廣信", "call_short": "G7400 S500 .J3", "call_num": "G7400 S500 .J3 K-17", "recid": "hj063hk4965", "websiteUrl": "https://purl.stanford.edu/hj063hk4965", "title": "東亞五十万分一圖", "ckey": 9589153, "available": true, "iiifUrl": "https://purl.stanford.edu/hj063hk4965/iiif/manifest" }, "geometry": { "type": "Polygon", "coordinates": [ [ [ 117.5, 28.3333332 ], [ 120.0, 28.3333332 ], [ 120.0, 29.9999999 ], [ 117.5, 29.9999999 ], [ 117.5, 28.3333332 ] ] ] } },
{ "type": "Feature", "properties": { "Id": 0, "Sheet_ID": "壹貮リ503. 臺州", "label": "壹貮リ503. 臺州", "call_short": "G7400 S500 .J3", "call_num": "G7400 S500 .J3 J-17", "recid": "tk714dt9745", "websiteUrl": "https://purl.stanford.edu/tk714dt9745", "title": "東亞五十万分一圖", "ckey": 9589153, "available": true, "iiifUrl": "https://purl.stanford.edu/tk714dt9745/iiif/manifest" }, "geometry": { "type": "Polygon", "coordinates": [ [ [ 120.0, 28.3333332 ], [ 122.5, 28.3333332 ], [ 122.5, 29.9999999 ], [ 120.0, 29.9999999 ], [ 120.0, 28.3333332 ] ] ] } },
{ "type": "Feature", "properties": { "Id": 0, "Sheet_ID": "壹六ヌ502. 成都", "label": "壹六ヌ502. 成都", "call_short": "G7400 S500 .J3", "call_num": "G7400 S500 .J3 Q-16", "recid": "sw791tg8956", "websiteUrl": "https://purl.stanford.edu/sw791tg8956", "title": "東亞五十万分一圖", "ckey": 9589153, "available": true, "iiifUrl": "https://purl.stanford.edu/sw791tg8956/iiif/manifest" }, "geometry": { "type": "Polygon", "coordinates": [ [ [ 102.5, 29.9999999 ], [ 105.0, 29.9999999 ], [ 105.0, 31.6666666 ], [ 102.5, 31.6666666 ], [ 102.5, 29.9999999 ] ] ] } },
{ "type": "Feature", "properties": { "Id": 0, "Sheet_ID": "壹五ヌ504. 順慶", "label": "壹五ヌ504. 順慶", "call_short": "G7400 S500 .J3", "call_num": "G7400 S500 .J3 P-16", "recid": "mj482vn1746", "websiteUrl": "https://purl.stanford.edu/mj482vn1746", "title": "東亞五十万分一圖", "ckey": 9589153, "available": true, "iiifUrl": "https://purl.stanford.edu/mj482vn1746/iiif/manifest" }, "geometry": { "type": "Polygon", "coordinates": [ [ [ 105.0, 29.9999999 ], [ 107.5, 29.9999999 ], [ 107.5, 31.6666666 ], [ 105.0, 31.6666666 ], [ 105.0, 29.9999999 ] ] ] } },
{ "type": "Feature", "properties": { "Id": 0, "Sheet_ID": "壹五ヌ502. 萬縣", "label": "壹五ヌ502. 萬縣", "call_short": "G7400 S500 .J3", "call_num": "G7400 S500 .J3 O-16", "recid": "zk259fy2212", "websiteUrl": "https://purl.stanford.edu/zk259fy2212", "title": "東亞五十万分一圖", "ckey": 9589153, "available": true, "iiifUrl": "https://purl.stanford.edu/zk259fy2212/iiif/manifest" }, "geometry": { "type": "Polygon", "coordinates": [ [ [ 107.5, 29.9999999 ], [ 110.0, 29.9999999 ], [ 110.0, 31.6666666 ], [ 107.5, 31.6666666 ], [ 107.5, 29.9999999 ] ] ] } },
{ "type": "Feature", "properties": { "Id": 0, "Sheet_ID": "壹四ヌ504. 宜昌", "label": "壹四ヌ504. 宜昌", "call_short": "G7400 S500 .J3", "call_num": "G7400 S500 .J3 N-16", "recid": "yx066sg7314", "websiteUrl": "https://purl.stanford.edu/yx066sg7314", "title": "東亞五十万分一圖", "ckey": 9589153, "available": true, "iiifUrl": "https://purl.stanford.edu/yx066sg7314/iiif/manifest" }, "geometry": { "type": "Polygon", "coordinates": [ [ [ 110.0, 29.9999999 ], [ 112.5, 29.9999999 ], [ 112.5, 31.6666666 ], [ 110.0, 31.6666666 ], [ 110.0, 29.9999999 ] ] ] } },
{ "type": "Feature", "properties": { "Id": 0, "Sheet_ID": "壹四ヌ502. 武昌", "label": "壹四ヌ502. 武昌", "call_short": "G7400 S500 .J3", "call_num": "G7400 S500 .J3 M-16", "recid": "mk025wz0298", "websiteUrl": "https://purl.stanford.edu/mk025wz0298", "title": "東亞五十万分一圖", "ckey": 9589153, "available": true, "iiifUrl": "https://purl.stanford.edu/mk025wz0298/iiif/manifest" }, "geometry": { "type": "Polygon", "coordinates": [ [ [ 112.5, 29.9999999 ], [ 115.0, 29.9999999 ], [ 115.0, 31.6666666 ], [ 112.5, 31.6666666 ], [ 112.5, 29.9999999 ] ] ] } },
{ "type": "Feature", "properties": { "Id": 0, "Sheet_ID": "壹参ヌ504. 安慶", "label": "壹参ヌ504. 安慶", "call_short": "G7400 S500 .J3", "call_num": "G7400 S500 .J3 L-16", "recid": "fd496rw7216", "websiteUrl": "https://purl.stanford.edu/fd496rw7216", "title": "東亞五十万分一圖", "ckey": 9589153, "available": true, "iiifUrl": "https://purl.stanford.edu/fd496rw7216/iiif/manifest" }, "geometry": { "type": "Polygon", "coordinates": [ [ [ 115.0, 29.9999999 ], [ 117.5, 29.9999999 ], [ 117.5, 31.6666666 ], [ 115.0, 31.6666666 ], [ 115.0, 29.9999999 ] ] ] } },
{ "type": "Feature", "properties": { "Id": 0, "Sheet_ID": "西7行南3段. 蕪湖", "label": "西7行南3段. 蕪湖", "call_short": "G7400 S500 .J3", "call_num": "G7400 S500 .J3 K-16", "recid": "cs968gw2501", "websiteUrl": "https://purl.stanford.edu/cs968gw2501", "title": "東亞五十万分一圖", "ckey": 9589153, "available": true, "iiifUrl": "https://purl.stanford.edu/cs968gw2501/iiif/manifest" }, "geometry": { "type": "Polygon", "coordinates": [ [ [ 117.5, 29.9999999 ], [ 120.0, 29.9999999 ], [ 120.0, 31.6666666 ], [ 117.5, 31.6666666 ], [ 117.5, 29.9999999 ] ] ] } },
{ "type": "Feature", "properties": { "Id": 0, "Sheet_ID": "西6行南3段. 上海", "label": "西6行南3段. 上海", "call_short": "G7400 S500 .J3", "call_num": "G7400 S500 .J3 J-16", "recid": "vh536tp6755", "websiteUrl": "https://purl.stanford.edu/vh536tp6755", "title": "東亞五十万分一圖", "ckey": 9589153, "available": true, "iiifUrl": "https://purl.stanford.edu/vh536tp6755/iiif/manifest" }, "geometry": { "type": "Polygon", "coordinates": [ [ [ 120.0, 29.9999999 ], [ 122.5, 29.9999999 ], [ 122.5, 31.6666666 ], [ 120.0, 31.6666666 ], [ 120.0, 29.9999999 ] ] ] } },
{ "type": "Feature", "properties": { "Id": 0, "Sheet_ID": "壹六ヌ501. 龍安", "label": "壹六ヌ501. 龍安", "call_short": "G7400 S500 .J3", "call_num": "G7400 S500 .J3 Q-15", "recid": "ch070bf1670", "websiteUrl": "https://purl.stanford.edu/ch070bf1670", "title": "東亞五十万分一圖", "ckey": 9589153, "available": true, "iiifUrl": "https://purl.stanford.edu/ch070bf1670/iiif/manifest" }, "geometry": { "type": "Polygon", "coordinates": [ [ [ 102.5, 31.6666666 ], [ 105.0, 31.6666666 ], [ 105.0, 33.3333333 ], [ 102.5, 33.3333333 ], [ 102.5, 31.6666666 ] ] ] } },
{ "type": "Feature", "properties": { "Id": 0, "Sheet_ID": "壹五ヌ503. 漢中", "label": "壹五ヌ503. 漢中", "call_short": "0", "call_num": "0", "recid": "0", "websiteUrl": "0", "title": "0", "ckey": 0, "available": false, "iiifUrl": "0" }, "geometry": { "type": "Polygon", "coordinates": [ [ [ 105.0, 31.6666666 ], [ 107.5, 31.6666666 ], [ 107.5, 33.3333333 ], [ 105.0, 33.3333333 ], [ 105.0, 31.6666666 ] ] ] } },
{ "type": "Feature", "properties": { "Id": 0, "Sheet_ID": "壹五ヌ501. 興安", "label": "壹五ヌ501. 興安", "call_short": "G7400 S500 .J3", "call_num": "G7400 S500 .J3 O-15", "recid": "gb865nz5873", "websiteUrl": "https://purl.stanford.edu/gb865nz5873", "title": "東亞五十万分一圖", "ckey": 9589153, "available": true, "iiifUrl": "https://purl.stanford.edu/gb865nz5873/iiif/manifest" }, "geometry": { "type": "Polygon", "coordinates": [ [ [ 107.5, 31.6666666 ], [ 110.0, 31.6666666 ], [ 110.0, 33.3333333 ], [ 107.5, 33.3333333 ], [ 107.5, 31.6666666 ] ] ] } },
{ "type": "Feature", "properties": { "Id": 0, "Sheet_ID": "壹四ヌ503. 襄陽", "label": "壹四ヌ503. 襄陽", "call_short": "G7400 S500 .J3", "call_num": "G7400 S500 .J3 N-15", "recid": "kv211th0879", "websiteUrl": "https://purl.stanford.edu/kv211th0879", "title": "東亞五十万分一圖", "ckey": 9589153, "available": true, "iiifUrl": "https://purl.stanford.edu/kv211th0879/iiif/manifest" }, "geometry": { "type": "Polygon", "coordinates": [ [ [ 110.0, 31.6666666 ], [ 112.5, 31.6666666 ], [ 112.5, 33.3333333 ], [ 110.0, 33.3333333 ], [ 110.0, 31.6666666 ] ] ] } },
{ "type": "Feature", "properties": { "Id": 0, "Sheet_ID": "壹四ヌ501. 信陽", "label": "壹四ヌ501. 信陽", "call_short": "G7400 S500 .J3", "call_num": "G7400 S500 .J3 M-15", "recid": "nt862bf0351", "websiteUrl": "https://purl.stanford.edu/nt862bf0351", "title": "東亞五十万分一圖", "ckey": 9589153, "available": true, "iiifUrl": "https://purl.stanford.edu/nt862bf0351/iiif/manifest" }, "geometry": { "type": "Polygon", "coordinates": [ [ [ 112.5, 31.6666666 ], [ 115.0, 31.6666666 ], [ 115.0, 33.3333333 ], [ 112.5, 33.3333333 ], [ 112.5, 31.6666666 ] ] ] } },
{ "type": "Feature", "properties": { "Id": 0, "Sheet_ID": "西8行南2段. 廬州", "label": "西8行南2段. 廬州", "call_short": "G7400 S500 .J3", "call_num": "G7400 S500 .J3 L-15", "recid": "zs167rb7174", "websiteUrl": "https://purl.stanford.edu/zs167rb7174", "title": "東亞五十万分一圖", "ckey": 9589153, "available": true, "iiifUrl": "https://purl.stanford.edu/zs167rb7174/iiif/manifest" }, "geometry": { "type": "Polygon", "coordinates": [ [ [ 115.0, 31.6666666 ], [ 117.5, 31.6666666 ], [ 117.5, 33.3333333 ], [ 115.0, 33.3333333 ], [ 115.0, 31.6666666 ] ] ] } },
{ "type": "Feature", "properties": { "Id": 0, "Sheet_ID": "西7行南2段. 南京", "label": "西7行南2段. 南京", "call_short": "G7400 S500 .J3", "call_num": "G7400 S500 .J3 K-15", "recid": "py059rp7942", "websiteUrl": "https://purl.stanford.edu/py059rp7942", "title": "東亞五十万分一圖", "ckey": 9589153, "available": true, "iiifUrl": "https://purl.stanford.edu/py059rp7942/iiif/manifest" }, "geometry": { "type": "Polygon", "coordinates": [ [ [ 117.5, 31.6666666 ], [ 120.0, 31.6666666 ], [ 120.0, 33.3333333 ], [ 117.5, 33.3333333 ], [ 117.5, 31.6666666 ] ] ] } },
{ "type": "Feature", "properties": { "Id": 0, "Sheet_ID": "西6行南2段. 通州", "label": "西6行南2段. 通州", "call_short": "G7400 S500 .J3", "call_num": "G7400 S500 .J3 J-15", "recid": "ky762gd7650", "websiteUrl": "https://purl.stanford.edu/ky762gd7650", "title": "東亞五十万分一圖", "ckey": 9589153, "available": true, "iiifUrl": "https://purl.stanford.edu/ky762gd7650/iiif/manifest" }, "geometry": { "type": "Polygon", "coordinates": [ [ [ 120.0, 31.6666666 ], [ 122.5, 31.6666666 ], [ 122.5, 33.3333333 ], [ 120.0, 33.3333333 ], [ 120.0, 31.6666666 ] ] ] } },
{ "type": "Feature", "properties": { "Id": 0, "Sheet_ID": "壹六ル502. 武山", "label": "壹六ル502. 武山", "call_short": "G7400 S500 .J3", "call_num": "G7400 S500 .J3 Q-14", "recid": "bb024hx7338", "websiteUrl": "https://purl.stanford.edu/bb024hx7338", "title": "東亞五十万分一圖", "ckey": 9589153, "available": true, "iiifUrl": "https://purl.stanford.edu/bb024hx7338/iiif/manifest" }, "geometry": { "type": "Polygon", "coordinates": [ [ [ 102.5, 33.3333333 ], [ 105.0, 33.3333333 ], [ 105.0, 35.0 ], [ 102.5, 35.0 ], [ 102.5, 33.3333333 ] ] ] } },
{ "type": "Feature", "properties": { "Id": 0, "Sheet_ID": "壹五ル504. 鳳翔", "label": "壹五ル504. 鳳翔", "call_short": "G7400 S500 .J3", "call_num": "G7400 S500 .J3 P-14", "recid": "gt027tg4160", "websiteUrl": "https://purl.stanford.edu/gt027tg4160", "title": "東亞五十万分一圖", "ckey": 9589153, "available": true, "iiifUrl": "https://purl.stanford.edu/gt027tg4160/iiif/manifest" }, "geometry": { "type": "Polygon", "coordinates": [ [ [ 105.0, 33.3333333 ], [ 107.5, 33.3333333 ], [ 107.5, 35.0 ], [ 105.0, 35.0 ], [ 105.0, 33.3333333 ] ] ] } },
{ "type": "Feature", "properties": { "Id": 0, "Sheet_ID": "壹五ル502. 西安", "label": "壹五ル502. 西安", "call_short": "G7400 S500 .J3", "call_num": "G7400 S500 .J3 O-14", "recid": "nm484sb9771", "websiteUrl": "https://purl.stanford.edu/nm484sb9771", "title": "東亞五十万分一圖", "ckey": 9589153, "available": true, "iiifUrl": "https://purl.stanford.edu/nm484sb9771/iiif/manifest" }, "geometry": { "type": "Polygon", "coordinates": [ [ [ 107.5, 33.3333333 ], [ 110.0, 33.3333333 ], [ 110.0, 35.0 ], [ 107.5, 35.0 ], [ 107.5, 33.3333333 ] ] ] } },
{ "type": "Feature", "properties": { "Id": 0, "Sheet_ID": "壹四ル504. 洛陽", "label": "壹四ル504. 洛陽", "call_short": "G7400 S500 .J3", "call_num": "G7400 S500 .J3 N-14", "recid": "hc287cg1736", "websiteUrl": "https://purl.stanford.edu/hc287cg1736", "title": "東亞五十万分一圖", "ckey": 9589153, "available": true, "iiifUrl": "https://purl.stanford.edu/hc287cg1736/iiif/manifest" }, "geometry": { "type": "Polygon", "coordinates": [ [ [ 110.0, 33.3333333 ], [ 112.5, 33.3333333 ], [ 112.5, 35.0 ], [ 110.0, 35.0 ], [ 110.0, 33.3333333 ] ] ] } },
{ "type": "Feature", "properties": { "Id": 0, "Sheet_ID": "壹四ル502. 開封", "label": "壹四ル502. 開封", "call_short": "G7400 S500 .J3", "call_num": "G7400 S500 .J3 M-14", "recid": "cq839rm9578", "websiteUrl": "https://purl.stanford.edu/cq839rm9578", "title": "東亞五十万分一圖", "ckey": 9589153, "available": true, "iiifUrl": "https://purl.stanford.edu/cq839rm9578/iiif/manifest" }, "geometry": { "type": "Polygon", "coordinates": [ [ [ 112.5, 33.3333333 ], [ 115.0, 33.3333333 ], [ 115.0, 35.0 ], [ 112.5, 35.0 ], [ 112.5, 33.3333333 ] ] ] } },
{ "type": "Feature", "properties": { "Id": 0, "Sheet_ID": "壹参ル504. 徐州", "label": "壹参ル504. 徐州", "call_short": "G7400 S500 .J3", "call_num": "G7400 S500 .J3 L-14", "recid": "fd144vw6131", "websiteUrl": "https://purl.stanford.edu/fd144vw6131", "title": "東亞五十万分一圖", "ckey": 9589153, "available": true, "iiifUrl": "https://purl.stanford.edu/fd144vw6131/iiif/manifest" }, "geometry": { "type": "Polygon", "coordinates": [ [ [ 115.0, 33.3333333 ], [ 117.5, 33.3333333 ], [ 117.5, 35.0 ], [ 115.0, 35.0 ], [ 115.0, 33.3333333 ] ] ] } },
{ "type": "Feature", "properties": { "Id": 0, "Sheet_ID": "壹参ル502. 淮安", "label": "壹参ル502. 淮安", "call_short": "G7400 S500 .J3", "call_num": "G7400 S500 .J3 K-14", "recid": "mc965wn4341", "websiteUrl": "https://purl.stanford.edu/mc965wn4341", "title": "東亞五十万分一圖", "ckey": 9589153, "available": true, "iiifUrl": "https://purl.stanford.edu/mc965wn4341/iiif/manifest" }, "geometry": { "type": "Polygon", "coordinates": [ [ [ 117.5, 33.3333333 ], [ 120.0, 33.3333333 ], [ 120.0, 35.0 ], [ 117.5, 35.0 ], [ 117.5, 33.3333333 ] ] ] } },
{ "type": "Feature", "properties": { "Id": 0, "Sheet_ID": "壹貮ル504. 塩城", "label": "壹貮ル504. 塩城", "call_short": "G7400 S500 .J3", "call_num": "G7400 S500 .J3 J-14", "recid": "wz796nf1157", "websiteUrl": "https://purl.stanford.edu/wz796nf1157", "title": "東亞五十万分一圖", "ckey": 9589153, "available": true, "iiifUrl": "https://purl.stanford.edu/wz796nf1157/iiif/manifest" }, "geometry": { "type": "Polygon", "coordinates": [ [ [ 120.0, 33.3333333 ], [ 122.5, 33.3333333 ], [ 122.5, 35.0 ], [ 120.0, 35.0 ], [ 120.0, 33.3333333 ] ] ] } },
{ "type": "Feature", "properties": { "Id": 0, "Sheet_ID": "壹六ル501. 蘭州", "label": "壹六ル501. 蘭州", "call_short": "0", "call_num": "0", "recid": "0", "websiteUrl": "0", "title": "0", "ckey": 0, "available": false, "iiifUrl": "0" }, "geometry": { "type": "Polygon", "coordinates": [ [ [ 102.5, 35.0 ], [ 105.0, 35.0 ], [ 105.0, 36.6666667 ], [ 102.5, 36.6666667 ], [ 102.5, 35.0 ] ] ] } },
{ "type": "Feature", "properties": { "Id": 0, "Sheet_ID": "壹五ル503. 平涼", "label": "壹五ル503. 平涼", "call_short": "G7400 S500 .J3", "call_num": "G7400 S500 .J3 P-13", "recid": "rd088kx5869", "websiteUrl": "https://purl.stanford.edu/rd088kx5869", "title": "東亞五十万分一圖", "ckey": 9589153, "available": true, "iiifUrl": "https://purl.stanford.edu/rd088kx5869/iiif/manifest" }, "geometry": { "type": "Polygon", "coordinates": [ [ [ 105.0, 35.0 ], [ 107.5, 35.0 ], [ 107.5, 36.6666667 ], [ 105.0, 36.6666667 ], [ 105.0, 35.0 ] ] ] } },
{ "type": "Feature", "properties": { "Id": 0, "Sheet_ID": "壹五ル501. 延安", "label": "壹五ル501. 延安", "call_short": "G7400 S500 .J3", "call_num": "G7400 S500 .J3 O-13", "recid": "rz889nd8894", "websiteUrl": "https://purl.stanford.edu/rz889nd8894", "title": "東亞五十万分一圖", "ckey": 9589153, "available": true, "iiifUrl": "https://purl.stanford.edu/rz889nd8894/iiif/manifest" }, "geometry": { "type": "Polygon", "coordinates": [ [ [ 107.5, 35.0 ], [ 110.0, 35.0 ], [ 110.0, 36.6666667 ], [ 107.5, 36.6666667 ], [ 107.5, 35.0 ] ] ] } },
{ "type": "Feature", "properties": { "Id": 0, "Sheet_ID": "西10行北1段. 平陽", "label": "西10行北1段. 平陽", "call_short": "G7400 S500 .J3", "call_num": "G7400 S500 .J3 N-13", "recid": "xn489rw9333", "websiteUrl": "https://purl.stanford.edu/xn489rw9333", "title": "東亞五十万分一圖", "ckey": 9589153, "available": true, "iiifUrl": "https://purl.stanford.edu/xn489rw9333/iiif/manifest" }, "geometry": { "type": "Polygon", "coordinates": [ [ [ 110.0, 35.0 ], [ 112.5, 35.0 ], [ 112.5, 36.6666667 ], [ 110.0, 36.6666667 ], [ 110.0, 35.0 ] ] ] } },
{ "type": "Feature", "properties": { "Id": 0, "Sheet_ID": "西9行北1段. 彰徳", "label": "西9行北1段. 彰徳", "call_short": "G7400 S500 .J3", "call_num": "G7400 S500 .J3 M-13", "recid": "gm959pb0141", "websiteUrl": "https://purl.stanford.edu/gm959pb0141", "title": "東亞五十万分一圖", "ckey": 9589153, "available": true, "iiifUrl": "https://purl.stanford.edu/gm959pb0141/iiif/manifest" }, "geometry": { "type": "Polygon", "coordinates": [ [ [ 112.5, 35.0 ], [ 115.0, 35.0 ], [ 115.0, 36.6666667 ], [ 112.5, 36.6666667 ], [ 112.5, 35.0 ] ] ] } },
{ "type": "Feature", "properties": { "Id": 0, "Sheet_ID": "壹参ル503. 兗州", "label": "壹参ル503. 兗州", "call_short": "G7400 S500 .J3", "call_num": "G7400 S500 .J3 L-13", "recid": "jx973wc8046", "websiteUrl": "https://purl.stanford.edu/jx973wc8046", "title": "東亞五十万分一圖", "ckey": 9589153, "available": true, "iiifUrl": "https://purl.stanford.edu/jx973wc8046/iiif/manifest" }, "geometry": { "type": "Polygon", "coordinates": [ [ [ 115.0, 35.0 ], [ 117.5, 35.0 ], [ 117.5, 36.6666667 ], [ 115.0, 36.6666667 ], [ 115.0, 35.0 ] ] ] } },
{ "type": "Feature", "properties": { "Id": 0, "Sheet_ID": "西7行北1段. 沂州", "label": "西7行北1段. 沂州", "call_short": "G7400 S500 .J3", "call_num": "G7400 S500 .J3 K-13", "recid": "qd324ym5224", "websiteUrl": "https://purl.stanford.edu/qd324ym5224", "title": "東亞五十万分一圖", "ckey": 9589153, "available": true, "iiifUrl": "https://purl.stanford.edu/qd324ym5224/iiif/manifest" }, "geometry": { "type": "Polygon", "coordinates": [ [ [ 117.5, 35.0 ], [ 120.0, 35.0 ], [ 120.0, 36.6666667 ], [ 117.5, 36.6666667 ], [ 117.5, 35.0 ] ] ] } },
{ "type": "Feature", "properties": { "Id": 0, "Sheet_ID": "壹貮ル503. 靑島", "label": "壹貮ル503. 靑島", "call_short": "G7400 S500 .J3", "call_num": "G7400 S500 .J3 J-13", "recid": "sn246gd9734", "websiteUrl": "https://purl.stanford.edu/sn246gd9734", "title": "東亞五十万分一圖", "ckey": 9589153, "available": true, "iiifUrl": "https://purl.stanford.edu/sn246gd9734/iiif/manifest" }, "geometry": { "type": "Polygon", "coordinates": [ [ [ 120.0, 35.0 ], [ 122.5, 35.0 ], [ 122.5, 36.6666667 ], [ 120.0, 36.6666667 ], [ 120.0, 35.0 ] ] ] } },
{ "type": "Feature", "properties": { "Id": 0, "Sheet_ID": "壹六ヲ502. 凉州", "label": "壹六ヲ502. 凉州", "call_short": "0", "call_num": "0", "recid": "0", "websiteUrl": "0", "title": "0", "ckey": 0, "available": false, "iiifUrl": "0" }, "geometry": { "type": "Polygon", "coordinates": [ [ [ 102.5, 36.6666667 ], [ 105.0, 36.6666667 ], [ 105.0, 38.3333333 ], [ 102.5, 38.3333333 ], [ 102.5, 36.6666667 ] ] ] } },
{ "type": "Feature", "properties": { "Id": 0, "Sheet_ID": "壹五ヲ504. 靈武", "label": "壹五ヲ504. 靈武", "call_short": "G7400 S500 .J3", "call_num": "G7400 S500 .J3 P-12", "recid": "px046gj7111", "websiteUrl": "https://purl.stanford.edu/px046gj7111", "title": "東亞五十万分一圖", "ckey": 9589153, "available": true, "iiifUrl": "https://purl.stanford.edu/px046gj7111/iiif/manifest" }, "geometry": { "type": "Polygon", "coordinates": [ [ [ 105.0, 36.6666667 ], [ 107.5, 36.6666667 ], [ 107.5, 38.3333333 ], [ 105.0, 38.3333333 ], [ 105.0, 36.6666667 ] ] ] } },
{ "type": "Feature", "properties": { "Id": 0, "Sheet_ID": "壹五オ502. 榆林", "label": "壹五オ502. 榆林", "call_short": "G7400 S500 .J3", "call_num": "G7400 S500 .J3 O-12", "recid": "sr518bg9679", "websiteUrl": "https://purl.stanford.edu/sr518bg9679", "title": "東亞五十万分一圖", "ckey": 9589153, "available": true, "iiifUrl": "https://purl.stanford.edu/sr518bg9679/iiif/manifest" }, "geometry": { "type": "Polygon", "coordinates": [ [ [ 107.5, 36.6666667 ], [ 110.0, 36.6666667 ], [ 110.0, 38.3333333 ], [ 107.5, 38.3333333 ], [ 107.5, 36.6666667 ] ] ] } },
{ "type": "Feature", "properties": { "Id": 0, "Sheet_ID": "壹四オ504. 汾陽", "label": "壹四オ504. 汾陽", "call_short": "G7400 S500 .J3", "call_num": "G7400 S500 .J3 N-12", "recid": "cm316rj2171", "websiteUrl": "https://purl.stanford.edu/cm316rj2171", "title": "東亞五十万分一圖", "ckey": 9589153, "available": true, "iiifUrl": "https://purl.stanford.edu/cm316rj2171/iiif/manifest" }, "geometry": { "type": "Polygon", "coordinates": [ [ [ 110.0, 36.6666667 ], [ 112.5, 36.6666667 ], [ 112.5, 38.3333333 ], [ 110.0, 38.3333333 ], [ 110.0, 36.6666667 ] ] ] } },
{ "type": "Feature", "properties": { "Id": 0, "Sheet_ID": "壹四オ502. 太原", "label": "壹四オ502. 太原", "call_short": "G7400 S500 .J3", "call_num": "G7400 S500 .J3 M-12", "recid": "my802bh0141", "websiteUrl": "https://purl.stanford.edu/my802bh0141", "title": "東亞五十万分一圖", "ckey": 9589153, "available": true, "iiifUrl": "https://purl.stanford.edu/my802bh0141/iiif/manifest" }, "geometry": { "type": "Polygon", "coordinates": [ [ [ 112.5, 36.6666667 ], [ 115.0, 36.6666667 ], [ 115.0, 38.3333333 ], [ 112.5, 38.3333333 ], [ 112.5, 36.6666667 ] ] ] } },
{ "type": "Feature", "properties": { "Id": 0, "Sheet_ID": "壹参オ504. 濟南", "label": "壹参オ504. 濟南", "call_short": "G7400 S500 .J3", "call_num": "G7400 S500 .J3 L-12", "recid": "fx844hy8540", "websiteUrl": "https://purl.stanford.edu/fx844hy8540", "title": "東亞五十万分一圖", "ckey": 9589153, "available": true, "iiifUrl": "https://purl.stanford.edu/fx844hy8540/iiif/manifest" }, "geometry": { "type": "Polygon", "coordinates": [ [ [ 115.0, 36.6666667 ], [ 117.5, 36.6666667 ], [ 117.5, 38.3333333 ], [ 115.0, 38.3333333 ], [ 115.0, 36.6666667 ] ] ] } },
{ "type": "Feature", "properties": { "Id": 0, "Sheet_ID": "壹参オ502. 靑州", "label": "壹参オ502. 靑州", "call_short": "G7400 S500 .J3", "call_num": "G7400 S500 .J3 K-12", "recid": "zw390sq3616", "websiteUrl": "https://purl.stanford.edu/zw390sq3616", "title": "東亞五十万分一圖", "ckey": 9589153, "available": true, "iiifUrl": "https://purl.stanford.edu/zw390sq3616/iiif/manifest" }, "geometry": { "type": "Polygon", "coordinates": [ [ [ 117.5, 36.6666667 ], [ 120.0, 36.6666667 ], [ 120.0, 38.3333333 ], [ 117.5, 38.3333333 ], [ 117.5, 36.6666667 ] ] ] } },
{ "type": "Feature", "properties": { "Id": 0, "Sheet_ID": "壹貮オ504. 威海衛", "label": "壹貮オ504. 威海衛", "call_short": "G7400 S500 .J3", "call_num": "G7400 S500 .J3 J-12", "recid": "nm349xx3894", "websiteUrl": "https://purl.stanford.edu/nm349xx3894", "title": "東亞五十万分一圖", "ckey": 9589153, "available": true, "iiifUrl": "https://purl.stanford.edu/nm349xx3894/iiif/manifest" }, "geometry": { "type": "Polygon", "coordinates": [ [ [ 120.0, 36.6666667 ], [ 122.5, 36.6666667 ], [ 122.5, 38.3333333 ], [ 120.0, 38.3333333 ], [ 120.0, 36.6666667 ] ] ] } },
{ "type": "Feature", "properties": { "Id": 0, "Sheet_ID": "壹貮オ502. 山東髙角", "label": "壹貮オ502. 山東髙角", "call_short": "G7400 S500 .J3", "call_num": "G7400 S500 .J3 I-12", "recid": "yj013qs3711", "websiteUrl": "https://purl.stanford.edu/yj013qs3711", "title": "東亞五十万分一圖", "ckey": 9589153, "available": true, "iiifUrl": "https://purl.stanford.edu/yj013qs3711/iiif/manifest" }, "geometry": { "type": "Polygon", "coordinates": [ [ [ 122.5, 36.6666667 ], [ 125.0, 36.6666667 ], [ 125.0, 38.3333333 ], [ 122.5, 38.3333333 ], [ 122.5, 36.6666667 ] ] ] } },
{ "type": "Feature", "properties": { "Id": 0, "Sheet_ID": "壹六ヲ501. 民勤", "label": "壹六ヲ501. 民勤", "call_short": "G7400 S500 .J3", "call_num": "G7400 S500 .J3 Q-11", "recid": "pj806pf3985", "websiteUrl": "https://purl.stanford.edu/pj806pf3985", "title": "東亞五十万分一圖", "ckey": 9589153, "available": true, "iiifUrl": "https://purl.stanford.edu/pj806pf3985/iiif/manifest" }, "geometry": { "type": "Polygon", "coordinates": [ [ [ 102.5, 38.3333333 ], [ 105.0, 38.3333333 ], [ 105.0, 40.0 ], [ 102.5, 40.0 ], [ 102.5, 38.3333333 ] ] ] } },
{ "type": "Feature", "properties": { "Id": 0, "Sheet_ID": "西12行北3段. 寧夏", "label": "西12行北3段. 寧夏", "call_short": "G7400 S500 .J3", "call_num": "G7400 S500 .J3 P-11", "recid": "xb321dg9720", "websiteUrl": "https://purl.stanford.edu/xb321dg9720", "title": "東亞五十万分一圖", "ckey": 9589153, "available": true, "iiifUrl": "https://purl.stanford.edu/xb321dg9720/iiif/manifest" }, "geometry": { "type": "Polygon", "coordinates": [ [ [ 105.0, 38.3333333 ], [ 107.5, 38.3333333 ], [ 107.5, 40.0 ], [ 105.0, 40.0 ], [ 105.0, 38.3333333 ] ] ] } },
{ "type": "Feature", "properties": { "Id": 0, "Sheet_ID": "壹五ヲ501. 東勝", "label": "壹五ヲ501. 東勝", "call_short": "G7400 S500 .J3", "call_num": "G7400 S500 .J3 O-11", "recid": "wh485sz0948", "websiteUrl": "https://purl.stanford.edu/wh485sz0948", "title": "東亞五十万分一圖", "ckey": 9589153, "available": true, "iiifUrl": "https://purl.stanford.edu/wh485sz0948/iiif/manifest" }, "geometry": { "type": "Polygon", "coordinates": [ [ [ 107.5, 38.3333333 ], [ 110.0, 38.3333333 ], [ 110.0, 40.0 ], [ 107.5, 40.0 ], [ 107.5, 38.3333333 ] ] ] } },
{ "type": "Feature", "properties": { "Id": 0, "Sheet_ID": "西10行北3段. 河曲", "label": "西10行北3段. 河曲", "call_short": "G7400 S500 .J3", "call_num": "G7400 S500 .J3 N-11", "recid": "jc784my4466", "websiteUrl": "https://purl.stanford.edu/jc784my4466", "title": "東亞五十万分一圖", "ckey": 9589153, "available": true, "iiifUrl": "https://purl.stanford.edu/jc784my4466/iiif/manifest" }, "geometry": { "type": "Polygon", "coordinates": [ [ [ 110.0, 38.3333333 ], [ 112.5, 38.3333333 ], [ 112.5, 40.0 ], [ 110.0, 40.0 ], [ 110.0, 38.3333333 ] ] ] } },
{ "type": "Feature", "properties": { "Id": 0, "Sheet_ID": "壹四オ501. 代州", "label": "壹四オ501. 代州", "call_short": "G7400 S500 .J3", "call_num": "G7400 S500 .J3 M-11", "recid": "zg720zv8164", "websiteUrl": "https://purl.stanford.edu/zg720zv8164", "title": "東亞五十万分一圖", "ckey": 9589153, "available": true, "iiifUrl": "https://purl.stanford.edu/zg720zv8164/iiif/manifest" }, "geometry": { "type": "Polygon", "coordinates": [ [ [ 112.5, 38.3333333 ], [ 115.0, 38.3333333 ], [ 115.0, 40.0 ], [ 112.5, 40.0 ], [ 112.5, 38.3333333 ] ] ] } },
{ "type": "Feature", "properties": { "Id": 0, "Sheet_ID": "壹参ヲ503. 北京", "label": "壹参ヲ503. 北京", "call_short": "G7400 S500 .J3", "call_num": "G7400 S500 .J3 L-11", "recid": "zz722bf3282", "websiteUrl": "https://purl.stanford.edu/zz722bf3282", "title": "東亞五十万分一圖", "ckey": 9589153, "available": true, "iiifUrl": "https://purl.stanford.edu/zz722bf3282/iiif/manifest" }, "geometry": { "type": "Polygon", "coordinates": [ [ [ 115.0, 38.3333333 ], [ 117.5, 38.3333333 ], [ 117.5, 40.0 ], [ 115.0, 40.0 ], [ 115.0, 38.3333333 ] ] ] } },
{ "type": "Feature", "properties": { "Id": 0, "Sheet_ID": "壹参オ501. 永平", "label": "壹参オ501. 永平", "call_short": "G7400 S500 .J3", "call_num": "G7400 S500 .J3 K-11", "recid": "qb428fg1018", "websiteUrl": "https://purl.stanford.edu/qb428fg1018", "title": "東亞五十万分一圖", "ckey": 9589153, "available": true, "iiifUrl": "https://purl.stanford.edu/qb428fg1018/iiif/manifest" }, "geometry": { "type": "Polygon", "coordinates": [ [ [ 117.5, 38.3333333 ], [ 120.0, 38.3333333 ], [ 120.0, 40.0 ], [ 117.5, 40.0 ], [ 117.5, 38.3333333 ] ] ] } },
{ "type": "Feature", "properties": { "Id": 0, "Sheet_ID": "満洲五十万分一圖", "label": "満洲五十万分一圖", "call_short": "0", "call_num": "0", "recid": "0", "websiteUrl": "0", "title": "0", "ckey": 0, "available": false, "iiifUrl": "0" }, "geometry": { "type": "Polygon", "coordinates": [ [ [ 125.0, 55.0000003 ], [ 122.5, 55.0000003 ], [ 120.0, 55.0000003 ], [ 120.0, 53.3333336 ], [ 120.0, 51.6666669 ], [ 117.5, 51.6666669 ], [ 117.5, 50.0000002 ], [ 115.0, 50.0000002 ], [ 115.0, 48.3333335 ], [ 115.0, 46.6666668 ], [ 115.0, 45.0000001 ], [ 115.0, 43.3333334 ], [ 115.0, 41.6666667 ], [ 115.0, 40.0 ], [ 117.5, 40.0 ], [ 120.0, 40.0 ], [ 120.0, 38.3333333 ], [ 122.5, 38.3333333 ], [ 122.5, 40.0 ], [ 125.0, 40.0 ], [ 127.5, 40.0 ], [ 130.0, 40.0 ], [ 130.0, 41.6666667 ], [ 132.5, 41.6666667 ], [ 132.5, 43.3333334 ], [ 132.5, 45.0000001 ], [ 135.0, 45.0000001 ], [ 135.0, 46.6666668 ], [ 135.0, 48.3333335 ], [ 132.5, 48.3333335 ], [ 132.5, 50.0000002 ], [ 130.0, 50.0000002 ], [ 127.5, 50.0000002 ], [ 127.5, 51.6666669 ], [ 127.5, 53.3333336 ], [ 125.0, 53.3333336 ], [ 125.0, 55.0000003 ] ] ] } },
{ "type": "Feature", "properties": { "Id": 0, "Sheet_ID": "西5行北3段. 大孤山", "label": "西5行北3段. 大孤山", "call_short": "G7400 S500 .J3", "call_num": "G7400 S500 .J3 I-11", "recid": "hw209xg1372", "websiteUrl": "https://purl.stanford.edu/hw209xg1372", "title": "東亞五十万分一圖", "ckey": 9589153, "available": true, "iiifUrl": "https://purl.stanford.edu/hw209xg1372/iiif/manifest" }, "geometry": { "type": "Polygon", "coordinates": [ [ [ 122.5, 38.3333333 ], [ 125.0, 38.3333333 ], [ 125.0, 40.0 ], [ 122.5, 40.0 ], [ 122.5, 38.3333333 ] ] ] } },
{ "type": "Feature", "properties": { "Id": 0, "Sheet_ID": "壹六ワ502. 開拝格爾", "label": "壹六ワ502. 開拝格爾", "call_short": "G7400 S500 .J3", "call_num": "G7400 S500 .J3 Q-10", "recid": "hm673mg2344", "websiteUrl": "https://purl.stanford.edu/hm673mg2344", "title": "東亞五十万分一圖", "ckey": 9589153, "available": true, "iiifUrl": "https://purl.stanford.edu/hm673mg2344/iiif/manifest" }, "geometry": { "type": "Polygon", "coordinates": [ [ [ 102.5, 40.0 ], [ 105.0, 40.0 ], [ 105.0, 41.6666667 ], [ 102.5, 41.6666667 ], [ 102.5, 40.0 ] ] ] } },
{ "type": "Feature", "properties": { "Id": 0, "Sheet_ID": "壹五ワ504. 臨河", "label": "壹五ワ504. 臨河", "call_short": "G7400 S500 .J3", "call_num": "G7400 S500 .J3 P-10", "recid": "vt530sz6527", "websiteUrl": "https://purl.stanford.edu/vt530sz6527", "title": "東亞五十万分一圖", "ckey": 9589153, "available": true, "iiifUrl": "https://purl.stanford.edu/vt530sz6527/iiif/manifest" }, "geometry": { "type": "Polygon", "coordinates": [ [ [ 105.0, 40.0 ], [ 107.5, 40.0 ], [ 107.5, 41.6666667 ], [ 105.0, 41.6666667 ], [ 105.0, 40.0 ] ] ] } },
{ "type": "Feature", "properties": { "Id": 0, "Sheet_ID": "壹五ワ502. 五原", "label": "壹五ワ502. 五原", "call_short": "G7400 S500 .J3", "call_num": "G7400 S500 .J3 O-10", "recid": "qz018zg8118", "websiteUrl": "https://purl.stanford.edu/qz018zg8118", "title": "東亞五十万分一圖", "ckey": 9589153, "available": true, "iiifUrl": "https://purl.stanford.edu/qz018zg8118/iiif/manifest" }, "geometry": { "type": "Polygon", "coordinates": [ [ [ 107.5, 40.0 ], [ 110.0, 40.0 ], [ 110.0, 41.6666667 ], [ 107.5, 41.6666667 ], [ 107.5, 40.0 ] ] ] } },
{ "type": "Feature", "properties": { "Id": 0, "Sheet_ID": "西10行北4段. 歸化", "label": "西10行北4段. 歸化", "call_short": "G7400 S500 .J3", "call_num": "G7400 S500 .J3 N-10", "recid": "gt832gv8726", "websiteUrl": "https://purl.stanford.edu/gt832gv8726", "title": "東亞五十万分一圖", "ckey": 9589153, "available": true, "iiifUrl": "https://purl.stanford.edu/gt832gv8726/iiif/manifest" }, "geometry": { "type": "Polygon", "coordinates": [ [ [ 110.0, 40.0 ], [ 112.5, 40.0 ], [ 112.5, 41.6666667 ], [ 110.0, 41.6666667 ], [ 110.0, 40.0 ] ] ] } },
{ "type": "Feature", "properties": { "Id": 0, "Sheet_ID": "西9行北4段. 大同", "label": "西9行北4段. 大同", "call_short": "G7400 S500 .J3", "call_num": "G7400 S500 .J3 M-10", "recid": "vm661ks8722", "websiteUrl": "https://purl.stanford.edu/vm661ks8722", "title": "東亞五十万分一圖", "ckey": 9589153, "available": true, "iiifUrl": "https://purl.stanford.edu/vm661ks8722/iiif/manifest" }, "geometry": { "type": "Polygon", "coordinates": [ [ [ 112.5, 40.0 ], [ 115.0, 40.0 ], [ 115.0, 41.6666667 ], [ 112.5, 41.6666667 ], [ 112.5, 40.0 ] ] ] } },
{ "type": "Feature", "properties": { "Id": 0, "Sheet_ID": "壹五ワ503. 博爾鑽", "label": "壹五ワ503. 博爾鑽", "call_short": "G7400 S500 .J3", "call_num": "G7400 S500 .J3 P-09", "recid": "nc870cg6457", "websiteUrl": "https://purl.stanford.edu/nc870cg6457", "title": "東亞五十万分一圖", "ckey": 9589153, "available": true, "iiifUrl": "https://purl.stanford.edu/nc870cg6457/iiif/manifest" }, "geometry": { "type": "Polygon", "coordinates": [ [ [ 105.0, 41.6666667 ], [ 107.5, 41.6666667 ], [ 107.5, 43.3333334 ], [ 105.0, 43.3333334 ], [ 105.0, 41.6666667 ] ] ] } },
{ "type": "Feature", "properties": { "Id": 0, "Sheet_ID": "布蘭", "label": "布蘭", "call_short": "0", "call_num": "0", "recid": "0", "websiteUrl": "0", "title": "0", "ckey": 0, "available": false, "iiifUrl": "0" }, "geometry": { "type": "Polygon", "coordinates": [ [ [ 107.5, 41.6666667 ], [ 110.0, 41.6666667 ], [ 110.0, 43.3333334 ], [ 107.5, 43.3333334 ], [ 107.5, 41.6666667 ] ] ] } },
{ "type": "Feature", "properties": { "Id": 0, "Sheet_ID": "壹四ワ503. 杜爾伯特", "label": "壹四ワ503. 杜爾伯特", "call_short": "0", "call_num": "0", "recid": "0", "websiteUrl": "0", "title": "0", "ckey": 0, "available": false, "iiifUrl": "0" }, "geometry": { "type": "Polygon", "coordinates": [ [ [ 110.0, 41.6666667 ], [ 112.5, 41.6666667 ], [ 112.5, 43.3333334 ], [ 110.0, 43.3333334 ], [ 110.0, 41.6666667 ] ] ] } },
{ "type": "Feature", "properties": { "Id": 0, "Sheet_ID": "壹四ワ501. 徳化_航空圖", "label": "壹四ワ501. 徳化_航空圖", "call_short": "G7400 S500 .J3", "call_num": "G7400 S500 .J3 M-09 REV", "recid": "rx042ky5064", "websiteUrl": "https://purl.stanford.edu/rx042ky5064", "title": "東亞五十万分一圖", "ckey": 9589153, "available": true, "iiifUrl": "https://purl.stanford.edu/rx042ky5064/iiif/manifest" }, "geometry": { "type": "Polygon", "coordinates": [ [ [ 112.5, 41.6666667 ], [ 115.0, 41.6666667 ], [ 115.0, 43.3333334 ], [ 112.5, 43.3333334 ], [ 112.5, 41.6666667 ] ] ] } },
{ "type": "Feature", "properties": { "Id": 0, "Sheet_ID": "壹〇ワ501. ウラジミロフカ", "label": "壹〇ワ501. ウラジミロフカ", "call_short": "0", "call_num": "0", "recid": "0", "websiteUrl": "0", "title": "0", "ckey": 0, "available": false, "iiifUrl": "0" }, "geometry": { "type": "Polygon", "coordinates": [ [ [ 132.5, 41.6666667 ], [ 135.0, 41.6666667 ], [ 135.0, 43.3333334 ], [ 132.5, 43.3333334 ], [ 132.5, 41.6666667 ] ] ] } },
{ "type": "Feature", "properties": { "Id": 0, "Sheet_ID": "西12行北6段. 賽爾烏蘇", "label": "西12行北6段. 賽爾烏蘇", "call_short": "G7400 S500 .J3", "call_num": "G7400 S500 .J3 P-08", "recid": "xg317ws6718", "websiteUrl": "https://purl.stanford.edu/xg317ws6718", "title": "東亞五十万分一圖", "ckey": 9589153, "available": true, "iiifUrl": "https://purl.stanford.edu/xg317ws6718/iiif/manifest" }, "geometry": { "type": "Polygon", "coordinates": [ [ [ 105.0, 43.3333334 ], [ 107.5, 43.3333334 ], [ 107.5, 45.0000001 ], [ 105.0, 45.0000001 ], [ 105.0, 43.3333334 ] ] ] } },
{ "type": "Feature", "properties": { "Id": 0, "Sheet_ID": "匝拉圖", "label": "匝拉圖", "call_short": "0", "call_num": "0", "recid": "0", "websiteUrl": "0", "title": "0", "ckey": 0, "available": false, "iiifUrl": "0" }, "geometry": { "type": "Polygon", "coordinates": [ [ [ 107.5, 43.3333334 ], [ 110.0, 43.3333334 ], [ 110.0, 45.0000001 ], [ 107.5, 45.0000001 ], [ 107.5, 43.3333334 ] ] ] } },
{ "type": "Feature", "properties": { "Id": 0, "Sheet_ID": "壹四カ504. 烏得", "label": "壹四カ504. 烏得", "call_short": "0", "call_num": "0", "recid": "0", "websiteUrl": "0", "title": "0", "ckey": 0, "available": false, "iiifUrl": "0" }, "geometry": { "type": "Polygon", "coordinates": [ [ [ 110.0, 43.3333334 ], [ 112.5, 43.3333334 ], [ 112.5, 45.0000001 ], [ 110.0, 45.0000001 ], [ 110.0, 43.3333334 ] ] ] } },
{ "type": "Feature", "properties": { "Id": 0, "Sheet_ID": "壹四カ502. 東蘇尼特_航空圖", "label": "壹四カ502. 東蘇尼特_航空圖", "call_short": "G7400 S500 .J3", "call_num": "G7400 S500 .J3 M-08 REV", "recid": "wy856ts9539", "websiteUrl": "https://purl.stanford.edu/wy856ts9539", "title": "東亞五十万分一圖", "ckey": 9589153, "available": true, "iiifUrl": "https://purl.stanford.edu/wy856ts9539/iiif/manifest" }, "geometry": { "type": "Polygon", "coordinates": [ [ [ 112.5, 43.3333334 ], [ 115.0, 43.3333334 ], [ 115.0, 45.0000001 ], [ 112.5, 45.0000001 ], [ 112.5, 43.3333334 ] ] ] } },
{ "type": "Feature", "properties": { "Id": 0, "Sheet_ID": "壹〇カ502. スパスク", "label": "壹〇カ502. スパスク", "call_short": "0", "call_num": "0", "recid": "0", "websiteUrl": "0", "title": "0", "ckey": 0, "available": false, "iiifUrl": "0" }, "geometry": { "type": "Polygon", "coordinates": [ [ [ 132.5, 43.3333334 ], [ 135.0, 43.3333334 ], [ 135.0, 45.0000001 ], [ 132.5, 45.0000001 ], [ 132.5, 43.3333334 ] ] ] } },
{ "type": "Feature", "properties": { "Id": 0, "Sheet_ID": "九カ504. オリガ", "label": "九カ504. オリガ", "call_short": "0", "call_num": "0", "recid": "0", "websiteUrl": "0", "title": "0", "ckey": 0, "available": false, "iiifUrl": "0" }, "geometry": { "type": "Polygon", "coordinates": [ [ [ 135.0, 43.3333334 ], [ 137.5, 43.3333334 ], [ 137.5, 45.0000001 ], [ 135.0, 45.0000001 ], [ 135.0, 43.3333334 ] ] ] } },
{ "type": "Feature", "properties": { "Id": 0, "Sheet_ID": "壹五カ503. サイン・ツァガンフドゥク", "label": "壹五カ503. サイン・ツァガンフドゥク", "call_short": "G7400 S500 .J3", "call_num": "G7400 S500 .J3 P-07", "recid": "rs374jq0500", "websiteUrl": "https://purl.stanford.edu/rs374jq0500", "title": "東亞五十万分一圖", "ckey": 9589153, "available": true, "iiifUrl": "https://purl.stanford.edu/rs374jq0500/iiif/manifest" }, "geometry": { "type": "Polygon", "coordinates": [ [ [ 105.0, 45.0000001 ], [ 107.5, 45.0000001 ], [ 107.5, 46.6666668 ], [ 105.0, 46.6666668 ], [ 105.0, 45.0000001 ] ] ] } },
{ "type": "Feature", "properties": { "Id": 0, "Sheet_ID": "烏蘭達半小", "label": "烏蘭達半小", "call_short": "0", "call_num": "0", "recid": "0", "websiteUrl": "0", "title": "0", "ckey": 0, "available": false, "iiifUrl": "0" }, "geometry": { "type": "Polygon", "coordinates": [ [ [ 107.5, 45.0000001 ], [ 110.0, 45.0000001 ], [ 110.0, 46.6666668 ], [ 107.5, 46.6666668 ], [ 107.5, 45.0000001 ] ] ] } },
{ "type": "Feature", "properties": { "Id": 0, "Sheet_ID": "西10行北7段. ツァガンチゥルトィンヒード", "label": "西10行北7段. ツァガンチゥルトィンヒード", "call_short": "G7400 S500 .J3", "call_num": "G7400 S500 .J3 N-07", "recid": "vc781nw3211", "websiteUrl": "https://purl.stanford.edu/vc781nw3211", "title": "東亞五十万分一圖", "ckey": 9589153, "available": true, "iiifUrl": "https://purl.stanford.edu/vc781nw3211/iiif/manifest" }, "geometry": { "type": "Polygon", "coordinates": [ [ [ 110.0, 45.0000001 ], [ 112.5, 45.0000001 ], [ 112.5, 46.6666668 ], [ 110.0, 46.6666668 ], [ 110.0, 45.0000001 ] ] ] } },
{ "type": "Feature", "properties": { "Id": 0, "Sheet_ID": "壹四カ501. バイシントゥ・スメ", "label": "壹四カ501. バイシントゥ・スメ", "call_short": "G7400 S500 .J3", "call_num": "G7400 S500 .J3 M-07", "recid": "sz395bn4636", "websiteUrl": "https://purl.stanford.edu/sz395bn4636", "title": "東亞五十万分一圖", "ckey": 9589153, "available": true, "iiifUrl": "https://purl.stanford.edu/sz395bn4636/iiif/manifest" }, "geometry": { "type": "Polygon", "coordinates": [ [ [ 112.5, 45.0000001 ], [ 115.0, 45.0000001 ], [ 115.0, 46.6666668 ], [ 112.5, 46.6666668 ], [ 112.5, 45.0000001 ] ] ] } },
{ "type": "Feature", "properties": { "Id": 0, "Sheet_ID": "九カ503. テルネイ", "label": "九カ503. テルネイ", "call_short": "0", "call_num": "0", "recid": "0", "websiteUrl": "0", "title": "0", "ckey": 0, "available": false, "iiifUrl": "0" }, "geometry": { "type": "Polygon", "coordinates": [ [ [ 135.0, 45.0000001 ], [ 137.5, 45.0000001 ], [ 137.5, 46.6666668 ], [ 135.0, 46.6666668 ], [ 135.0, 45.0000001 ] ] ] } },
{ "type": "Feature", "properties": { "Id": 0, "Sheet_ID": "九カ501. クフゥツィン", "label": "九カ501. クフゥツィン", "call_short": "0", "call_num": "0", "recid": "0", "websiteUrl": "0", "title": "0", "ckey": 0, "available": false, "iiifUrl": "0" }, "geometry": { "type": "Polygon", "coordinates": [ [ [ 137.5, 45.0000001 ], [ 140.0, 45.0000001 ], [ 140.0, 46.6666668 ], [ 137.5, 46.6666668 ], [ 137.5, 45.0000001 ] ] ] } },
{ "type": "Feature", "properties": { "Id": 0, "Sheet_ID": "壹五ヨ504. 庫倫", "label": "壹五ヨ504. 庫倫", "call_short": "G7400 S500 .J3", "call_num": "G7400 S500 .J3 P-06", "recid": "qn152hn8255", "websiteUrl": "https://purl.stanford.edu/qn152hn8255", "title": "東亞五十万分一圖", "ckey": 9589153, "available": true, "iiifUrl": "https://purl.stanford.edu/qn152hn8255/iiif/manifest" }, "geometry": { "type": "Polygon", "coordinates": [ [ [ 105.0, 46.6666668 ], [ 107.5, 46.6666668 ], [ 107.5, 48.3333335 ], [ 105.0, 48.3333335 ], [ 105.0, 46.6666668 ] ] ] } },
{ "type": "Feature", "properties": { "Id": 0, "Sheet_ID": "リウト", "label": "リウト", "call_short": "0", "call_num": "0", "recid": "0", "websiteUrl": "0", "title": "0", "ckey": 0, "available": false, "iiifUrl": "0" }, "geometry": { "type": "Polygon", "coordinates": [ [ [ 107.5, 46.6666668 ], [ 110.0, 46.6666668 ], [ 110.0, 48.3333335 ], [ 107.5, 48.3333335 ], [ 107.5, 46.6666668 ] ] ] } },
{ "type": "Feature", "properties": { "Id": 0, "Sheet_ID": "西10行北8段. 車臣汗", "label": "西10行北8段. 車臣汗", "call_short": "G7400 S500 .J3", "call_num": "G7400 S500 .J3 N-06", "recid": "pv839zd0660", "websiteUrl": "https://purl.stanford.edu/pv839zd0660", "title": "東亞五十万分一圖", "ckey": 9589153, "available": true, "iiifUrl": "https://purl.stanford.edu/pv839zd0660/iiif/manifest" }, "geometry": { "type": "Polygon", "coordinates": [ [ [ 110.0, 46.6666668 ], [ 112.5, 46.6666668 ], [ 112.5, 48.3333335 ], [ 110.0, 48.3333335 ], [ 110.0, 46.6666668 ] ] ] } },
{ "type": "Feature", "properties": { "Id": 0, "Sheet_ID": "西9行北8段. サンベーズ", "label": "西9行北8段. サンベーズ", "call_short": "G7400 S500 .J3", "call_num": "G7400 S500 .J3 M-06", "recid": "mf583vq5674", "websiteUrl": "https://purl.stanford.edu/mf583vq5674", "title": "東亞五十万分一圖", "ckey": 9589153, "available": true, "iiifUrl": "https://purl.stanford.edu/mf583vq5674/iiif/manifest" }, "geometry": { "type": "Polygon", "coordinates": [ [ [ 112.5, 46.6666668 ], [ 115.0, 46.6666668 ], [ 115.0, 48.3333335 ], [ 112.5, 48.3333335 ], [ 112.5, 46.6666668 ] ] ] } },
{ "type": "Feature", "properties": { "Id": 0, "Sheet_ID": "九ヨ504. ヴェリノ", "label": "九ヨ504. ヴェリノ", "call_short": "0", "call_num": "0", "recid": "0", "websiteUrl": "0", "title": "0", "ckey": 0, "available": false, "iiifUrl": "0" }, "geometry": { "type": "Polygon", "coordinates": [ [ [ 135.0, 46.6666668 ], [ 137.5, 46.6666668 ], [ 137.5, 48.3333335 ], [ 135.0, 48.3333335 ], [ 135.0, 46.6666668 ] ] ] } },
{ "type": "Feature", "properties": { "Id": 0, "Sheet_ID": "九ヨ502. サマルガ", "label": "九ヨ502. サマルガ", "call_short": "0", "call_num": "0", "recid": "0", "websiteUrl": "0", "title": "0", "ckey": 0, "available": false, "iiifUrl": "0" }, "geometry": { "type": "Polygon", "coordinates": [ [ [ 137.5, 46.6666668 ], [ 140.0, 46.6666668 ], [ 140.0, 48.3333335 ], [ 137.5, 48.3333335 ], [ 137.5, 46.6666668 ] ] ] } },
{ "type": "Feature", "properties": { "Id": 0, "Sheet_ID": "壹五ヨ503. 哈拉", "label": "壹五ヨ503. 哈拉", "call_short": "G7400 S500 .J3", "call_num": "G7400 S500 .J3 P-05", "recid": "td686qh1183", "websiteUrl": "https://purl.stanford.edu/td686qh1183", "title": "東亞五十万分一圖", "ckey": 9589153, "available": true, "iiifUrl": "https://purl.stanford.edu/td686qh1183/iiif/manifest" }, "geometry": { "type": "Polygon", "coordinates": [ [ [ 105.0, 48.3333335 ], [ 107.5, 48.3333335 ], [ 107.5, 50.0000002 ], [ 105.0, 50.0000002 ], [ 105.0, 48.3333335 ] ] ] } },
{ "type": "Feature", "properties": { "Id": 0, "Sheet_ID": "西11行北9段. ヒルコトーイスコエ", "label": "西11行北9段. ヒルコトーイスコエ", "call_short": "G7400 S500 .J3", "call_num": "G7400 S500 .J3 O-05", "recid": "mk484cm3167", "websiteUrl": "https://purl.stanford.edu/mk484cm3167", "title": "東亞五十万分一圖", "ckey": 9589153, "available": true, "iiifUrl": "https://purl.stanford.edu/mk484cm3167/iiif/manifest" }, "geometry": { "type": "Polygon", "coordinates": [ [ [ 107.5, 48.3333335 ], [ 110.0, 48.3333335 ], [ 110.0, 50.0000002 ], [ 107.5, 50.0000002 ], [ 107.5, 48.3333335 ] ] ] } },
{ "type": "Feature", "properties": { "Id": 0, "Sheet_ID": "西10行北9段. アルタンスキー", "label": "西10行北9段. アルタンスキー", "call_short": "G7400 S500 .J3", "call_num": "G7400 S500 .J3 N-05", "recid": "yy893gp2781", "websiteUrl": "https://purl.stanford.edu/yy893gp2781", "title": "東亞五十万分一圖", "ckey": 9589153, "available": true, "iiifUrl": "https://purl.stanford.edu/yy893gp2781/iiif/manifest" }, "geometry": { "type": "Polygon", "coordinates": [ [ [ 110.0, 48.3333335 ], [ 112.5, 48.3333335 ], [ 112.5, 50.0000002 ], [ 110.0, 50.0000002 ], [ 110.0, 48.3333335 ] ] ] } },
{ "type": "Feature", "properties": { "Id": 0, "Sheet_ID": "壹四ヨ501. マングゥト", "label": "壹四ヨ501. マングゥト", "call_short": "G7400 S500 .J3", "call_num": "G7400 S500 .J3 M-05", "recid": "sg313wf8887", "websiteUrl": "https://purl.stanford.edu/sg313wf8887", "title": "東亞五十万分一圖", "ckey": 9589153, "available": true, "iiifUrl": "https://purl.stanford.edu/sg313wf8887/iiif/manifest" }, "geometry": { "type": "Polygon", "coordinates": [ [ [ 112.5, 48.3333335 ], [ 115.0, 48.3333335 ], [ 115.0, 50.0000002 ], [ 112.5, 50.0000002 ], [ 112.5, 48.3333335 ] ] ] } },
{ "type": "Feature", "properties": { "Id": 0, "Sheet_ID": "壹〇ヨ501. 撫遠", "label": "壹〇ヨ501. 撫遠", "call_short": "G7400 S500 .J3", "call_num": "G7400 S500 .J3 E-05", "recid": "bv657kg2013", "websiteUrl": "https://purl.stanford.edu/bv657kg2013", "title": "東亞五十万分一圖", "ckey": 9589153, "available": true, "iiifUrl": "https://purl.stanford.edu/bv657kg2013/iiif/manifest" }, "geometry": { "type": "Polygon", "coordinates": [ [ [ 132.5, 48.3333335 ], [ 135.0, 48.3333335 ], [ 135.0, 50.0000002 ], [ 132.5, 50.0000002 ], [ 132.5, 48.3333335 ] ] ] } },
{ "type": "Feature", "properties": { "Id": 0, "Sheet_ID": "九ヨ503. ハバロフスク", "label": "九ヨ503. ハバロフスク", "call_short": "0", "call_num": "0", "recid": "0", "websiteUrl": "0", "title": "0", "ckey": 0, "available": false, "iiifUrl": "0" }, "geometry": { "type": "Polygon", "coordinates": [ [ [ 135.0, 48.3333335 ], [ 137.5, 48.3333335 ], [ 137.5, 50.0000002 ], [ 135.0, 50.0000002 ], [ 135.0, 48.3333335 ] ] ] } },
{ "type": "Feature", "properties": { "Id": 0, "Sheet_ID": "九ヨ501. ガトキ", "label": "九ヨ501. ガトキ", "call_short": "0", "call_num": "0", "recid": "0", "websiteUrl": "0", "title": "0", "ckey": 0, "available": false, "iiifUrl": "0" }, "geometry": { "type": "Polygon", "coordinates": [ [ [ 137.5, 48.3333335 ], [ 140.0, 48.3333335 ], [ 140.0, 50.0000002 ], [ 137.5, 50.0000002 ], [ 137.5, 48.3333335 ] ] ] } },
{ "type": "Feature", "properties": { "Id": 0, "Sheet_ID": "八ヨ503. 恵須取", "label": "八ヨ503. 恵須取", "call_short": "0", "call_num": "0", "recid": "0", "websiteUrl": "0", "title": "0", "ckey": 0, "available": false, "iiifUrl": "0" }, "geometry": { "type": "Polygon", "coordinates": [ [ [ 140.0, 48.3333335 ], [ 142.5, 48.3333335 ], [ 142.5, 50.0000002 ], [ 140.0, 50.0000002 ], [ 140.0, 48.3333335 ] ] ] } },
{ "type": "Feature", "properties": { "Id": 0, "Sheet_ID": "壹六タ504. トゥラン", "label": "壹六タ504. トゥラン", "call_short": "G7400 S500 .J3", "call_num": "G7400 S500 .J3 R-04", "recid": "qj533wm6881", "websiteUrl": "https://purl.stanford.edu/qj533wm6881", "title": "東亞五十万分一圖", "ckey": 9589153, "available": true, "iiifUrl": "https://purl.stanford.edu/qj533wm6881/iiif/manifest" }, "geometry": { "type": "Polygon", "coordinates": [ [ [ 100.0, 50.0000002 ], [ 102.5, 50.0000002 ], [ 102.5, 51.6666669 ], [ 100.0, 51.6666669 ], [ 100.0, 50.0000002 ] ] ] } },
{ "type": "Feature", "properties": { "Id": 0, "Sheet_ID": "西13行北10段. ウツリークスコエ", "label": "西13行北10段. ウツリークスコエ", "call_short": "G7400 S500 .J3", "call_num": "G7400 S500 .J3 Q-04 ED.2", "recid": "nj654jm4032", "websiteUrl": "https://purl.stanford.edu/nj654jm4032", "title": "東亞五十万分一圖", "ckey": 9589153, "available": true, "iiifUrl": "https://purl.stanford.edu/nj654jm4032/iiif/manifest" }, "geometry": { "type": "Polygon", "coordinates": [ [ [ 102.5, 50.0000002 ], [ 105.0, 50.0000002 ], [ 105.0, 51.6666669 ], [ 102.5, 51.6666669 ], [ 102.5, 50.0000002 ] ] ] } },
{ "type": "Feature", "properties": { "Id": 0, "Sheet_ID": "壹五タ504. ノヴォセレンギンスク", "label": "壹五タ504. ノヴォセレンギンスク", "call_short": "G7400 S500 .J3", "call_num": "G7400 S500 .J3 P-04", "recid": "gq283sq9420", "websiteUrl": "https://purl.stanford.edu/gq283sq9420", "title": "東亞五十万分一圖", "ckey": 9589153, "available": true, "iiifUrl": "https://purl.stanford.edu/gq283sq9420/iiif/manifest" }, "geometry": { "type": "Polygon", "coordinates": [ [ [ 105.0, 50.0000002 ], [ 107.5, 50.0000002 ], [ 107.5, 51.6666669 ], [ 105.0, 51.6666669 ], [ 105.0, 50.0000002 ] ] ] } },
{ "type": "Feature", "properties": { "Id": 0, "Sheet_ID": "壹五タ502. ビチゥラ", "label": "壹五タ502. ビチゥラ", "call_short": "G7400 S500 .J3", "call_num": "G7400 S500 .J3 O-04", "recid": "ss978xm5465", "websiteUrl": "https://purl.stanford.edu/ss978xm5465", "title": "東亞五十万分一圖", "ckey": 9589153, "available": true, "iiifUrl": "https://purl.stanford.edu/ss978xm5465/iiif/manifest" }, "geometry": { "type": "Polygon", "coordinates": [ [ [ 107.5, 50.0000002 ], [ 110.0, 50.0000002 ], [ 110.0, 51.6666669 ], [ 107.5, 51.6666669 ], [ 107.5, 50.0000002 ] ] ] } },
{ "type": "Feature", "properties": { "Id": 0, "Sheet_ID": "壹四タ504. ヒローク", "label": "壹四タ504. ヒローク", "call_short": "0", "call_num": "0", "recid": "0", "websiteUrl": "0", "title": "0", "ckey": 0, "available": false, "iiifUrl": "0" }, "geometry": { "type": "Polygon", "coordinates": [ [ [ 110.0, 50.0000002 ], [ 112.5, 50.0000002 ], [ 112.5, 51.6666669 ], [ 110.0, 51.6666669 ], [ 110.0, 50.0000002 ] ] ] } },
{ "type": "Feature", "properties": { "Id": 0, "Sheet_ID": "壹四タ502. アクシャー_航空圖", "label": "壹四タ502. アクシャー_航空圖", "call_short": "G7400 S500 .J3", "call_num": "G7400 S500 .J3 M-04 REV", "recid": "xk890qn0829", "websiteUrl": "https://purl.stanford.edu/xk890qn0829", "title": "東亞五十万分一圖", "ckey": 9589153, "available": true, "iiifUrl": "https://purl.stanford.edu/xk890qn0829/iiif/manifest" }, "geometry": { "type": "Polygon", "coordinates": [ [ [ 112.5, 50.0000002 ], [ 115.0, 50.0000002 ], [ 115.0, 51.6666669 ], [ 112.5, 51.6666669 ], [ 112.5, 50.0000002 ] ] ] } },
{ "type": "Feature", "properties": { "Id": 0, "Sheet_ID": "壹參タ504. ボルジャ", "label": "壹參タ504. ボルジャ", "call_short": "0", "call_num": "0", "recid": "0", "websiteUrl": "0", "title": "0", "ckey": 0, "available": false, "iiifUrl": "0" }, "geometry": { "type": "Polygon", "coordinates": [ [ [ 115.0, 50.0000002 ], [ 117.5, 50.0000002 ], [ 117.5, 51.6666669 ], [ 115.0, 51.6666669 ], [ 115.0, 50.0000002 ] ] ] } },
{ "type": "Feature", "properties": { "Id": 0, "Sheet_ID": "壹壹タ502. ブラゴヴェーシチェンスク", "label": "壹壹タ502. ブラゴヴェーシチェンスク", "call_short": "0", "call_num": "0", "recid": "0", "websiteUrl": "0", "title": "0", "ckey": 0, "available": false, "iiifUrl": "0" }, "geometry": { "type": "Polygon", "coordinates": [ [ [ 127.5, 50.0000002 ], [ 130.0, 50.0000002 ], [ 130.0, 51.6666669 ], [ 127.5, 51.6666669 ], [ 127.5, 50.0000002 ] ] ] } },
{ "type": "Feature", "properties": { "Id": 0, "Sheet_ID": "壹〇タ504. パイカン", "label": "壹〇タ504. パイカン", "call_short": "G7400 S500 .J3", "call_num": "G7400 S500 .J3 F-04", "recid": "st989br4796", "websiteUrl": "https://purl.stanford.edu/st989br4796", "title": "東亞五十万分一圖", "ckey": 9589153, "available": true, "iiifUrl": "https://purl.stanford.edu/st989br4796/iiif/manifest" }, "geometry": { "type": "Polygon", "coordinates": [ [ [ 130.0, 50.0000002 ], [ 132.5, 50.0000002 ], [ 132.5, 51.6666669 ], [ 130.0, 51.6666669 ], [ 130.0, 50.0000002 ] ] ] } },
{ "type": "Feature", "properties": { "Id": 0, "Sheet_ID": "壹〇タ502. ラカ", "label": "壹〇タ502. ラカ", "call_short": "0", "call_num": "0", "recid": "0", "websiteUrl": "0", "title": "0", "ckey": 0, "available": false, "iiifUrl": "0" }, "geometry": { "type": "Polygon", "coordinates": [ [ [ 132.5, 50.0000002 ], [ 135.0, 50.0000002 ], [ 135.0, 51.6666669 ], [ 132.5, 51.6666669 ], [ 132.5, 50.0000002 ] ] ] } },
{ "type": "Feature", "properties": { "Id": 0, "Sheet_ID": "九タ504. コムソモリスク", "label": "九タ504. コムソモリスク", "call_short": "0", "call_num": "0", "recid": "0", "websiteUrl": "0", "title": "0", "ckey": 0, "available": false, "iiifUrl": "0" }, "geometry": { "type": "Polygon", "coordinates": [ [ [ 135.0, 50.0000002 ], [ 137.5, 50.0000002 ], [ 137.5, 51.6666669 ], [ 135.0, 51.6666669 ], [ 135.0, 50.0000002 ] ] ] } },
{ "type": "Feature", "properties": { "Id": 0, "Sheet_ID": "九タ502. ニジネタムボフスク", "label": "九タ502. ニジネタムボフスク", "call_short": "0", "call_num": "0", "recid": "0", "websiteUrl": "0", "title": "0", "ckey": 0, "available": false, "iiifUrl": "0" }, "geometry": { "type": "Polygon", "coordinates": [ [ [ 137.5, 50.0000002 ], [ 140.0, 50.0000002 ], [ 140.0, 51.6666669 ], [ 137.5, 51.6666669 ], [ 137.5, 50.0000002 ] ] ] } },
{ "type": "Feature", "properties": { "Id": 0, "Sheet_ID": "八タ504. アレクサンドロフスク", "label": "八タ504. アレクサンドロフスク", "call_short": "0", "call_num": "0", "recid": "0", "websiteUrl": "0", "title": "0", "ckey": 0, "available": false, "iiifUrl": "0" }, "geometry": { "type": "Polygon", "coordinates": [ [ [ 140.0, 50.0000002 ], [ 142.5, 50.0000002 ], [ 142.5, 51.6666669 ], [ 140.0, 51.6666669 ], [ 140.0, 50.0000002 ] ] ] } },
{ "type": "Feature", "properties": { "Id": 0, "Sheet_ID": "八タ502. デルビンスコエ", "label": "八タ502. デルビンスコエ", "call_short": "G7400 S500 .J3", "call_num": "G7400 S500 .J3 A-04", "recid": "tn573xj8872", "websiteUrl": "https://purl.stanford.edu/tn573xj8872", "title": "東亞五十万分一圖", "ckey": 9589153, "available": true, "iiifUrl": "https://purl.stanford.edu/tn573xj8872/iiif/manifest" }, "geometry": { "type": "Polygon", "coordinates": [ [ [ 142.5, 50.0000002 ], [ 145.0, 50.0000002 ], [ 145.0, 51.6666669 ], [ 142.5, 51.6666669 ], [ 142.5, 50.0000002 ] ] ] } },
{ "type": "Feature", "properties": { "Id": 0, "Sheet_ID": "壹六タ503. シムキ", "label": "壹六タ503. シムキ", "call_short": "0", "call_num": "0", "recid": "0", "websiteUrl": "0", "title": "0", "ckey": 0, "available": false, "iiifUrl": "0" }, "geometry": { "type": "Polygon", "coordinates": [ [ [ 100.0, 51.6666669 ], [ 102.5, 51.6666669 ], [ 102.5, 53.3333336 ], [ 100.0, 53.3333336 ], [ 100.0, 51.6666669 ] ] ] } },
{ "type": "Feature", "properties": { "Id": 0, "Sheet_ID": "壹六タ501. イルクーツク", "label": "壹六タ501. イルクーツク", "call_short": "0", "call_num": "0", "recid": "0", "websiteUrl": "0", "title": "0", "ckey": 0, "available": false, "iiifUrl": "0" }, "geometry": { "type": "Polygon", "coordinates": [ [ [ 102.5, 51.6666669 ], [ 105.0, 51.6666669 ], [ 105.0, 53.3333336 ], [ 102.5, 53.3333336 ], [ 102.5, 51.6666669 ] ] ] } },
{ "type": "Feature", "properties": { "Id": 0, "Sheet_ID": "壹五タ503. カバンスク", "label": "壹五タ503. カバンスク", "call_short": "0", "call_num": "0", "recid": "0", "websiteUrl": "0", "title": "0", "ckey": 0, "available": false, "iiifUrl": "0" }, "geometry": { "type": "Polygon", "coordinates": [ [ [ 105.0, 51.6666669 ], [ 107.5, 51.6666669 ], [ 107.5, 53.3333336 ], [ 105.0, 53.3333336 ], [ 105.0, 51.6666669 ] ] ] } },
{ "type": "Feature", "properties": { "Id": 0, "Sheet_ID": "壹五タ501. ウラン・ウデ", "label": "壹五タ501. ウラン・ウデ", "call_short": "0", "call_num": "0", "recid": "0", "websiteUrl": "0", "title": "0", "ckey": 0, "available": false, "iiifUrl": "0" }, "geometry": { "type": "Polygon", "coordinates": [ [ [ 107.5, 51.6666669 ], [ 110.0, 51.6666669 ], [ 110.0, 53.3333336 ], [ 107.5, 53.3333336 ], [ 107.5, 51.6666669 ] ] ] } },
{ "type": "Feature", "properties": { "Id": 0, "Sheet_ID": "壹四タ503. サスノヴォオーゼルスコエ", "label": "壹四タ503. サスノヴォオーゼルスコエ", "call_short": "G7400 S500 .J3", "call_num": "G7400 S500 .J3 N-03", "recid": "fm311jg8925", "websiteUrl": "https://purl.stanford.edu/fm311jg8925", "title": "東亞五十万分一圖", "ckey": 9589153, "available": true, "iiifUrl": "https://purl.stanford.edu/fm311jg8925/iiif/manifest" }, "geometry": { "type": "Polygon", "coordinates": [ [ [ 110.0, 51.6666669 ], [ 112.5, 51.6666669 ], [ 112.5, 53.3333336 ], [ 110.0, 53.3333336 ], [ 110.0, 51.6666669 ] ] ] } },
{ "type": "Feature", "properties": { "Id": 0, "Sheet_ID": "壹四タ501. チタ", "label": "壹四タ501. チタ", "call_short": "0", "call_num": "0", "recid": "0", "websiteUrl": "0", "title": "0", "ckey": 0, "available": false, "iiifUrl": "0" }, "geometry": { "type": "Polygon", "coordinates": [ [ [ 112.5, 51.6666669 ], [ 115.0, 51.6666669 ], [ 115.0, 53.3333336 ], [ 112.5, 53.3333336 ], [ 112.5, 51.6666669 ] ] ] } },
{ "type": "Feature", "properties": { "Id": 0, "Sheet_ID": "壹參タ503. ネルチンスク", "label": "壹參タ503. ネルチンスク", "call_short": "0", "call_num": "0", "recid": "0", "websiteUrl": "0", "title": "0", "ckey": 0, "available": false, "iiifUrl": "0" }, "geometry": { "type": "Polygon", "coordinates": [ [ [ 115.0, 51.6666669 ], [ 117.5, 51.6666669 ], [ 117.5, 53.3333336 ], [ 115.0, 53.3333336 ], [ 115.0, 51.6666669 ] ] ] } },
{ "type": "Feature", "properties": { "Id": 0, "Sheet_ID": "壹参タ501. スレーテンスク_航空圖", "label": "壹参タ501. スレーテンスク_航空圖", "call_short": "G7400 S500 .J3", "call_num": "G7400 S500 .J3 K-03", "recid": "jh852jn3024", "websiteUrl": "https://purl.stanford.edu/jh852jn3024", "title": "東亞五十万分一圖", "ckey": 9589153, "available": true, "iiifUrl": "https://purl.stanford.edu/jh852jn3024/iiif/manifest" }, "geometry": { "type": "Polygon", "coordinates": [ [ [ 117.5, 51.6666669 ], [ 120.0, 51.6666669 ], [ 120.0, 53.3333336 ], [ 117.5, 53.3333336 ], [ 117.5, 51.6666669 ] ] ] } },
{ "type": "Feature", "properties": { "Id": 0, "Sheet_ID": "壹壹タ501. シマノフスコエ", "label": "壹壹タ501. シマノフスコエ", "call_short": "0", "call_num": "0", "recid": "0", "websiteUrl": "0", "title": "0", "ckey": 0, "available": false, "iiifUrl": "0" }, "geometry": { "type": "Polygon", "coordinates": [ [ [ 127.5, 51.6666669 ], [ 130.0, 51.6666669 ], [ 130.0, 53.3333336 ], [ 127.5, 53.3333336 ], [ 127.5, 51.6666669 ] ] ] } },
{ "type": "Feature", "properties": { "Id": 0, "Sheet_ID": "壹〇タ503. セレムヂンスコエ", "label": "壹〇タ503. セレムヂンスコエ", "call_short": "0", "call_num": "0", "recid": "0", "websiteUrl": "0", "title": "0", "ckey": 0, "available": false, "iiifUrl": "0" }, "geometry": { "type": "Polygon", "coordinates": [ [ [ 130.0, 51.6666669 ], [ 132.5, 51.6666669 ], [ 132.5, 53.3333336 ], [ 130.0, 53.3333336 ], [ 130.0, 51.6666669 ] ] ] } },
{ "type": "Feature", "properties": { "Id": 0, "Sheet_ID": "壹〇タ501. エキムチァン", "label": "壹〇タ501. エキムチァン", "call_short": "0", "call_num": "0", "recid": "0", "websiteUrl": "0", "title": "0", "ckey": 0, "available": false, "iiifUrl": "0" }, "geometry": { "type": "Polygon", "coordinates": [ [ [ 132.5, 51.6666669 ], [ 135.0, 51.6666669 ], [ 135.0, 53.3333336 ], [ 132.5, 53.3333336 ], [ 132.5, 51.6666669 ] ] ] } },
{ "type": "Feature", "properties": { "Id": 0, "Sheet_ID": "九タ503. オシペンコ", "label": "九タ503. オシペンコ", "call_short": "G7400 S500 .J3", "call_num": "G7400 S500 .J3 D-03", "recid": "zx972vr9438", "websiteUrl": "https://purl.stanford.edu/zx972vr9438", "title": "東亞五十万分一圖", "ckey": 9589153, "available": true, "iiifUrl": "https://purl.stanford.edu/zx972vr9438/iiif/manifest" }, "geometry": { "type": "Polygon", "coordinates": [ [ [ 135.0, 51.6666669 ], [ 137.5, 51.6666669 ], [ 137.5, 53.3333336 ], [ 135.0, 53.3333336 ], [ 135.0, 51.6666669 ] ] ] } },
{ "type": "Feature", "properties": { "Id": 0, "Sheet_ID": "九タ501. セルギミハイロ", "label": "九タ501. セルギミハイロ", "call_short": "0", "call_num": "0", "recid": "0", "websiteUrl": "0", "title": "0", "ckey": 0, "available": false, "iiifUrl": "0" }, "geometry": { "type": "Polygon", "coordinates": [ [ [ 137.5, 51.6666669 ], [ 140.0, 51.6666669 ], [ 140.0, 53.3333336 ], [ 137.5, 53.3333336 ], [ 137.5, 51.6666669 ] ] ] } },
{ "type": "Feature", "properties": { "Id": 0, "Sheet_ID": "八タ503. ニコラエフスク", "label": "八タ503. ニコラエフスク", "call_short": "0", "call_num": "0", "recid": "0", "websiteUrl": "0", "title": "0", "ckey": 0, "available": false, "iiifUrl": "0" }, "geometry": { "type": "Polygon", "coordinates": [ [ [ 140.0, 51.6666669 ], [ 142.5, 51.6666669 ], [ 142.5, 53.3333336 ], [ 140.0, 53.3333336 ], [ 140.0, 51.6666669 ] ] ] } },
{ "type": "Feature", "properties": { "Id": 0, "Sheet_ID": "八タ501. カタングリ", "label": "八タ501. カタングリ", "call_short": "G7400 S500 .J3", "call_num": "G7400 S500 .J3 A-03", "recid": "br864pw5494", "websiteUrl": "https://purl.stanford.edu/br864pw5494", "title": "東亞五十万分一圖", "ckey": 9589153, "available": true, "iiifUrl": "https://purl.stanford.edu/br864pw5494/iiif/manifest" }, "geometry": { "type": "Polygon", "coordinates": [ [ [ 142.5, 51.6666669 ], [ 145.0, 51.6666669 ], [ 145.0, 53.3333336 ], [ 142.5, 53.3333336 ], [ 142.5, 51.6666669 ] ] ] } },
{ "type": "Feature", "properties": { "Id": 0, "Sheet_ID": "壹七レ502. ニジゥネ・ウーディンスク", "label": "壹七レ502. ニジゥネ・ウーディンスク", "call_short": "0", "call_num": "0", "recid": "0", "websiteUrl": "0", "title": "0", "ckey": 0, "available": false, "iiifUrl": "0" }, "geometry": { "type": "Polygon", "coordinates": [ [ [ 97.5, 53.3333336 ], [ 100.0, 53.3333336 ], [ 100.0, 55.0000003 ], [ 97.5, 55.0000003 ], [ 97.5, 53.3333336 ] ] ] } },
{ "type": "Feature", "properties": { "Id": 0, "Sheet_ID": "壹六レ504. ジマ", "label": "壹六レ504. ジマ", "call_short": "0", "call_num": "0", "recid": "0", "websiteUrl": "0", "title": "0", "ckey": 0, "available": false, "iiifUrl": "0" }, "geometry": { "type": "Polygon", "coordinates": [ [ [ 100.0, 53.3333336 ], [ 102.5, 53.3333336 ], [ 102.5, 55.0000003 ], [ 100.0, 55.0000003 ], [ 100.0, 53.3333336 ] ] ] } },
{ "type": "Feature", "properties": { "Id": 0, "Sheet_ID": "壹六レ502. ザラリ", "label": "壹六レ502. ザラリ", "call_short": "0", "call_num": "0", "recid": "0", "websiteUrl": "0", "title": "0", "ckey": 0, "available": false, "iiifUrl": "0" }, "geometry": { "type": "Polygon", "coordinates": [ [ [ 102.5, 53.3333336 ], [ 105.0, 53.3333336 ], [ 105.0, 55.0000003 ], [ 102.5, 55.0000003 ], [ 102.5, 53.3333336 ] ] ] } },
{ "type": "Feature", "properties": { "Id": 0, "Sheet_ID": "壹五レ504. カチゥグ", "label": "壹五レ504. カチゥグ", "call_short": "0", "call_num": "0", "recid": "0", "websiteUrl": "0", "title": "0", "ckey": 0, "available": false, "iiifUrl": "0" }, "geometry": { "type": "Polygon", "coordinates": [ [ [ 105.0, 53.3333336 ], [ 107.5, 53.3333336 ], [ 107.5, 55.0000003 ], [ 105.0, 55.0000003 ], [ 105.0, 53.3333336 ] ] ] } },
{ "type": "Feature", "properties": { "Id": 0, "Sheet_ID": "壹五レ502. バルグジン", "label": "壹五レ502. バルグジン", "call_short": "G7400 S500 .J3", "call_num": "G7400 S500 .J3 O-02", "recid": "sv531dh9558", "websiteUrl": "https://purl.stanford.edu/sv531dh9558", "title": "東亞五十万分一圖", "ckey": 9589153, "available": true, "iiifUrl": "https://purl.stanford.edu/sv531dh9558/iiif/manifest" }, "geometry": { "type": "Polygon", "coordinates": [ [ [ 107.5, 53.3333336 ], [ 110.0, 53.3333336 ], [ 110.0, 55.0000003 ], [ 107.5, 55.0000003 ], [ 107.5, 53.3333336 ] ] ] } },
{ "type": "Feature", "properties": { "Id": 0, "Sheet_ID": "壹四レ504. ガルガ", "label": "壹四レ504. ガルガ", "call_short": "0", "call_num": "0", "recid": "0", "websiteUrl": "0", "title": "0", "ckey": 0, "available": false, "iiifUrl": "0" }, "geometry": { "type": "Polygon", "coordinates": [ [ [ 110.0, 53.3333336 ], [ 112.5, 53.3333336 ], [ 112.5, 55.0000003 ], [ 110.0, 55.0000003 ], [ 110.0, 53.3333336 ] ] ] } },
{ "type": "Feature", "properties": { "Id": 0, "Sheet_ID": "壹四レ502. ボグダリン", "label": "壹四レ502. ボグダリン", "call_short": "0", "call_num": "0", "recid": "0", "websiteUrl": "0", "title": "0", "ckey": 0, "available": false, "iiifUrl": "0" }, "geometry": { "type": "Polygon", "coordinates": [ [ [ 112.5, 53.3333336 ], [ 115.0, 53.3333336 ], [ 115.0, 55.0000003 ], [ 112.5, 55.0000003 ], [ 112.5, 53.3333336 ] ] ] } },
{ "type": "Feature", "properties": { "Id": 0, "Sheet_ID": "壹参レ504. ウースチエ・カレンギ", "label": "壹参レ504. ウースチエ・カレンギ", "call_short": "0", "call_num": "0", "recid": "0", "websiteUrl": "0", "title": "0", "ckey": 0, "available": false, "iiifUrl": "0" }, "geometry": { "type": "Polygon", "coordinates": [ [ [ 115.0, 53.3333336 ], [ 117.5, 53.3333336 ], [ 117.5, 55.0000003 ], [ 115.0, 55.0000003 ], [ 115.0, 53.3333336 ] ] ] } },
{ "type": "Feature", "properties": { "Id": 0, "Sheet_ID": "壹参レ502. チャリーワヤ_航空圖", "label": "壹参レ502. チャリーワヤ_航空圖", "call_short": "G7400 S500 .J3", "call_num": "G7400 S500 .J3 K-02 REV", "recid": "nc246cn6347", "websiteUrl": "https://purl.stanford.edu/nc246cn6347", "title": "東亞五十万分一圖", "ckey": 9589153, "available": true, "iiifUrl": "https://purl.stanford.edu/nc246cn6347/iiif/manifest" }, "geometry": { "type": "Polygon", "coordinates": [ [ [ 117.5, 53.3333336 ], [ 120.0, 53.3333336 ], [ 120.0, 55.0000003 ], [ 117.5, 55.0000003 ], [ 117.5, 53.3333336 ] ] ] } },
{ "type": "Feature", "properties": { "Id": 0, "Sheet_ID": "壹壹レ504. ゼーヤ_航空圖", "label": "壹壹レ504. ゼーヤ_航空圖", "call_short": "G7400 S500 .J3", "call_num": "G7400 S500 .J3 H-02 REV", "recid": "sd492fg7957", "websiteUrl": "https://purl.stanford.edu/sd492fg7957", "title": "東亞五十万分一圖", "ckey": 9589153, "available": true, "iiifUrl": "https://purl.stanford.edu/sd492fg7957/iiif/manifest" }, "geometry": { "type": "Polygon", "coordinates": [ [ [ 125.0, 53.3333336 ], [ 127.5, 53.3333336 ], [ 127.5, 55.0000003 ], [ 125.0, 55.0000003 ], [ 125.0, 53.3333336 ] ] ] } },
{ "type": "Feature", "properties": { "Id": 0, "Sheet_ID": "壹壹レ502. ダムブーキ_航空圖", "label": "壹壹レ502. ダムブーキ_航空圖", "call_short": "G7400 S500 .J3", "call_num": "G7400 S500 .J3 G-02 REV", "recid": "qz714zc8443", "websiteUrl": "https://purl.stanford.edu/qz714zc8443", "title": "東亞五十万分一圖", "ckey": 9589153, "available": true, "iiifUrl": "https://purl.stanford.edu/qz714zc8443/iiif/manifest" }, "geometry": { "type": "Polygon", "coordinates": [ [ [ 127.5, 53.3333336 ], [ 130.0, 53.3333336 ], [ 130.0, 55.0000003 ], [ 127.5, 55.0000003 ], [ 127.5, 53.3333336 ] ] ] } },
{ "type": "Feature", "properties": { "Id": 0, "Sheet_ID": "壹〇レ504. ズナメンスキー", "label": "壹〇レ504. ズナメンスキー", "call_short": "0", "call_num": "0", "recid": "0", "websiteUrl": "0", "title": "0", "ckey": 0, "available": false, "iiifUrl": "0" }, "geometry": { "type": "Polygon", "coordinates": [ [ [ 130.0, 53.3333336 ], [ 132.5, 53.3333336 ], [ 132.5, 55.0000003 ], [ 130.0, 55.0000003 ], [ 130.0, 53.3333336 ] ] ] } },
{ "type": "Feature", "properties": { "Id": 0, "Sheet_ID": "壹〇レ502. ウトスコエ", "label": "壹〇レ502. ウトスコエ", "call_short": "0", "call_num": "0", "recid": "0", "websiteUrl": "0", "title": "0", "ckey": 0, "available": false, "iiifUrl": "0" }, "geometry": { "type": "Polygon", "coordinates": [ [ [ 132.5, 53.3333336 ], [ 135.0, 53.3333336 ], [ 135.0, 55.0000003 ], [ 132.5, 55.0000003 ], [ 132.5, 53.3333336 ] ] ] } },
{ "type": "Feature", "properties": { "Id": 0, "Sheet_ID": "九レ504. チゥミカン", "label": "九レ504. チゥミカン", "call_short": "G7400 S500 .J3", "call_num": "G7400 S500 .J3 D-02", "recid": "my124xx8282", "websiteUrl": "https://purl.stanford.edu/my124xx8282", "title": "東亞五十万分一圖", "ckey": 9589153, "available": true, "iiifUrl": "https://purl.stanford.edu/my124xx8282/iiif/manifest" }, "geometry": { "type": "Polygon", "coordinates": [ [ [ 135.0, 53.3333336 ], [ 137.5, 53.3333336 ], [ 137.5, 55.0000003 ], [ 135.0, 55.0000003 ], [ 135.0, 53.3333336 ] ] ] } },
{ "type": "Feature", "properties": { "Id": 0, "Sheet_ID": "九レ502. アカデーミヤ湾", "label": "九レ502. アカデーミヤ湾", "call_short": "0", "call_num": "0", "recid": "0", "websiteUrl": "0", "title": "0", "ckey": 0, "available": false, "iiifUrl": "0" }, "geometry": { "type": "Polygon", "coordinates": [ [ [ 137.5, 53.3333336 ], [ 140.0, 53.3333336 ], [ 140.0, 55.0000003 ], [ 137.5, 55.0000003 ], [ 137.5, 53.3333336 ] ] ] } },
{ "type": "Feature", "properties": { "Id": 0, "Sheet_ID": "東3行北12段. 薩哈嗹灣", "label": "東3行北12段. 薩哈嗹灣", "call_short": "G7400 S500 .J3", "call_num": "G7400 S500 .J3 B-02 ED.2", "recid": "sk181rb4685", "websiteUrl": "https://purl.stanford.edu/sk181rb4685", "title": "東亞五十万分一圖", "ckey": 9589153, "available": true, "iiifUrl": "https://purl.stanford.edu/sk181rb4685/iiif/manifest" }, "geometry": { "type": "Polygon", "coordinates": [ [ [ 140.0, 53.3333336 ], [ 142.5, 53.3333336 ], [ 142.5, 55.0000003 ], [ 140.0, 55.0000003 ], [ 140.0, 53.3333336 ] ] ] } },
{ "type": "Feature", "properties": { "Id": 0, "Sheet_ID": "東4行北12段. オハ", "label": "東4行北12段. オハ", "call_short": "G7400 S500 .J3", "call_num": "G7400 S500 .J3 A-02", "recid": "bj868xh9070", "websiteUrl": "https://purl.stanford.edu/bj868xh9070", "title": "東亞五十万分一圖", "ckey": 9589153, "available": true, "iiifUrl": "https://purl.stanford.edu/bj868xh9070/iiif/manifest" }, "geometry": { "type": "Polygon", "coordinates": [ [ [ 142.5, 53.3333336 ], [ 145.0, 53.3333336 ], [ 145.0, 55.0000003 ], [ 142.5, 55.0000003 ], [ 142.5, 53.3333336 ] ] ] } },
{ "type": "Feature", "properties": { "Id": 0, "Sheet_ID": "壹八レ503. アチンスク", "label": "壹八レ503. アチンスク", "call_short": "G7400 S500 .J3", "call_num": "G7400 S500 .J3 V-01", "recid": "hh262tb0787", "websiteUrl": "https://purl.stanford.edu/hh262tb0787", "title": "東亞五十万分一圖", "ckey": 9589153, "available": true, "iiifUrl": "https://purl.stanford.edu/hh262tb0787/iiif/manifest" }, "geometry": { "type": "Polygon", "coordinates": [ [ [ 90.0, 55.0000003 ], [ 92.5, 55.0000003 ], [ 92.5, 56.666667 ], [ 90.0, 56.666667 ], [ 90.0, 55.0000003 ] ] ] } },
{ "type": "Feature", "properties": { "Id": 0, "Sheet_ID": "壹八レ501. クラスノヤルスク", "label": "壹八レ501. クラスノヤルスク", "call_short": "G7400 S500 .J3", "call_num": "G7400 S500 .J3 U-01", "recid": "zj969yv8673", "websiteUrl": "https://purl.stanford.edu/zj969yv8673", "title": "東亞五十万分一圖", "ckey": 9589153, "available": true, "iiifUrl": "https://purl.stanford.edu/zj969yv8673/iiif/manifest" }, "geometry": { "type": "Polygon", "coordinates": [ [ [ 92.5, 55.0000003 ], [ 95.0, 55.0000003 ], [ 95.0, 56.666667 ], [ 92.5, 56.666667 ], [ 92.5, 55.0000003 ] ] ] } },
{ "type": "Feature", "properties": { "Id": 0, "Sheet_ID": "壹七レ503. カンスク", "label": "壹七レ503. カンスク", "call_short": "0", "call_num": "0", "recid": "0", "websiteUrl": "0", "title": "0", "ckey": 0, "available": false, "iiifUrl": "0" }, "geometry": { "type": "Polygon", "coordinates": [ [ [ 95.0, 55.0000003 ], [ 97.5, 55.0000003 ], [ 97.5, 56.666667 ], [ 95.0, 56.666667 ], [ 95.0, 55.0000003 ] ] ] } },
{ "type": "Feature", "properties": { "Id": 0, "Sheet_ID": "壹七レ501. タイシェートゥ", "label": "壹七レ501. タイシェートゥ", "call_short": "G7400 S500 .J3", "call_num": "G7400 S500 .J3 S-01", "recid": "vy512ss6892", "websiteUrl": "https://purl.stanford.edu/vy512ss6892", "title": "東亞五十万分一圖", "ckey": 9589153, "available": true, "iiifUrl": "https://purl.stanford.edu/vy512ss6892/iiif/manifest" }, "geometry": { "type": "Polygon", "coordinates": [ [ [ 97.5, 55.0000003 ], [ 100.0, 55.0000003 ], [ 100.0, 56.666667 ], [ 97.5, 56.666667 ], [ 97.5, 55.0000003 ] ] ] } },
{ "type": "Feature", "properties": { "Id": 0, "Sheet_ID": "壹参レ503. ムヤ", "label": "壹参レ503. ムヤ", "call_short": "0", "call_num": "0", "recid": "0", "websiteUrl": "0", "title": "0", "ckey": 0, "available": false, "iiifUrl": "0" }, "geometry": { "type": "Polygon", "coordinates": [ [ [ 115.0, 55.0000003 ], [ 117.5, 55.0000003 ], [ 117.5, 56.666667 ], [ 115.0, 56.666667 ], [ 115.0, 55.0000003 ] ] ] } },
{ "type": "Feature", "properties": { "Id": 0, "Sheet_ID": "壹参レ501. ウグル湖", "label": "壹参レ501. ウグル湖", "call_short": "0", "call_num": "0", "recid": "0", "websiteUrl": "0", "title": "0", "ckey": 0, "available": false, "iiifUrl": "0" }, "geometry": { "type": "Polygon", "coordinates": [ [ [ 117.5, 55.0000003 ], [ 120.0, 55.0000003 ], [ 120.0, 56.666667 ], [ 117.5, 56.666667 ], [ 117.5, 55.0000003 ] ] ] } },
{ "type": "Feature", "properties": { "Id": 0, "Sheet_ID": "壹貳レ503. ウスチ・ニュグジァ", "label": "壹貳レ503. ウスチ・ニュグジァ", "call_short": "0", "call_num": "0", "recid": "0", "websiteUrl": "0", "title": "0", "ckey": 0, "available": false, "iiifUrl": "0" }, "geometry": { "type": "Polygon", "coordinates": [ [ [ 120.0, 55.0000003 ], [ 122.5, 55.0000003 ], [ 122.5, 56.666667 ], [ 120.0, 56.666667 ], [ 120.0, 55.0000003 ] ] ] } },
{ "type": "Feature", "properties": { "Id": 0, "Sheet_ID": "壹貮レ501. トインダ", "label": "壹貮レ501. トインダ", "call_short": "G7400 S500 .J3", "call_num": "G7400 S500 .J3 I-01", "recid": "kv996cm4785", "websiteUrl": "https://purl.stanford.edu/kv996cm4785", "title": "東亞五十万分一圖", "ckey": 9589153, "available": true, "iiifUrl": "https://purl.stanford.edu/kv996cm4785/iiif/manifest" }, "geometry": { "type": "Polygon", "coordinates": [ [ [ 122.5, 55.0000003 ], [ 125.0, 55.0000003 ], [ 125.0, 56.666667 ], [ 122.5, 56.666667 ], [ 122.5, 55.0000003 ] ] ] } },
{ "type": "Feature", "properties": { "Id": 0, "Sheet_ID": "壹壹レ503. レベヂヌィイ", "label": "壹壹レ503. レベヂヌィイ", "call_short": "0", "call_num": "0", "recid": "0", "websiteUrl": "0", "title": "0", "ckey": 0, "available": false, "iiifUrl": "0" }, "geometry": { "type": "Polygon", "coordinates": [ [ [ 125.0, 55.0000003 ], [ 127.5, 55.0000003 ], [ 127.5, 56.666667 ], [ 125.0, 56.666667 ], [ 125.0, 55.0000003 ] ] ] } },
{ "type": "Feature", "properties": { "Id": 0, "Sheet_ID": "八レ502. オハ", "label": "八レ502. オハ", "call_short": "G7400 S500 .J3", "call_num": "G7400 S500 .J3 A-02 ED.2", "recid": "mn316zm6527", "websiteUrl": "https://purl.stanford.edu/mn316zm6527", "title": "東亞五十万分一圖", "ckey": 9589153, "available": true, "iiifUrl": "https://purl.stanford.edu/mn316zm6527/iiif/manifest" }, "geometry": { "type": "Polygon", "coordinates": [ [ [ 142.5, 53.3333336 ], [ 145.0, 53.3333336 ], [ 145.0, 55.0000003 ], [ 142.5, 55.0000003 ], [ 142.5, 53.3333336 ] ] ] } },
{ "type": "Feature", "properties": { "Id": 0, "Sheet_ID": "八レ504. 薩哈嗹灣", "label": "八レ504. 薩哈嗹灣", "call_short": "G7400 S500 .J3", "call_num": "G7400 S500 .J3 B-02", "recid": "sj157zn0670", "websiteUrl": "https://purl.stanford.edu/sj157zn0670", "title": "東亞五十万分一圖", "ckey": 9589153, "available": true, "iiifUrl": "https://purl.stanford.edu/sj157zn0670/iiif/manifest" }, "geometry": { "type": "Polygon", "coordinates": [ [ [ 140.0, 53.3333336 ], [ 142.5, 53.3333336 ], [ 142.5, 55.0000003 ], [ 140.0, 55.0000003 ], [ 140.0, 53.3333336 ] ] ] } },
{ "type": "Feature", "properties": { "Id": 0, "Sheet_ID": "壹壹レ502. ダムブーキ", "label": "壹壹レ502. ダムブーキ", "call_short": "G7400 S500 .J3", "call_num": "G7400 S500 .J3 G-02", "recid": "fr182qc5296", "websiteUrl": "https://purl.stanford.edu/fr182qc5296", "title": "東亞五十万分一圖", "ckey": 9589153, "available": true, "iiifUrl": "https://purl.stanford.edu/fr182qc5296/iiif/manifest" }, "geometry": { "type": "Polygon", "coordinates": [ [ [ 127.5, 53.3333336 ], [ 130.0, 53.3333336 ], [ 130.0, 55.0000003 ], [ 127.5, 55.0000003 ], [ 127.5, 53.3333336 ] ] ] } },
{ "type": "Feature", "properties": { "Id": 0, "Sheet_ID": "壹壹レ504. ゼーヤ", "label": "壹壹レ504. ゼーヤ", "call_short": "G7400 S500 .J3", "call_num": "G7400 S500 .J3 H-02", "recid": "cd034tr9564", "websiteUrl": "https://purl.stanford.edu/cd034tr9564", "title": "東亞五十万分一圖", "ckey": 9589153, "available": true, "iiifUrl": "https://purl.stanford.edu/cd034tr9564/iiif/manifest" }, "geometry": { "type": "Polygon", "coordinates": [ [ [ 125.0, 53.3333336 ], [ 127.5, 53.3333336 ], [ 127.5, 55.0000003 ], [ 125.0, 55.0000003 ], [ 125.0, 53.3333336 ] ] ] } },
{ "type": "Feature", "properties": { "Id": 0, "Sheet_ID": "壹参レ502. チャリーワヤ", "label": "壹参レ502. チャリーワヤ", "call_short": "G7400 S500 .J3", "call_num": "G7400 S500 .J3 K-02", "recid": "rd017zb4876", "websiteUrl": "https://purl.stanford.edu/rd017zb4876", "title": "東亞五十万分一圖", "ckey": 9589153, "available": true, "iiifUrl": "https://purl.stanford.edu/rd017zb4876/iiif/manifest" }, "geometry": { "type": "Polygon", "coordinates": [ [ [ 117.5, 53.3333336 ], [ 120.0, 53.3333336 ], [ 120.0, 55.0000003 ], [ 117.5, 55.0000003 ], [ 117.5, 53.3333336 ] ] ] } },
{ "type": "Feature", "properties": { "Id": 0, "Sheet_ID": "壹参タ501. スレーテンスク", "label": "壹参タ501. スレーテンスク", "call_short": "G7400 S500 .J3", "call_num": "G7400 S500 .J3 K-03 REV", "recid": "mn773qn2903", "websiteUrl": "https://purl.stanford.edu/mn773qn2903", "title": "東亞五十万分一圖", "ckey": 9589153, "available": true, "iiifUrl": "https://purl.stanford.edu/mn773qn2903/iiif/manifest" }, "geometry": { "type": "Polygon", "coordinates": [ [ [ 117.5, 51.6666669 ], [ 120.0, 51.6666669 ], [ 120.0, 53.3333336 ], [ 117.5, 53.3333336 ], [ 117.5, 51.6666669 ] ] ] } },
{ "type": "Feature", "properties": { "Id": 0, "Sheet_ID": "壹参ヌ503. 廬州", "label": "壹参ヌ503. 廬州", "call_short": "G7400 S500 .J3", "call_num": "G7400 S500 .J3 L-15 ED.2", "recid": "wc274ck3552", "websiteUrl": "https://purl.stanford.edu/wc274ck3552", "title": "東亞五十万分一圖", "ckey": 9589153, "available": true, "iiifUrl": "https://purl.stanford.edu/wc274ck3552/iiif/manifest" }, "geometry": { "type": "Polygon", "coordinates": [ [ [ 115.0, 31.6666666 ], [ 117.5, 31.6666666 ], [ 117.5, 33.3333333 ], [ 115.0, 33.3333333 ], [ 115.0, 31.6666666 ] ] ] } },
{ "type": "Feature", "properties": { "Id": 0, "Sheet_ID": "壹四タ502. アクシャー_1933", "label": "壹四タ502. アクシャー_1933", "call_short": "G7400 S500 .J3", "call_num": "G7400 S500 .J3 M-04", "recid": "mr233qk2205", "websiteUrl": "https://purl.stanford.edu/mr233qk2205", "title": "東亞五十万分一圖", "ckey": 9589153, "available": true, "iiifUrl": "https://purl.stanford.edu/mr233qk2205/iiif/manifest" }, "geometry": { "type": "Polygon", "coordinates": [ [ [ 112.5, 50.0000002 ], [ 115.0, 50.0000002 ], [ 115.0, 51.6666669 ], [ 112.5, 51.6666669 ], [ 112.5, 50.0000002 ] ] ] } },
{ "type": "Feature", "properties": { "Id": 0, "Sheet_ID": "壹四タ502. アクシァ_1943", "label": "壹四タ502. アクシァ_1943", "call_short": "G7400 S500 .J3", "call_num": "G7400 S500 .J3 M-04 ED.2", "recid": "wh108bx4387", "websiteUrl": "https://purl.stanford.edu/wh108bx4387", "title": "東亞五十万分一圖", "ckey": 9589153, "available": true, "iiifUrl": "https://purl.stanford.edu/wh108bx4387/iiif/manifest" }, "geometry": { "type": "Polygon", "coordinates": [ [ [ 112.5, 50.0000002 ], [ 115.0, 50.0000002 ], [ 115.0, 51.6666669 ], [ 112.5, 51.6666669 ], [ 112.5, 50.0000002 ] ] ] } },
{ "type": "Feature", "properties": { "Id": 0, "Sheet_ID": "西9行北6段. 東蘇尼特", "label": "西9行北6段. 東蘇尼特", "call_short": "G7400 S500 .J3", "call_num": "G7400 S500 .J3 M-08 ED.2", "recid": "ds615qw0781", "websiteUrl": "https://purl.stanford.edu/ds615qw0781", "title": "東亞五十万分一圖", "ckey": 9589153, "available": true, "iiifUrl": "https://purl.stanford.edu/ds615qw0781/iiif/manifest" }, "geometry": { "type": "Polygon", "coordinates": [ [ [ 112.5, 43.3333334 ], [ 115.0, 43.3333334 ], [ 115.0, 45.0000001 ], [ 112.5, 45.0000001 ], [ 112.5, 43.3333334 ] ] ] } },
{ "type": "Feature", "properties": { "Id": 0, "Sheet_ID": "壹四カ502. 東蘇尼特", "label": "壹四カ502. 東蘇尼特", "call_short": "G7400 S500 .J3", "call_num": "G7400 S500 .J3 M-08", "recid": "kr419qq3052", "websiteUrl": "https://purl.stanford.edu/kr419qq3052", "title": "東亞五十万分一圖", "ckey": 9589153, "available": true, "iiifUrl": "https://purl.stanford.edu/kr419qq3052/iiif/manifest" }, "geometry": { "type": "Polygon", "coordinates": [ [ [ 112.5, 43.3333334 ], [ 115.0, 43.3333334 ], [ 115.0, 45.0000001 ], [ 112.5, 45.0000001 ], [ 112.5, 43.3333334 ] ] ] } },
{ "type": "Feature", "properties": { "Id": 0, "Sheet_ID": "壹四ワ501. 徳化_1915", "label": "壹四ワ501. 徳化_1915", "call_short": "G7400 S500 .J3", "call_num": "G7400 S500 .J3 M-09 ED.2", "recid": "bw460fr5144", "websiteUrl": "https://purl.stanford.edu/bw460fr5144", "title": "東亞五十万分一圖", "ckey": 9589153, "available": true, "iiifUrl": "https://purl.stanford.edu/bw460fr5144/iiif/manifest" }, "geometry": { "type": "Polygon", "coordinates": [ [ [ 112.5, 41.6666667 ], [ 115.0, 41.6666667 ], [ 115.0, 43.3333334 ], [ 112.5, 43.3333334 ], [ 112.5, 41.6666667 ] ] ] } },
{ "type": "Feature", "properties": { "Id": 0, "Sheet_ID": "壹四ワ501. 徳化_1933", "label": "壹四ワ501. 徳化_1933", "call_short": "G7400 S500 .J3", "call_num": "G7400 S500 .J3 M-09", "recid": "tf686tm2029", "websiteUrl": "https://purl.stanford.edu/tf686tm2029", "title": "東亞五十万分一圖", "ckey": 9589153, "available": true, "iiifUrl": "https://purl.stanford.edu/tf686tm2029/iiif/manifest" }, "geometry": { "type": "Polygon", "coordinates": [ [ [ 112.5, 41.6666667 ], [ 115.0, 41.6666667 ], [ 115.0, 43.3333334 ], [ 112.5, 43.3333334 ], [ 112.5, 41.6666667 ] ] ] } },
{ "type": "Feature", "properties": { "Id": 0, "Sheet_ID": "壹六タ502. スリュヂャンカ", "label": "壹六タ502. スリュヂャンカ", "call_short": "G7400 S500 .J3", "call_num": "G7400 S500 .J3 Q-04", "recid": "tm909jg6978", "websiteUrl": "https://purl.stanford.edu/tm909jg6978", "title": "東亞五十万分一圖", "ckey": 9589153, "available": true, "iiifUrl": "https://purl.stanford.edu/tm909jg6978/iiif/manifest" }, "geometry": { "type": "Polygon", "coordinates": [ [ [ 102.5, 50.0000002 ], [ 105.0, 50.0000002 ], [ 105.0, 51.6666669 ], [ 102.5, 51.6666669 ], [ 102.5, 50.0000002 ] ] ] } }
]
}
