{"type":"FeatureCollection","features":[{"type":"Feature","properties":{"Id":0,"Sheet_ID":"8. リンガエン","label":"8. リンガエン","call_short":"G8062 .L8 S50 .J3","call_num":"G8062 .L8 S50 .J3 SHEET 8","recid":"kj268xn6268","websiteUrl":"https://purl.stanford.edu/kj268xn6268","title":"五万分一呂宋島圖","ckey":9635529,"web_map":"","available":"true","iiifUrl":"https://purl.stanford.edu/kj268xn6268/iiif/manifest"},"geometry":{"bbox":[120.03333299999996,15.883333000000109,120.49444400000016,16.191864857142832],"type":"Polygon","coordinates":[[[120.03333299999996,15.883333000000109],[120.03333299999996,16.191864857142832],[120.49444400000016,16.191864857142832],[120.49444400000016,15.883333000000109],[120.03333299999996,15.883333000000109]]]}},{"type":"Feature","properties":{"Id":0,"Sheet_ID":"7. アリンガイ","label":"7. アリンガイ","call_short":"","call_num":"","recid":"","websiteUrl":"","title":"","ckey":0,"web_map":"","available":"false","iiifUrl":""},"geometry":{"bbox":[120.03333299999996,16.191864857142832,120.49444400000029,16.500396714286126],"type":"Polygon","coordinates":[[[120.03333299999996,16.191864857142832],[120.03333299999996,16.500396714286126],[120.49444400000029,16.500396714285728],[120.49444400000029,16.191864857142832],[120.03333299999996,16.191864857142832]]]}},{"type":"Feature","properties":{"Id":0,"Sheet_ID":"6. サン・フェルナンド","label":"6. サン・フェルナンド","call_short":"","call_num":"","recid":"","websiteUrl":"","title":"","ckey":0,"web_map":"","available":"false","iiifUrl":""},"geometry":{"bbox":[120.03333299999996,16.500396714285728,120.49444400000016,16.80892857142868],"type":"Polygon","coordinates":[[[120.03333299999996,16.500396714285728],[120.03333299999996,16.80892857142868],[120.49444400000016,16.80892857142868],[120.49444400000016,16.500396714285728],[120.03333299999996,16.500396714285728]]]}},{"type":"Feature","properties":{"Id":0,"Sheet_ID":"5. バンガール","label":"5. バンガール","call_short":"","call_num":"","recid":"","websiteUrl":"","title":"","ckey":0,"web_map":"","available":"false","iiifUrl":""},"geometry":{"bbox":[120.18333300000006,16.80892857142868,120.61666700000013,17.117460428571405],"type":"Polygon","coordinates":[[[120.18333300000006,16.80892857142868],[120.18333300000006,17.117460428571405],[120.61666700000013,17.117460428571405],[120.61666700000013,16.80892857142868],[120.18333300000006,16.80892857142868]]]}},{"type":"Feature","properties":{"Id":0,"Sheet_ID":"4. カンドン","label":"4. カンドン","call_short":"","call_num":"","recid":"","websiteUrl":"","title":"","ckey":0,"web_map":"","available":"false","iiifUrl":""},"geometry":{"bbox":[120.18333300000006,17.117460428571405,120.61666700000013,17.425992285714358],"type":"Polygon","coordinates":[[[120.18333300000006,17.117460428571405],[120.18333300000006,17.425992285714358],[120.61666700000013,17.425992285714358],[120.61666700000013,17.117460428571405],[120.18333300000006,17.117460428571405]]]}},{"type":"Feature","properties":{"Id":0,"Sheet_ID":"3. ビガン","label":"3. ビガン","call_short":"G8062 .L8 S50 .J3","call_num":"G8062 .L8 S50 .J3 SHEET 3","recid":"gs002rv3882","websiteUrl":"https://purl.stanford.edu/gs002rv3882","title":"五万分一呂宋島圖","ckey":9635529,"web_map":"","available":"true","iiifUrl":"https://purl.stanford.edu/gs002rv3882/iiif/manifest"},"geometry":{"bbox":[120.266667,17.425992285714287,120.7,17.734524142857143],"type":"Polygon","coordinates":[[[120.266667,17.425992285714287],[120.266667,17.734524142857143],[120.7,17.734524142857143],[120.7,17.425992285714287],[120.266667,17.425992285714287]]]}},{"type":"Feature","properties":{"Id":0,"Sheet_ID":"2. クリマオ港","label":"2. クリマオ港","call_short":"G8062 .L8 S50 .J3","call_num":"G8062 .L8 S50 .J3 SHEET 2","recid":"ps367yn5404","websiteUrl":"https://purl.stanford.edu/ps367yn5404","title":"五万分一呂宋島圖","ckey":9635529,"web_map":"","available":"true","iiifUrl":"https://purl.stanford.edu/ps367yn5404/iiif/manifest"},"geometry":{"bbox":[120.26666699999997,17.734524142857083,120.70000000000014,18.043056000000036],"type":"Polygon","coordinates":[[[120.26666699999997,17.734524142857083],[120.26666699999997,18.043056000000036],[120.70000000000014,18.043056000000036],[120.70000000000014,17.734524142857083],[120.26666699999997,17.734524142857083]]]}},{"type":"Feature","properties":{"Id":0,"Sheet_ID":"1. ラオアッグ","label":"1. ラオアッグ","call_short":"","call_num":"","recid":"","websiteUrl":"","title":"","ckey":0,"web_map":"","available":"false","iiifUrl":""},"geometry":{"bbox":[120.26666699999997,18.043056000000036,120.70000000000014,18.35000000000008],"type":"Polygon","coordinates":[[[120.26666699999997,18.043056000000036],[120.26666699999997,18.35000000000008],[120.70000000000014,18.35000000000008],[120.70000000000014,18.043056000000036],[120.26666699999997,18.043056000000036]]]}},{"type":"Feature","properties":{"Id":0,"Sheet_ID":"12. スビック","label":"12. スビック","call_short":"","call_num":"","recid":"","websiteUrl":"","title":"","ckey":0,"web_map":"","available":"false","iiifUrl":""},"geometry":{"bbox":[119.92499999999994,14.700000000000104,120.24166700000013,15.150000000000091],"type":"Polygon","coordinates":[[[119.92499999999994,14.700000000000104],[119.92499999999994,15.150000000000091],[120.24166700000013,15.150000000000091],[120.24166700000013,14.700000000000104],[119.92499999999994,14.700000000000104]]]}},{"type":"Feature","properties":{"Id":0,"Sheet_ID":"11. イバ","label":"11. イバ","call_short":"G8062 .L8 S50 .J3","call_num":"G8062 .L8 S50 .J3 SHEET 11","recid":"pp221kq2864","websiteUrl":"https://purl.stanford.edu/pp221kq2864","title":"五万分一呂宋島圖","ckey":9635529,"web_map":"","available":"true","iiifUrl":"https://purl.stanford.edu/pp221kq2864/iiif/manifest"},"geometry":{"bbox":[119.76666700000011,15.150000000000091,120.08194400000014,15.600000000000136],"type":"Polygon","coordinates":[[[119.76666700000011,15.150000000000091],[119.76666700000011,15.600000000000136],[120.08194400000014,15.600000000000136],[120.08194400000014,15.150000000000091],[119.76666700000011,15.150000000000091]]]}},{"type":"Feature","properties":{"Id":0,"Sheet_ID":"10. ダルソ","label":"10. ダルソ","call_short":"G8062 .L8 S50 .J3","call_num":"G8062 .L8 S50 .J3 SHEET 10","recid":"dk485cn5955","websiteUrl":"https://purl.stanford.edu/dk485cn5955","title":"五万分一呂宋島圖","ckey":9635529,"web_map":"","available":"true","iiifUrl":"https://purl.stanford.edu/dk485cn5955/iiif/manifest"},"geometry":{"bbox":[119.71666700000002,15.6,120.03333300000001,16.05],"type":"Polygon","coordinates":[[[119.71666700000002,15.6],[119.71666700000002,16.05],[120.03333300000001,16.05],[120.03333300000001,15.6],[119.71666700000002,15.6]]]}},{"type":"Feature","properties":{"Id":0,"Sheet_ID":"9. ボリナオ","label":"9. ボリナオ","call_short":"","call_num":"","recid":"","websiteUrl":"","title":"","ckey":0,"web_map":"","available":"false","iiifUrl":""},"geometry":{"bbox":[119.71666700000002,16.05,120.03333300000001,16.5],"type":"Polygon","coordinates":[[[119.71666700000002,16.05],[119.71666700000002,16.5],[120.03333300000001,16.5],[120.03333300000001,16.05],[119.71666700000002,16.05]]]}},{"type":"Feature","properties":{"Id":0,"Sheet_ID":"13. マリベレス","label":"13. マリベレス","call_short":"","call_num":"","recid":"","websiteUrl":"","title":"","ckey":0,"web_map":"","available":"false","iiifUrl":""},"geometry":{"bbox":[120.08194400000014,14.400000000000091,120.51666699999998,14.700000000000104],"type":"Polygon","coordinates":[[[120.08194400000014,14.400000000000091],[120.08194400000014,14.700000000000104],[120.51666699999998,14.700000000000104],[120.51666699999998,14.400000000000091],[120.08194400000014,14.400000000000091]]]}}],"name":"index_9635529"}
