{"type":"FeatureCollection","features":[{"type":"Feature","properties":{"Id":0,"Sheet_ID":"SHEET 10","label":"SHEET 10","call_short":"G7880 S250 .J3","call_num":"G7880 S250 .J3 SHEET 10","recid":"vc806gj6648","websiteUrl":"https://purl.stanford.edu/vc806gj6648","title":"新疆省/甘肅省 二十五万分一圖","ckey":9635534,"web_map":"","available":"true","iiiUrl":"https://purl.stanford.edu/vc806gj6648/iiif/manifest"},"geometry":{"bbox":[77.75000000000006,34.500000000000114,79.99999999999994,36],"type":"Polygon","coordinates":[[[77.75000000000006,34.500000000000114],[77.75000000000006,36],[79.99999999999994,36],[79.99999999999994,34.500000000000114],[77.75000000000006,34.500000000000114]]]}},{"type":"Feature","properties":{"Id":0,"Sheet_ID":"SHEET 15","label":"SHEET 15","call_short":"G7880 S250 .J3","call_num":"G7880 S250 .J3 SHEET 15","recid":"sb362df0011","websiteUrl":"https://purl.stanford.edu/sb362df0011","title":"新疆省/甘肅省 二十五万分一圖","ckey":9635534,"web_map":"","available":"true","iiiUrl":"https://purl.stanford.edu/sb362df0011/iiif/manifest"},"geometry":{"bbox":[80,34,82,36],"type":"Polygon","coordinates":[[[80,34],[80,36],[82,36],[82,34],[80,34]]]}},{"type":"Feature","properties":{"Id":0,"Sheet_ID":"SHEET 3","label":"SHEET 3","call_short":"G7880 S250 .J3","call_num":"G7880 S250 .J3 SHEET 3","recid":"yg459sx1214","websiteUrl":"https://purl.stanford.edu/yg459sx1214","title":"新疆省/甘肅省 二十五万分一圖","ckey":9635534,"web_map":"","available":"true","iiiUrl":"https://purl.stanford.edu/yg459sx1214/iiif/manifest"},"geometry":{"bbox":[74,36,76,38],"type":"Polygon","coordinates":[[[74,36],[74,38],[76,38],[76,36],[74,36]]]}},{"type":"Feature","properties":{"Id":0,"Sheet_ID":"SHEET 6","label":"SHEET 6","call_short":"G7880 S250 .J3","call_num":"G7880 S250 .J3 SHEET 6","recid":"qv900dg9538","websiteUrl":"https://purl.stanford.edu/qv900dg9538","title":"新疆省/甘肅省 二十五万分一圖","ckey":9635534,"web_map":"","available":"true","iiiUrl":"https://purl.stanford.edu/qv900dg9538/iiif/manifest"},"geometry":{"bbox":[76,36,78,38],"type":"Polygon","coordinates":[[[76,36],[76,38],[78,38],[78,36],[76,36]]]}},{"type":"Feature","properties":{"Id":0,"Sheet_ID":"SHEET 9","label":"SHEET 9","call_short":"G7880 S250 .J3","call_num":"G7880 S250 .J3 SHEET 9","recid":"xc556xg9117","websiteUrl":"https://purl.stanford.edu/xc556xg9117","title":"新疆省/甘肅省 二十五万分一圖","ckey":9635534,"web_map":"","available":"true","iiiUrl":"https://purl.stanford.edu/xc556xg9117/iiif/manifest"},"geometry":{"bbox":[78,36,80,38],"type":"Polygon","coordinates":[[[78,36],[78,38],[80,38],[80,36],[78,36]]]}},{"type":"Feature","properties":{"Id":0,"Sheet_ID":"SHEET 14","label":"SHEET 14","call_short":"G7880 S250 .J3","call_num":"G7880 S250 .J3 SHEET 14","recid":"vj918jn7547","websiteUrl":"https://purl.stanford.edu/vj918jn7547","title":"新疆省/甘肅省 二十五万分一圖","ckey":9635534,"web_map":"","available":"true","iiiUrl":"https://purl.stanford.edu/vj918jn7547/iiif/manifest"},"geometry":{"bbox":[80,36,82,38],"type":"Polygon","coordinates":[[[80,36],[80,38],[82,38],[82,36],[80,36]]]}},{"type":"Feature","properties":{"Id":0,"Sheet_ID":"SHEET 19","label":"SHEET 19","call_short":"G7880 S250 .J3","call_num":"G7880 S250 .J3 SHEET 19","recid":"dw332vw4287","websiteUrl":"https://purl.stanford.edu/dw332vw4287","title":"新疆省/甘肅省 二十五万分一圖","ckey":9635534,"web_map":"","available":"true","iiiUrl":"https://purl.stanford.edu/dw332vw4287/iiif/manifest"},"geometry":{"bbox":[82,36,84,38],"type":"Polygon","coordinates":[[[82,36],[82,38],[84,38],[84,36],[82,36]]]}},{"type":"Feature","properties":{"Id":0,"Sheet_ID":"SHEET 23","label":"SHEET 23","call_short":"G7880 S250 .J3","call_num":"G7880 S250 .J3 SHEET 23","recid":"dc380mv9993","websiteUrl":"https://purl.stanford.edu/dc380mv9993","title":"新疆省/甘肅省 二十五万分一圖","ckey":9635534,"web_map":"","available":"true","iiiUrl":"https://purl.stanford.edu/dc380mv9993/iiif/manifest"},"geometry":{"bbox":[84,36,86,38],"type":"Polygon","coordinates":[[[84,36],[84,38],[86,38],[86,36],[84,36]]]}},{"type":"Feature","properties":{"Id":0,"Sheet_ID":"SHEET 27","label":"SHEET 27","call_short":"G7880 S250 .J3","call_num":"G7880 S250 .J3 SHEET 27","recid":"jb541rg7414","websiteUrl":"https://purl.stanford.edu/jb541rg7414","title":"新疆省/甘肅省 二十五万分一圖","ckey":9635534,"web_map":"","available":"true","iiiUrl":"https://purl.stanford.edu/jb541rg7414/iiif/manifest"},"geometry":{"bbox":[86,36,88,38],"type":"Polygon","coordinates":[[[86,36],[86,38],[88,38],[88,36],[86,36]]]}},{"type":"Feature","properties":{"Id":0,"Sheet_ID":"SHEET 46 SOUTH","label":"SHEET 46 SOUTH","call_short":"G7880 S250 .J3","call_num":"G7880 S250 .J3 SHEET 46 SOUTH","recid":"td978cw3395","websiteUrl":"https://purl.stanford.edu/td978cw3395","title":"新疆省/甘肅省 二十五万分一圖","ckey":9635534,"web_map":"","available":"true","iiiUrl":"https://purl.stanford.edu/td978cw3395/iiif/manifest"},"geometry":{"bbox":[100.00000000000007,37.50000000000006,102.00000000000006,38.75],"type":"Polygon","coordinates":[[[100.00000000000007,37.50000000000006],[100.00000000000007,38.75],[102.00000000000006,38.75],[102.00000000000006,37.50000000000006],[100.00000000000007,37.50000000000006]]]}},{"type":"Feature","properties":{"Id":0,"Sheet_ID":"SHEET 2","label":"SHEET 2","call_short":"","call_num":"","recid":"","websiteUrl":"","title":"","ckey":0,"web_map":"","available":"false","iiiUrl":""},"geometry":{"bbox":[74,38,76,40],"type":"Polygon","coordinates":[[[74,38],[74,40],[76,40],[76,38],[74,38]]]}},{"type":"Feature","properties":{"Id":0,"Sheet_ID":"SHEET 5","label":"SHEET 5","call_short":"G7880 S250 .J3","call_num":"G7880 S250 .J3 SHEET 5","recid":"vr356dv5944","websiteUrl":"https://purl.stanford.edu/vr356dv5944","title":"新疆省/甘肅省 二十五万分一圖","ckey":9635534,"web_map":"","available":"true","iiiUrl":"https://purl.stanford.edu/vr356dv5944/iiif/manifest"},"geometry":{"bbox":[76,38,78,40],"type":"Polygon","coordinates":[[[76,38],[76,40],[78,40],[78,38],[76,38]]]}},{"type":"Feature","properties":{"Id":0,"Sheet_ID":"SHEET 8","label":"SHEET 8","call_short":"G7880 S250 .J3","call_num":"G7880 S250 .J3 SHEET 8","recid":"vw399zr6643","websiteUrl":"https://purl.stanford.edu/vw399zr6643","title":"新疆省/甘肅省 二十五万分一圖","ckey":9635534,"web_map":"","available":"true","iiiUrl":"https://purl.stanford.edu/vw399zr6643/iiif/manifest"},"geometry":{"bbox":[78,38,80,40],"type":"Polygon","coordinates":[[[78,38],[78,40],[80,40],[80,38],[78,38]]]}},{"type":"Feature","properties":{"Id":0,"Sheet_ID":"SHEET 13","label":"SHEET 13","call_short":"G7880 S250 .J3","call_num":"G7880 S250 .J3 SHEET 13","recid":"xr423mm2365","websiteUrl":"https://purl.stanford.edu/xr423mm2365","title":"新疆省/甘肅省 二十五万分一圖","ckey":9635534,"web_map":"","available":"true","iiiUrl":"https://purl.stanford.edu/xr423mm2365/iiif/manifest"},"geometry":{"bbox":[80,38,82,40],"type":"Polygon","coordinates":[[[80,38],[80,40],[82,40],[82,38],[80,38]]]}},{"type":"Feature","properties":{"Id":0,"Sheet_ID":"SHEET 18","label":"SHEET 18","call_short":"G7880 S250 .J3","call_num":"G7880 S250 .J3 SHEET 18","recid":"hx173ys8386","websiteUrl":"https://purl.stanford.edu/hx173ys8386","title":"新疆省/甘肅省 二十五万分一圖","ckey":9635534,"web_map":"","available":"true","iiiUrl":"https://purl.stanford.edu/hx173ys8386/iiif/manifest"},"geometry":{"bbox":[82,38,84,40],"type":"Polygon","coordinates":[[[82,38],[82,40],[84,40],[84,38],[82,38]]]}},{"type":"Feature","properties":{"Id":0,"Sheet_ID":"SHEET 22","label":"SHEET 22","call_short":"G7880 S250 .J3","call_num":"G7880 S250 .J3 SHEET 22","recid":"gq409qg1293","websiteUrl":"https://purl.stanford.edu/gq409qg1293","title":"新疆省/甘肅省 二十五万分一圖","ckey":9635534,"web_map":"","available":"true","iiiUrl":"https://purl.stanford.edu/gq409qg1293/iiif/manifest"},"geometry":{"bbox":[84,38,86,40],"type":"Polygon","coordinates":[[[84,38],[84,40],[86,40],[86,38],[84,38]]]}},{"type":"Feature","properties":{"Id":0,"Sheet_ID":"SHEET 26","label":"SHEET 26","call_short":"G7880 S250 .J3","call_num":"G7880 S250 .J3 SHEET 26","recid":"kf926jk1007","websiteUrl":"https://purl.stanford.edu/kf926jk1007","title":"新疆省/甘肅省 二十五万分一圖","ckey":9635534,"web_map":"","available":"true","iiiUrl":"https://purl.stanford.edu/kf926jk1007/iiif/manifest"},"geometry":{"bbox":[86,38,88,40],"type":"Polygon","coordinates":[[[86,38],[86,40],[88,40],[88,38],[86,38]]]}},{"type":"Feature","properties":{"Id":0,"Sheet_ID":"SHEET 30","label":"SHEET 30","call_short":"G7880 S250 .J3","call_num":"G7880 S250 .J3 SHEET 30","recid":"pj989wz3335","websiteUrl":"https://purl.stanford.edu/pj989wz3335","title":"新疆省/甘肅省 二十五万分一圖","ckey":9635534,"web_map":"","available":"true","iiiUrl":"https://purl.stanford.edu/pj989wz3335/iiif/manifest"},"geometry":{"bbox":[88,38,90,40],"type":"Polygon","coordinates":[[[88,38],[88,40],[90,40],[90,38],[88,38]]]}},{"type":"Feature","properties":{"Id":0,"Sheet_ID":"SHEET 33","label":"SHEET 33","call_short":"G7880 S250 .J3","call_num":"G7880 S250 .J3 SHEET 33","recid":"gp255bq1005","websiteUrl":"https://purl.stanford.edu/gp255bq1005","title":"新疆省/甘肅省 二十五万分一圖","ckey":9635534,"web_map":"","available":"true","iiiUrl":"https://purl.stanford.edu/gp255bq1005/iiif/manifest"},"geometry":{"bbox":[90,38,92,40],"type":"Polygon","coordinates":[[[90,38],[90,40],[92,40],[92,38],[90,38]]]}},{"type":"Feature","properties":{"Id":0,"Sheet_ID":"SHEET 36","label":"SHEET 36","call_short":"G7880 S250 .J3","call_num":"G7880 S250 .J3 SHEET 36","recid":"jj806cy1888","websiteUrl":"https://purl.stanford.edu/jj806cy1888","title":"新疆省/甘肅省 二十五万分一圖","ckey":9635534,"web_map":"","available":"true","iiiUrl":"https://purl.stanford.edu/jj806cy1888/iiif/manifest"},"geometry":{"bbox":[92,38,94,40],"type":"Polygon","coordinates":[[[92,38],[92,40],[94,40],[94,38],[92,38]]]}},{"type":"Feature","properties":{"Id":0,"Sheet_ID":"SHEET 39","label":"SHEET 39","call_short":"G7880 S250 .J3","call_num":"G7880 S250 .J3 SHEET 39","recid":"zd733fc4807","websiteUrl":"https://purl.stanford.edu/zd733fc4807","title":"新疆省/甘肅省 二十五万分一圖","ckey":9635534,"web_map":"","available":"true","iiiUrl":"https://purl.stanford.edu/zd733fc4807/iiif/manifest"},"geometry":{"bbox":[94,38,96.00000000000001,40],"type":"Polygon","coordinates":[[[94,38],[94,40],[96.00000000000001,40],[96.00000000000001,38],[94,38]]]}},{"type":"Feature","properties":{"Id":0,"Sheet_ID":"SHEET 41","label":"SHEET 41","call_short":"G7880 S250 .J3","call_num":"G7880 S250 .J3 SHEET 41","recid":"wb298tx3188","websiteUrl":"https://purl.stanford.edu/wb298tx3188","title":"新疆省/甘肅省 二十五万分一圖","ckey":9635534,"web_map":"","available":"true","iiiUrl":"https://purl.stanford.edu/wb298tx3188/iiif/manifest"},"geometry":{"bbox":[96.00000000000001,38,98,40],"type":"Polygon","coordinates":[[[96.00000000000001,38],[96.00000000000001,40],[98,40],[98,38],[96.00000000000001,38]]]}},{"type":"Feature","properties":{"Id":0,"Sheet_ID":"SHEET 43","label":"SHEET 43","call_short":"","call_num":"","recid":"","websiteUrl":"","title":"","ckey":0,"web_map":"","available":"false","iiiUrl":""},"geometry":{"bbox":[98,38,100,40],"type":"Polygon","coordinates":[[[98,38],[98,40],[100,40],[100,38],[98,38]]]}},{"type":"Feature","properties":{"Id":0,"Sheet_ID":"SHEET 46 NORTH","label":"SHEET 46 NORTH","call_short":"G7880 S250 .J3","call_num":"G7880 S250 .J3 SHEET 46 NORTH","recid":"rb393dm1572","websiteUrl":"https://purl.stanford.edu/rb393dm1572","title":"新疆省/甘肅省 二十五万分一圖","ckey":9635534,"web_map":"","available":"true","iiiUrl":"https://purl.stanford.edu/rb393dm1572/iiif/manifest"},"geometry":{"bbox":[100.00000000000007,38.75,102.00000000000006,40.000000000000114],"type":"Polygon","coordinates":[[[100.00000000000007,38.75],[100.00000000000007,40.000000000000114],[102.00000000000006,40.000000000000114],[102.00000000000006,38.75],[100.00000000000007,38.75]]]}},{"type":"Feature","properties":{"Id":0,"Sheet_ID":"SHEET 1","label":"SHEET 1","call_short":"G7880 S250 .J3","call_num":"G7880 S250 .J3 SHEET 1","recid":"fb368qr6936","websiteUrl":"https://purl.stanford.edu/fb368qr6936","title":"新疆省/甘肅省 二十五万分一圖","ckey":9635534,"web_map":"","available":"true","iiiUrl":"https://purl.stanford.edu/fb368qr6936/iiif/manifest"},"geometry":{"bbox":[74,40,76,42],"type":"Polygon","coordinates":[[[74,40],[74,42],[76,42],[76,40],[74,40]]]}},{"type":"Feature","properties":{"Id":0,"Sheet_ID":"SHEET 4","label":"SHEET 4","call_short":"G7880 S250 .J3","call_num":"G7880 S250 .J3 SHEET 4","recid":"wg720fj4076","websiteUrl":"https://purl.stanford.edu/wg720fj4076","title":"新疆省/甘肅省 二十五万分一圖","ckey":9635534,"web_map":"","available":"true","iiiUrl":"https://purl.stanford.edu/wg720fj4076/iiif/manifest"},"geometry":{"bbox":[76,40,78,42],"type":"Polygon","coordinates":[[[76,40],[76,42],[78,42],[78,40],[76,40]]]}},{"type":"Feature","properties":{"Id":0,"Sheet_ID":"SHEET 7","label":"SHEET 7","call_short":"G7880 S250 .J3","call_num":"G7880 S250 .J3 SHEET 7","recid":"xt184fy5310","websiteUrl":"https://purl.stanford.edu/xt184fy5310","title":"新疆省/甘肅省 二十五万分一圖","ckey":9635534,"web_map":"","available":"true","iiiUrl":"https://purl.stanford.edu/xt184fy5310/iiif/manifest"},"geometry":{"bbox":[78,40,80,42],"type":"Polygon","coordinates":[[[78,40],[78,42],[80,42],[80,40],[78,40]]]}},{"type":"Feature","properties":{"Id":0,"Sheet_ID":"SHEET 12","label":"SHEET 12","call_short":"G7880 S250 .J3","call_num":"G7880 S250 .J3 SHEET 12","recid":"cb043xr6746","websiteUrl":"https://purl.stanford.edu/cb043xr6746","title":"新疆省/甘肅省 二十五万分一圖","ckey":9635534,"web_map":"","available":"true","iiiUrl":"https://purl.stanford.edu/cb043xr6746/iiif/manifest"},"geometry":{"bbox":[80,40,82,42],"type":"Polygon","coordinates":[[[80,40],[80,42],[82,42],[82,40],[80,40]]]}},{"type":"Feature","properties":{"Id":0,"Sheet_ID":"SHEET 17","label":"SHEET 17","call_short":"","call_num":"","recid":"","websiteUrl":"","title":"","ckey":0,"web_map":"","available":"false","iiiUrl":""},"geometry":{"bbox":[82,40,84,42],"type":"Polygon","coordinates":[[[82,40],[82,42],[84,42],[84,40],[82,40]]]}},{"type":"Feature","properties":{"Id":0,"Sheet_ID":"SHEET 21","label":"SHEET 21","call_short":"G7880 S250 .J3","call_num":"G7880 S250 .J3 SHEET 21","recid":"mt624xt1932","websiteUrl":"https://purl.stanford.edu/mt624xt1932","title":"新疆省/甘肅省 二十五万分一圖","ckey":9635534,"web_map":"","available":"true","iiiUrl":"https://purl.stanford.edu/mt624xt1932/iiif/manifest"},"geometry":{"bbox":[84,40,86,42],"type":"Polygon","coordinates":[[[84,40],[84,42],[86,42],[86,40],[84,40]]]}},{"type":"Feature","properties":{"Id":0,"Sheet_ID":"SHEET 25","label":"SHEET 25","call_short":"G7880 S250 .J3","call_num":"G7880 S250 .J3 SHEET 25","recid":"ns217vk9614","websiteUrl":"https://purl.stanford.edu/ns217vk9614","title":"新疆省/甘肅省 二十五万分一圖","ckey":9635534,"web_map":"","available":"true","iiiUrl":"https://purl.stanford.edu/ns217vk9614/iiif/manifest"},"geometry":{"bbox":[86,40,88,42],"type":"Polygon","coordinates":[[[86,40],[86,42],[88,42],[88,40],[86,40]]]}},{"type":"Feature","properties":{"Id":0,"Sheet_ID":"SHEET 29","label":"SHEET 29","call_short":"G7880 S250 .J3","call_num":"G7880 S250 .J3 SHEET 29","recid":"jj247bf6062","websiteUrl":"https://purl.stanford.edu/jj247bf6062","title":"新疆省/甘肅省 二十五万分一圖","ckey":9635534,"web_map":"","available":"true","iiiUrl":"https://purl.stanford.edu/jj247bf6062/iiif/manifest"},"geometry":{"bbox":[88,40,90,42],"type":"Polygon","coordinates":[[[88,40],[88,42],[90,42],[90,40],[88,40]]]}},{"type":"Feature","properties":{"Id":0,"Sheet_ID":"SHEET 32","label":"SHEET 32","call_short":"G7880 S250 .J3","call_num":"G7880 S250 .J3 SHEET 32","recid":"sg142fs8829","websiteUrl":"https://purl.stanford.edu/sg142fs8829","title":"新疆省/甘肅省 二十五万分一圖","ckey":9635534,"web_map":"","available":"true","iiiUrl":"https://purl.stanford.edu/sg142fs8829/iiif/manifest"},"geometry":{"bbox":[90,40,92,42],"type":"Polygon","coordinates":[[[90,40],[90,42],[92,42],[92,40],[90,40]]]}},{"type":"Feature","properties":{"Id":0,"Sheet_ID":"SHEET 35","label":"SHEET 35","call_short":"G7880 S250 .J3","call_num":"G7880 S250 .J3 SHEET 35","recid":"wr080wx8001","websiteUrl":"https://purl.stanford.edu/wr080wx8001","title":"新疆省/甘肅省 二十五万分一圖","ckey":9635534,"web_map":"","available":"true","iiiUrl":"https://purl.stanford.edu/wr080wx8001/iiif/manifest"},"geometry":{"bbox":[92,40,94,42],"type":"Polygon","coordinates":[[[92,40],[92,42],[94,42],[94,40],[92,40]]]}},{"type":"Feature","properties":{"Id":0,"Sheet_ID":"SHEET 38","label":"SHEET 38","call_short":"G7880 S250 .J3","call_num":"G7880 S250 .J3 SHEET 38","recid":"dt468yp4567","websiteUrl":"https://purl.stanford.edu/dt468yp4567","title":"新疆省/甘肅省 二十五万分一圖","ckey":9635534,"web_map":"","available":"true","iiiUrl":"https://purl.stanford.edu/dt468yp4567/iiif/manifest"},"geometry":{"bbox":[94,40,96.00000000000001,42],"type":"Polygon","coordinates":[[[94,40],[94,42],[96.00000000000001,42],[96.00000000000001,40],[94,40]]]}},{"type":"Feature","properties":{"Id":0,"Sheet_ID":"SHEET 40 SOUTH","label":"SHEET 40 SOUTH","call_short":"G7880 S250 .J3","call_num":"G7880 S250 .J3 SHEET 40 SOUTH","recid":"wz538nz2242","websiteUrl":"https://purl.stanford.edu/wz538nz2242","title":"新疆省/甘肅省 二十五万分一圖","ckey":9635534,"web_map":"","available":"true","iiiUrl":"https://purl.stanford.edu/wz538nz2242/iiif/manifest"},"geometry":{"bbox":[96.00000000000001,40.000000000000114,98.00000000000011,41.25000000000006],"type":"Polygon","coordinates":[[[96.00000000000001,40.000000000000114],[96.00000000000001,41.25000000000006],[98.00000000000011,41.25000000000006],[98.00000000000011,40.000000000000114],[96.00000000000001,40.000000000000114]]]}},{"type":"Feature","properties":{"Id":0,"Sheet_ID":"SHEET 42","label":"SHEET 42","call_short":"G7880 S250 .J3","call_num":"G7880 S250 .J3 SHEET 42","recid":"rg841zb8166","websiteUrl":"https://purl.stanford.edu/rg841zb8166","title":"新疆省/甘肅省 二十五万分一圖","ckey":9635534,"web_map":"","available":"true","iiiUrl":"https://purl.stanford.edu/rg841zb8166/iiif/manifest"},"geometry":{"bbox":[98,40,100,42],"type":"Polygon","coordinates":[[[98,40],[98,42],[100,42],[100,40],[98,40]]]}},{"type":"Feature","properties":{"Id":0,"Sheet_ID":"SHEET 45","label":"SHEET 45","call_short":"G7880 S250 .J3","call_num":"G7880 S250 .J3 SHEET 45","recid":"cn402gh6081","websiteUrl":"https://purl.stanford.edu/cn402gh6081","title":"新疆省/甘肅省 二十五万分一圖","ckey":9635534,"web_map":"","available":"true","iiiUrl":"https://purl.stanford.edu/cn402gh6081/iiif/manifest"},"geometry":{"bbox":[100,40,102,42],"type":"Polygon","coordinates":[[[100,40],[100,42],[102,42],[102,40],[100,40]]]}},{"type":"Feature","properties":{"Id":0,"Sheet_ID":"SHEET 47","label":"SHEET 47","call_short":"G7880 S250 .J3","call_num":"G7880 S250 .J3 SHEET 47","recid":"gh814xy5257","websiteUrl":"https://purl.stanford.edu/gh814xy5257","title":"新疆省/甘肅省 二十五万分一圖","ckey":9635534,"web_map":"","available":"true","iiiUrl":"https://purl.stanford.edu/gh814xy5257/iiif/manifest"},"geometry":{"bbox":[102.00000000000006,41.00000000000006,104,43.000000000000064],"type":"Polygon","coordinates":[[[102.00000000000006,41.00000000000006],[102.00000000000006,43.000000000000064],[104,43.000000000000064],[104,41.00000000000006],[102.00000000000006,41.00000000000006]]]}},{"type":"Feature","properties":{"Id":0,"Sheet_ID":"SHEET 11","label":"SHEET 11","call_short":"G7880 S250 .J3","call_num":"G7880 S250 .J3 SHEET 11","recid":"cq799nk8534","websiteUrl":"https://purl.stanford.edu/cq799nk8534","title":"新疆省/甘肅省 二十五万分一圖","ckey":9635534,"web_map":"","available":"true","iiiUrl":"https://purl.stanford.edu/cq799nk8534/iiif/manifest"},"geometry":{"bbox":[80,42,82,44],"type":"Polygon","coordinates":[[[80,42],[80,44],[82,44],[82,42],[80,42]]]}},{"type":"Feature","properties":{"Id":0,"Sheet_ID":"SHEET 16","label":"SHEET 16","call_short":"G7880 S250 .J3","call_num":"G7880 S250 .J3 SHEET 16","recid":"xg923vq4103","websiteUrl":"https://purl.stanford.edu/xg923vq4103","title":"新疆省/甘肅省 二十五万分一圖","ckey":9635534,"web_map":"","available":"true","iiiUrl":"https://purl.stanford.edu/xg923vq4103/iiif/manifest"},"geometry":{"bbox":[82,42,84,44],"type":"Polygon","coordinates":[[[82,42],[82,44],[84,44],[84,42],[82,42]]]}},{"type":"Feature","properties":{"Id":0,"Sheet_ID":"SHEET 20","label":"SHEET 20","call_short":"G7880 S250 .J3","call_num":"G7880 S250 .J3 SHEET 20","recid":"jb302kf8532","websiteUrl":"https://purl.stanford.edu/jb302kf8532","title":"新疆省/甘肅省 二十五万分一圖","ckey":9635534,"web_map":"","available":"true","iiiUrl":"https://purl.stanford.edu/jb302kf8532/iiif/manifest"},"geometry":{"bbox":[84,42,86,44],"type":"Polygon","coordinates":[[[84,42],[84,44],[86,44],[86,42],[84,42]]]}},{"type":"Feature","properties":{"Id":0,"Sheet_ID":"SHEET 24","label":"SHEET 24","call_short":"G7880 S250 .J3","call_num":"G7880 S250 .J3 SHEET 24","recid":"vp691mx7893","websiteUrl":"https://purl.stanford.edu/vp691mx7893","title":"新疆省/甘肅省 二十五万分一圖","ckey":9635534,"web_map":"","available":"true","iiiUrl":"https://purl.stanford.edu/vp691mx7893/iiif/manifest"},"geometry":{"bbox":[86,42,88,44],"type":"Polygon","coordinates":[[[86,42],[86,44],[88,44],[88,42],[86,42]]]}},{"type":"Feature","properties":{"Id":0,"Sheet_ID":"SHEET 28","label":"SHEET 28","call_short":"G7880 S250 .J3","call_num":"G7880 S250 .J3 SHEET 28","recid":"xh824nr9630","websiteUrl":"https://purl.stanford.edu/xh824nr9630","title":"新疆省/甘肅省 二十五万分一圖","ckey":9635534,"web_map":"","available":"true","iiiUrl":"https://purl.stanford.edu/xh824nr9630/iiif/manifest"},"geometry":{"bbox":[88,42,90,44],"type":"Polygon","coordinates":[[[88,42],[88,44],[90,44],[90,42],[88,42]]]}},{"type":"Feature","properties":{"Id":0,"Sheet_ID":"SHEET 31","label":"SHEET 31","call_short":"G7880 S250 .J3","call_num":"G7880 S250 .J3 SHEET 31","recid":"ns816sj7283","websiteUrl":"https://purl.stanford.edu/ns816sj7283","title":"新疆省/甘肅省 二十五万分一圖","ckey":9635534,"web_map":"","available":"true","iiiUrl":"https://purl.stanford.edu/ns816sj7283/iiif/manifest"},"geometry":{"bbox":[90,42,92,44],"type":"Polygon","coordinates":[[[90,42],[90,44],[92,44],[92,42],[90,42]]]}},{"type":"Feature","properties":{"Id":0,"Sheet_ID":"SHEET 34","label":"SHEET 34","call_short":"G7880 S250 .J3","call_num":"G7880 S250 .J3 SHEET 34","recid":"wj505nn4448","websiteUrl":"https://purl.stanford.edu/wj505nn4448","title":"新疆省/甘肅省 二十五万分一圖","ckey":9635534,"web_map":"","available":"true","iiiUrl":"https://purl.stanford.edu/wj505nn4448/iiif/manifest"},"geometry":{"bbox":[92,42,94,44],"type":"Polygon","coordinates":[[[92,42],[92,44],[94,44],[94,42],[92,42]]]}},{"type":"Feature","properties":{"Id":0,"Sheet_ID":"SHEET 37","label":"SHEET 37","call_short":"G7880 S250 .J3","call_num":"G7880 S250 .J3 SHEET 37","recid":"bx571jt9182","websiteUrl":"https://purl.stanford.edu/bx571jt9182","title":"新疆省/甘肅省 二十五万分一圖","ckey":9635534,"web_map":"","available":"true","iiiUrl":"https://purl.stanford.edu/bx571jt9182/iiif/manifest"},"geometry":{"bbox":[94,42,96.00000000000001,44],"type":"Polygon","coordinates":[[[94,42],[94,44],[96.00000000000001,44],[96.00000000000001,42],[94,42]]]}},{"type":"Feature","properties":{"Id":0,"Sheet_ID":"SHEET 40 NORTH","label":"SHEET 40 NORTH","call_short":"G7880 S250 .J3","call_num":"G7880 S250 .J3 SHEET 40 NORTH","recid":"kj277xw2562","websiteUrl":"https://purl.stanford.edu/kj277xw2562","title":"新疆省/甘肅省 二十五万分一圖","ckey":9635534,"web_map":"","available":"true","iiiUrl":"https://purl.stanford.edu/kj277xw2562/iiif/manifest"},"geometry":{"bbox":[96.00000000000001,41.25000000000006,98.00000000000011,42.49999999999994],"type":"Polygon","coordinates":[[[96.00000000000001,41.25000000000006],[96.00000000000001,42.49999999999994],[98.00000000000011,42.49999999999994],[98.00000000000011,41.25000000000006],[96.00000000000001,41.25000000000006]]]}},{"type":"Feature","properties":{"Id":0,"Sheet_ID":"SHEET 44","label":"SHEET 44","call_short":"G7880 S250 .J3","call_num":"G7880 S250 .J3 SHEET 44","recid":"ys276vv1117","websiteUrl":"https://purl.stanford.edu/ys276vv1117","title":"新疆省/甘肅省 二十五万分一圖","ckey":9635534,"web_map":"","available":"true","iiiUrl":"https://purl.stanford.edu/ys276vv1117/iiif/manifest"},"geometry":{"bbox":[100,42,102,44],"type":"Polygon","coordinates":[[[100,42],[100,44],[102,44],[102,42],[100,42]]]}}],"name":"index_9635534"}
