{
"type": "FeatureCollection",
"name": "index_map",
"xy_coordinate_resolution": 1e-07,
"features": [
{ "type": "Feature", "properties": { "Id": 0, "Sheet_ID": "1. 樺太 - 沿海州", "label": "1. 樺太 - 沿海州", "call_short": "G7800 S1000 .J3", "call_num": "G7800 S1000 .J3 SHEET 1", "recid": "gv396hb8458", "websiteUrl": "https://purl.stanford.edu/gv396hb8458", "title": "百万分一航空圖 [極東]", "ckey": 10652554, "available": true, "iiifUrl": "https://purl.stanford.edu/gv396hb8458/iiif/manifest" }, "geometry": { "type": "Polygon", "coordinates": [ [ [ 136.0, 45.25 ], [ 145.0, 45.333333 ], [ 145.833333, 54.416667 ], [ 135.0, 54.333333 ], [ 136.0, 45.25 ] ] ] } },
{ "type": "Feature", "properties": { "Id": 0, "Sheet_ID": "2. 奥羽 - 樺太", "label": "2. 奥羽 - 樺太", "call_short": "G7800 S1000 .J3", "call_num": "G7800 S1000 .J3 SHEET 2", "recid": "tg631gg4479", "websiteUrl": "https://purl.stanford.edu/tg631gg4479", "title": "百万分一航空圖 [極東]", "ckey": 10652554, "available": true, "iiifUrl": "https://purl.stanford.edu/tg631gg4479/iiif/manifest" }, "geometry": { "type": "Polygon", "coordinates": [ [ [ 138.0, 37.916667 ], [ 146.0, 37.916667 ], [ 146.666667, 47.0 ], [ 137.333333, 47.0 ], [ 138.0, 37.916667 ] ] ] } },
{ "type": "Feature", "properties": { "Id": 0, "Sheet_ID": "3. 本州中部", "label": "3. 本州中部", "call_short": "G7800 S1000 .J3", "call_num": "G7800 S1000 .J3 SHEET 3", "recid": "gp852fr5434", "websiteUrl": "https://purl.stanford.edu/gp852fr5434", "title": "百万分一航空圖 [極東]", "ckey": 10652554, "available": true, "iiifUrl": "https://purl.stanford.edu/gp852fr5434/iiif/manifest" }, "geometry": { "type": "Polygon", "coordinates": [ [ [ 132.666667, 32.583333 ], [ 143.333333, 32.583333 ], [ 143.75, 38.916667 ], [ 132.25, 38.916667 ], [ 132.666667, 32.583333 ] ] ] } },
{ "type": "Feature", "properties": { "Id": 0, "Sheet_ID": "4. 近畿 - 南朝鮮", "label": "4. 近畿 - 南朝鮮", "call_short": "G7800 S1000 .J3", "call_num": "G7800 S1000 .J3 SHEET 4", "recid": "pw342bp2181", "websiteUrl": "https://purl.stanford.edu/pw342bp2181", "title": "百万分一航空圖 [極東]", "ckey": 10652554, "available": true, "iiifUrl": "https://purl.stanford.edu/pw342bp2181/iiif/manifest" }, "geometry": { "type": "Polygon", "coordinates": [ [ [ 125.75, 32.0 ], [ 136.333333, 32.0 ], [ 136.75, 38.0 ], [ 125.333333, 38.0 ], [ 125.75, 32.0 ] ] ] } },
{ "type": "Feature", "properties": { "Id": 0, "Sheet_ID": "5. 北朝鮮 - 南満洲", "label": "5. 北朝鮮 - 南満洲", "call_short": "G7800 S1000 .J3", "call_num": "G7800 S1000 .J3 SHEET 5", "recid": "qh587jd8340", "websiteUrl": "https://purl.stanford.edu/qh587jd8340", "title": "百万分一航空圖 [極東]", "ckey": 10652554, "available": true, "iiifUrl": "https://purl.stanford.edu/qh587jd8340/iiif/manifest" }, "geometry": { "type": "Polygon", "coordinates": [ [ [ 121.0, 37.0 ], [ 129.0, 37.0 ], [ 129.583333, 46.0 ], [ 120.416667, 46.0 ], [ 121.0, 37.0 ] ] ] } },
{ "type": "Feature", "properties": { "Id": 0, "Sheet_ID": "6. 満洲中部 - 沿海州", "label": "6. 満洲中部 - 沿海州", "call_short": "G7800 S1000 .J3", "call_num": "G7800 S1000 .J3 SHEET 6", "recid": "qy299mw7192", "websiteUrl": "https://purl.stanford.edu/qy299mw7192", "title": "百万分一航空圖 [極東]", "ckey": 10652554, "available": true, "iiifUrl": "https://purl.stanford.edu/qy299mw7192/iiif/manifest" }, "geometry": { "type": "Polygon", "coordinates": [ [ [ 121.0, 41.583333 ], [ 133.0, 41.583333 ], [ 133.666667, 47.833333 ], [ 120.333333, 47.833333 ], [ 121.0, 41.583333 ] ] ] } },
{ "type": "Feature", "properties": { "Id": 0, "Sheet_ID": "7. 満洲東部 - 沿海州", "label": "7. 満洲東部 - 沿海州", "call_short": "G7800 S1000 .J3", "call_num": "G7800 S1000 .J3 SHEET 7", "recid": "wp447tq1653", "websiteUrl": "https://purl.stanford.edu/wp447tq1653", "title": "百万分一航空圖 [極東]", "ckey": 10652554, "available": true, "iiifUrl": "https://purl.stanford.edu/wp447tq1653/iiif/manifest" }, "geometry": { "type": "Polygon", "coordinates": [ [ [ 130.416667, 42.0 ], [ 138.833333, 42.0 ], [ 139.5, 50.916667 ], [ 129.583333, 50.833333 ], [ 130.416667, 42.0 ] ] ] } },
{ "type": "Feature", "properties": { "Id": 0, "Sheet_ID": "8. ハバロフスク地方 - 滿洲東北部", "label": "8. ハバロフスク地方 - 滿洲東北部", "call_short": "0", "call_num": "0", "recid": "0", "websiteUrl": "0", "title": "0", "ckey": 0, "available": false, "iiifUrl": "0" }, "geometry": { "type": "Polygon", "coordinates": [ [ [ 127.333333, 47.416667 ], [ 136.666667, 47.416667 ], [ 137.666667, 56.333333 ], [ 126.333333, 56.333333 ], [ 127.333333, 47.416667 ] ] ] } }
]
}
