{"type":"FeatureCollection","features":[{"type":"Feature","properties":{"Id":0,"Sheet_ID":"N. J-29. リスボン","label":"N. J-29. リスボン","call_short":"G5700 S1000 .J3","call_num":"G5700 S1000 .J3 N. J-29","recid":"vx211wg9431","websiteUrl":"https://purl.stanford.edu/vx211wg9431","title":"歐羅巴百万分一地勢圖","ckey":13835091,"web_map":"","available":"true","iiifUrl":"https://purl.stanford.edu/vx211wg9431/iiif/manifest"},"geometry":{"bbox":[-12.000000000000002,36,-6.000000000000001,40],"type":"Polygon","coordinates":[[[-12.000000000000002,36],[-12.000000000000002,40],[-6.000000000000001,40],[-6.000000000000001,36],[-12.000000000000002,36]]]}},{"type":"Feature","properties":{"Id":0,"Sheet_ID":"N. J-30. ヴァレンシア","label":"N. J-30. ヴァレンシア","call_short":"","call_num":"","recid":"","websiteUrl":"","title":"","ckey":0,"web_map":"","available":"false","iiifUrl":""},"geometry":{"bbox":[-6.000000000000001,36,0,40],"type":"Polygon","coordinates":[[[-6.000000000000001,36],[-6.000000000000001,40],[0,40],[0,36],[-6.000000000000001,36]]]}},{"type":"Feature","properties":{"Id":0,"Sheet_ID":"N. J-31. アルジェー","label":"N. J-31. アルジェー","call_short":"","call_num":"","recid":"","websiteUrl":"","title":"","ckey":0,"web_map":"","available":"false","iiifUrl":""},"geometry":{"bbox":[0,36,6.000000000000001,40],"type":"Polygon","coordinates":[[[0,36],[0,40],[6.000000000000001,40],[6.000000000000001,36],[0,36]]]}},{"type":"Feature","properties":{"Id":0,"Sheet_ID":"N. J-32. チュニス","label":"N. J-32. チュニス","call_short":"G5700 S1000 .J3","call_num":"G5700 S1000 .J3 N. J-32","recid":"xs032yv8759","websiteUrl":"https://purl.stanford.edu/xs032yv8759","title":"歐羅巴百万分一地勢圖","ckey":13835091,"web_map":"","available":"true","iiifUrl":"https://purl.stanford.edu/xs032yv8759/iiif/manifest"},"geometry":{"bbox":[6.000000000000001,36,12.000000000000002,40],"type":"Polygon","coordinates":[[[6.000000000000001,36],[6.000000000000001,40],[12.000000000000002,40],[12.000000000000002,36],[6.000000000000001,36]]]}},{"type":"Feature","properties":{"Id":0,"Sheet_ID":"N. J-33. パレルモ","label":"N. J-33. パレルモ","call_short":"G5700 S1000 .J3","call_num":"G5700 S1000 .J3 N. J-33","recid":"nq918ys8140","websiteUrl":"https://purl.stanford.edu/nq918ys8140","title":"歐羅巴百万分一地勢圖","ckey":13835091,"web_map":"","available":"true","iiifUrl":"https://purl.stanford.edu/nq918ys8140/iiif/manifest"},"geometry":{"bbox":[12.000000000000002,36,18,40],"type":"Polygon","coordinates":[[[12.000000000000002,36],[12.000000000000002,40],[18,40],[18,36],[12.000000000000002,36]]]}},{"type":"Feature","properties":{"Id":0,"Sheet_ID":"N. J-34. アテネ","label":"N. J-34. アテネ","call_short":"G5700 S1000 .J3","call_num":"G5700 S1000 .J3 N. J-34","recid":"nw104hp2472","websiteUrl":"https://purl.stanford.edu/nw104hp2472","title":"歐羅巴百万分一地勢圖","ckey":13835091,"web_map":"","available":"true","iiifUrl":"https://purl.stanford.edu/nw104hp2472/iiif/manifest"},"geometry":{"bbox":[18,36,24.000000000000004,40],"type":"Polygon","coordinates":[[[18,36],[18,40],[24.000000000000004,40],[24.000000000000004,36],[18,36]]]}},{"type":"Feature","properties":{"Id":0,"Sheet_ID":"N. J-35. イズミル","label":"N. J-35. イズミル","call_short":"","call_num":"","recid":"","websiteUrl":"","title":"","ckey":0,"web_map":"","available":"false","iiifUrl":""},"geometry":{"bbox":[24.000000000000004,36,29.999999999999996,40],"type":"Polygon","coordinates":[[[24.000000000000004,36],[24.000000000000004,40],[29.999999999999996,40],[29.999999999999996,36],[24.000000000000004,36]]]}},{"type":"Feature","properties":{"Id":0,"Sheet_ID":"N. J-36. コニア","label":"N. J-36. コニア","call_short":"","call_num":"","recid":"","websiteUrl":"","title":"","ckey":0,"web_map":"","available":"false","iiifUrl":""},"geometry":{"bbox":[29.999999999999996,36,36,40],"type":"Polygon","coordinates":[[[29.999999999999996,36],[29.999999999999996,40],[36,40],[36,36],[29.999999999999996,36]]]}},{"type":"Feature","properties":{"Id":0,"Sheet_ID":"N. K-29. オポルト","label":"N. K-29. オポルト","call_short":"","call_num":"","recid":"","websiteUrl":"","title":"","ckey":0,"web_map":"","available":"false","iiifUrl":""},"geometry":{"bbox":[-12.000000000000002,40,-6.000000000000001,44],"type":"Polygon","coordinates":[[[-12.000000000000002,40],[-12.000000000000002,44],[-6.000000000000001,44],[-6.000000000000001,40],[-12.000000000000002,40]]]}},{"type":"Feature","properties":{"Id":0,"Sheet_ID":"N. K-30. マドリード","label":"N. K-30. マドリード","call_short":"","call_num":"","recid":"","websiteUrl":"","title":"","ckey":0,"web_map":"","available":"false","iiifUrl":""},"geometry":{"bbox":[-6.000000000000001,40,0,44],"type":"Polygon","coordinates":[[[-6.000000000000001,40],[-6.000000000000001,44],[0,44],[0,40],[-6.000000000000001,40]]]}},{"type":"Feature","properties":{"Id":0,"Sheet_ID":"N. K-31. マルセイユ","label":"N. K-31. マルセイユ","call_short":"G5700 S1000 .J3","call_num":"G5700 S1000 .J3 N. K-31","recid":"mk123vm0269","websiteUrl":"https://purl.stanford.edu/mk123vm0269","title":"歐羅巴百万分一地勢圖","ckey":13835091,"web_map":"","available":"true","iiifUrl":"https://purl.stanford.edu/mk123vm0269/iiif/manifest"},"geometry":{"bbox":[0,40,6.000000000000001,44],"type":"Polygon","coordinates":[[[0,40],[0,44],[6.000000000000001,44],[6.000000000000001,40],[0,40]]]}},{"type":"Feature","properties":{"Id":0,"Sheet_ID":"N. K-32. フィレンツェ","label":"N. K-32. フィレンツェ","call_short":"G5700 S1000 .J3","call_num":"G5700 S1000 .J3 N. K-32","recid":"rm969pz6000","websiteUrl":"https://purl.stanford.edu/rm969pz6000","title":"歐羅巴百万分一地勢圖","ckey":13835091,"web_map":"","available":"true","iiifUrl":"https://purl.stanford.edu/rm969pz6000/iiif/manifest"},"geometry":{"bbox":[6.000000000000001,40,12.000000000000002,44],"type":"Polygon","coordinates":[[[6.000000000000001,40],[6.000000000000001,44],[12.000000000000002,44],[12.000000000000002,40],[6.000000000000001,40]]]}},{"type":"Feature","properties":{"Id":0,"Sheet_ID":"N. K-33. ローマ","label":"N. K-33. ローマ","call_short":"","call_num":"","recid":"","websiteUrl":"","title":"","ckey":0,"web_map":"","available":"false","iiifUrl":""},"geometry":{"bbox":[12.000000000000002,40,18,44],"type":"Polygon","coordinates":[[[12.000000000000002,40],[12.000000000000002,44],[18,44],[18,40],[12.000000000000002,40]]]}},{"type":"Feature","properties":{"Id":0,"Sheet_ID":"N. K-34. ソフィヤ","label":"N. K-34. ソフィヤ","call_short":"G5700 S1000 .J3","call_num":"G5700 S1000 .J3 N. K-34","recid":"xq180br7400","websiteUrl":"https://purl.stanford.edu/xq180br7400","title":"歐羅巴百万分一地勢圖","ckey":13835091,"web_map":"","available":"true","iiifUrl":"https://purl.stanford.edu/xq180br7400/iiif/manifest"},"geometry":{"bbox":[18,40,24.000000000000004,44],"type":"Polygon","coordinates":[[[18,40],[18,44],[24.000000000000004,44],[24.000000000000004,40],[18,40]]]}},{"type":"Feature","properties":{"Id":0,"Sheet_ID":"N. K-35. イスタンブール","label":"N. K-35. イスタンブール","call_short":"G5700 S1000 .J3","call_num":"G5700 S1000 .J3 N. K-35","recid":"qq653yf0114","websiteUrl":"https://purl.stanford.edu/qq653yf0114","title":"歐羅巴百万分一地勢圖","ckey":13835091,"web_map":"","available":"true","iiifUrl":"https://purl.stanford.edu/qq653yf0114/iiif/manifest"},"geometry":{"bbox":[24.000000000000004,40,29.999999999999996,44],"type":"Polygon","coordinates":[[[24.000000000000004,40],[24.000000000000004,44],[29.999999999999996,44],[29.999999999999996,40],[24.000000000000004,40]]]}},{"type":"Feature","properties":{"Id":0,"Sheet_ID":"N. K-36. シノぺ","label":"N. K-36. シノぺ","call_short":"","call_num":"","recid":"","websiteUrl":"","title":"","ckey":0,"web_map":"","available":"false","iiifUrl":""},"geometry":{"bbox":[29.999999999999996,40,36,44],"type":"Polygon","coordinates":[[[29.999999999999996,40],[29.999999999999996,44],[36,44],[36,40],[29.999999999999996,40]]]}},{"type":"Feature","properties":{"Id":0,"Sheet_ID":"N. L-30. ボルドー","label":"N. L-30. ボルドー","call_short":"G5700 S1000 .J3","call_num":"G5700 S1000 .J3 N. L-30","recid":"ds139my4806","websiteUrl":"https://purl.stanford.edu/ds139my4806","title":"歐羅巴百万分一地勢圖","ckey":13835091,"web_map":"","available":"true","iiifUrl":"https://purl.stanford.edu/ds139my4806/iiif/manifest"},"geometry":{"bbox":[-6.000000000000001,44,0,48.00000000000001],"type":"Polygon","coordinates":[[[-6.000000000000001,44],[-6.000000000000001,48.00000000000001],[0,48.00000000000001],[0,44],[-6.000000000000001,44]]]}},{"type":"Feature","properties":{"Id":0,"Sheet_ID":"N. L-31. リオン","label":"N. L-31. リオン","call_short":"G5700 S1000 .J3","call_num":"G5700 S1000 .J3 N. L-31","recid":"rb652yb5878","websiteUrl":"https://purl.stanford.edu/rb652yb5878","title":"歐羅巴百万分一地勢圖","ckey":13835091,"web_map":"","available":"true","iiifUrl":"https://purl.stanford.edu/rb652yb5878/iiif/manifest"},"geometry":{"bbox":[0,44,6.000000000000001,48.00000000000001],"type":"Polygon","coordinates":[[[0,44],[0,48.00000000000001],[6.000000000000001,48.00000000000001],[6.000000000000001,44],[0,44]]]}},{"type":"Feature","properties":{"Id":0,"Sheet_ID":"N. L-32. ミラノ","label":"N. L-32. ミラノ","call_short":"G5700 S1000 .J3","call_num":"G5700 S1000 .J3 N. L-32","recid":"br613df0838","websiteUrl":"https://purl.stanford.edu/br613df0838","title":"歐羅巴百万分一地勢圖","ckey":13835091,"web_map":"","available":"true","iiifUrl":"https://purl.stanford.edu/br613df0838/iiif/manifest"},"geometry":{"bbox":[6.000000000000001,44,12.000000000000002,48.00000000000001],"type":"Polygon","coordinates":[[[6.000000000000001,44],[6.000000000000001,48.00000000000001],[12.000000000000002,48.00000000000001],[12.000000000000002,44],[6.000000000000001,44]]]}},{"type":"Feature","properties":{"Id":0,"Sheet_ID":"N. L-33. トリエスト","label":"N. L-33. トリエスト","call_short":"G5700 S1000 .J3","call_num":"G5700 S1000 .J3 N. L-33","recid":"sg065bk3360","websiteUrl":"https://purl.stanford.edu/sg065bk3360","title":"歐羅巴百万分一地勢圖","ckey":13835091,"web_map":"","available":"true","iiifUrl":"https://purl.stanford.edu/sg065bk3360/iiif/manifest"},"geometry":{"bbox":[12.000000000000002,44,18,48.00000000000001],"type":"Polygon","coordinates":[[[12.000000000000002,44],[12.000000000000002,48.00000000000001],[18,48.00000000000001],[18,44],[12.000000000000002,44]]]}},{"type":"Feature","properties":{"Id":0,"Sheet_ID":"N. L-34. ブダペスト","label":"N. L-34. ブダペスト","call_short":"G5700 S1000 .J3","call_num":"G5700 S1000 .J3 N. L-34","recid":"yv452fx8249","websiteUrl":"https://purl.stanford.edu/yv452fx8249","title":"歐羅巴百万分一地勢圖","ckey":13835091,"web_map":"","available":"true","iiifUrl":"https://purl.stanford.edu/yv452fx8249/iiif/manifest"},"geometry":{"bbox":[18,44,24.000000000000004,48.00000000000001],"type":"Polygon","coordinates":[[[18,44],[18,48.00000000000001],[24.000000000000004,48.00000000000001],[24.000000000000004,44],[18,44]]]}},{"type":"Feature","properties":{"Id":0,"Sheet_ID":"N. L-35. ブカレスト","label":"N. L-35. ブカレスト","call_short":"G5700 S1000 .J3","call_num":"G5700 S1000 .J3 N. L-35","recid":"fw175gx8410","websiteUrl":"https://purl.stanford.edu/fw175gx8410","title":"歐羅巴百万分一地勢圖","ckey":13835091,"web_map":"","available":"true","iiifUrl":"https://purl.stanford.edu/fw175gx8410/iiif/manifest"},"geometry":{"bbox":[24.000000000000004,44,29.999999999999996,48.00000000000001],"type":"Polygon","coordinates":[[[24.000000000000004,44],[24.000000000000004,48.00000000000001],[29.999999999999996,48.00000000000001],[29.999999999999996,44],[24.000000000000004,44]]]}},{"type":"Feature","properties":{"Id":0,"Sheet_ID":"N. L-36. オデッサ","label":"N. L-36. オデッサ","call_short":"G5700 S1000 .J3","call_num":"G5700 S1000 .J3 N. L-36","recid":"yp919pt5614","websiteUrl":"https://purl.stanford.edu/yp919pt5614","title":"歐羅巴百万分一地勢圖","ckey":13835091,"web_map":"","available":"true","iiifUrl":"https://purl.stanford.edu/yp919pt5614/iiif/manifest"},"geometry":{"bbox":[29.999999999999996,44,36,48.00000000000001],"type":"Polygon","coordinates":[[[29.999999999999996,44],[29.999999999999996,48.00000000000001],[36,48.00000000000001],[36,44],[29.999999999999996,44]]]}},{"type":"Feature","properties":{"Id":0,"Sheet_ID":"N. M-30. ロンドン","label":"N. M-30. ロンドン","call_short":"G5700 S1000 .J3","call_num":"G5700 S1000 .J3 N. M-30","recid":"dx711vx5031","websiteUrl":"https://purl.stanford.edu/dx711vx5031","title":"歐羅巴百万分一地勢圖","ckey":13835091,"web_map":"","available":"true","iiifUrl":"https://purl.stanford.edu/dx711vx5031/iiif/manifest"},"geometry":{"bbox":[-6.000000000000001,48.00000000000001,0,52],"type":"Polygon","coordinates":[[[-6.000000000000001,48.00000000000001],[-6.000000000000001,52],[0,52],[0,48.00000000000001],[-6.000000000000001,48.00000000000001]]]}},{"type":"Feature","properties":{"Id":0,"Sheet_ID":"N. M-31. パリ","label":"N. M-31. パリ","call_short":"G5700 S1000 .J3","call_num":"G5700 S1000 .J3 N. M-31","recid":"mb906km4762","websiteUrl":"https://purl.stanford.edu/mb906km4762","title":"歐羅巴百万分一地勢圖","ckey":13835091,"web_map":"","available":"true","iiifUrl":"https://purl.stanford.edu/mb906km4762/iiif/manifest"},"geometry":{"bbox":[0,48.00000000000001,6.000000000000001,52],"type":"Polygon","coordinates":[[[0,48.00000000000001],[0,52],[6.000000000000001,52],[6.000000000000001,48.00000000000001],[0,48.00000000000001]]]}},{"type":"Feature","properties":{"Id":0,"Sheet_ID":"N. M-32. ミュンヘン","label":"N. M-32. ミュンヘン","call_short":"G5700 S1000 .J3","call_num":"G5700 S1000 .J3 N. M-32","recid":"rp615gq3654","websiteUrl":"https://purl.stanford.edu/rp615gq3654","title":"歐羅巴百万分一地勢圖","ckey":13835091,"web_map":"","available":"true","iiifUrl":"https://purl.stanford.edu/rp615gq3654/iiif/manifest"},"geometry":{"bbox":[6.000000000000001,48.00000000000001,12.000000000000002,52],"type":"Polygon","coordinates":[[[6.000000000000001,48.00000000000001],[6.000000000000001,52],[12.000000000000002,52],[12.000000000000002,48.00000000000001],[6.000000000000001,48.00000000000001]]]}},{"type":"Feature","properties":{"Id":0,"Sheet_ID":"N. M-33. ウィン","label":"N. M-33. ウィン","call_short":"G5700 S1000 .J3","call_num":"G5700 S1000 .J3 N. M-33","recid":"fd871hc5926","websiteUrl":"https://purl.stanford.edu/fd871hc5926","title":"歐羅巴百万分一地勢圖","ckey":13835091,"web_map":"","available":"true","iiifUrl":"https://purl.stanford.edu/fd871hc5926/iiif/manifest"},"geometry":{"bbox":[12.000000000000002,48.00000000000001,18,52],"type":"Polygon","coordinates":[[[12.000000000000002,48.00000000000001],[12.000000000000002,52],[18,52],[18,48.00000000000001],[12.000000000000002,48.00000000000001]]]}},{"type":"Feature","properties":{"Id":0,"Sheet_ID":"N. M-34. クラコー","label":"N. M-34. クラコー","call_short":"G5700 S1000 .J3","call_num":"G5700 S1000 .J3 N. M-34","recid":"tn841kd4025","websiteUrl":"https://purl.stanford.edu/tn841kd4025","title":"歐羅巴百万分一地勢圖","ckey":13835091,"web_map":"","available":"true","iiifUrl":"https://purl.stanford.edu/tn841kd4025/iiif/manifest"},"geometry":{"bbox":[18,48.00000000000001,24.000000000000004,52],"type":"Polygon","coordinates":[[[18,48.00000000000001],[18,52],[24.000000000000004,52],[24.000000000000004,48.00000000000001],[18,48.00000000000001]]]}},{"type":"Feature","properties":{"Id":0,"Sheet_ID":"N. M-35. ルウォー","label":"N. M-35. ルウォー","call_short":"G5700 S1000 .J3","call_num":"G5700 S1000 .J3 N. M-35","recid":"fh352wf1574","websiteUrl":"https://purl.stanford.edu/fh352wf1574","title":"歐羅巴百万分一地勢圖","ckey":13835091,"web_map":"","available":"true","iiifUrl":"https://purl.stanford.edu/fh352wf1574/iiif/manifest"},"geometry":{"bbox":[24.000000000000004,48.00000000000001,29.999999999999996,52],"type":"Polygon","coordinates":[[[24.000000000000004,48.00000000000001],[24.000000000000004,52],[29.999999999999996,52],[29.999999999999996,48.00000000000001],[24.000000000000004,48.00000000000001]]]}},{"type":"Feature","properties":{"Id":0,"Sheet_ID":"N. M-36. キエフ","label":"N. M-36. キエフ","call_short":"","call_num":"","recid":"","websiteUrl":"","title":"","ckey":0,"web_map":"","available":"false","iiifUrl":""},"geometry":{"bbox":[29.999999999999996,48.00000000000001,36,52],"type":"Polygon","coordinates":[[[29.999999999999996,48.00000000000001],[29.999999999999996,52],[36,52],[36,48.00000000000001],[29.999999999999996,48.00000000000001]]]}},{"type":"Feature","properties":{"Id":0,"Sheet_ID":"N. N-29/30. ダブリン及エディンバラ","label":"N. N-29/30. ダブリン及エディンバラ","call_short":"G5700 S1000 .J3","call_num":"G5700 S1000 .J3 N. N-29.30","recid":"qm665kd6631","websiteUrl":"https://purl.stanford.edu/qm665kd6631","title":"歐羅巴百万分一地勢圖","ckey":13835091,"web_map":"","available":"true","iiifUrl":"https://purl.stanford.edu/qm665kd6631/iiif/manifest"},"geometry":{"bbox":[-11.999999999999943,51.00000000000006,5.684341886080802e-14,56.000000000000114],"type":"Polygon","coordinates":[[[-6.000000000000001,51.00000000000006],[-11.999999999999943,51.00000000000006],[-11.999999999999943,52],[-11.999999999999943,56.000000000000114],[-6.000000000000001,56.000000000000114],[5.684341886080802e-14,56.000000000000114],[5.684341886080802e-14,52],[-6.000000000000001,52],[-6.000000000000001,51.00000000000006]]]}},{"type":"Feature","properties":{"Id":0,"Sheet_ID":"N. N-31/32. ハンブルグ及アムステルダム","label":"N. N-31/32. ハンブルグ及アムステルダム","call_short":"G5700 S1000 .J3","call_num":"G5700 S1000 .J3 N. N-31.32","recid":"tg959dr8087","websiteUrl":"https://purl.stanford.edu/tg959dr8087","title":"歐羅巴百万分一地勢圖","ckey":13835091,"web_map":"","available":"true","iiifUrl":"https://purl.stanford.edu/tg959dr8087/iiif/manifest"},"geometry":{"bbox":[5.684341886080802e-14,52,12.000000000000002,56.000000000000114],"type":"Polygon","coordinates":[[[6.000000000000114,52],[5.684341886080802e-14,52],[5.684341886080802e-14,56.000000000000114],[6.000000000000114,56.000000000000114],[12.000000000000002,56.000000000000114],[12.000000000000002,52],[6.000000000000114,52]]]}},{"type":"Feature","properties":{"Id":0,"Sheet_ID":"N. N-33/34. ベルリン及ワルソー","label":"N. N-33/34. ベルリン及ワルソー","call_short":"G5700 S1000 .J3","call_num":"G5700 S1000 .J3 N. N-33.34","recid":"sp173ry1256","websiteUrl":"https://purl.stanford.edu/sp173ry1256","title":"歐羅巴百万分一地勢圖","ckey":13835091,"web_map":"","available":"true","iiifUrl":"https://purl.stanford.edu/sp173ry1256/iiif/manifest"},"geometry":{"bbox":[12.000000000000002,52,24.000000000000114,56.000000000000114],"type":"Polygon","coordinates":[[[18.000000000000057,52],[12.000000000000002,52],[12.000000000000002,56.000000000000114],[18.000000000000057,56.000000000000114],[24.000000000000114,56.000000000000114],[24.000000000000114,52],[18.000000000000057,52]]]}},{"type":"Feature","properties":{"Id":0,"Sheet_ID":"N. N-35/36. ウイルナ及スモレンスク","label":"N. N-35/36. ウイルナ及スモレンスク","call_short":"G5700 S1000 .J3","call_num":"G5700 S1000 .J3 N. N-35.36","recid":"pm959wx5829","websiteUrl":"https://purl.stanford.edu/pm959wx5829","title":"歐羅巴百万分一地勢圖","ckey":13835091,"web_map":"","available":"true","iiifUrl":"https://purl.stanford.edu/pm959wx5829/iiif/manifest"},"geometry":{"bbox":[24.000000000000114,52,36,56.000000000000114],"type":"Polygon","coordinates":[[[29.999999999999947,52],[24.000000000000114,52],[24.000000000000114,56.000000000000114],[29.999999999999947,56.000000000000114],[36,56.000000000000114],[36,52],[29.999999999999947,52]]]}},{"type":"Feature","properties":{"Id":0,"Sheet_ID":"N. O-29/30. ヘブリデス及スコットランド","label":"N. O-29/30. ヘブリデス及スコットランド","call_short":"G5700 S1000 .J3","call_num":"G5700 S1000 .J3 N. O-29.30","recid":"xc427vf2192","websiteUrl":"https://purl.stanford.edu/xc427vf2192","title":"歐羅巴百万分一地勢圖","ckey":13835091,"web_map":"","available":"true","iiifUrl":"https://purl.stanford.edu/xc427vf2192/iiif/manifest"},"geometry":{"bbox":[-11.999999999999943,56.000000000000114,5.684341886080802e-14,60.00000000000006],"type":"Polygon","coordinates":[[[-6.000000000000001,56.000000000000114],[-11.999999999999943,56.000000000000114],[-11.999999999999943,60.00000000000006],[-6.000000000000001,60.00000000000006],[5.684341886080802e-14,60.00000000000006],[5.684341886080802e-14,56.000000000000114],[-6.000000000000001,56.000000000000114]]]}},{"type":"Feature","properties":{"Id":0,"Sheet_ID":"N. O-31/32. スタヴァンゲルマン及オスロ","label":"N. O-31/32. スタヴァンゲルマン及オスロ","call_short":"","call_num":"","recid":"","websiteUrl":"","title":"","ckey":0,"web_map":"","available":"false","iiifUrl":""},"geometry":{"bbox":[5.684341886080802e-14,56.000000000000114,12.000000000000002,60.00000000000006],"type":"Polygon","coordinates":[[[6.000000000000114,56.000000000000114],[5.684341886080802e-14,56.000000000000114],[5.684341886080802e-14,60.00000000000006],[6.000000000000114,60.00000000000006],[12.000000000000002,60.00000000000006],[12.000000000000002,56.000000000000114],[6.000000000000114,56.000000000000114]]]}},{"type":"Feature","properties":{"Id":0,"Sheet_ID":"N. O-33/34. カルマル及ストックホルム","label":"N. O-33/34. カルマル及ストックホルム","call_short":"G5700 S1000 .J3","call_num":"G5700 S1000 .J3 N. O-33.34","recid":"ks452xy1111","websiteUrl":"https://purl.stanford.edu/ks452xy1111","title":"歐羅巴百万分一地勢圖","ckey":13835091,"web_map":"","available":"true","iiifUrl":"https://purl.stanford.edu/ks452xy1111/iiif/manifest"},"geometry":{"bbox":[12.000000000000002,56.000000000000114,24.000000000000114,60.00000000000006],"type":"Polygon","coordinates":[[[18.000000000000057,56.000000000000114],[12.000000000000002,56.000000000000114],[12.000000000000002,60.00000000000006],[18.000000000000057,60.00000000000006],[24.000000000000114,60.00000000000006],[24.000000000000114,56.000000000000114],[18.000000000000057,56.000000000000114]]]}},{"type":"Feature","properties":{"Id":0,"Sheet_ID":"N. O-35/36. リガ及レニングラード","label":"N. O-35/36. リガ及レニングラード","call_short":"G5700 S1000 .J3","call_num":"G5700 S1000 .J3 N. O-35.36","recid":"wk729wq8594","websiteUrl":"https://purl.stanford.edu/wk729wq8594","title":"歐羅巴百万分一地勢圖","ckey":13835091,"web_map":"","available":"true","iiifUrl":"https://purl.stanford.edu/wk729wq8594/iiif/manifest"},"geometry":{"bbox":[24.000000000000114,56.000000000000114,36,60.00000000000006],"type":"Polygon","coordinates":[[[29.999999999999947,56.000000000000114],[24.000000000000114,56.000000000000114],[24.000000000000114,60.00000000000006],[29.999999999999947,60.00000000000006],[36,60.00000000000006],[36,56.000000000000114],[29.999999999999947,56.000000000000114]]]}},{"type":"Feature","properties":{"Id":0,"Sheet_ID":"N. P-31/32. ベルゲン及トロンドイェム","label":"N. P-31/32. ベルゲン及トロンドイェム","call_short":"","call_num":"","recid":"","websiteUrl":"","title":"","ckey":0,"web_map":"","available":"false","iiifUrl":""},"geometry":{"bbox":[5.684341886080802e-14,60.00000000000006,12.000000000000002,64.00000000000011],"type":"Polygon","coordinates":[[[6.000000000000114,60.00000000000006],[5.684341886080802e-14,60.00000000000006],[5.684341886080802e-14,64.00000000000011],[6.000000000000114,64.00000000000011],[12.000000000000002,64.00000000000011],[12.000000000000002,60.00000000000006],[6.000000000000114,60.00000000000006]]]}},{"type":"Feature","properties":{"Id":0,"Sheet_ID":"N. P-33/34. ゲフレ及トゥルク","label":"N. P-33/34. ゲフレ及トゥルク","call_short":"","call_num":"","recid":"","websiteUrl":"","title":"","ckey":0,"web_map":"","available":"false","iiifUrl":""},"geometry":{"bbox":[12.000000000000002,60.00000000000006,24.000000000000114,64.00000000000011],"type":"Polygon","coordinates":[[[18.000000000000057,60.00000000000006],[12.000000000000002,60.00000000000006],[12.000000000000002,64.00000000000011],[18.000000000000057,64.00000000000011],[24.000000000000114,64.00000000000011],[24.000000000000114,60.00000000000006],[18.000000000000057,60.00000000000006]]]}},{"type":"Feature","properties":{"Id":0,"Sheet_ID":"N. P-35/36. ヘルシンキ及ペトロザゥオドスク","label":"N. P-35/36. ヘルシンキ及ペトロザゥオドスク","call_short":"","call_num":"","recid":"","websiteUrl":"","title":"","ckey":0,"web_map":"","available":"false","iiifUrl":""},"geometry":{"bbox":[24.000000000000114,60.00000000000006,36,64.00000000000011],"type":"Polygon","coordinates":[[[29.999999999999947,60.00000000000006],[24.000000000000114,60.00000000000006],[24.000000000000114,64.00000000000011],[29.999999999999947,64.00000000000011],[36,64.00000000000011],[36,60.00000000000006],[29.999999999999947,60.00000000000006]]]}}],"name":"index_13835091"}
