{
"type": "FeatureCollection",
"name": "index_map",
"features": [
{ "type": "Feature", "properties": { "Id": 0, "Sheet_ID": "43號", "label": "43號", "call_short": "G7801 .P6 S2000 .J3", "call_num": "G7801 .P6 S2000 .J3 SHEET 43", "recid": "jm174zy7301", "websiteUrl": "https://purl.stanford.edu/jm174zy7301", "title": "二百万分一航法用経緯度圖", "ckey": 10652585, "available": true, "iiifUrl": "https://purl.stanford.edu/jm174zy7301/iiif/manifest" }, "geometry": { "type": "Polygon", "coordinates": [ [ [ 104.0, 14.0 ], [ 120.0, 14.0 ], [ 120.0, 34.0 ], [ 104.0, 34.0 ], [ 104.0, 14.0 ] ] ] } },
{ "type": "Feature", "properties": { "Id": 0, "Sheet_ID": "43號 方眼入", "label": "43號 方眼入", "call_short": "G7801 .P6 S2000 .J3", "call_num": "G7801 .P6 S2000 .J3 SHEET 43 GRID", "recid": "km129bz3893", "websiteUrl": "https://purl.stanford.edu/km129bz3893", "title": "二百万分一航法用経緯度圖", "ckey": 10652585, "available": true, "iiifUrl": "https://purl.stanford.edu/km129bz3893/iiif/manifest" }, "geometry": { "type": "Polygon", "coordinates": [ [ [ 104.0, 14.0 ], [ 120.0, 14.0 ], [ 120.0, 34.0 ], [ 104.0, 34.0 ], [ 104.0, 14.0 ] ] ] } },
{ "type": "Feature", "properties": { "Id": 0, "Sheet_ID": "36號 方眼入", "label": "36號 方眼入", "call_short": "G7801 .P6 S2000 .J3", "call_num": "G7801 .P6 S2000 .J3 SHEET 36 GRID", "recid": "pj979fh3424", "websiteUrl": "https://purl.stanford.edu/pj979fh3424", "title": "二百万分一航法用経緯度圖", "ckey": 10652585, "available": true, "iiifUrl": "https://purl.stanford.edu/pj979fh3424/iiif/manifest" }, "geometry": { "type": "Polygon", "coordinates": [ [ [ 118.0, 14.0 ], [ 134.0, 14.0 ], [ 134.0, 34.0 ], [ 118.0, 34.0 ], [ 118.0, 14.0 ] ] ] } },
{ "type": "Feature", "properties": { "Id": 0, "Sheet_ID": "28號", "label": "28號", "call_short": "G7801 .P6 S2000 .J3", "call_num": "G7801 .P6 S2000 .J3 SHEET 28", "recid": "pm601wy9392", "websiteUrl": "https://purl.stanford.edu/pm601wy9392", "title": "二百万分一航法用経緯度圖", "ckey": 10652585, "available": true, "iiifUrl": "https://purl.stanford.edu/pm601wy9392/iiif/manifest" }, "geometry": { "type": "Polygon", "coordinates": [ [ [ 148.0, 14.0 ], [ 148.0, 34.0 ], [ 132.0, 34.0 ], [ 132.0, 14.0 ], [ 148.0, 14.0 ] ] ] } },
{ "type": "Feature", "properties": { "Id": 0, "Sheet_ID": "28號 方眼入", "label": "28號 方眼入", "call_short": "G7801 .P6 S2000 .J3", "call_num": "G7801 .P6 S2000 .J3 SHEET 28 GRID", "recid": "bq764sz5904", "websiteUrl": "https://purl.stanford.edu/bq764sz5904", "title": "二百万分一航法用経緯度圖", "ckey": 10652585, "available": true, "iiifUrl": "https://purl.stanford.edu/bq764sz5904/iiif/manifest" }, "geometry": { "type": "Polygon", "coordinates": [ [ [ 148.0, 14.0 ], [ 148.0, 34.0 ], [ 132.0, 34.0 ], [ 132.0, 14.0 ], [ 148.0, 14.0 ] ] ] } },
{ "type": "Feature", "properties": { "Id": 0, "Sheet_ID": "20號", "label": "20號", "call_short": "G7801 .P6 S2000 .J3", "call_num": "G7801 .P6 S2000 .J3 SHEET 20", "recid": "jc226ms0245", "websiteUrl": "https://purl.stanford.edu/jc226ms0245", "title": "二百万分一航法用経緯度圖", "ckey": 10652585, "available": true, "iiifUrl": "https://purl.stanford.edu/jc226ms0245/iiif/manifest" }, "geometry": { "type": "Polygon", "coordinates": [ [ [ 146.0, 14.0 ], [ 162.0, 14.0 ], [ 162.0, 34.0 ], [ 146.0, 34.0 ], [ 146.0, 14.0 ] ] ] } },
{ "type": "Feature", "properties": { "Id": 0, "Sheet_ID": "12號", "label": "12號", "call_short": null, "call_num": null, "recid": null, "websiteUrl": null, "title": null, "ckey": 0, "available": false, "iiifUrl": null }, "geometry": { "type": "Polygon", "coordinates": [ [ [ 176.0, 14.0 ], [ 176.0, 34.0 ], [ 160.0, 34.0 ], [ 160.0, 14.0 ], [ 176.0, 14.0 ] ] ] } },
{ "type": "Feature", "properties": { "Id": 0, "Sheet_ID": "50號", "label": "50號", "call_short": null, "call_num": null, "recid": null, "websiteUrl": null, "title": null, "ckey": 0, "available": false, "iiifUrl": null }, "geometry": { "type": "Polygon", "coordinates": [ [ [ 90.0, 14.0 ], [ 106.0, 14.0 ], [ 106.0, 34.0 ], [ 90.0, 34.0 ], [ 90.0, 14.0 ] ] ] } },
{ "type": "Feature", "properties": { "Id": 0, "Sheet_ID": "42號", "label": "42號", "call_short": "G7801 .P6 S2000 .J3", "call_num": "G7801 .P6 S2000 .J3 SHEET 42", "recid": "bs029gb2566", "websiteUrl": "https://purl.stanford.edu/bs029gb2566", "title": "二百万分一航法用経緯度圖", "ckey": 10652585, "available": true, "iiifUrl": "https://purl.stanford.edu/bs029gb2566/iiif/manifest" }, "geometry": { "type": "Polygon", "coordinates": [ [ [ 104.0, 49.0 ], [ 104.0, 32.0 ], [ 120.0, 32.0 ], [ 120.0, 49.0 ], [ 104.0, 49.0 ] ] ] } },
{ "type": "Feature", "properties": { "Id": 0, "Sheet_ID": "35號", "label": "35號", "call_short": "G7801 .P6 S2000 .J3", "call_num": "G7801 .P6 S2000 .J3 SHEET 35", "recid": "yr373tn9568", "websiteUrl": "https://purl.stanford.edu/yr373tn9568", "title": "二百万分一航法用経緯度圖", "ckey": 10652585, "available": true, "iiifUrl": "https://purl.stanford.edu/yr373tn9568/iiif/manifest" }, "geometry": { "type": "Polygon", "coordinates": [ [ [ 134.0, 49.0 ], [ 118.0, 49.0 ], [ 118.0, 32.0 ], [ 134.0, 32.0 ], [ 134.0, 49.0 ] ] ] } },
{ "type": "Feature", "properties": { "Id": 0, "Sheet_ID": "35號 方眼入", "label": "35號 方眼入", "call_short": "G7801 .P6 S2000 .J3", "call_num": "G7801 .P6 S2000 .J3 SHEET 35 GRID", "recid": "ch909qp7081", "websiteUrl": "https://purl.stanford.edu/ch909qp7081", "title": "二百万分一航法用経緯度圖", "ckey": 10652585, "available": true, "iiifUrl": "https://purl.stanford.edu/ch909qp7081/iiif/manifest" }, "geometry": { "type": "Polygon", "coordinates": [ [ [ 134.0, 49.0 ], [ 118.0, 49.0 ], [ 118.0, 32.0 ], [ 134.0, 32.0 ], [ 134.0, 49.0 ] ] ] } },
{ "type": "Feature", "properties": { "Id": 0, "Sheet_ID": "27號", "label": "27號", "call_short": "G7801 .P6 S2000 .J3", "call_num": "G7801 .P6 S2000 .J3 SHEET 27", "recid": "zk048fs0542", "websiteUrl": "https://purl.stanford.edu/zk048fs0542", "title": "二百万分一航法用経緯度圖", "ckey": 10652585, "available": true, "iiifUrl": "https://purl.stanford.edu/zk048fs0542/iiif/manifest" }, "geometry": { "type": "Polygon", "coordinates": [ [ [ 132.0, 49.0 ], [ 132.0, 32.0 ], [ 148.0, 32.0 ], [ 148.0, 49.0 ], [ 132.0, 49.0 ] ] ] } },
{ "type": "Feature", "properties": { "Id": 0, "Sheet_ID": "19號", "label": "19號", "call_short": "G7801 .P6 S2000 .J3", "call_num": "G7801 .P6 S2000 .J3 SHEET 19", "recid": "yk918vt6487", "websiteUrl": "https://purl.stanford.edu/yk918vt6487", "title": "二百万分一航法用経緯度圖", "ckey": 10652585, "available": true, "iiifUrl": "https://purl.stanford.edu/yk918vt6487/iiif/manifest" }, "geometry": { "type": "Polygon", "coordinates": [ [ [ 162.0, 49.0 ], [ 146.0, 49.0 ], [ 146.0, 32.0 ], [ 162.0, 32.0 ], [ 162.0, 49.0 ] ] ] } },
{ "type": "Feature", "properties": { "Id": 0, "Sheet_ID": "19號 方眼入", "label": "19號 方眼入", "call_short": "G7801 .P6 S2000 .J3", "call_num": "G7801 .P6 S2000 .J3 SHEET 19 GRID", "recid": "rd696bq7332", "websiteUrl": "https://purl.stanford.edu/rd696bq7332", "title": "二百万分一航法用経緯度圖", "ckey": 10652585, "available": true, "iiifUrl": "https://purl.stanford.edu/rd696bq7332/iiif/manifest" }, "geometry": { "type": "Polygon", "coordinates": [ [ [ 162.0, 49.0 ], [ 146.0, 49.0 ], [ 146.0, 32.0 ], [ 162.0, 32.0 ], [ 162.0, 49.0 ] ] ] } },
{ "type": "Feature", "properties": { "Id": 0, "Sheet_ID": "11號", "label": "11號", "call_short": null, "call_num": null, "recid": null, "websiteUrl": null, "title": null, "ckey": 0, "available": false, "iiifUrl": null }, "geometry": { "type": "Polygon", "coordinates": [ [ [ 160.0, 49.0 ], [ 160.0, 32.0 ], [ 176.0, 32.0 ], [ 176.0, 49.0 ], [ 160.0, 49.0 ] ] ] } },
{ "type": "Feature", "properties": { "Id": 0, "Sheet_ID": "26號", "label": "26號", "call_short": "G7801 .P6 S2000 .J3", "call_num": "G7801 .P6 S2000 .J3 SHEET 26", "recid": "br929cv6196", "websiteUrl": "https://purl.stanford.edu/br929cv6196", "title": "二百万分一航法用経緯度圖", "ckey": 10652585, "available": true, "iiifUrl": "https://purl.stanford.edu/br929cv6196/iiif/manifest" }, "geometry": { "type": "Polygon", "coordinates": [ [ [ 132.0, 47.0 ], [ 148.0, 47.0 ], [ 148.0, 60.0 ], [ 132.0, 60.0 ], [ 132.0, 47.0 ] ] ] } },
{ "type": "Feature", "properties": { "Id": 0, "Sheet_ID": "18號", "label": "18號", "call_short": "G7801 .P6 S2000 .J3", "call_num": "G7801 .P6 S2000 .J3 SHEET 18", "recid": "vw800cf2243", "websiteUrl": "https://purl.stanford.edu/vw800cf2243", "title": "二百万分一航法用経緯度圖", "ckey": 10652585, "available": true, "iiifUrl": "https://purl.stanford.edu/vw800cf2243/iiif/manifest" }, "geometry": { "type": "Polygon", "coordinates": [ [ [ 162.0, 47.0 ], [ 162.0, 60.0 ], [ 146.0, 60.0 ], [ 146.0, 47.0 ], [ 162.0, 47.0 ] ] ] } },
{ "type": "Feature", "properties": { "Id": 0, "Sheet_ID": "10號", "label": "10號", "call_short": null, "call_num": null, "recid": null, "websiteUrl": null, "title": null, "ckey": 0, "available": false, "iiifUrl": null }, "geometry": { "type": "Polygon", "coordinates": [ [ [ 160.0, 47.0 ], [ 176.0, 47.0 ], [ 176.0, 60.0 ], [ 160.0, 60.0 ], [ 160.0, 47.0 ] ] ] } },
{ "type": "Feature", "properties": { "Id": 0, "Sheet_ID": "25號", "label": "25號", "call_short": null, "call_num": null, "recid": null, "websiteUrl": null, "title": null, "ckey": 0, "available": false, "iiifUrl": null }, "geometry": { "type": "Polygon", "coordinates": [ [ [ 132.0, 68.0 ], [ 132.0, 58.0 ], [ 148.0, 58.0 ], [ 148.0, 68.0 ], [ 132.0, 68.0 ] ] ] } },
{ "type": "Feature", "properties": { "Id": 0, "Sheet_ID": "17號", "label": "17號", "call_short": "G7801 .P6 S2000 .J3", "call_num": "G7801 .P6 S2000 .J3 SHEET 17", "recid": "mg975hr2309", "websiteUrl": "https://purl.stanford.edu/mg975hr2309", "title": "二百万分一航法用経緯度圖", "ckey": 10652585, "available": true, "iiifUrl": "https://purl.stanford.edu/mg975hr2309/iiif/manifest" }, "geometry": { "type": "Polygon", "coordinates": [ [ [ 162.0, 68.0 ], [ 146.0, 68.0 ], [ 146.0, 58.0 ], [ 162.0, 58.0 ], [ 162.0, 68.0 ] ] ] } },
{ "type": "Feature", "properties": { "Id": 0, "Sheet_ID": "9號", "label": "9號", "call_short": null, "call_num": null, "recid": null, "websiteUrl": null, "title": null, "ckey": 0, "available": false, "iiifUrl": null }, "geometry": { "type": "Polygon", "coordinates": [ [ [ 160.0, 68.0 ], [ 160.0, 58.0 ], [ 176.0, 58.0 ], [ 176.0, 68.0 ], [ 160.0, 68.0 ] ] ] } },
{ "type": "Feature", "properties": { "Id": 0, "Sheet_ID": "51號", "label": "51號", "call_short": null, "call_num": null, "recid": null, "websiteUrl": null, "title": null, "ckey": 0, "available": false, "iiifUrl": null }, "geometry": { "type": "Polygon", "coordinates": [ [ [ 90.0, 16.0 ], [ 90.0, -6.0 ], [ 106.0, -6.0 ], [ 106.0, 16.0 ], [ 90.0, 16.0 ] ] ] } },
{ "type": "Feature", "properties": { "Id": 0, "Sheet_ID": "44號", "label": "44號", "call_short": null, "call_num": null, "recid": null, "websiteUrl": null, "title": null, "ckey": 0, "available": false, "iiifUrl": null }, "geometry": { "type": "Polygon", "coordinates": [ [ [ 104.0, 16.0 ], [ 104.0, -6.0 ], [ 120.0, -6.0 ], [ 120.0, 16.0 ], [ 104.0, 16.0 ] ] ] } },
{ "type": "Feature", "properties": { "Id": 0, "Sheet_ID": "13號", "label": "13號", "call_short": null, "call_num": null, "recid": null, "websiteUrl": null, "title": null, "ckey": 0, "available": false, "iiifUrl": null }, "geometry": { "type": "Polygon", "coordinates": [ [ [ 176.0, 16.0 ], [ 160.0, 16.0 ], [ 160.0, -6.0 ], [ 176.0, -6.0 ], [ 176.0, 16.0 ] ] ] } },
{ "type": "Feature", "properties": { "Id": 0, "Sheet_ID": "21號", "label": "21號", "call_short": null, "call_num": null, "recid": null, "websiteUrl": null, "title": null, "ckey": 0, "available": false, "iiifUrl": null }, "geometry": { "type": "Polygon", "coordinates": [ [ [ 146.0, 16.0 ], [ 146.0, -6.0 ], [ 162.0, -6.0 ], [ 162.0, 16.0 ], [ 146.0, 16.0 ] ] ] } },
{ "type": "Feature", "properties": { "Id": 0, "Sheet_ID": "29號", "label": "29號", "call_short": null, "call_num": null, "recid": null, "websiteUrl": null, "title": null, "ckey": 0, "available": false, "iiifUrl": null }, "geometry": { "type": "Polygon", "coordinates": [ [ [ 148.0, 16.0 ], [ 132.0, 16.0 ], [ 132.0, -6.0 ], [ 148.0, -6.0 ], [ 148.0, 16.0 ] ] ] } },
{ "type": "Feature", "properties": { "Id": 0, "Sheet_ID": "37號", "label": "37號", "call_short": null, "call_num": null, "recid": null, "websiteUrl": null, "title": null, "ckey": 0, "available": false, "iiifUrl": null }, "geometry": { "type": "Polygon", "coordinates": [ [ [ 118.0, 16.0 ], [ 118.0, -6.0 ], [ 134.0, -6.0 ], [ 134.0, 16.0 ], [ 118.0, 16.0 ] ] ] } },
{ "type": "Feature", "properties": { "Id": 0, "Sheet_ID": "52號", "label": "52號", "call_short": null, "call_num": null, "recid": null, "websiteUrl": null, "title": null, "ckey": 0, "available": false, "iiifUrl": null }, "geometry": { "type": "Polygon", "coordinates": [ [ [ 90.0, -20.0 ], [ 106.0, -20.0 ], [ 106.0, -4.0 ], [ 90.0, -4.0 ], [ 90.0, -20.0 ] ] ] } },
{ "type": "Feature", "properties": { "Id": 0, "Sheet_ID": "45號", "label": "45號", "call_short": null, "call_num": null, "recid": null, "websiteUrl": null, "title": null, "ckey": 0, "available": false, "iiifUrl": null }, "geometry": { "type": "Polygon", "coordinates": [ [ [ 104.0, -20.0 ], [ 120.0, -20.0 ], [ 120.0, -4.0 ], [ 104.0, -4.0 ], [ 104.0, -20.0 ] ] ] } }
]
}
