{
"type": "FeatureCollection",
"name": "index_map",
"features": [
{ "type": "Feature", "properties": { "Id": 0, "Sheet_ID": "気象概況", "label": "気象概況", "call_short": "G9406 .P5 1938 .J32", "call_num": "G9406 .P5 1938 .J32 SHEET 3", "recid": "mm733sw1515", "websiteUrl": "https://purl.stanford.edu/mm733sw1515", "title": "南洋群島", "ckey": 12375540, "available": true, "iiifUrl": "https://purl.stanford.edu/mm733sw1515/iiif/manifest" }, "geometry": { "type": "Polygon", "coordinates": [ [ [ 128.0, -5.0 ], [ 174.0, -5.0 ], [ 174.0, 22.0 ], [ 128.0, 22.0 ], [ 128.0, -5.0 ] ] ] } },
{ "type": "Feature", "properties": { "Id": 0, "Sheet_ID": "概説 (地勢概況 \"珊瑚島\" 竝ニ諸島間距離圖)", "label": "概説 (地勢概況 \"珊瑚島\" 竝ニ諸島間距離圖)", "call_short": "G9406 .P5 1938 .J32", "call_num": "G9406 .P5 1938 .J32 SHEET 2", "recid": "wz946yk8302", "websiteUrl": "https://purl.stanford.edu/wz946yk8302", "title": "南洋群島", "ckey": 12375540, "available": true, "iiifUrl": "https://purl.stanford.edu/wz946yk8302/iiif/manifest" }, "geometry": { "type": "Polygon", "coordinates": [ [ [ 128.0, -5.0 ], [ 174.0, -5.0 ], [ 174.0, 22.0 ], [ 128.0, 22.0 ], [ 128.0, -5.0 ] ] ] } },
{ "type": "Feature", "properties": { "Id": 0, "Sheet_ID": "概説 (一般)", "label": "概説 (一般)", "call_short": "G9406 .P5 1938 .J32", "call_num": "G9406 .P5 1938 .J32 SHEET 1", "recid": "mw439gj5571", "websiteUrl": "https://purl.stanford.edu/mw439gj5571", "title": "南洋群島", "ckey": 12375540, "available": true, "iiifUrl": "https://purl.stanford.edu/mw439gj5571/iiif/manifest" }, "geometry": { "type": "Polygon", "coordinates": [ [ [ 128.0, -5.0 ], [ 174.0, -5.0 ], [ 174.0, 22.0 ], [ 128.0, 22.0 ], [ 128.0, -5.0 ] ] ] } }
]
}
