{
"type": "FeatureCollection",
"name": "index_map",
"features": [
{ "type": "Feature", "properties": { "Id": 0, "Sheet_ID": "父島及附近", "label": "父島及附近", "call_short": "G7962 .B6 1931 .K3", "call_num": "G7962 .B6 1931 .K3", "recid": "sp648zm5831", "websiteUrl": "https://purl.stanford.edu/sp648zm5831", "title": "機密海圖 水路軍機", "ckey": 12784628, "available": true, "iiifUrl": "https://purl.stanford.edu/sp648zm5831/iiif/manifest" }, "geometry": { "type": "Polygon", "coordinates": [ [ [ 142.148333, 27.017778 ], [ 142.243333, 27.017778 ], [ 142.243333, 27.145 ], [ 142.148333, 27.145 ], [ 142.148333, 27.017778 ] ] ] } }
]
}
