{"type":"FeatureCollection","features":[{"type":"Feature","properties":{"Id":0,"Sheet_ID":"5. メラウケ","label":"5. メラウケ","call_short":"G8073 .P3 S500 .J3","call_num":"G8073 .P3 S500 .J3 SHEET 5","recid":"hc090yv5969","websiteUrl":"https://purl.stanford.edu/hc090yv5969","title":"西部「ニューギニア」兵要地誌資料圖","ckey":9591239,"web_map":"","available":"true","iiifUrl":"https://purl.stanford.edu/hc090yv5969/iiif/manifest"},"geometry":{"bbox":[140,-10,142.5,-8.333333333333332],"type":"Polygon","coordinates":[[[140,-10],[140,-8.333333333333332],[142.5,-8.333333333333332],[142.5,-10],[140,-10]]]}},{"type":"Feature","properties":{"Id":0,"Sheet_ID":"10. ファルス岬","label":"10. ファルス岬","call_short":"G8073 .P3 S500 .J3","call_num":"G8073 .P3 S500 .J3 SHEET 10","recid":"kd390kt7945","websiteUrl":"https://purl.stanford.edu/kd390kt7945","title":"西部「ニューギニア」兵要地誌資料圖","ckey":9591239,"web_map":"","available":"true","iiifUrl":"https://purl.stanford.edu/kd390kt7945/iiif/manifest"},"geometry":{"bbox":[137.5000000000001,-8.499999999999943,140.0000000000001,-6.666666666666686],"type":"Polygon","coordinates":[[[137.5000000000001,-8.499999999999943],[137.5000000000001,-6.666666666666686],[140.0000000000001,-6.666666666666686],[140.0000000000001,-8.499999999999943],[137.5000000000001,-8.499999999999943]]]}},{"type":"Feature","properties":{"Id":0,"Sheet_ID":"4. フライ河","label":"4. フライ河","call_short":"G8073 .P3 S500 .J3","call_num":"G8073 .P3 S500 .J3 SHEET 4","recid":"tp536vw3347","websiteUrl":"https://purl.stanford.edu/tp536vw3347","title":"西部「ニューギニア」兵要地誌資料圖","ckey":9591239,"web_map":"","available":"true","iiifUrl":"https://purl.stanford.edu/tp536vw3347/iiif/manifest"},"geometry":{"bbox":[140,-8.333333333333332,142.5,-6.666666666666665],"type":"Polygon","coordinates":[[[140,-8.333333333333332],[140,-6.666666666666665],[142.5,-6.666666666666665],[142.5,-8.333333333333332],[140,-8.333333333333332]]]}},{"type":"Feature","properties":{"Id":0,"Sheet_ID":"14. アンブケラー河口","label":"14. アンブケラー河口","call_short":"G8073 .P3 S500 .J3","call_num":"G8073 .P3 S500 .J3 SHEET 14","recid":"mm509wn4437","websiteUrl":"https://purl.stanford.edu/mm509wn4437","title":"西部「ニューギニア」兵要地誌資料圖","ckey":9591239,"web_map":"","available":"true","iiifUrl":"https://purl.stanford.edu/mm509wn4437/iiif/manifest"},"geometry":{"bbox":[135,-6.666666666666666,137.5,-4.999999999999999],"type":"Polygon","coordinates":[[[135,-6.666666666666666],[135,-4.999999999999999],[137.5,-4.999999999999999],[137.5,-6.666666666666666],[135,-6.666666666666666]]]}},{"type":"Feature","properties":{"Id":0,"Sheet_ID":"9. エイランデン河","label":"9. エイランデン河","call_short":"G8073 .P3 S500 .J3","call_num":"G8073 .P3 S500 .J3 SHEET 9","recid":"st676tm0150","websiteUrl":"https://purl.stanford.edu/st676tm0150","title":"西部「ニューギニア」兵要地誌資料圖","ckey":9591239,"web_map":"","available":"true","iiifUrl":"https://purl.stanford.edu/st676tm0150/iiif/manifest"},"geometry":{"bbox":[137.5,-6.666666666666666,140,-4.999999999999999],"type":"Polygon","coordinates":[[[137.5,-6.666666666666666],[137.5,-4.999999999999999],[140,-4.999999999999999],[140,-6.666666666666666],[137.5,-6.666666666666666]]]}},{"type":"Feature","properties":{"Id":0,"Sheet_ID":"3. タナーメラー","label":"3. タナーメラー","call_short":"G8073 .P3 S500 .J3","call_num":"G8073 .P3 S500 .J3 SHEET 3","recid":"wv918vn6702","websiteUrl":"https://purl.stanford.edu/wv918vn6702","title":"西部「ニューギニア」兵要地誌資料圖","ckey":9591239,"web_map":"","available":"true","iiifUrl":"https://purl.stanford.edu/wv918vn6702/iiif/manifest"},"geometry":{"bbox":[140,-6.666666666666666,142.5,-4.999999999999999],"type":"Polygon","coordinates":[[[140,-6.666666666666666],[140,-4.999999999999999],[142.5,-4.999999999999999],[142.5,-6.666666666666666],[140,-6.666666666666666]]]}},{"type":"Feature","properties":{"Id":0,"Sheet_ID":"17. カイマナ","label":"17. カイマナ","call_short":"G8073 .P3 S500 .J3","call_num":"G8073 .P3 S500 .J3 SHEET 17","recid":"jd150tb0289","websiteUrl":"https://purl.stanford.edu/jd150tb0289","title":"西部「ニューギニア」兵要地誌資料圖","ckey":9591239,"web_map":"","available":"true","iiifUrl":"https://purl.stanford.edu/jd150tb0289/iiif/manifest"},"geometry":{"bbox":[132.5,-4.999999999999999,135,-3.333333333333332],"type":"Polygon","coordinates":[[[132.5,-4.999999999999999],[132.5,-3.333333333333332],[135,-3.333333333333332],[135,-4.999999999999999],[132.5,-4.999999999999999]]]}},{"type":"Feature","properties":{"Id":0,"Sheet_ID":"13. カールステンツ山","label":"13. カールステンツ山","call_short":"G8073 .P3 S500 .J3","call_num":"G8073 .P3 S500 .J3 SHEET 13","recid":"rt473ms8927","websiteUrl":"https://purl.stanford.edu/rt473ms8927","title":"西部「ニューギニア」兵要地誌資料圖","ckey":9591239,"web_map":"","available":"true","iiifUrl":"https://purl.stanford.edu/rt473ms8927/iiif/manifest"},"geometry":{"bbox":[135,-4.999999999999999,137.5,-3.333333333333332],"type":"Polygon","coordinates":[[[135,-4.999999999999999],[135,-3.333333333333332],[137.5,-3.333333333333332],[137.5,-4.999999999999999],[135,-4.999999999999999]]]}},{"type":"Feature","properties":{"Id":0,"Sheet_ID":"8. ウイルヘルミナ山","label":"8. ウイルヘルミナ山","call_short":"G8073 .P3 S500 .J3","call_num":"G8073 .P3 S500 .J3 SHEET 8","recid":"kn273bm9020","websiteUrl":"https://purl.stanford.edu/kn273bm9020","title":"西部「ニューギニア」兵要地誌資料圖","ckey":9591239,"web_map":"","available":"true","iiifUrl":"https://purl.stanford.edu/kn273bm9020/iiif/manifest"},"geometry":{"bbox":[137.5,-4.999999999999999,140,-3.333333333333332],"type":"Polygon","coordinates":[[[137.5,-4.999999999999999],[137.5,-3.333333333333332],[140,-3.333333333333332],[140,-4.999999999999999],[137.5,-4.999999999999999]]]}},{"type":"Feature","properties":{"Id":0,"Sheet_ID":"2. エリアナ山","label":"2. エリアナ山","call_short":"G8073 .P3 S500 .J3","call_num":"G8073 .P3 S500 .J3 SHEET 2","recid":"zy914hy3484","websiteUrl":"https://purl.stanford.edu/zy914hy3484","title":"西部「ニューギニア」兵要地誌資料圖","ckey":9591239,"web_map":"","available":"true","iiifUrl":"https://purl.stanford.edu/zy914hy3484/iiif/manifest"},"geometry":{"bbox":[140,-4.999999999999999,142.5,-3.333333333333332],"type":"Polygon","coordinates":[[[140,-4.999999999999999],[140,-3.333333333333332],[142.5,-3.333333333333332],[142.5,-4.999999999999999],[140,-4.999999999999999]]]}},{"type":"Feature","properties":{"Id":0,"Sheet_ID":"19. ファクファク","label":"19. ファクファク","call_short":"G8073 .P3 S500 .J3","call_num":"G8073 .P3 S500 .J3 SHEET 19","recid":"sz913vs9515","websiteUrl":"https://purl.stanford.edu/sz913vs9515","title":"西部「ニューギニア」兵要地誌資料圖","ckey":9591239,"web_map":"","available":"true","iiifUrl":"https://purl.stanford.edu/sz913vs9515/iiif/manifest"},"geometry":{"bbox":[130,-3.333333333333332,132.5,-1.6666666666666654],"type":"Polygon","coordinates":[[[130,-3.333333333333332],[130,-1.6666666666666654],[132.5,-1.6666666666666654],[132.5,-3.333333333333332],[130,-3.333333333333332]]]}},{"type":"Feature","properties":{"Id":0,"Sheet_ID":"16. バボ","label":"16. バボ","call_short":"","call_num":"","recid":"","websiteUrl":"","title":"","ckey":0,"web_map":"","available":"false","iiifUrl":""},"geometry":{"bbox":[132.5,-3.333333333333332,135,-1.6666666666666654],"type":"Polygon","coordinates":[[[132.5,-3.333333333333332],[132.5,-1.6666666666666654],[135,-1.6666666666666654],[135,-3.333333333333332],[132.5,-3.333333333333332]]]}},{"type":"Feature","properties":{"Id":0,"Sheet_ID":"12. セルイ","label":"12. セルイ","call_short":"G8073 .P3 S500 .J3","call_num":"G8073 .P3 S500 .J3 SHEET 12","recid":"xx255tr4325","websiteUrl":"https://purl.stanford.edu/xx255tr4325","title":"西部「ニューギニア」兵要地誌資料圖","ckey":9591239,"web_map":"","available":"true","iiifUrl":"https://purl.stanford.edu/xx255tr4325/iiif/manifest"},"geometry":{"bbox":[135,-3.333333333333332,137.5,-1.6666666666666654],"type":"Polygon","coordinates":[[[135,-3.333333333333332],[135,-1.6666666666666654],[137.5,-1.6666666666666654],[137.5,-3.333333333333332],[135,-3.333333333333332]]]}},{"type":"Feature","properties":{"Id":0,"Sheet_ID":"7. マンベラモ河","label":"7. マンベラモ河","call_short":"G8073 .P3 S500 .J3","call_num":"G8073 .P3 S500 .J3 SHEET 7","recid":"rs838vb8391","websiteUrl":"https://purl.stanford.edu/rs838vb8391","title":"西部「ニューギニア」兵要地誌資料圖","ckey":9591239,"web_map":"","available":"true","iiifUrl":"https://purl.stanford.edu/rs838vb8391/iiif/manifest"},"geometry":{"bbox":[137.5,-3.333333333333332,140,-1.6666666666666654],"type":"Polygon","coordinates":[[[137.5,-3.333333333333332],[137.5,-1.6666666666666654],[140,-1.6666666666666654],[140,-3.333333333333332],[137.5,-3.333333333333332]]]}},{"type":"Feature","properties":{"Id":0,"Sheet_ID":"1. ホランディア","label":"1. ホランディア","call_short":"G8073 .P3 S500 .J3","call_num":"G8073 .P3 S500 .J3 SHEET 1","recid":"tz671qx5158","websiteUrl":"https://purl.stanford.edu/tz671qx5158","title":"西部「ニューギニア」兵要地誌資料圖","ckey":9591239,"web_map":"","available":"true","iiifUrl":"https://purl.stanford.edu/tz671qx5158/iiif/manifest"},"geometry":{"bbox":[140,-3.333333333333332,142.5,-1.6666666666666654],"type":"Polygon","coordinates":[[[140,-3.333333333333332],[140,-1.6666666666666654],[142.5,-1.6666666666666654],[142.5,-3.333333333333332],[140,-3.333333333333332]]]}},{"type":"Feature","properties":{"Id":0,"Sheet_ID":"18. ソロン","label":"18. ソロン","call_short":"G8073 .P3 S500 .J3","call_num":"G8073 .P3 S500 .J3 SHEET 18","recid":"pz279yt4391","websiteUrl":"https://purl.stanford.edu/pz279yt4391","title":"西部「ニューギニア」兵要地誌資料圖","ckey":9591239,"web_map":"","available":"true","iiifUrl":"https://purl.stanford.edu/pz279yt4391/iiif/manifest"},"geometry":{"bbox":[130,-1.6666666666666643,132.5,2.664535259100376e-15],"type":"Polygon","coordinates":[[[130,-1.6666666666666643],[130,2.664535259100376e-15],[132.5,2.664535259100376e-15],[132.5,-1.6666666666666643],[130,-1.6666666666666643]]]}},{"type":"Feature","properties":{"Id":0,"Sheet_ID":"15. マノクヮリイ","label":"15. マノクヮリイ","call_short":"G8073 .P3 S500 .J3","call_num":"G8073 .P3 S500 .J3 SHEET 15","recid":"vd698br3646","websiteUrl":"https://purl.stanford.edu/vd698br3646","title":"西部「ニューギニア」兵要地誌資料圖","ckey":9591239,"web_map":"","available":"true","iiifUrl":"https://purl.stanford.edu/vd698br3646/iiif/manifest"},"geometry":{"bbox":[132.5,-1.6666666666666643,135,2.664535259100376e-15],"type":"Polygon","coordinates":[[[132.5,-1.6666666666666643],[132.5,2.664535259100376e-15],[135,2.664535259100376e-15],[135,-1.6666666666666643],[132.5,-1.6666666666666643]]]}},{"type":"Feature","properties":{"Id":0,"Sheet_ID":"11. ビアク島","label":"11. ビアク島","call_short":"G8073 .P3 S500 .J3","call_num":"G8073 .P3 S500 .J3 SHEET 11","recid":"qv317vz1590","websiteUrl":"https://purl.stanford.edu/qv317vz1590","title":"西部「ニューギニア」兵要地誌資料圖","ckey":9591239,"web_map":"","available":"true","iiifUrl":"https://purl.stanford.edu/qv317vz1590/iiif/manifest"},"geometry":{"bbox":[135,-1.6666666666666643,137.5,2.664535259100376e-15],"type":"Polygon","coordinates":[[[135,-1.6666666666666643],[135,2.664535259100376e-15],[137.5,2.664535259100376e-15],[137.5,-1.6666666666666643],[135,-1.6666666666666643]]]}},{"type":"Feature","properties":{"Id":0,"Sheet_ID":"6. デュルヴィユ岬","label":"6. デュルヴィユ岬","call_short":"G8073 .P3 S500 .J3","call_num":"G8073 .P3 S500 .J3 SHEET 6","recid":"ft770qm7818","websiteUrl":"https://purl.stanford.edu/ft770qm7818","title":"西部「ニューギニア」兵要地誌資料圖","ckey":9591239,"web_map":"","available":"true","iiifUrl":"https://purl.stanford.edu/ft770qm7818/iiif/manifest"},"geometry":{"bbox":[137.5,-1.6666666666666643,140,2.664535259100376e-15],"type":"Polygon","coordinates":[[[137.5,-1.6666666666666643],[137.5,2.664535259100376e-15],[140,2.664535259100376e-15],[140,-1.6666666666666643],[137.5,-1.6666666666666643]]]}}],"name":"index_9591239"}
