{
"type": "FeatureCollection",
"name": "index_map",
"xy_coordinate_resolution": 1e-07,
"features": [
{ "type": "Feature", "properties": { "Id": 0, "Sheet_ID": "15. ギヤガス島", "label": "15. ギヤガス島", "call_short": "G9425 S25 .J3", "call_num": "G9425 S25 .J3 SHEET 15", "recid": "hy414cm7625", "websiteUrl": "https://purl.stanford.edu/hy414cm7625", "title": "二万五千分一地形圖 パラオ列島", "ckey": 10557565, "available": true, "iiifUrl": "https://purl.stanford.edu/hy414cm7625/iiif/manifest" }, "geometry": { "type": "Polygon", "coordinates": [ [ [ 134.3, 7.166667 ], [ 134.4, 7.166667 ], [ 134.4, 7.2500003 ], [ 134.3, 7.2500003 ], [ 134.3, 7.166667 ] ] ] } },
{ "type": "Feature", "properties": { "Id": 0, "Sheet_ID": "13. ガラメディウ鼻", "label": "13. ガラメディウ鼻", "call_short": "G9425 S25 .J3", "call_num": "G9425 S25 .J3 SHEET 13", "recid": "vj749bm6065", "websiteUrl": "https://purl.stanford.edu/vj749bm6065", "title": "二万五千分一地形圖 パラオ列島", "ckey": 10557565, "available": true, "iiifUrl": "https://purl.stanford.edu/vj749bm6065/iiif/manifest" }, "geometry": { "type": "Polygon", "coordinates": [ [ [ 134.4, 7.166667 ], [ 134.5, 7.166667 ], [ 134.5, 7.2500003 ], [ 134.4, 7.2500003 ], [ 134.4, 7.166667 ] ] ] } },
{ "type": "Feature", "properties": { "Id": 0, "Sheet_ID": "16. アウロン島", "label": "16. アウロン島", "call_short": "G9425 S25 .J3", "call_num": "0", "recid": "0", "websiteUrl": "0", "title": "0", "ckey": 0, "available": false, "iiifUrl": "0" }, "geometry": { "type": "Polygon", "coordinates": [ [ [ 134.2, 7.2500003 ], [ 134.3, 7.2500003 ], [ 134.3, 7.3333336 ], [ 134.2, 7.3333336 ], [ 134.2, 7.2500003 ] ] ] } },
{ "type": "Feature", "properties": { "Id": 0, "Sheet_ID": "14. ガムドコ島", "label": "14. ガムドコ島", "call_short": "G9425 S25 .J3", "call_num": "G9425 S25 .J3 SHEET 14", "recid": "hg949gq6792", "websiteUrl": "https://purl.stanford.edu/hg949gq6792", "title": "二万五千分一地形圖 パラオ列島", "ckey": 10557565, "available": true, "iiifUrl": "https://purl.stanford.edu/hg949gq6792/iiif/manifest" }, "geometry": { "type": "Polygon", "coordinates": [ [ [ 134.3, 7.2500003 ], [ 134.4, 7.2500003 ], [ 134.4, 7.3333336 ], [ 134.3, 7.3333336 ], [ 134.3, 7.2500003 ] ] ] } },
{ "type": "Feature", "properties": { "Id": 0, "Sheet_ID": "12. マラカル港", "label": "12. マラカル港", "call_short": "G9425 S25 .J3", "call_num": "0", "recid": "0", "websiteUrl": "0", "title": "0", "ckey": 0, "available": false, "iiifUrl": "0" }, "geometry": { "type": "Polygon", "coordinates": [ [ [ 134.4, 7.2500003 ], [ 134.5, 7.2500003 ], [ 134.5, 7.3333336 ], [ 134.4, 7.3333336 ], [ 134.4, 7.2500003 ] ] ] } },
{ "type": "Feature", "properties": { "Id": 0, "Sheet_ID": "9. アウグルペリュー島", "label": "9. アウグルペリュー島", "call_short": "G9425 S25 .J3", "call_num": "0", "recid": "0", "websiteUrl": "0", "title": "0", "ckey": 0, "available": false, "iiifUrl": "0" }, "geometry": { "type": "Polygon", "coordinates": [ [ [ 134.5, 7.2500003 ], [ 134.6, 7.2500003 ], [ 134.6, 7.3333336 ], [ 134.5, 7.3333336 ], [ 134.5, 7.2500003 ] ] ] } },
{ "type": "Feature", "properties": { "Id": 0, "Sheet_ID": "11. コロール", "label": "11. コロール", "call_short": "G9425 S25 .J3", "call_num": "G9425 S25 .J3 SHEET 11", "recid": "vy353bq7513", "websiteUrl": "https://purl.stanford.edu/vy353bq7513", "title": "二万五千分一地形圖 パラオ列島", "ckey": 10557565, "available": true, "iiifUrl": "https://purl.stanford.edu/vy353bq7513/iiif/manifest" }, "geometry": { "type": "Polygon", "coordinates": [ [ [ 134.4, 7.3333336 ], [ 134.5, 7.3333336 ], [ 134.5, 7.4166669 ], [ 134.4, 7.4166669 ], [ 134.4, 7.3333336 ] ] ] } },
{ "type": "Feature", "properties": { "Id": 0, "Sheet_ID": "8. アイライ", "label": "8. アイライ", "call_short": "G9425 S25 .J3", "call_num": "0", "recid": "0", "websiteUrl": "0", "title": "0", "ckey": 0, "available": false, "iiifUrl": "0" }, "geometry": { "type": "Polygon", "coordinates": [ [ [ 134.5, 7.3333336 ], [ 134.6, 7.3333336 ], [ 134.6, 7.4166669 ], [ 134.5, 7.4166669 ], [ 134.5, 7.3333336 ] ] ] } },
{ "type": "Feature", "properties": { "Id": 0, "Sheet_ID": "10. ガリキアイ", "label": "10. ガリキアイ", "call_short": "G9425 S25 .J3", "call_num": "0", "recid": "0", "websiteUrl": "0", "title": "0", "ckey": 0, "available": false, "iiifUrl": "0" }, "geometry": { "type": "Polygon", "coordinates": [ [ [ 134.4, 7.4166669 ], [ 134.5, 7.4166669 ], [ 134.5, 7.5000001 ], [ 134.4, 7.5000001 ], [ 134.4, 7.4166669 ] ] ] } },
{ "type": "Feature", "properties": { "Id": 0, "Sheet_ID": "7. ガスパン", "label": "7. ガスパン", "call_short": "G9425 S25 .J3", "call_num": "0", "recid": "0", "websiteUrl": "0", "title": "0", "ckey": 0, "available": false, "iiifUrl": "0" }, "geometry": { "type": "Polygon", "coordinates": [ [ [ 134.5, 7.4166669 ], [ 134.6, 7.4166669 ], [ 134.6, 7.5000001 ], [ 134.5, 7.5000001 ], [ 134.5, 7.4166669 ] ] ] } },
{ "type": "Feature", "properties": { "Id": 0, "Sheet_ID": "4. マルキヨク", "label": "4. マルキヨク", "call_short": "G9425 S25 .J3", "call_num": "0", "recid": "0", "websiteUrl": "0", "title": "0", "ckey": 0, "available": false, "iiifUrl": "0" }, "geometry": { "type": "Polygon", "coordinates": [ [ [ 134.6, 7.4166669 ], [ 134.7, 7.4166669 ], [ 134.7, 7.5000001 ], [ 134.6, 7.5000001 ], [ 134.6, 7.4166669 ] ] ] } },
{ "type": "Feature", "properties": { "Id": 0, "Sheet_ID": "6. アルマテン", "label": "6. アルマテン", "call_short": "G9425 S25 .J3", "call_num": "G9425 S25 .J3 SHEET 6", "recid": "dx617ts1787", "websiteUrl": "https://purl.stanford.edu/dx617ts1787", "title": "二万五千分一地形圖 パラオ列島", "ckey": 10557565, "available": true, "iiifUrl": "https://purl.stanford.edu/dx617ts1787/iiif/manifest" }, "geometry": { "type": "Polygon", "coordinates": [ [ [ 134.6, 7.5000001 ], [ 134.6, 7.5833334 ], [ 134.5, 7.5833334 ], [ 134.5, 7.54 ], [ 134.49, 7.54 ], [ 134.49, 7.5000001 ], [ 134.5, 7.5000001 ], [ 134.6, 7.5000001 ] ] ] } },
{ "type": "Feature", "properties": { "Id": 0, "Sheet_ID": "3. オギワル", "label": "3. オギワル", "call_short": "G9425 S25 .J3", "call_num": "0", "recid": "0", "websiteUrl": "0", "title": "0", "ckey": 0, "available": false, "iiifUrl": "0" }, "geometry": { "type": "Polygon", "coordinates": [ [ [ 134.6, 7.5000001 ], [ 134.7, 7.5000001 ], [ 134.7, 7.5833334 ], [ 134.6, 7.5833334 ], [ 134.6, 7.5000001 ] ] ] } },
{ "type": "Feature", "properties": { "Id": 0, "Sheet_ID": "5. ガラスマオ", "label": "5. ガラスマオ", "call_short": "G9425 S25 .J3", "call_num": "G9425 S25 .J3 SHEET 5", "recid": "cv457mr3439", "websiteUrl": "https://purl.stanford.edu/cv457mr3439", "title": "二万五千分一地形圖 パラオ列島", "ckey": 10557565, "available": true, "iiifUrl": "https://purl.stanford.edu/cv457mr3439/iiif/manifest" }, "geometry": { "type": "Polygon", "coordinates": [ [ [ 134.5, 7.5833334 ], [ 134.6, 7.5833334 ], [ 134.6, 7.6666667 ], [ 134.5, 7.6666667 ], [ 134.5, 7.5833334 ] ] ] } },
{ "type": "Feature", "properties": { "Id": 0, "Sheet_ID": "2. ガボクド", "label": "2. ガボクド", "call_short": "G9425 S25 .J3", "call_num": "0", "recid": "0", "websiteUrl": "0", "title": "0", "ckey": 0, "available": false, "iiifUrl": "0" }, "geometry": { "type": "Polygon", "coordinates": [ [ [ 134.6, 7.5833334 ], [ 134.7, 7.5833334 ], [ 134.7, 7.6666667 ], [ 134.6, 7.6666667 ], [ 134.6, 7.5833334 ] ] ] } },
{ "type": "Feature", "properties": { "Id": 0, "Sheet_ID": "1. ガラパオ", "label": "1. ガラパオ", "call_short": "G9425 S25 .J3", "call_num": "0", "recid": "0", "websiteUrl": "0", "title": "0", "ckey": 0, "available": false, "iiifUrl": "0" }, "geometry": { "type": "Polygon", "coordinates": [ [ [ 134.6, 7.6666667 ], [ 134.7, 7.6666667 ], [ 134.7, 7.75 ], [ 134.6, 7.75 ], [ 134.6, 7.6666667 ] ] ] } }
]
}
