{"type":"FeatureCollection","features":[{"type":"Feature","properties":{"Id":0,"Sheet_ID":"12. 南岬","label":"12. 南岬","call_short":"G7910 S200 .J3","call_num":"G7910 S200 .J3 SHEET 12","recid":"zd820ky0385","websiteUrl":"https://purl.stanford.edu/zd820ky0385","title":"臺灣假製二十万分一圖","ckey":9861099,"web_map":"","available":"true","iiifUrl":"https://purl.stanford.edu/zd820ky0385/iiif/manifest"},"geometry":{"bbox":[119.99999999999999,21.333333,121,21.999999666666668],"type":"Polygon","coordinates":[[[119.99999999999999,21.333333],[119.99999999999999,21.999999666666668],[121,21.999999666666668],[121,21.333333],[119.99999999999999,21.333333]]]}},{"type":"Feature","properties":{"Id":0,"Sheet_ID":"6. 小紅頭嶼","label":"6. 小紅頭嶼","call_short":"G7910 S200 .J3","call_num":"G7910 S200 .J3 SHEET 6","recid":"sp334fk8630","websiteUrl":"https://purl.stanford.edu/sp334fk8630","title":"臺灣假製二十万分一圖","ckey":9861099,"web_map":"","available":"true","iiifUrl":"https://purl.stanford.edu/sp334fk8630/iiif/manifest"},"geometry":{"bbox":[121,21.333333,122,21.999999666666668],"type":"Polygon","coordinates":[[[121,21.333333],[121,21.999999666666668],[122,21.999999666666668],[122,21.333333],[121,21.333333]]]}},{"type":"Feature","properties":{"Id":0,"Sheet_ID":"11. 鳳山","label":"11. 鳳山","call_short":"","call_num":"","recid":"","websiteUrl":"","title":"","ckey":0,"web_map":"","available":"false","iiifUrl":""},"geometry":{"bbox":[119.99999999999999,21.999999666666668,121,22.666666333333335],"type":"Polygon","coordinates":[[[119.99999999999999,21.999999666666668],[119.99999999999999,22.666666333333335],[121,22.666666333333335],[121,21.999999666666668],[119.99999999999999,21.999999666666668]]]}},{"type":"Feature","properties":{"Id":0,"Sheet_ID":"5. 紅頭嶼","label":"5. 紅頭嶼","call_short":"G7910 S200 .J3","call_num":"G7910 S200 .J3 SHEET 5","recid":"mb837hr4555","websiteUrl":"https://purl.stanford.edu/mb837hr4555","title":"臺灣假製二十万分一圖","ckey":9861099,"web_map":"","available":"true","iiifUrl":"https://purl.stanford.edu/mb837hr4555/iiif/manifest"},"geometry":{"bbox":[121,21.999999666666668,122,22.666666333333335],"type":"Polygon","coordinates":[[[121,21.999999666666668],[121,22.666666333333335],[122,22.666666333333335],[122,21.999999666666668],[121,21.999999666666668]]]}},{"type":"Feature","properties":{"Id":0,"Sheet_ID":"14. 大嶼","label":"14. 大嶼","call_short":"G7910 S200 .J3","call_num":"G7910 S200 .J3 SHEET 14","recid":"bk084sq4034","websiteUrl":"https://purl.stanford.edu/bk084sq4034","title":"臺灣假製二十万分一圖","ckey":9861099,"web_map":"","available":"true","iiifUrl":"https://purl.stanford.edu/bk084sq4034/iiif/manifest"},"geometry":{"bbox":[119,22.666666333333332,119.99999999999999,23.333333],"type":"Polygon","coordinates":[[[119,22.666666333333332],[119,23.333333],[119.99999999999999,23.333333],[119.99999999999999,22.666666333333332],[119,22.666666333333332]]]}},{"type":"Feature","properties":{"Id":0,"Sheet_ID":"10. 臺南","label":"10. 臺南","call_short":"","call_num":"","recid":"","websiteUrl":"","title":"","ckey":0,"web_map":"","available":"false","iiifUrl":""},"geometry":{"bbox":[119.99999999999999,22.666666333333332,121,23.333333],"type":"Polygon","coordinates":[[[119.99999999999999,22.666666333333332],[119.99999999999999,23.333333],[121,23.333333],[121,22.666666333333332],[119.99999999999999,22.666666333333332]]]}},{"type":"Feature","properties":{"Id":0,"Sheet_ID":"4. 卑南","label":"4. 卑南","call_short":"G7910 S200 .J3","call_num":"G7910 S200 .J3 SHEET 4","recid":"sd651kj0326","websiteUrl":"https://purl.stanford.edu/sd651kj0326","title":"臺灣假製二十万分一圖","ckey":9861099,"web_map":"","available":"true","iiifUrl":"https://purl.stanford.edu/sd651kj0326/iiif/manifest"},"geometry":{"bbox":[121,22.666666333333332,122,23.333333],"type":"Polygon","coordinates":[[[121,22.666666333333332],[121,23.333333],[122,23.333333],[122,22.666666333333332],[121,22.666666333333332]]]}},{"type":"Feature","properties":{"Id":0,"Sheet_ID":"13. 澎湖島","label":"13. 澎湖島","call_short":"","call_num":"","recid":"","websiteUrl":"","title":"","ckey":0,"web_map":"","available":"false","iiifUrl":""},"geometry":{"bbox":[119,23.333333,119.99999999999999,23.99999966666667],"type":"Polygon","coordinates":[[[119,23.333333],[119,23.99999966666667],[119.99999999999999,23.99999966666667],[119.99999999999999,23.333333],[119,23.333333]]]}},{"type":"Feature","properties":{"Id":0,"Sheet_ID":"9. 嘉義","label":"9. 嘉義","call_short":"","call_num":"","recid":"","websiteUrl":"","title":"","ckey":0,"web_map":"","available":"false","iiifUrl":""},"geometry":{"bbox":[119.99999999999999,23.333333,121,23.99999966666667],"type":"Polygon","coordinates":[[[119.99999999999999,23.333333],[119.99999999999999,23.99999966666667],[121,23.99999966666667],[121,23.333333],[119.99999999999999,23.333333]]]}},{"type":"Feature","properties":{"Id":0,"Sheet_ID":"3. 板仔庄","label":"3. 板仔庄","call_short":"","call_num":"","recid":"","websiteUrl":"","title":"","ckey":0,"web_map":"","available":"false","iiifUrl":""},"geometry":{"bbox":[121,23.333333,122,23.99999966666667],"type":"Polygon","coordinates":[[[121,23.333333],[121,23.99999966666667],[122,23.99999966666667],[122,23.333333],[121,23.333333]]]}},{"type":"Feature","properties":{"Id":0,"Sheet_ID":"8. 臺灣","label":"8. 臺灣","call_short":"","call_num":"","recid":"","websiteUrl":"","title":"","ckey":0,"web_map":"","available":"false","iiifUrl":""},"geometry":{"bbox":[119.99999999999999,23.99999966666667,121,24.666666333333335],"type":"Polygon","coordinates":[[[119.99999999999999,23.99999966666667],[119.99999999999999,24.666666333333335],[121,24.666666333333335],[121,23.99999966666667],[119.99999999999999,23.99999966666667]]]}},{"type":"Feature","properties":{"Id":0,"Sheet_ID":"2. 蘇澳","label":"2. 蘇澳","call_short":"","call_num":"","recid":"","websiteUrl":"","title":"","ckey":0,"web_map":"","available":"false","iiifUrl":""},"geometry":{"bbox":[121,23.99999966666667,122,24.666666333333335],"type":"Polygon","coordinates":[[[121,23.99999966666667],[121,24.666666333333335],[122,24.666666333333335],[122,23.99999966666667],[121,23.99999966666667]]]}},{"type":"Feature","properties":{"Id":0,"Sheet_ID":"7. 新竹","label":"7. 新竹","call_short":"G7910 S200 .J3","call_num":"G7910 S200 .J3 SHEET 7","recid":"sz838km5088","websiteUrl":"https://purl.stanford.edu/sz838km5088","title":"臺灣假製二十万分一圖","ckey":9861099,"web_map":"","available":"true","iiifUrl":"https://purl.stanford.edu/sz838km5088/iiif/manifest"},"geometry":{"bbox":[119.99999999999999,24.666666333333332,121,25.333333],"type":"Polygon","coordinates":[[[119.99999999999999,24.666666333333332],[119.99999999999999,25.333333],[121,25.333333],[121,24.666666333333332],[119.99999999999999,24.666666333333332]]]}},{"type":"Feature","properties":{"Id":0,"Sheet_ID":"1. 臺北","label":"1. 臺北","call_short":"G7910 S200 .J3","call_num":"G7910 S200 .J3 SHEET 1","recid":"wc958mv2300","websiteUrl":"https://purl.stanford.edu/wc958mv2300","title":"臺灣假製二十万分一圖","ckey":9861099,"web_map":"","available":"true","iiifUrl":"https://purl.stanford.edu/wc958mv2300/iiif/manifest"},"geometry":{"bbox":[121,24.666666333333332,122,25.333333],"type":"Polygon","coordinates":[[[121,24.666666333333332],[121,25.333333],[122,25.333333],[122,24.666666333333332],[121,24.666666333333332]]]}}],"name":"index_9861099"}
