{"type":"FeatureCollection","features":[{"type":"Feature","properties":{"Id":0,"Sheet_ID":"西能登呂岬 14","label":"西能登呂岬 14","call_short":"","call_num":"","recid":"","websiteUrl":"","title":"","ckey":0,"web_map":"","available":"false","iiiUrl":""},"geometry":{"bbox":[142,45.666667,142.25,45.833333653846154],"type":"Polygon","coordinates":[[[142,45.666667],[142,45.833333653846154],[142.25,45.833333653846154],[142.25,45.666667],[142,45.666667]]]}},{"type":"Feature","properties":{"Id":0,"Sheet_ID":"西能登呂岬 13","label":"西能登呂岬 13","call_short":"","call_num":"","recid":"","websiteUrl":"","title":"","ckey":0,"web_map":"","available":"false","iiiUrl":""},"geometry":{"bbox":[142,45.833333653846154,142.25,46.00000030769231],"type":"Polygon","coordinates":[[[142,45.833333653846154],[142,46.00000030769231],[142.25,46.00000030769231],[142.25,45.833333653846154],[142,45.833333653846154]]]}},{"type":"Feature","properties":{"Id":0,"Sheet_ID":"氣主 4","label":"氣主 4","call_short":"","call_num":"","recid":"","websiteUrl":"","title":"","ckey":0,"web_map":"","available":"false","iiiUrl":""},"geometry":{"bbox":[141.75,46.000000307692304,142,46.16666696153846],"type":"Polygon","coordinates":[[[141.75,46.000000307692304],[141.75,46.16666696153846],[142,46.16666696153846],[142,46.000000307692304],[141.75,46.000000307692304]]]}},{"type":"Feature","properties":{"Id":0,"Sheet_ID":"大泊 16","label":"大泊 16","call_short":"","call_num":"","recid":"","websiteUrl":"","title":"","ckey":0,"web_map":"","available":"false","iiiUrl":""},"geometry":{"bbox":[142,46.000000307692304,142.25,46.16666696153846],"type":"Polygon","coordinates":[[[142,46.000000307692304],[142,46.16666696153846],[142.25,46.16666696153846],[142.25,46.000000307692304],[142,46.000000307692304]]]}},{"type":"Feature","properties":{"Id":0,"Sheet_ID":"知床岬 12","label":"知床岬 12","call_short":"","call_num":"","recid":"","websiteUrl":"","title":"","ckey":0,"web_map":"","available":"false","iiiUrl":""},"geometry":{"bbox":[143.25,46.000000307692304,143.5,46.16666696153846],"type":"Polygon","coordinates":[[[143.25,46.000000307692304],[143.25,46.16666696153846],[143.5,46.16666696153846],[143.5,46.000000307692304],[143.25,46.000000307692304]]]}},{"type":"Feature","properties":{"Id":0,"Sheet_ID":"氣主 15","label":"氣主 15","call_short":"G7330 S50 .J36","call_num":"G7330 S50 .J36 S-15","recid":"sw814fs9964","websiteUrl":"https://purl.stanford.edu/sw814fs9964","title":"仮製 樺太南部五万分一","ckey":12121660,"web_map":"","available":"true","iiiUrl":"https://purl.stanford.edu/sw814fs9964/iiif/manifest"},"geometry":{"bbox":[141,46.16666696153846,141.25,46.33333361538462],"type":"Polygon","coordinates":[[[141,46.16666696153846],[141,46.33333361538462],[141.25,46.33333361538462],[141.25,46.16666696153846],[141,46.16666696153846]]]}},{"type":"Feature","properties":{"Id":0,"Sheet_ID":"氣主 3","label":"氣主 3","call_short":"G7330 S50 .J36","call_num":"G7330 S50 .J36 S-3","recid":"mt579db4193","websiteUrl":"https://purl.stanford.edu/mt579db4193","title":"仮製 樺太南部五万分一","ckey":12121660,"web_map":"","available":"true","iiiUrl":"https://purl.stanford.edu/mt579db4193/iiif/manifest"},"geometry":{"bbox":[141.75,46.16666696153846,142,46.33333361538462],"type":"Polygon","coordinates":[[[141.75,46.16666696153846],[141.75,46.33333361538462],[142,46.33333361538462],[142,46.16666696153846],[141.75,46.16666696153846]]]}},{"type":"Feature","properties":{"Id":0,"Sheet_ID":"大泊 15","label":"大泊 15","call_short":"G7330 S50 .J36","call_num":"G7330 S50 .J36 M-15","recid":"bh320nj0465","websiteUrl":"https://purl.stanford.edu/bh320nj0465","title":"仮製 樺太南部五万分一","ckey":12121660,"web_map":"","available":"true","iiiUrl":"https://purl.stanford.edu/bh320nj0465/iiif/manifest"},"geometry":{"bbox":[142,46.16666696153846,142.25,46.33333361538462],"type":"Polygon","coordinates":[[[142,46.16666696153846],[142,46.33333361538462],[142.25,46.33333361538462],[142.25,46.16666696153846],[142,46.16666696153846]]]}},{"type":"Feature","properties":{"Id":0,"Sheet_ID":"知床岬 11","label":"知床岬 11","call_short":"","call_num":"","recid":"","websiteUrl":"","title":"","ckey":0,"web_map":"","available":"false","iiiUrl":""},"geometry":{"bbox":[143.25,46.16666696153846,143.5,46.33333361538462],"type":"Polygon","coordinates":[[[143.25,46.16666696153846],[143.25,46.33333361538462],[143.5,46.33333361538462],[143.5,46.16666696153846],[143.25,46.16666696153846]]]}},{"type":"Feature","properties":{"Id":0,"Sheet_ID":"知床岬 7","label":"知床岬 7","call_short":"","call_num":"","recid":"","websiteUrl":"","title":"","ckey":0,"web_map":"","available":"false","iiiUrl":""},"geometry":{"bbox":[143.5,46.16666696153846,143.75000000000003,46.33333361538462],"type":"Polygon","coordinates":[[[143.5,46.16666696153846],[143.5,46.33333361538462],[143.75000000000003,46.33333361538462],[143.75000000000003,46.16666696153846],[143.5,46.16666696153846]]]}},{"type":"Feature","properties":{"Id":0,"Sheet_ID":"氣主 2","label":"氣主 2","call_short":"G7330 S50 .J36","call_num":"G7330 S50 .J36 S-2","recid":"fg078cz4868","websiteUrl":"https://purl.stanford.edu/fg078cz4868","title":"仮製 樺太南部五万分一","ckey":12121660,"web_map":"","available":"true","iiiUrl":"https://purl.stanford.edu/fg078cz4868/iiif/manifest"},"geometry":{"bbox":[141.75,46.33333361538461,142,46.50000026923077],"type":"Polygon","coordinates":[[[141.75,46.33333361538461],[141.75,46.50000026923077],[142,46.50000026923077],[142,46.33333361538461],[141.75,46.33333361538461]]]}},{"type":"Feature","properties":{"Id":0,"Sheet_ID":"大泊 10","label":"大泊 10","call_short":"G7330 S50 .J36","call_num":"G7330 S50 .J36 M-10","recid":"zp225dj8291","websiteUrl":"https://purl.stanford.edu/zp225dj8291","title":"仮製 樺太南部五万分一","ckey":12121660,"web_map":"","available":"true","iiiUrl":"https://purl.stanford.edu/zp225dj8291/iiif/manifest"},"geometry":{"bbox":[142.25,46.33333361538461,142.5,46.50000026923077],"type":"Polygon","coordinates":[[[142.25,46.33333361538461],[142.25,46.50000026923077],[142.5,46.50000026923077],[142.5,46.33333361538461],[142.25,46.33333361538461]]]}},{"type":"Feature","properties":{"Id":0,"Sheet_ID":"知床岬 10","label":"知床岬 10","call_short":"G7330 S50 .J36","call_num":"G7330 S50 .J36 G-10","recid":"xd247rn3817","websiteUrl":"https://purl.stanford.edu/xd247rn3817","title":"仮製 樺太南部五万分一","ckey":12121660,"web_map":"","available":"true","iiiUrl":"https://purl.stanford.edu/xd247rn3817/iiif/manifest"},"geometry":{"bbox":[143.25,46.33333361538461,143.5,46.50000026923077],"type":"Polygon","coordinates":[[[143.25,46.33333361538461],[143.25,46.50000026923077],[143.5,46.50000026923077],[143.5,46.33333361538461],[143.25,46.33333361538461]]]}},{"type":"Feature","properties":{"Id":0,"Sheet_ID":"知床岬 6","label":"知床岬 6","call_short":"G7330 S50 .J36","call_num":"G7330 S50 .J36 G-6","recid":"zn839bw7315","websiteUrl":"https://purl.stanford.edu/zn839bw7315","title":"仮製 樺太南部五万分一","ckey":12121660,"web_map":"","available":"true","iiiUrl":"https://purl.stanford.edu/zn839bw7315/iiif/manifest"},"geometry":{"bbox":[143.5,46.33333361538461,143.75000000000003,46.50000026923077],"type":"Polygon","coordinates":[[[143.5,46.33333361538461],[143.5,46.50000026923077],[143.75000000000003,46.50000026923077],[143.75000000000003,46.33333361538461],[143.5,46.33333361538461]]]}},{"type":"Feature","properties":{"Id":0,"Sheet_ID":"氣主 1","label":"氣主 1","call_short":"G7330 S50 .J36","call_num":"G7330 S50 .J36 S-1","recid":"mk547hx8357","websiteUrl":"https://purl.stanford.edu/mk547hx8357","title":"仮製 樺太南部五万分一","ckey":12121660,"web_map":"","available":"true","iiiUrl":"https://purl.stanford.edu/mk547hx8357/iiif/manifest"},"geometry":{"bbox":[141.75,46.50000026923077,142,46.666666923076924],"type":"Polygon","coordinates":[[[141.75,46.50000026923077],[141.75,46.666666923076924],[142,46.666666923076924],[142,46.50000026923077],[141.75,46.50000026923077]]]}},{"type":"Feature","properties":{"Id":0,"Sheet_ID":"大泊 9","label":"大泊 9","call_short":"G7330 S50 .J36","call_num":"G7330 S50 .J36 M-9","recid":"xx640jw3998","websiteUrl":"https://purl.stanford.edu/xx640jw3998","title":"仮製 樺太南部五万分一","ckey":12121660,"web_map":"","available":"true","iiiUrl":"https://purl.stanford.edu/xx640jw3998/iiif/manifest"},"geometry":{"bbox":[142.25,46.50000026923077,142.5,46.666666923076924],"type":"Polygon","coordinates":[[[142.25,46.50000026923077],[142.25,46.666666923076924],[142.5,46.666666923076924],[142.5,46.50000026923077],[142.25,46.50000026923077]]]}},{"type":"Feature","properties":{"Id":0,"Sheet_ID":"大泊 1","label":"大泊 1","call_short":"G7330 S50 .J36","call_num":"G7330 S50 .J36 M-1","recid":"yz710tp8745","websiteUrl":"https://purl.stanford.edu/yz710tp8745","title":"仮製 樺太南部五万分一","ckey":12121660,"web_map":"","available":"true","iiiUrl":"https://purl.stanford.edu/yz710tp8745/iiif/manifest"},"geometry":{"bbox":[142.75,46.50000026923077,143,46.666666923076924],"type":"Polygon","coordinates":[[[142.75,46.50000026923077],[142.75,46.666666923076924],[143,46.666666923076924],[143,46.50000026923077],[142.75,46.50000026923077]]]}},{"type":"Feature","properties":{"Id":0,"Sheet_ID":"知床岬 13","label":"知床岬 13","call_short":"","call_num":"","recid":"","websiteUrl":"","title":"","ckey":0,"web_map":"","available":"false","iiiUrl":""},"geometry":{"bbox":[143,46.50000026923077,143.25,46.666666923076924],"type":"Polygon","coordinates":[[[143,46.50000026923077],[143,46.666666923076924],[143.25,46.666666923076924],[143.25,46.50000026923077],[143,46.50000026923077]]]}},{"type":"Feature","properties":{"Id":0,"Sheet_ID":"知床岬 9","label":"知床岬 9","call_short":"G7330 S50 .J36","call_num":"G7330 S50 .J36 G-9","recid":"rd830rj5736","websiteUrl":"https://purl.stanford.edu/rd830rj5736","title":"仮製 樺太南部五万分一","ckey":12121660,"web_map":"","available":"true","iiiUrl":"https://purl.stanford.edu/rd830rj5736/iiif/manifest"},"geometry":{"bbox":[143.25,46.50000026923077,143.5,46.666666923076924],"type":"Polygon","coordinates":[[[143.25,46.50000026923077],[143.25,46.666666923076924],[143.5,46.666666923076924],[143.5,46.50000026923077],[143.25,46.50000026923077]]]}},{"type":"Feature","properties":{"Id":0,"Sheet_ID":"阿幸 4","label":"阿幸 4","call_short":"G7330 S50 .J36","call_num":"G7330 S50 .J36 R-4","recid":"gp349vm8617","websiteUrl":"https://purl.stanford.edu/gp349vm8617","title":"仮製 樺太南部五万分一","ckey":12121660,"web_map":"","available":"true","iiiUrl":"https://purl.stanford.edu/gp349vm8617/iiif/manifest"},"geometry":{"bbox":[141.75,46.66666692307692,142,46.833333576923074],"type":"Polygon","coordinates":[[[141.75,46.66666692307692],[141.75,46.833333576923074],[142,46.833333576923074],[142,46.66666692307692],[141.75,46.66666692307692]]]}},{"type":"Feature","properties":{"Id":0,"Sheet_ID":"豊原 12","label":"豊原 12","call_short":"G7330 S50 .J36","call_num":"G7330 S50 .J36 L-12","recid":"gg176st2545","websiteUrl":"https://purl.stanford.edu/gg176st2545","title":"仮製 樺太南部五万分一","ckey":12121660,"web_map":"","available":"true","iiiUrl":"https://purl.stanford.edu/gg176st2545/iiif/manifest"},"geometry":{"bbox":[142.25,46.66666692307692,142.5,46.833333576923074],"type":"Polygon","coordinates":[[[142.25,46.66666692307692],[142.25,46.833333576923074],[142.5,46.833333576923074],[142.5,46.66666692307692],[142.25,46.66666692307692]]]}},{"type":"Feature","properties":{"Id":0,"Sheet_ID":"豊原 8","label":"豊原 8","call_short":"G7330 S50 .J36","call_num":"G7330 S50 .J36 L-8","recid":"nj574br1900","websiteUrl":"https://purl.stanford.edu/nj574br1900","title":"仮製 樺太南部五万分一","ckey":12121660,"web_map":"","available":"true","iiiUrl":"https://purl.stanford.edu/nj574br1900/iiif/manifest"},"geometry":{"bbox":[142.5,46.66666692307692,142.75,46.833333576923074],"type":"Polygon","coordinates":[[[142.5,46.66666692307692],[142.5,46.833333576923074],[142.75,46.833333576923074],[142.75,46.66666692307692],[142.5,46.66666692307692]]]}},{"type":"Feature","properties":{"Id":0,"Sheet_ID":"豊原 4","label":"豊原 4","call_short":"G7330 S50 .J36","call_num":"G7330 S50 .J36 L-4","recid":"nz128hk4091","websiteUrl":"https://purl.stanford.edu/nz128hk4091","title":"仮製 樺太南部五万分一","ckey":12121660,"web_map":"","available":"true","iiiUrl":"https://purl.stanford.edu/nz128hk4091/iiif/manifest"},"geometry":{"bbox":[142.75,46.66666692307692,143,46.833333576923074],"type":"Polygon","coordinates":[[[142.75,46.66666692307692],[142.75,46.833333576923074],[143,46.833333576923074],[143,46.66666692307692],[142.75,46.66666692307692]]]}},{"type":"Feature","properties":{"Id":0,"Sheet_ID":"東能登呂岬 16","label":"東能登呂岬 16","call_short":"G7330 S50 .J36","call_num":"G7330 S50 .J36 F-16","recid":"bj894vf5477","websiteUrl":"https://purl.stanford.edu/bj894vf5477","title":"仮製 樺太南部五万分一","ckey":12121660,"web_map":"","available":"true","iiiUrl":"https://purl.stanford.edu/bj894vf5477/iiif/manifest"},"geometry":{"bbox":[143,46.66666692307692,143.25,46.833333576923074],"type":"Polygon","coordinates":[[[143,46.66666692307692],[143,46.833333576923074],[143.25,46.833333576923074],[143.25,46.66666692307692],[143,46.66666692307692]]]}},{"type":"Feature","properties":{"Id":0,"Sheet_ID":"東能登呂岬 12","label":"東能登呂岬 12","call_short":"G7330 S50 .J36","call_num":"G7330 S50 .J36 F-12","recid":"qg802tr6626","websiteUrl":"https://purl.stanford.edu/qg802tr6626","title":"仮製 樺太南部五万分一","ckey":12121660,"web_map":"","available":"true","iiiUrl":"https://purl.stanford.edu/qg802tr6626/iiif/manifest"},"geometry":{"bbox":[143.25,46.66666692307692,143.5,46.833333576923074],"type":"Polygon","coordinates":[[[143.25,46.66666692307692],[143.25,46.833333576923074],[143.5,46.833333576923074],[143.5,46.66666692307692],[143.25,46.66666692307692]]]}},{"type":"Feature","properties":{"Id":0,"Sheet_ID":"阿幸 3","label":"阿幸 3","call_short":"G7330 S50 .J36","call_num":"G7330 S50 .J36 R-3","recid":"rg371fh0619","websiteUrl":"https://purl.stanford.edu/rg371fh0619","title":"仮製 樺太南部五万分一","ckey":12121660,"web_map":"","available":"true","iiiUrl":"https://purl.stanford.edu/rg371fh0619/iiif/manifest"},"geometry":{"bbox":[141.75,46.833333576923074,142,47.00000023076923],"type":"Polygon","coordinates":[[[141.75,46.833333576923074],[141.75,47.00000023076923],[142,47.00000023076923],[142,46.833333576923074],[141.75,46.833333576923074]]]}},{"type":"Feature","properties":{"Id":0,"Sheet_ID":"豊原 15","label":"豊原 15","call_short":"","call_num":"","recid":"","websiteUrl":"","title":"","ckey":0,"web_map":"","available":"false","iiiUrl":""},"geometry":{"bbox":[142,46.833333576923074,142.25,47.00000023076923],"type":"Polygon","coordinates":[[[142,46.833333576923074],[142,47.00000023076923],[142.25,47.00000023076923],[142.25,46.833333576923074],[142,46.833333576923074]]]}},{"type":"Feature","properties":{"Id":0,"Sheet_ID":"豊原 7","label":"豊原 7","call_short":"","call_num":"","recid":"","websiteUrl":"","title":"","ckey":0,"web_map":"","available":"false","iiiUrl":""},"geometry":{"bbox":[142.5,46.833333576923074,142.75,47.00000023076923],"type":"Polygon","coordinates":[[[142.5,46.833333576923074],[142.5,47.00000023076923],[142.75,47.00000023076923],[142.75,46.833333576923074],[142.5,46.833333576923074]]]}},{"type":"Feature","properties":{"Id":0,"Sheet_ID":"豊原 3","label":"豊原 3","call_short":"G7330 S50 .J36","call_num":"G7330 S50 .J36 L-3","recid":"yt760yz0932","websiteUrl":"https://purl.stanford.edu/yt760yz0932","title":"仮製 樺太南部五万分一","ckey":12121660,"web_map":"","available":"true","iiiUrl":"https://purl.stanford.edu/yt760yz0932/iiif/manifest"},"geometry":{"bbox":[142.75,46.833333576923074,143,47.00000023076923],"type":"Polygon","coordinates":[[[142.75,46.833333576923074],[142.75,47.00000023076923],[143,47.00000023076923],[143,46.833333576923074],[142.75,46.833333576923074]]]}},{"type":"Feature","properties":{"Id":0,"Sheet_ID":"東能登呂岬 15","label":"東能登呂岬 15","call_short":"G7330 S50 .J36","call_num":"G7330 S50 .J36 F-15","recid":"sf703jb3168","websiteUrl":"https://purl.stanford.edu/sf703jb3168","title":"仮製 樺太南部五万分一","ckey":12121660,"web_map":"","available":"true","iiiUrl":"https://purl.stanford.edu/sf703jb3168/iiif/manifest"},"geometry":{"bbox":[143,46.833333576923074,143.25,47.00000023076923],"type":"Polygon","coordinates":[[[143,46.833333576923074],[143,47.00000023076923],[143.25,47.00000023076923],[143.25,46.833333576923074],[143,46.833333576923074]]]}},{"type":"Feature","properties":{"Id":0,"Sheet_ID":"豊原 14","label":"豊原 14","call_short":"","call_num":"","recid":"","websiteUrl":"","title":"","ckey":0,"web_map":"","available":"false","iiiUrl":""},"geometry":{"bbox":[142,47.00000023076923,142.25,47.166666884615395],"type":"Polygon","coordinates":[[[142,47.00000023076923],[142,47.166666884615395],[142.25,47.166666884615395],[142.25,47.00000023076923],[142,47.00000023076923]]]}},{"type":"Feature","properties":{"Id":0,"Sheet_ID":"豊原 10","label":"豊原 10","call_short":"G7330 S50 .J36","call_num":"G7330 S50 .J36 L-10","recid":"gm997wz1453","websiteUrl":"https://purl.stanford.edu/gm997wz1453","title":"仮製 樺太南部五万分一","ckey":12121660,"web_map":"","available":"true","iiiUrl":"https://purl.stanford.edu/gm997wz1453/iiif/manifest"},"geometry":{"bbox":[142.25,47.00000023076923,142.5,47.166666884615395],"type":"Polygon","coordinates":[[[142.25,47.00000023076923],[142.25,47.166666884615395],[142.5,47.166666884615395],[142.5,47.00000023076923],[142.25,47.00000023076923]]]}},{"type":"Feature","properties":{"Id":0,"Sheet_ID":"豊原 6","label":"豊原 6","call_short":"","call_num":"","recid":"","websiteUrl":"","title":"","ckey":0,"web_map":"","available":"false","iiiUrl":""},"geometry":{"bbox":[142.5,47.00000023076923,142.75,47.166666884615395],"type":"Polygon","coordinates":[[[142.5,47.00000023076923],[142.5,47.166666884615395],[142.75,47.166666884615395],[142.75,47.00000023076923],[142.5,47.00000023076923]]]}},{"type":"Feature","properties":{"Id":0,"Sheet_ID":"豊原 2","label":"豊原 2","call_short":"G7330 S50 .J36","call_num":"G7330 S50 .J36 L-2","recid":"mg015gv1751","websiteUrl":"https://purl.stanford.edu/mg015gv1751","title":"仮製 樺太南部五万分一","ckey":12121660,"web_map":"","available":"true","iiiUrl":"https://purl.stanford.edu/mg015gv1751/iiif/manifest"},"geometry":{"bbox":[142.75,47.00000023076923,143,47.166666884615395],"type":"Polygon","coordinates":[[[142.75,47.00000023076923],[142.75,47.166666884615395],[143,47.166666884615395],[143,47.00000023076923],[142.75,47.00000023076923]]]}},{"type":"Feature","properties":{"Id":0,"Sheet_ID":"東能登呂岬 14","label":"東能登呂岬 14","call_short":"","call_num":"","recid":"","websiteUrl":"","title":"","ckey":0,"web_map":"","available":"false","iiiUrl":""},"geometry":{"bbox":[143,47.00000023076923,143.25,47.166666884615395],"type":"Polygon","coordinates":[[[143,47.00000023076923],[143,47.166666884615395],[143.25,47.166666884615395],[143.25,47.00000023076923],[143,47.00000023076923]]]}},{"type":"Feature","properties":{"Id":0,"Sheet_ID":"豊原 13","label":"豊原 13","call_short":"","call_num":"","recid":"","websiteUrl":"","title":"","ckey":0,"web_map":"","available":"false","iiiUrl":""},"geometry":{"bbox":[142,47.16666688461538,142.25,47.33333353846154],"type":"Polygon","coordinates":[[[142,47.16666688461538],[142,47.33333353846154],[142.25,47.33333353846154],[142.25,47.16666688461538],[142,47.16666688461538]]]}},{"type":"Feature","properties":{"Id":0,"Sheet_ID":"豊原 5","label":"豊原 5","call_short":"G7330 S50 .J36","call_num":"G7330 S50 .J36 L-5","recid":"hh564ps3686","websiteUrl":"https://purl.stanford.edu/hh564ps3686","title":"仮製 樺太南部五万分一","ckey":12121660,"web_map":"","available":"true","iiiUrl":"https://purl.stanford.edu/hh564ps3686/iiif/manifest"},"geometry":{"bbox":[142.5,47.16666688461538,142.75,47.33333353846154],"type":"Polygon","coordinates":[[[142.5,47.16666688461538],[142.5,47.33333353846154],[142.75,47.33333353846154],[142.75,47.16666688461538],[142.5,47.16666688461538]]]}},{"type":"Feature","properties":{"Id":0,"Sheet_ID":"豊原 1","label":"豊原 1","call_short":"G7330 S50 .J36","call_num":"G7330 S50 .J36 L-1","recid":"ys388sk5898","websiteUrl":"https://purl.stanford.edu/ys388sk5898","title":"仮製 樺太南部五万分一","ckey":12121660,"web_map":"","available":"true","iiiUrl":"https://purl.stanford.edu/ys388sk5898/iiif/manifest"},"geometry":{"bbox":[142.75,47.16666688461538,143,47.33333353846154],"type":"Polygon","coordinates":[[[142.75,47.16666688461538],[142.75,47.33333353846154],[143,47.33333353846154],[143,47.16666688461538],[142.75,47.16666688461538]]]}},{"type":"Feature","properties":{"Id":0,"Sheet_ID":"東能登呂岬 13","label":"東能登呂岬 13","call_short":"G7330 S50 .J36","call_num":"G7330 S50 .J36 F-13","recid":"rp444ss1958","websiteUrl":"https://purl.stanford.edu/rp444ss1958","title":"仮製 樺太南部五万分一","ckey":12121660,"web_map":"","available":"true","iiiUrl":"https://purl.stanford.edu/rp444ss1958/iiif/manifest"},"geometry":{"bbox":[143,47.16666688461538,143.25,47.33333353846154],"type":"Polygon","coordinates":[[[143,47.16666688461538],[143,47.33333353846154],[143.25,47.33333353846154],[143.25,47.16666688461538],[143,47.16666688461538]]]}},{"type":"Feature","properties":{"Id":0,"Sheet_ID":"野田寒 4","label":"野田寒 4","call_short":"G7330 S50 .J36","call_num":"G7330 S50 .J36 Q-4","recid":"sg559vk8188","websiteUrl":"https://purl.stanford.edu/sg559vk8188","title":"仮製 樺太南部五万分一","ckey":12121660,"web_map":"","available":"true","iiiUrl":"https://purl.stanford.edu/sg559vk8188/iiif/manifest"},"geometry":{"bbox":[141.75,47.33333353846154,142,47.500000192307695],"type":"Polygon","coordinates":[[[141.75,47.33333353846154],[141.75,47.500000192307695],[142,47.500000192307695],[142,47.33333353846154],[141.75,47.33333353846154]]]}},{"type":"Feature","properties":{"Id":0,"Sheet_ID":"久春内 16","label":"久春内 16","call_short":"G7330 S50 .J36","call_num":"G7330 S50 .J36 K-16","recid":"mm278mt9953","websiteUrl":"https://purl.stanford.edu/mm278mt9953","title":"仮製 樺太南部五万分一","ckey":12121660,"web_map":"","available":"true","iiiUrl":"https://purl.stanford.edu/mm278mt9953/iiif/manifest"},"geometry":{"bbox":[142,47.33333353846154,142.25,47.500000192307695],"type":"Polygon","coordinates":[[[142,47.33333353846154],[142,47.500000192307695],[142.25,47.500000192307695],[142.25,47.33333353846154],[142,47.33333353846154]]]}},{"type":"Feature","properties":{"Id":0,"Sheet_ID":"久春内 8","label":"久春内 8","call_short":"G7330 S50 .J36","call_num":"G7330 S50 .J36 K-8","recid":"ff943fz9454","websiteUrl":"https://purl.stanford.edu/ff943fz9454","title":"仮製 樺太南部五万分一","ckey":12121660,"web_map":"","available":"true","iiiUrl":"https://purl.stanford.edu/ff943fz9454/iiif/manifest"},"geometry":{"bbox":[142.5,47.33333353846154,142.75,47.500000192307695],"type":"Polygon","coordinates":[[[142.5,47.33333353846154],[142.5,47.500000192307695],[142.75,47.500000192307695],[142.75,47.33333353846154],[142.5,47.33333353846154]]]}},{"type":"Feature","properties":{"Id":0,"Sheet_ID":"久春内 4","label":"久春内 4","call_short":"G7330 S50 .J36","call_num":"G7330 S50 .J36 K-4","recid":"gq596bs2026","websiteUrl":"https://purl.stanford.edu/gq596bs2026","title":"仮製 樺太南部五万分一","ckey":12121660,"web_map":"","available":"true","iiiUrl":"https://purl.stanford.edu/gq596bs2026/iiif/manifest"},"geometry":{"bbox":[142.75,47.33333353846154,143,47.500000192307695],"type":"Polygon","coordinates":[[[142.75,47.33333353846154],[142.75,47.500000192307695],[143,47.500000192307695],[143,47.33333353846154],[142.75,47.33333353846154]]]}},{"type":"Feature","properties":{"Id":0,"Sheet_ID":"野田寒 3","label":"野田寒 3","call_short":"G7330 S50 .J36","call_num":"G7330 S50 .J36 Q-3","recid":"vc680jf1334","websiteUrl":"https://purl.stanford.edu/vc680jf1334","title":"仮製 樺太南部五万分一","ckey":12121660,"web_map":"","available":"true","iiiUrl":"https://purl.stanford.edu/vc680jf1334/iiif/manifest"},"geometry":{"bbox":[141.75,47.50000019230769,142,47.666666846153845],"type":"Polygon","coordinates":[[[141.75,47.50000019230769],[141.75,47.666666846153845],[142,47.666666846153845],[142,47.50000019230769],[141.75,47.50000019230769]]]}},{"type":"Feature","properties":{"Id":0,"Sheet_ID":"久春内 7","label":"久春内 7","call_short":"G7330 S50 .J36","call_num":"G7330 S50 .J36 K-7","recid":"cz639vk0226","websiteUrl":"https://purl.stanford.edu/cz639vk0226","title":"仮製 樺太南部五万分一","ckey":12121660,"web_map":"","available":"true","iiiUrl":"https://purl.stanford.edu/cz639vk0226/iiif/manifest"},"geometry":{"bbox":[142.5,47.50000019230769,142.75,47.666666846153845],"type":"Polygon","coordinates":[[[142.5,47.50000019230769],[142.5,47.666666846153845],[142.75,47.666666846153845],[142.75,47.50000019230769],[142.5,47.50000019230769]]]}},{"type":"Feature","properties":{"Id":0,"Sheet_ID":"久春内 14","label":"久春内 14","call_short":"G7330 S50 .J36","call_num":"G7330 S50 .J36 K-14","recid":"jv596fh3786","websiteUrl":"https://purl.stanford.edu/jv596fh3786","title":"仮製 樺太南部五万分一","ckey":12121660,"web_map":"","available":"true","iiiUrl":"https://purl.stanford.edu/jv596fh3786/iiif/manifest"},"geometry":{"bbox":[142,47.666666846153845,142.25,47.8333335],"type":"Polygon","coordinates":[[[142,47.666666846153845],[142,47.8333335],[142.25,47.8333335],[142.25,47.666666846153845],[142,47.666666846153845]]]}},{"type":"Feature","properties":{"Id":0,"Sheet_ID":"久春内 6","label":"久春内 6","call_short":"G7330 S50 .J36","call_num":"G7330 S50 .J36 K-6","recid":"bg601dh0232","websiteUrl":"https://purl.stanford.edu/bg601dh0232","title":"仮製 樺太南部五万分一","ckey":12121660,"web_map":"","available":"true","iiiUrl":"https://purl.stanford.edu/bg601dh0232/iiif/manifest"},"geometry":{"bbox":[142.5,47.666666846153845,142.75,47.8333335],"type":"Polygon","coordinates":[[[142.5,47.666666846153845],[142.5,47.8333335],[142.75,47.8333335],[142.75,47.666666846153845],[142.5,47.666666846153845]]]}},{"type":"Feature","properties":{"Id":0,"Sheet_ID":"久春内 13","label":"久春内 13","call_short":"G7330 S50 .J36","call_num":"G7330 S50 .J36 K-13","recid":"pn900ry3902","websiteUrl":"https://purl.stanford.edu/pn900ry3902","title":"仮製 樺太南部五万分一","ckey":12121660,"web_map":"","available":"true","iiiUrl":"https://purl.stanford.edu/pn900ry3902/iiif/manifest"},"geometry":{"bbox":[142,47.833333499999995,142.25,48.00000015384615],"type":"Polygon","coordinates":[[[142,47.833333499999995],[142,48.00000015384615],[142.25,48.00000015384615],[142.25,47.833333499999995],[142,47.833333499999995]]]}},{"type":"Feature","properties":{"Id":0,"Sheet_ID":"久春内 9","label":"久春内 9","call_short":"G7330 S50 .J36","call_num":"G7330 S50 .J36 K-9","recid":"gm080mg9748","websiteUrl":"https://purl.stanford.edu/gm080mg9748","title":"仮製 樺太南部五万分一","ckey":12121660,"web_map":"","available":"true","iiiUrl":"https://purl.stanford.edu/gm080mg9748/iiif/manifest"},"geometry":{"bbox":[142.25,47.833333499999995,142.5,48.00000015384615],"type":"Polygon","coordinates":[[[142.25,47.833333499999995],[142.25,48.00000015384615],[142.5,48.00000015384615],[142.5,47.833333499999995],[142.25,47.833333499999995]]]}},{"type":"Feature","properties":{"Id":0,"Sheet_ID":"久春内 5","label":"久春内 5","call_short":"G7330 S50 .J36","call_num":"G7330 S50 .J36 K-5","recid":"mc000qw5651","websiteUrl":"https://purl.stanford.edu/mc000qw5651","title":"仮製 樺太南部五万分一","ckey":12121660,"web_map":"","available":"true","iiiUrl":"https://purl.stanford.edu/mc000qw5651/iiif/manifest"},"geometry":{"bbox":[142.5,47.833333499999995,142.75,48.00000015384615],"type":"Polygon","coordinates":[[[142.5,47.833333499999995],[142.5,48.00000015384615],[142.75,48.00000015384615],[142.75,47.833333499999995],[142.5,47.833333499999995]]]}},{"type":"Feature","properties":{"Id":0,"Sheet_ID":"馬群潭 16","label":"馬群潭 16","call_short":"G7330 S50 .J36","call_num":"G7330 S50 .J36 J-16","recid":"zv072yf9678","websiteUrl":"https://purl.stanford.edu/zv072yf9678","title":"仮製 樺太南部五万分一","ckey":12121660,"web_map":"","available":"true","iiiUrl":"https://purl.stanford.edu/zv072yf9678/iiif/manifest"},"geometry":{"bbox":[142,48.00000015384615,142.25,48.16666680769231],"type":"Polygon","coordinates":[[[142,48.00000015384615],[142,48.16666680769231],[142.25,48.16666680769231],[142.25,48.00000015384615],[142,48.00000015384615]]]}},{"type":"Feature","properties":{"Id":0,"Sheet_ID":"馬群潭 8","label":"馬群潭 8","call_short":"G7330 S50 .J36","call_num":"G7330 S50 .J36 J-8","recid":"rd252pg6051","websiteUrl":"https://purl.stanford.edu/rd252pg6051","title":"仮製 樺太南部五万分一","ckey":12121660,"web_map":"","available":"true","iiiUrl":"https://purl.stanford.edu/rd252pg6051/iiif/manifest"},"geometry":{"bbox":[142.5,48.00000015384615,142.75,48.16666680769231],"type":"Polygon","coordinates":[[[142.5,48.00000015384615],[142.5,48.16666680769231],[142.75,48.16666680769231],[142.75,48.00000015384615],[142.5,48.00000015384615]]]}},{"type":"Feature","properties":{"Id":0,"Sheet_ID":"馬群潭 15","label":"馬群潭 15","call_short":"G7330 S50 .J36","call_num":"G7330 S50 .J36 J-15","recid":"gk364fy1426","websiteUrl":"https://purl.stanford.edu/gk364fy1426","title":"仮製 樺太南部五万分一","ckey":12121660,"web_map":"","available":"true","iiiUrl":"https://purl.stanford.edu/gk364fy1426/iiif/manifest"},"geometry":{"bbox":[142,48.16666680769231,142.25,48.333333461538466],"type":"Polygon","coordinates":[[[142,48.16666680769231],[142,48.333333461538466],[142.25,48.333333461538466],[142.25,48.16666680769231],[142,48.16666680769231]]]}},{"type":"Feature","properties":{"Id":0,"Sheet_ID":"馬群潭 7","label":"馬群潭 7","call_short":"G7330 S50 .J36","call_num":"G7330 S50 .J36 J-7","recid":"pp985fr5212","websiteUrl":"https://purl.stanford.edu/pp985fr5212","title":"仮製 樺太南部五万分一","ckey":12121660,"web_map":"","available":"true","iiiUrl":"https://purl.stanford.edu/pp985fr5212/iiif/manifest"},"geometry":{"bbox":[142.5,48.16666680769231,142.75,48.333333461538466],"type":"Polygon","coordinates":[[[142.5,48.16666680769231],[142.5,48.333333461538466],[142.75,48.333333461538466],[142.75,48.16666680769231],[142.5,48.16666680769231]]]}},{"type":"Feature","properties":{"Id":0,"Sheet_ID":"馬群潭 14","label":"馬群潭 14","call_short":"G7330 S50 .J36","call_num":"G7330 S50 .J36 J-14","recid":"gv539tt9490","websiteUrl":"https://purl.stanford.edu/gv539tt9490","title":"仮製 樺太南部五万分一","ckey":12121660,"web_map":"","available":"true","iiiUrl":"https://purl.stanford.edu/gv539tt9490/iiif/manifest"},"geometry":{"bbox":[142,48.33333346153846,142.25,48.500000115384616],"type":"Polygon","coordinates":[[[142,48.33333346153846],[142,48.500000115384616],[142.25,48.500000115384616],[142.25,48.33333346153846],[142,48.33333346153846]]]}},{"type":"Feature","properties":{"Id":0,"Sheet_ID":"馬群潭 6","label":"馬群潭 6","call_short":"G7330 S50 .J36","call_num":"G7330 S50 .J36 J-6","recid":"yc876rf9814","websiteUrl":"https://purl.stanford.edu/yc876rf9814","title":"仮製 樺太南部五万分一","ckey":12121660,"web_map":"","available":"true","iiiUrl":"https://purl.stanford.edu/yc876rf9814/iiif/manifest"},"geometry":{"bbox":[142.5,48.33333346153846,142.75,48.500000115384616],"type":"Polygon","coordinates":[[[142.5,48.33333346153846],[142.5,48.500000115384616],[142.75,48.500000115384616],[142.75,48.33333346153846],[142.5,48.33333346153846]]]}},{"type":"Feature","properties":{"Id":0,"Sheet_ID":"古丹 1","label":"古丹 1","call_short":"G7330 S50 .J36","call_num":"G7330 S50 .J36 P-1","recid":"zf328pt5939","websiteUrl":"https://purl.stanford.edu/zf328pt5939","title":"仮製 樺太南部五万分一","ckey":12121660,"web_map":"","available":"true","iiiUrl":"https://purl.stanford.edu/zf328pt5939/iiif/manifest"},"geometry":{"bbox":[141.75,48.500000115384616,142,48.66666676923077],"type":"Polygon","coordinates":[[[141.75,48.500000115384616],[141.75,48.66666676923077],[142,48.66666676923077],[142,48.500000115384616],[141.75,48.500000115384616]]]}},{"type":"Feature","properties":{"Id":0,"Sheet_ID":"馬群潭 13","label":"馬群潭 13","call_short":"G7330 S50 .J36","call_num":"G7330 S50 .J36 J-13","recid":"dy700vr5694","websiteUrl":"https://purl.stanford.edu/dy700vr5694","title":"仮製 樺太南部五万分一","ckey":12121660,"web_map":"","available":"true","iiiUrl":"https://purl.stanford.edu/dy700vr5694/iiif/manifest"},"geometry":{"bbox":[142,48.500000115384616,142.25,48.66666676923077],"type":"Polygon","coordinates":[[[142,48.500000115384616],[142,48.66666676923077],[142.25,48.66666676923077],[142.25,48.500000115384616],[142,48.500000115384616]]]}},{"type":"Feature","properties":{"Id":0,"Sheet_ID":"馬群潭 1","label":"馬群潭 1","call_short":"","call_num":"","recid":"","websiteUrl":"","title":"","ckey":0,"web_map":"","available":"false","iiiUrl":""},"geometry":{"bbox":[142.75,48.500000115384616,143,48.66666676923077],"type":"Polygon","coordinates":[[[142.75,48.500000115384616],[142.75,48.66666676923077],[143,48.66666676923077],[143,48.500000115384616],[142.75,48.500000115384616]]]}},{"type":"Feature","properties":{"Id":0,"Sheet_ID":"北知床岬 5","label":"北知床岬 5","call_short":"","call_num":"","recid":"","websiteUrl":"","title":"","ckey":0,"web_map":"","available":"false","iiiUrl":""},"geometry":{"bbox":[144.5,48.500000115384616,144.75,48.66666676923077],"type":"Polygon","coordinates":[[[144.5,48.500000115384616],[144.5,48.66666676923077],[144.75,48.66666676923077],[144.75,48.500000115384616],[144.5,48.500000115384616]]]}},{"type":"Feature","properties":{"Id":0,"Sheet_ID":"幌泊 4","label":"幌泊 4","call_short":"","call_num":"","recid":"","websiteUrl":"","title":"","ckey":0,"web_map":"","available":"false","iiiUrl":""},"geometry":{"bbox":[141.75,48.666666769230766,142,48.83333342307692],"type":"Polygon","coordinates":[[[141.75,48.666666769230766],[141.75,48.83333342307692],[142,48.83333342307692],[142,48.666666769230766],[141.75,48.666666769230766]]]}},{"type":"Feature","properties":{"Id":0,"Sheet_ID":"内路 4","label":"内路 4","call_short":"","call_num":"","recid":"","websiteUrl":"","title":"","ckey":0,"web_map":"","available":"false","iiiUrl":""},"geometry":{"bbox":[142.75,48.666666769230766,143,48.83333342307692],"type":"Polygon","coordinates":[[[142.75,48.666666769230766],[142.75,48.83333342307692],[143,48.83333342307692],[143,48.666666769230766],[142.75,48.666666769230766]]]}},{"type":"Feature","properties":{"Id":0,"Sheet_ID":"ノスキー岬 8","label":"ノスキー岬 8","call_short":"","call_num":"","recid":"","websiteUrl":"","title":"","ckey":0,"web_map":"","available":"false","iiiUrl":""},"geometry":{"bbox":[144.5,48.666666769230766,144.75,48.83333342307692],"type":"Polygon","coordinates":[[[144.5,48.666666769230766],[144.5,48.83333342307692],[144.75,48.83333342307692],[144.75,48.666666769230766],[144.5,48.666666769230766]]]}},{"type":"Feature","properties":{"Id":0,"Sheet_ID":"幌泊 3","label":"幌泊 3","call_short":"","call_num":"","recid":"","websiteUrl":"","title":"","ckey":0,"web_map":"","available":"false","iiiUrl":""},"geometry":{"bbox":[141.75,48.83333342307692,142,49.00000007692308],"type":"Polygon","coordinates":[[[141.75,48.83333342307692],[141.75,49.00000007692308],[142,49.00000007692308],[142,48.83333342307692],[141.75,48.83333342307692]]]}},{"type":"Feature","properties":{"Id":0,"Sheet_ID":"内路 15","label":"内路 15","call_short":"","call_num":"","recid":"","websiteUrl":"","title":"","ckey":0,"web_map":"","available":"false","iiiUrl":""},"geometry":{"bbox":[142,48.83333342307692,142.25,49.00000007692308],"type":"Polygon","coordinates":[[[142,48.83333342307692],[142,49.00000007692308],[142.25,49.00000007692308],[142.25,48.83333342307692],[142,48.83333342307692]]]}},{"type":"Feature","properties":{"Id":0,"Sheet_ID":"内路 3","label":"内路 3","call_short":"","call_num":"","recid":"","websiteUrl":"","title":"","ckey":0,"web_map":"","available":"false","iiiUrl":""},"geometry":{"bbox":[142.75,48.83333342307692,143,49.00000007692308],"type":"Polygon","coordinates":[[[142.75,48.83333342307692],[142.75,49.00000007692308],[143,49.00000007692308],[143,48.83333342307692],[142.75,48.83333342307692]]]}},{"type":"Feature","properties":{"Id":0,"Sheet_ID":"ノスキー岬 11","label":"ノスキー岬 11","call_short":"","call_num":"","recid":"","websiteUrl":"","title":"","ckey":0,"web_map":"","available":"false","iiiUrl":""},"geometry":{"bbox":[144.25,48.83333342307692,144.5,49.00000007692308],"type":"Polygon","coordinates":[[[144.25,48.83333342307692],[144.25,49.00000007692308],[144.5,49.00000007692308],[144.5,48.83333342307692],[144.25,48.83333342307692]]]}},{"type":"Feature","properties":{"Id":0,"Sheet_ID":"ノスキー岬 7","label":"ノスキー岬 7","call_short":"","call_num":"","recid":"","websiteUrl":"","title":"","ckey":0,"web_map":"","available":"false","iiiUrl":""},"geometry":{"bbox":[144.5,48.83333342307692,144.75,49.00000007692308],"type":"Polygon","coordinates":[[[144.5,48.83333342307692],[144.5,49.00000007692308],[144.75,49.00000007692308],[144.75,48.83333342307692],[144.5,48.83333342307692]]]}},{"type":"Feature","properties":{"Id":0,"Sheet_ID":"内路 14","label":"内路 14","call_short":"","call_num":"","recid":"","websiteUrl":"","title":"","ckey":0,"web_map":"","available":"false","iiiUrl":""},"geometry":{"bbox":[142,49.00000007692308,142.25,49.166666730769236],"type":"Polygon","coordinates":[[[142,49.00000007692308],[142,49.166666730769236],[142.25,49.166666730769236],[142.25,49.00000007692308],[142,49.00000007692308]]]}},{"type":"Feature","properties":{"Id":0,"Sheet_ID":"内路 2","label":"内路 2","call_short":"","call_num":"","recid":"","websiteUrl":"","title":"","ckey":0,"web_map":"","available":"false","iiiUrl":""},"geometry":{"bbox":[142.75,49.00000007692308,143,49.166666730769236],"type":"Polygon","coordinates":[[[142.75,49.00000007692308],[142.75,49.166666730769236],[143,49.166666730769236],[143,49.00000007692308],[142.75,49.00000007692308]]]}},{"type":"Feature","properties":{"Id":0,"Sheet_ID":"ノスキー岬 10","label":"ノスキー岬 10","call_short":"","call_num":"","recid":"","websiteUrl":"","title":"","ckey":0,"web_map":"","available":"false","iiiUrl":""},"geometry":{"bbox":[144.25,49.00000007692308,144.5,49.166666730769236],"type":"Polygon","coordinates":[[[144.25,49.00000007692308],[144.25,49.166666730769236],[144.5,49.166666730769236],[144.5,49.00000007692308],[144.25,49.00000007692308]]]}},{"type":"Feature","properties":{"Id":0,"Sheet_ID":"内路 13","label":"内路 13","call_short":"","call_num":"","recid":"","websiteUrl":"","title":"","ckey":0,"web_map":"","available":"false","iiiUrl":""},"geometry":{"bbox":[142,49.16666673076923,142.25,49.33333338461539],"type":"Polygon","coordinates":[[[142,49.16666673076923],[142,49.33333338461539],[142.25,49.33333338461539],[142.25,49.16666673076923],[142,49.16666673076923]]]}},{"type":"Feature","properties":{"Id":0,"Sheet_ID":"内路 1","label":"内路 1","call_short":"","call_num":"","recid":"","websiteUrl":"","title":"","ckey":0,"web_map":"","available":"false","iiiUrl":""},"geometry":{"bbox":[142.75,49.16666673076923,143,49.33333338461539],"type":"Polygon","coordinates":[[[142.75,49.16666673076923],[142.75,49.33333338461539],[143,49.33333338461539],[143,49.16666673076923],[142.75,49.16666673076923]]]}},{"type":"Feature","properties":{"Id":0,"Sheet_ID":"敷香 13","label":"敷香 13","call_short":"","call_num":"","recid":"","websiteUrl":"","title":"","ckey":0,"web_map":"","available":"false","iiiUrl":""},"geometry":{"bbox":[143,49.16666673076923,143.25,49.33333338461539],"type":"Polygon","coordinates":[[[143,49.16666673076923],[143,49.33333338461539],[143.25,49.33333338461539],[143.25,49.16666673076923],[143,49.16666673076923]]]}},{"type":"Feature","properties":{"Id":0,"Sheet_ID":"敷香 9","label":"敷香 9","call_short":"","call_num":"","recid":"","websiteUrl":"","title":"","ckey":0,"web_map":"","available":"false","iiiUrl":""},"geometry":{"bbox":[143.25,49.16666673076923,143.5,49.33333338461539],"type":"Polygon","coordinates":[[[143.25,49.16666673076923],[143.25,49.33333338461539],[143.5,49.33333338461539],[143.5,49.16666673076923],[143.25,49.16666673076923]]]}},{"type":"Feature","properties":{"Id":0,"Sheet_ID":"敷香 5","label":"敷香 5","call_short":"","call_num":"","recid":"","websiteUrl":"","title":"","ckey":0,"web_map":"","available":"false","iiiUrl":""},"geometry":{"bbox":[143.5,49.16666673076923,143.75000000000003,49.33333338461539],"type":"Polygon","coordinates":[[[143.5,49.16666673076923],[143.5,49.33333338461539],[143.75000000000003,49.33333338461539],[143.75000000000003,49.16666673076923],[143.5,49.16666673076923]]]}},{"type":"Feature","properties":{"Id":0,"Sheet_ID":"敷香 1","label":"敷香 1","call_short":"","call_num":"","recid":"","websiteUrl":"","title":"","ckey":0,"web_map":"","available":"false","iiiUrl":""},"geometry":{"bbox":[143.75000000000003,49.16666673076923,144,49.33333338461539],"type":"Polygon","coordinates":[[[143.75000000000003,49.16666673076923],[143.75000000000003,49.33333338461539],[144,49.33333338461539],[144,49.16666673076923],[143.75000000000003,49.16666673076923]]]}},{"type":"Feature","properties":{"Id":0,"Sheet_ID":"ノスキー岬 13","label":"ノスキー岬 13","call_short":"","call_num":"","recid":"","websiteUrl":"","title":"","ckey":0,"web_map":"","available":"false","iiiUrl":""},"geometry":{"bbox":[144,49.16666673076923,144.25,49.33333338461539],"type":"Polygon","coordinates":[[[144,49.16666673076923],[144,49.33333338461539],[144.25,49.33333338461539],[144.25,49.16666673076923],[144,49.16666673076923]]]}},{"type":"Feature","properties":{"Id":0,"Sheet_ID":"ノスキー岬 9","label":"ノスキー岬 9","call_short":"","call_num":"","recid":"","websiteUrl":"","title":"","ckey":0,"web_map":"","available":"false","iiiUrl":""},"geometry":{"bbox":[144.25,49.16666673076923,144.5,49.33333338461539],"type":"Polygon","coordinates":[[[144.25,49.16666673076923],[144.25,49.33333338461539],[144.5,49.33333338461539],[144.5,49.16666673076923],[144.25,49.16666673076923]]]}},{"type":"Feature","properties":{"Id":0,"Sheet_ID":"北名好 16","label":"北名好 16","call_short":"","call_num":"","recid":"","websiteUrl":"","title":"","ckey":0,"web_map":"","available":"false","iiiUrl":""},"geometry":{"bbox":[142,49.33333338461539,142.25,49.50000003846154],"type":"Polygon","coordinates":[[[142,49.33333338461539],[142,49.50000003846154],[142.25,49.50000003846154],[142.25,49.33333338461539],[142,49.33333338461539]]]}},{"type":"Feature","properties":{"Id":0,"Sheet_ID":"北名好 4","label":"北名好 4","call_short":"","call_num":"","recid":"","websiteUrl":"","title":"","ckey":0,"web_map":"","available":"false","iiiUrl":""},"geometry":{"bbox":[142.75,49.33333338461539,143,49.50000003846154],"type":"Polygon","coordinates":[[[142.75,49.33333338461539],[142.75,49.50000003846154],[143,49.50000003846154],[143,49.33333338461539],[142.75,49.33333338461539]]]}},{"type":"Feature","properties":{"Id":0,"Sheet_ID":"多來加湖 16","label":"多來加湖 16","call_short":"","call_num":"","recid":"","websiteUrl":"","title":"","ckey":0,"web_map":"","available":"false","iiiUrl":""},"geometry":{"bbox":[143,49.33333338461539,143.25,49.50000003846154],"type":"Polygon","coordinates":[[[143,49.33333338461539],[143,49.50000003846154],[143.25,49.50000003846154],[143.25,49.33333338461539],[143,49.33333338461539]]]}},{"type":"Feature","properties":{"Id":0,"Sheet_ID":"多來加湖 12","label":"多來加湖 12","call_short":"","call_num":"","recid":"","websiteUrl":"","title":"","ckey":0,"web_map":"","available":"false","iiiUrl":""},"geometry":{"bbox":[143.25,49.33333338461539,143.5,49.50000003846154],"type":"Polygon","coordinates":[[[143.25,49.33333338461539],[143.25,49.50000003846154],[143.5,49.50000003846154],[143.5,49.33333338461539],[143.25,49.33333338461539]]]}},{"type":"Feature","properties":{"Id":0,"Sheet_ID":"多來加湖 8","label":"多來加湖 8","call_short":"","call_num":"","recid":"","websiteUrl":"","title":"","ckey":0,"web_map":"","available":"false","iiiUrl":""},"geometry":{"bbox":[143.5,49.33333338461539,143.75000000000003,49.50000003846154],"type":"Polygon","coordinates":[[[143.5,49.33333338461539],[143.5,49.50000003846154],[143.75000000000003,49.50000003846154],[143.75000000000003,49.33333338461539],[143.5,49.33333338461539]]]}},{"type":"Feature","properties":{"Id":0,"Sheet_ID":"ムレトマリ岬 16","label":"ムレトマリ岬 16","call_short":"","call_num":"","recid":"","websiteUrl":"","title":"","ckey":0,"web_map":"","available":"false","iiiUrl":""},"geometry":{"bbox":[144,49.33333338461539,144.25,49.50000003846154],"type":"Polygon","coordinates":[[[144,49.33333338461539],[144,49.50000003846154],[144.25,49.50000003846154],[144.25,49.33333338461539],[144,49.33333338461539]]]}},{"type":"Feature","properties":{"Id":0,"Sheet_ID":"北名好 15","label":"北名好 15","call_short":"","call_num":"","recid":"","websiteUrl":"","title":"","ckey":0,"web_map":"","available":"false","iiiUrl":""},"geometry":{"bbox":[142,49.500000038461536,142.25,49.66666669230769],"type":"Polygon","coordinates":[[[142,49.500000038461536],[142,49.66666669230769],[142.25,49.66666669230769],[142.25,49.500000038461536],[142,49.500000038461536]]]}},{"type":"Feature","properties":{"Id":0,"Sheet_ID":"北名好 3","label":"北名好 3","call_short":"","call_num":"","recid":"","websiteUrl":"","title":"","ckey":0,"web_map":"","available":"false","iiiUrl":""},"geometry":{"bbox":[142.75,49.500000038461536,143,49.66666669230769],"type":"Polygon","coordinates":[[[142.75,49.500000038461536],[142.75,49.66666669230769],[143,49.66666669230769],[143,49.500000038461536],[142.75,49.500000038461536]]]}},{"type":"Feature","properties":{"Id":0,"Sheet_ID":"多來加湖 15","label":"多來加湖 15","call_short":"","call_num":"","recid":"","websiteUrl":"","title":"","ckey":0,"web_map":"","available":"false","iiiUrl":""},"geometry":{"bbox":[143,49.500000038461536,143.25,49.66666669230769],"type":"Polygon","coordinates":[[[143,49.500000038461536],[143,49.66666669230769],[143.25,49.66666669230769],[143.25,49.500000038461536],[143,49.500000038461536]]]}},{"type":"Feature","properties":{"Id":0,"Sheet_ID":"ムレトマリ岬 15","label":"ムレトマリ岬 15","call_short":"","call_num":"","recid":"","websiteUrl":"","title":"","ckey":0,"web_map":"","available":"false","iiiUrl":""},"geometry":{"bbox":[144,49.500000038461536,144.25,49.66666669230769],"type":"Polygon","coordinates":[[[144,49.500000038461536],[144,49.66666669230769],[144.25,49.66666669230769],[144.25,49.500000038461536],[144,49.500000038461536]]]}},{"type":"Feature","properties":{"Id":0,"Sheet_ID":"北名好 14","label":"北名好 14","call_short":"","call_num":"","recid":"","websiteUrl":"","title":"","ckey":0,"web_map":"","available":"false","iiiUrl":""},"geometry":{"bbox":[142,49.66666669230769,142.25,49.83333334615385],"type":"Polygon","coordinates":[[[142,49.66666669230769],[142,49.83333334615385],[142.25,49.83333334615385],[142.25,49.66666669230769],[142,49.66666669230769]]]}},{"type":"Feature","properties":{"Id":0,"Sheet_ID":"北名好 2","label":"北名好 2","call_short":"","call_num":"","recid":"","websiteUrl":"","title":"","ckey":0,"web_map":"","available":"false","iiiUrl":""},"geometry":{"bbox":[142.75,49.66666669230769,143,49.83333334615385],"type":"Polygon","coordinates":[[[142.75,49.66666669230769],[142.75,49.83333334615385],[143,49.83333334615385],[143,49.66666669230769],[142.75,49.66666669230769]]]}},{"type":"Feature","properties":{"Id":0,"Sheet_ID":"ムレトマリ岬 14","label":"ムレトマリ岬 14","call_short":"","call_num":"","recid":"","websiteUrl":"","title":"","ckey":0,"web_map":"","available":"false","iiiUrl":""},"geometry":{"bbox":[144,49.66666669230769,144.25,49.83333334615385],"type":"Polygon","coordinates":[[[144,49.66666669230769],[144,49.83333334615385],[144.25,49.83333334615385],[144.25,49.66666669230769],[144,49.66666669230769]]]}},{"type":"Feature","properties":{"Id":0,"Sheet_ID":"北名好 13","label":"北名好 13","call_short":"","call_num":"","recid":"","websiteUrl":"","title":"","ckey":0,"web_map":"","available":"false","iiiUrl":""},"geometry":{"bbox":[142,49.83333334615385,142.25,50.00000000000001],"type":"Polygon","coordinates":[[[142,49.83333334615385],[142,50.00000000000001],[142.25,50.00000000000001],[142.25,49.83333334615385],[142,49.83333334615385]]]}},{"type":"Feature","properties":{"Id":0,"Sheet_ID":"北名好 9","label":"北名好 9","call_short":"","call_num":"","recid":"","websiteUrl":"","title":"","ckey":0,"web_map":"","available":"false","iiiUrl":""},"geometry":{"bbox":[142.25,49.83333334615385,142.5,50.00000000000001],"type":"Polygon","coordinates":[[[142.25,49.83333334615385],[142.25,50.00000000000001],[142.5,50.00000000000001],[142.5,49.83333334615385],[142.25,49.83333334615385]]]}},{"type":"Feature","properties":{"Id":0,"Sheet_ID":"北名好 5","label":"北名好 5","call_short":"","call_num":"","recid":"","websiteUrl":"","title":"","ckey":0,"web_map":"","available":"false","iiiUrl":""},"geometry":{"bbox":[142.5,49.83333334615385,142.75,50.00000000000001],"type":"Polygon","coordinates":[[[142.5,49.83333334615385],[142.5,50.00000000000001],[142.75,50.00000000000001],[142.75,49.83333334615385],[142.5,49.83333334615385]]]}},{"type":"Feature","properties":{"Id":0,"Sheet_ID":"北名好 1","label":"北名好 1","call_short":"","call_num":"","recid":"","websiteUrl":"","title":"","ckey":0,"web_map":"","available":"false","iiiUrl":""},"geometry":{"bbox":[142.75,49.83333334615385,143,50.00000000000001],"type":"Polygon","coordinates":[[[142.75,49.83333334615385],[142.75,50.00000000000001],[143,50.00000000000001],[143,49.83333334615385],[142.75,49.83333334615385]]]}},{"type":"Feature","properties":{"Id":0,"Sheet_ID":"多來加湖 13","label":"多來加湖 13","call_short":"","call_num":"","recid":"","websiteUrl":"","title":"","ckey":0,"web_map":"","available":"false","iiiUrl":""},"geometry":{"bbox":[143,49.83333334615385,143.25,50.00000000000001],"type":"Polygon","coordinates":[[[143,49.83333334615385],[143,50.00000000000001],[143.25,50.00000000000001],[143.25,49.83333334615385],[143,49.83333334615385]]]}},{"type":"Feature","properties":{"Id":0,"Sheet_ID":"多來加湖 9","label":"多來加湖 9","call_short":"","call_num":"","recid":"","websiteUrl":"","title":"","ckey":0,"web_map":"","available":"false","iiiUrl":""},"geometry":{"bbox":[143.25,49.83333334615385,143.5,50.00000000000001],"type":"Polygon","coordinates":[[[143.25,49.83333334615385],[143.25,50.00000000000001],[143.5,50.00000000000001],[143.5,49.83333334615385],[143.25,49.83333334615385]]]}},{"type":"Feature","properties":{"Id":0,"Sheet_ID":"多來加湖 5","label":"多來加湖 5","call_short":"","call_num":"","recid":"","websiteUrl":"","title":"","ckey":0,"web_map":"","available":"false","iiiUrl":""},"geometry":{"bbox":[143.5,49.83333334615385,143.75000000000003,50.00000000000001],"type":"Polygon","coordinates":[[[143.5,49.83333334615385],[143.5,50.00000000000001],[143.75000000000003,50.00000000000001],[143.75000000000003,49.83333334615385],[143.5,49.83333334615385]]]}},{"type":"Feature","properties":{"Id":0,"Sheet_ID":"多來加湖 1","label":"多來加湖 1","call_short":"","call_num":"","recid":"","websiteUrl":"","title":"","ckey":0,"web_map":"","available":"false","iiiUrl":""},"geometry":{"bbox":[143.75000000000003,49.83333334615385,144,50.00000000000001],"type":"Polygon","coordinates":[[[143.75000000000003,49.83333334615385],[143.75000000000003,50.00000000000001],[144,50.00000000000001],[144,49.83333334615385],[143.75000000000003,49.83333334615385]]]}},{"type":"Feature","properties":{"Id":0,"Sheet_ID":"ムレトマリ岬 13","label":"ムレトマリ岬 13","call_short":"","call_num":"","recid":"","websiteUrl":"","title":"","ckey":0,"web_map":"","available":"false","iiiUrl":""},"geometry":{"bbox":[144,49.83333334615385,144.25,50.00000000000001],"type":"Polygon","coordinates":[[[144,49.83333334615385],[144,50.00000000000001],[144.25,50.00000000000001],[144.25,49.83333334615385],[144,49.83333334615385]]]}}],"name":"index_12121660"}
