{"type":"FeatureCollection","features":[{"type":"Feature","properties":{"Id":0,"Sheet_ID":"其3","label":"其3","call_short":"G9440 1944 .J3","call_num":"G9440 1944 .J3 SHEET 3","recid":"sf484dd2736","websiteUrl":"https://purl.stanford.edu/sf484dd2736","title":"十万分一トラック島附近","ckey":10652458,"web_map":"","available":"true","iiifUrl":"https://purl.stanford.edu/sf484dd2736/iiif/manifest"},"geometry":{"bbox":[140,6.000000000000001,150,10],"type":"Polygon","coordinates":[[[140,6.000000000000001],[140,10],[150,10],[150,6.000000000000001],[140,6.000000000000001]]]}},{"type":"Feature","properties":{"Id":0,"Sheet_ID":"其1","label":"其1","call_short":"","call_num":"","recid":"","websiteUrl":"","title":"","ckey":0,"web_map":"","available":"false","iiifUrl":""},"geometry":{"bbox":[151.18333299999995,6.749999999999943,152.26666699999998,7.916667000000018],"type":"Polygon","coordinates":[[[151.18333299999995,6.749999999999943],[151.18333299999995,7.916667000000018],[152.26666699999998,7.916667000000018],[152.26666699999998,6.749999999999943],[151.18333299999995,6.749999999999943]]]}},{"type":"Feature","properties":{"Id":0,"Sheet_ID":"其2","label":"其2","call_short":"","call_num":"","recid":"","websiteUrl":"","title":"","ckey":0,"web_map":"","available":"false","iiifUrl":""},"geometry":{"bbox":[149.25,8.000000000000057,152.7500000000001,9.500000000000114],"type":"Polygon","coordinates":[[[149.25,8.000000000000057],[149.25,9.500000000000114],[152.7500000000001,9.500000000000114],[152.7500000000001,8.000000000000057],[149.25,8.000000000000057]]]}}],"name":"index_10652458"}
