{
"type": "FeatureCollection",
"name": "index_map",
"xy_coordinate_resolution": 1e-07,
"features": [
{ "type": "Feature", "properties": { "Id": 0, "Sheet_ID": "上海南部 32. 海鹽縣城", "label": "上海南部 32. 海鹽縣城", "call_short": "G7824 .S2 A1 S25 .J3", "call_num": "G7824 .S2 A1 S25 .J3 SOUTH 32", "recid": "pc698ph9400", "websiteUrl": "https://purl.stanford.edu/pc698ph9400", "title": "二万五千分一空中寫眞測圖 上海近傍", "ckey": 9440325, "available": true, "iiifUrl": "https://purl.stanford.edu/pc698ph9400/iiif/manifest" }, "geometry": { "type": "Polygon", "coordinates": [ [ [ 120.8555555, 30.4916663 ], [ 120.9722221, 30.4916663 ], [ 120.9722221, 30.5749997 ], [ 120.8555555, 30.5749997 ], [ 120.8555555, 30.4916663 ] ] ] } },
{ "type": "Feature", "properties": { "Id": 0, "Sheet_ID": "上海南部 31. 高家橋", "label": "上海南部 31. 高家橋", "call_short": "G7824 .S2 A1 S25 .J3", "call_num": "G7824 .S2 A1 S25 .J3 SOUTH 31", "recid": "rm192rf6805", "websiteUrl": "https://purl.stanford.edu/rm192rf6805", "title": "二万五千分一空中寫眞測圖 上海近傍", "ckey": 9440325, "available": true, "iiifUrl": "https://purl.stanford.edu/rm192rf6805/iiif/manifest" }, "geometry": { "type": "Polygon", "coordinates": [ [ [ 120.8555555, 30.5749997 ], [ 120.9722221, 30.5749997 ], [ 120.9722221, 30.6583331 ], [ 120.8555555, 30.6583331 ], [ 120.8555555, 30.5749997 ] ] ] } },
{ "type": "Feature", "properties": { "Id": 0, "Sheet_ID": "上海南部 27M. 乍浦鎭", "label": "上海南部 27M. 乍浦鎭", "call_short": "G7824 .S2 A1 S25 .J3", "call_num": "G7824 .S2 A1 S25 .J3 SOUTH 27M", "recid": "xz233sq9179", "websiteUrl": "https://purl.stanford.edu/xz233sq9179", "title": "二万五千分一空中寫眞測圖 上海近傍", "ckey": 9440325, "available": true, "iiifUrl": "https://purl.stanford.edu/xz233sq9179/iiif/manifest" }, "geometry": { "type": "Polygon", "coordinates": [ [ [ 120.9722221, 30.5749997 ], [ 121.0888888, 30.5749997 ], [ 121.0888888, 30.6583331 ], [ 120.9722221, 30.6583331 ], [ 120.9722221, 30.5749997 ] ] ] } },
{ "type": "Feature", "properties": { "Id": 0, "Sheet_ID": "上海南部 22M. 陳山", "label": "上海南部 22M. 陳山", "call_short": "G7824 .S2 A1 S25 .J3", "call_num": "G7824 .S2 A1 S25 .J3 SOUTH 22M", "recid": "fm783kc3914", "websiteUrl": "https://purl.stanford.edu/fm783kc3914", "title": "二万五千分一空中寫眞測圖 上海近傍", "ckey": 9440325, "available": true, "iiifUrl": "https://purl.stanford.edu/fm783kc3914/iiif/manifest" }, "geometry": { "type": "Polygon", "coordinates": [ [ [ 121.0888888, 30.5749997 ], [ 121.2055554, 30.5749997 ], [ 121.2055554, 30.6583331 ], [ 121.0888888, 30.6583331 ], [ 121.0888888, 30.5749997 ] ] ] } },
{ "type": "Feature", "properties": { "Id": 0, "Sheet_ID": "上海南部 30M. 新篁鎭", "label": "上海南部 30M. 新篁鎭", "call_short": "G7824 .S2 A1 S25 .J3", "call_num": "G7824 .S2 A1 S25 .J3 SOUTH 30M", "recid": "nh863pb8748", "websiteUrl": "https://purl.stanford.edu/nh863pb8748", "title": "二万五千分一空中寫眞測圖 上海近傍", "ckey": 9440325, "available": true, "iiifUrl": "https://purl.stanford.edu/nh863pb8748/iiif/manifest" }, "geometry": { "type": "Polygon", "coordinates": [ [ [ 120.8555555, 30.6583331 ], [ 120.9722221, 30.6583331 ], [ 120.9722221, 30.7416665 ], [ 120.8555555, 30.7416665 ], [ 120.8555555, 30.6583331 ] ] ] } },
{ "type": "Feature", "properties": { "Id": 0, "Sheet_ID": "上海南部 26. 平湖縣城", "label": "上海南部 26. 平湖縣城", "call_short": "G7824 .S2 A1 S25 .J3", "call_num": "G7824 .S2 A1 S25 .J3 SOUTH 26", "recid": "jy520my7292", "websiteUrl": "https://purl.stanford.edu/jy520my7292", "title": "二万五千分一空中寫眞測圖 上海近傍", "ckey": 9440325, "available": true, "iiifUrl": "https://purl.stanford.edu/jy520my7292/iiif/manifest" }, "geometry": { "type": "Polygon", "coordinates": [ [ [ 120.9722221, 30.6583331 ], [ 121.0888888, 30.6583331 ], [ 121.0888888, 30.7416665 ], [ 120.9722221, 30.7416665 ], [ 120.9722221, 30.6583331 ] ] ] } },
{ "type": "Feature", "properties": { "Id": 0, "Sheet_ID": "上海南部 21. 獨山", "label": "上海南部 21. 獨山", "call_short": "G7824 .S2 A1 S25 .J3", "call_num": "G7824 .S2 A1 S25 .J3 SOUTH 21", "recid": "tt648vd0886", "websiteUrl": "https://purl.stanford.edu/tt648vd0886", "title": "二万五千分一空中寫眞測圖 上海近傍", "ckey": 9440325, "available": true, "iiifUrl": "https://purl.stanford.edu/tt648vd0886/iiif/manifest" }, "geometry": { "type": "Polygon", "coordinates": [ [ [ 121.0888888, 30.6583331 ], [ 121.2055554, 30.6583331 ], [ 121.2055554, 30.7416665 ], [ 121.0888888, 30.7416665 ], [ 121.0888888, 30.6583331 ] ] ] } },
{ "type": "Feature", "properties": { "Id": 0, "Sheet_ID": "上海南部 16. 金山衛城", "label": "上海南部 16. 金山衛城", "call_short": "G7824 .S2 A1 S25 .J3", "call_num": "G7824 .S2 A1 S25 .J3 SOUTH 16", "recid": "qd221pd4110", "websiteUrl": "https://purl.stanford.edu/qd221pd4110", "title": "二万五千分一空中寫眞測圖 上海近傍", "ckey": 9440325, "available": true, "iiifUrl": "https://purl.stanford.edu/qd221pd4110/iiif/manifest" }, "geometry": { "type": "Polygon", "coordinates": [ [ [ 121.2055554, 30.6583331 ], [ 121.322222, 30.6583331 ], [ 121.322222, 30.7416665 ], [ 121.2055554, 30.7416665 ], [ 121.2055554, 30.6583331 ] ] ] } },
{ "type": "Feature", "properties": { "Id": 0, "Sheet_ID": "上海南部 11M. 金山嘴鎭", "label": "上海南部 11M. 金山嘴鎭", "call_short": "G7824 .S2 A1 S25 .J3", "call_num": "G7824 .S2 A1 S25 .J3 SOUTH 11M", "recid": "vr561sf1493", "websiteUrl": "https://purl.stanford.edu/vr561sf1493", "title": "二万五千分一空中寫眞測圖 上海近傍", "ckey": 9440325, "available": true, "iiifUrl": "https://purl.stanford.edu/vr561sf1493/iiif/manifest" }, "geometry": { "type": "Polygon", "coordinates": [ [ [ 121.322222, 30.6583331 ], [ 121.4388887, 30.6583331 ], [ 121.4388887, 30.7416665 ], [ 121.322222, 30.7416665 ], [ 121.322222, 30.6583331 ] ] ] } },
{ "type": "Feature", "properties": { "Id": 0, "Sheet_ID": "上海南部 29. 徐歩市", "label": "上海南部 29. 徐歩市", "call_short": "G7824 .S2 A1 S25 .J3", "call_num": "G7824 .S2 A1 S25 .J3 SOUTH 29", "recid": "jn005vr8667", "websiteUrl": "https://purl.stanford.edu/jn005vr8667", "title": "二万五千分一空中寫眞測圖 上海近傍", "ckey": 9440325, "available": true, "iiifUrl": "https://purl.stanford.edu/jn005vr8667/iiif/manifest" }, "geometry": { "type": "Polygon", "coordinates": [ [ [ 120.8555555, 30.7416665 ], [ 120.9722221, 30.7416665 ], [ 120.9722221, 30.8249998 ], [ 120.8555555, 30.8249998 ], [ 120.8555555, 30.7416665 ] ] ] } },
{ "type": "Feature", "properties": { "Id": 0, "Sheet_ID": "上海南部 25M. 鍾埭鎭", "label": "上海南部 25M. 鍾埭鎭", "call_short": "G7824 .S2 A1 S25 .J3", "call_num": "G7824 .S2 A1 S25 .J3 SOUTH 25M", "recid": "qy585yf6457", "websiteUrl": "https://purl.stanford.edu/qy585yf6457", "title": "二万五千分一空中寫眞測圖 上海近傍", "ckey": 9440325, "available": true, "iiifUrl": "https://purl.stanford.edu/qy585yf6457/iiif/manifest" }, "geometry": { "type": "Polygon", "coordinates": [ [ [ 120.9722221, 30.7416665 ], [ 121.0888888, 30.7416665 ], [ 121.0888888, 30.8249998 ], [ 120.9722221, 30.8249998 ], [ 120.9722221, 30.7416665 ] ] ] } },
{ "type": "Feature", "properties": { "Id": 0, "Sheet_ID": "上海南部 20M. 新倉鎭", "label": "上海南部 20M. 新倉鎭", "call_short": "G7824 .S2 A1 S25 .J3", "call_num": "G7824 .S2 A1 S25 .J3 SOUTH 20M", "recid": "fh987mr2999", "websiteUrl": "https://purl.stanford.edu/fh987mr2999", "title": "二万五千分一空中寫眞測圖 上海近傍", "ckey": 9440325, "available": true, "iiifUrl": "https://purl.stanford.edu/fh987mr2999/iiif/manifest" }, "geometry": { "type": "Polygon", "coordinates": [ [ [ 121.0888888, 30.7416665 ], [ 121.2055554, 30.7416665 ], [ 121.2055554, 30.8249998 ], [ 121.0888888, 30.8249998 ], [ 121.0888888, 30.7416665 ] ] ] } },
{ "type": "Feature", "properties": { "Id": 0, "Sheet_ID": "上海南部 15. 張堰鎭", "label": "上海南部 15. 張堰鎭", "call_short": "G7824 .S2 A1 S25 .J3", "call_num": "G7824 .S2 A1 S25 .J3 SOUTH 15", "recid": "wz044sv5459", "websiteUrl": "https://purl.stanford.edu/wz044sv5459", "title": "二万五千分一空中寫眞測圖 上海近傍", "ckey": 9440325, "available": true, "iiifUrl": "https://purl.stanford.edu/wz044sv5459/iiif/manifest" }, "geometry": { "type": "Polygon", "coordinates": [ [ [ 121.2055554, 30.7416665 ], [ 121.322222, 30.7416665 ], [ 121.322222, 30.8249998 ], [ 121.2055554, 30.8249998 ], [ 121.2055554, 30.7416665 ] ] ] } },
{ "type": "Feature", "properties": { "Id": 0, "Sheet_ID": "上海南部 10. 漕涇鎭", "label": "上海南部 10. 漕涇鎭", "call_short": "G7824 .S2 A1 S25 .J3", "call_num": "G7824 .S2 A1 S25 .J3 SOUTH 10", "recid": "qr777sp2868", "websiteUrl": "https://purl.stanford.edu/qr777sp2868", "title": "二万五千分一空中寫眞測圖 上海近傍", "ckey": 9440325, "available": true, "iiifUrl": "https://purl.stanford.edu/qr777sp2868/iiif/manifest" }, "geometry": { "type": "Polygon", "coordinates": [ [ [ 121.322222, 30.7416665 ], [ 121.4388887, 30.7416665 ], [ 121.4388887, 30.8249998 ], [ 121.322222, 30.8249998 ], [ 121.322222, 30.7416665 ] ] ] } },
{ "type": "Feature", "properties": { "Id": 0, "Sheet_ID": "上海南部 6. 柘林鎭", "label": "上海南部 6. 柘林鎭", "call_short": "G7824 .S2 A1 S25 .J3", "call_num": "G7824 .S2 A1 S25 .J3 SOUTH 6", "recid": "qt543pz0285", "websiteUrl": "https://purl.stanford.edu/qt543pz0285", "title": "二万五千分一空中寫眞測圖 上海近傍", "ckey": 9440325, "available": true, "iiifUrl": "https://purl.stanford.edu/qt543pz0285/iiif/manifest" }, "geometry": { "type": "Polygon", "coordinates": [ [ [ 121.4388887, 30.7416665 ], [ 121.5555553, 30.7416665 ], [ 121.5555553, 30.8249998 ], [ 121.4388887, 30.8249998 ], [ 121.4388887, 30.7416665 ] ] ] } },
{ "type": "Feature", "properties": { "Id": 0, "Sheet_ID": "上海南部 28. 嘉善縣城", "label": "上海南部 28. 嘉善縣城", "call_short": "G7824 .S2 A1 S25 .J3", "call_num": "G7824 .S2 A1 S25 .J3 SOUTH 28", "recid": "by769rt3536", "websiteUrl": "https://purl.stanford.edu/by769rt3536", "title": "二万五千分一空中寫眞測圖 上海近傍", "ckey": 9440325, "available": true, "iiifUrl": "https://purl.stanford.edu/by769rt3536/iiif/manifest" }, "geometry": { "type": "Polygon", "coordinates": [ [ [ 120.8555555, 30.8249998 ], [ 120.9722221, 30.8249998 ], [ 120.9722221, 30.9083332 ], [ 120.8555555, 30.9083332 ], [ 120.8555555, 30.8249998 ] ] ] } },
{ "type": "Feature", "properties": { "Id": 0, "Sheet_ID": "上海南部 24. 楓涇鎭", "label": "上海南部 24. 楓涇鎭", "call_short": "G7824 .S2 A1 S25 .J3", "call_num": "G7824 .S2 A1 S25 .J3 SOUTH 24", "recid": "zy736jd0727", "websiteUrl": "https://purl.stanford.edu/zy736jd0727", "title": "二万五千分一空中寫眞測圖 上海近傍", "ckey": 9440325, "available": true, "iiifUrl": "https://purl.stanford.edu/zy736jd0727/iiif/manifest" }, "geometry": { "type": "Polygon", "coordinates": [ [ [ 120.9722221, 30.8249998 ], [ 121.0888888, 30.8249998 ], [ 121.0888888, 30.9083332 ], [ 120.9722221, 30.9083332 ], [ 120.9722221, 30.8249998 ] ] ] } },
{ "type": "Feature", "properties": { "Id": 0, "Sheet_ID": "上海南部 19. 金山縣", "label": "上海南部 19. 金山縣", "call_short": "G7824 .S2 A1 S25 .J3", "call_num": "G7824 .S2 A1 S25 .J3 SOUTH 19", "recid": "zk347qm6015", "websiteUrl": "https://purl.stanford.edu/zk347qm6015", "title": "二万五千分一空中寫眞測圖 上海近傍", "ckey": 9440325, "available": true, "iiifUrl": "https://purl.stanford.edu/zk347qm6015/iiif/manifest" }, "geometry": { "type": "Polygon", "coordinates": [ [ [ 121.0888888, 30.8249998 ], [ 121.2055554, 30.8249998 ], [ 121.2055554, 30.9083332 ], [ 121.0888888, 30.9083332 ], [ 121.0888888, 30.8249998 ] ] ] } },
{ "type": "Feature", "properties": { "Id": 0, "Sheet_ID": "上海南部 14. 亭林鎭", "label": "上海南部 14. 亭林鎭", "call_short": "G7824 .S2 A1 S25 .J3", "call_num": "G7824 .S2 A1 S25 .J3 SOUTH 14", "recid": "tb436cx0578", "websiteUrl": "https://purl.stanford.edu/tb436cx0578", "title": "二万五千分一空中寫眞測圖 上海近傍", "ckey": 9440325, "available": true, "iiifUrl": "https://purl.stanford.edu/tb436cx0578/iiif/manifest" }, "geometry": { "type": "Polygon", "coordinates": [ [ [ 121.2055554, 30.8249998 ], [ 121.322222, 30.8249998 ], [ 121.322222, 30.9083332 ], [ 121.2055554, 30.9083332 ], [ 121.2055554, 30.8249998 ] ] ] } },
{ "type": "Feature", "properties": { "Id": 0, "Sheet_ID": "上海南部 9M. 莊行鎭", "label": "上海南部 9M. 莊行鎭", "call_short": "G7824 .S2 A1 S25 .J3", "call_num": "G7824 .S2 A1 S25 .J3 SOUTH 9M", "recid": "kt984pb2340", "websiteUrl": "https://purl.stanford.edu/kt984pb2340", "title": "二万五千分一空中寫眞測圖 上海近傍", "ckey": 9440325, "available": true, "iiifUrl": "https://purl.stanford.edu/kt984pb2340/iiif/manifest" }, "geometry": { "type": "Polygon", "coordinates": [ [ [ 121.322222, 30.8249998 ], [ 121.4388887, 30.8249998 ], [ 121.4388887, 30.9083332 ], [ 121.322222, 30.9083332 ], [ 121.322222, 30.8249998 ] ] ] } },
{ "type": "Feature", "properties": { "Id": 0, "Sheet_ID": "上海南部 5. 柘林城", "label": "上海南部 5. 柘林城", "call_short": "G7824 .S2 A1 S25 .J3", "call_num": "G7824 .S2 A1 S25 .J3 SOUTH 5", "recid": "vm984ck5503", "websiteUrl": "https://purl.stanford.edu/vm984ck5503", "title": "二万五千分一空中寫眞測圖 上海近傍", "ckey": 9440325, "available": true, "iiifUrl": "https://purl.stanford.edu/vm984ck5503/iiif/manifest" }, "geometry": { "type": "Polygon", "coordinates": [ [ [ 121.4388887, 30.8249998 ], [ 121.5555553, 30.8249998 ], [ 121.5555553, 30.9083332 ], [ 121.4388887, 30.9083332 ], [ 121.4388887, 30.8249998 ] ] ] } },
{ "type": "Feature", "properties": { "Id": 0, "Sheet_ID": "上海南部 2M. 三家營", "label": "上海南部 2M. 三家營", "call_short": "G7824 .S2 A1 S25 .J3", "call_num": "G7824 .S2 A1 S25 .J3 SOUTH 2M", "recid": "bk603sj4132", "websiteUrl": "https://purl.stanford.edu/bk603sj4132", "title": "二万五千分一空中寫眞測圖 上海近傍", "ckey": 9440325, "available": true, "iiifUrl": "https://purl.stanford.edu/bk603sj4132/iiif/manifest" }, "geometry": { "type": "Polygon", "coordinates": [ [ [ 121.5555553, 30.8249998 ], [ 121.6722219, 30.8249998 ], [ 121.6722219, 30.9083332 ], [ 121.5555553, 30.9083332 ], [ 121.5555553, 30.8249998 ] ] ] } },
{ "type": "Feature", "properties": { "Id": 0, "Sheet_ID": "上海南部 23M. 水旺村", "label": "上海南部 23M. 水旺村", "call_short": "G7824 .S2 A1 S25 .J3", "call_num": "G7824 .S2 A1 S25 .J3 SOUTH 23M", "recid": "yc123jc6171", "websiteUrl": "https://purl.stanford.edu/yc123jc6171", "title": "二万五千分一空中寫眞測圖 上海近傍", "ckey": 9440325, "available": true, "iiifUrl": "https://purl.stanford.edu/yc123jc6171/iiif/manifest" }, "geometry": { "type": "Polygon", "coordinates": [ [ [ 120.9722221, 30.9083332 ], [ 121.0888888, 30.9083332 ], [ 121.0888888, 30.9916666 ], [ 120.9722221, 30.9916666 ], [ 120.9722221, 30.9083332 ] ] ] } },
{ "type": "Feature", "properties": { "Id": 0, "Sheet_ID": "上海南部 18. 黄橋鎭", "label": "上海南部 18. 黄橋鎭", "call_short": "G7824 .S2 A1 S25 .J3", "call_num": "G7824 .S2 A1 S25 .J3 SOUTH 18", "recid": "bc580ck1055", "websiteUrl": "https://purl.stanford.edu/bc580ck1055", "title": "二万五千分一空中寫眞測圖 上海近傍", "ckey": 9440325, "available": true, "iiifUrl": "https://purl.stanford.edu/bc580ck1055/iiif/manifest" }, "geometry": { "type": "Polygon", "coordinates": [ [ [ 121.0888888, 30.9083332 ], [ 121.2055554, 30.9083332 ], [ 121.2055554, 30.9916666 ], [ 121.0888888, 30.9916666 ], [ 121.0888888, 30.9083332 ] ] ] } },
{ "type": "Feature", "properties": { "Id": 0, "Sheet_ID": "上海南部 13. 馮家橋", "label": "上海南部 13. 馮家橋", "call_short": "G7824 .S2 A1 S25 .J3", "call_num": "G7824 .S2 A1 S25 .J3 SOUTH 13", "recid": "qr521qy2149", "websiteUrl": "https://purl.stanford.edu/qr521qy2149", "title": "二万五千分一空中寫眞測圖 上海近傍", "ckey": 9440325, "available": true, "iiifUrl": "https://purl.stanford.edu/qr521qy2149/iiif/manifest" }, "geometry": { "type": "Polygon", "coordinates": [ [ [ 121.2055554, 30.9083332 ], [ 121.322222, 30.9083332 ], [ 121.322222, 30.9916666 ], [ 121.2055554, 30.9916666 ], [ 121.2055554, 30.9083332 ] ] ] } },
{ "type": "Feature", "properties": { "Id": 0, "Sheet_ID": "上海南部 8. 鄔家橋", "label": "上海南部 8. 鄔家橋", "call_short": "G7824 .S2 A1 S25 .J3", "call_num": "G7824 .S2 A1 S25 .J3 SOUTH 8", "recid": "pf044rp2879", "websiteUrl": "https://purl.stanford.edu/pf044rp2879", "title": "二万五千分一空中寫眞測圖 上海近傍", "ckey": 9440325, "available": true, "iiifUrl": "https://purl.stanford.edu/pf044rp2879/iiif/manifest" }, "geometry": { "type": "Polygon", "coordinates": [ [ [ 121.322222, 30.9083332 ], [ 121.4388887, 30.9083332 ], [ 121.4388887, 30.9916666 ], [ 121.322222, 30.9916666 ], [ 121.322222, 30.9083332 ] ] ] } },
{ "type": "Feature", "properties": { "Id": 0, "Sheet_ID": "上海南部 4. 金匯橋", "label": "上海南部 4. 金匯橋", "call_short": "G7824 .S2 A1 S25 .J3", "call_num": "G7824 .S2 A1 S25 .J3 SOUTH 4", "recid": "jk874kw7821", "websiteUrl": "https://purl.stanford.edu/jk874kw7821", "title": "二万五千分一空中寫眞測圖 上海近傍", "ckey": 9440325, "available": true, "iiifUrl": "https://purl.stanford.edu/jk874kw7821/iiif/manifest" }, "geometry": { "type": "Polygon", "coordinates": [ [ [ 121.4388887, 30.9083332 ], [ 121.5555553, 30.9083332 ], [ 121.5555553, 30.9916666 ], [ 121.4388887, 30.9916666 ], [ 121.4388887, 30.9083332 ] ] ] } },
{ "type": "Feature", "properties": { "Id": 0, "Sheet_ID": "上海南部 17. 横雲山", "label": "上海南部 17. 横雲山", "call_short": "G7824 .S2 A1 S25 .J3", "call_num": "G7824 .S2 A1 S25 .J3 SOUTH 17", "recid": "dh910yv0685", "websiteUrl": "https://purl.stanford.edu/dh910yv0685", "title": "二万五千分一空中寫眞測圖 上海近傍", "ckey": 9440325, "available": true, "iiifUrl": "https://purl.stanford.edu/dh910yv0685/iiif/manifest" }, "geometry": { "type": "Polygon", "coordinates": [ [ [ 121.0888888, 30.9916666 ], [ 121.2055554, 30.9916666 ], [ 121.2055554, 31.075 ], [ 121.0888888, 31.075 ], [ 121.0888888, 30.9916666 ] ] ] } },
{ "type": "Feature", "properties": { "Id": 0, "Sheet_ID": "上海南部 12. 松江", "label": "上海南部 12. 松江", "call_short": "G7824 .S2 A1 S25 .J3", "call_num": "G7824 .S2 A1 S25 .J3 SOUTH 12", "recid": "gt329fr7251", "websiteUrl": "https://purl.stanford.edu/gt329fr7251", "title": "二万五千分一空中寫眞測圖 上海近傍", "ckey": 9440325, "available": true, "iiifUrl": "https://purl.stanford.edu/gt329fr7251/iiif/manifest" }, "geometry": { "type": "Polygon", "coordinates": [ [ [ 121.2055554, 30.9916666 ], [ 121.322222, 30.9916666 ], [ 121.322222, 31.075 ], [ 121.2055554, 31.075 ], [ 121.2055554, 30.9916666 ] ] ] } },
{ "type": "Feature", "properties": { "Id": 0, "Sheet_ID": "上海南部 7. 馬橋鎭", "label": "上海南部 7. 馬橋鎭", "call_short": "G7824 .S2 A1 S25 .J3", "call_num": "G7824 .S2 A1 S25 .J3 SOUTH 7", "recid": "nc782qq7741", "websiteUrl": "https://purl.stanford.edu/nc782qq7741", "title": "二万五千分一空中寫眞測圖 上海近傍", "ckey": 9440325, "available": true, "iiifUrl": "https://purl.stanford.edu/nc782qq7741/iiif/manifest" }, "geometry": { "type": "Polygon", "coordinates": [ [ [ 121.322222, 30.9916666 ], [ 121.4388887, 30.9916666 ], [ 121.4388887, 31.075 ], [ 121.322222, 31.075 ], [ 121.322222, 30.9916666 ] ] ] } },
{ "type": "Feature", "properties": { "Id": 0, "Sheet_ID": "上海南部 3. 杜家行", "label": "上海南部 3. 杜家行", "call_short": "G7824 .S2 A1 S25 .J3", "call_num": "G7824 .S2 A1 S25 .J3 SOUTH 3", "recid": "nq519zt9023", "websiteUrl": "https://purl.stanford.edu/nq519zt9023", "title": "二万五千分一空中寫眞測圖 上海近傍", "ckey": 9440325, "available": true, "iiifUrl": "https://purl.stanford.edu/nq519zt9023/iiif/manifest" }, "geometry": { "type": "Polygon", "coordinates": [ [ [ 121.4388887, 30.9916666 ], [ 121.5555553, 30.9916666 ], [ 121.5555553, 31.075 ], [ 121.4388887, 31.075 ], [ 121.4388887, 30.9916666 ] ] ] } },
{ "type": "Feature", "properties": { "Id": 0, "Sheet_ID": "上海南部 1. 新場鎭", "label": "上海南部 1. 新場鎭", "call_short": "G7824 .S2 A1 S25 .J3", "call_num": "G7824 .S2 A1 S25 .J3 SOUTH 1", "recid": "jp019hy6052", "websiteUrl": "https://purl.stanford.edu/jp019hy6052", "title": "二万五千分一空中寫眞測圖 上海近傍", "ckey": 9440325, "available": true, "iiifUrl": "https://purl.stanford.edu/jp019hy6052/iiif/manifest" }, "geometry": { "type": "Polygon", "coordinates": [ [ [ 121.5555553, 30.9916666 ], [ 121.6722219, 30.9916666 ], [ 121.6722219, 31.075 ], [ 121.5555553, 31.075 ], [ 121.5555553, 30.9916666 ] ] ] } },
{ "type": "Feature", "properties": { "Id": 0, "Sheet_ID": "上海 25M. 青浦城", "label": "上海 25M. 青浦城", "call_short": "G7824 .S2 A1 S25 .J3", "call_num": "G7824 .S2 A1 S25 .J3 CENTRAL 25M", "recid": "wy985fm9539", "websiteUrl": "https://purl.stanford.edu/wy985fm9539", "title": "二万五千分一空中寫眞測圖 上海近傍", "ckey": 9440325, "available": true, "iiifUrl": "https://purl.stanford.edu/wy985fm9539/iiif/manifest" }, "geometry": { "type": "Polygon", "coordinates": [ [ [ 121.0888888, 31.075 ], [ 121.2055554, 31.075 ], [ 121.2055554, 31.1583333 ], [ 121.0888888, 31.1583333 ], [ 121.0888888, 31.075 ] ] ] } },
{ "type": "Feature", "properties": { "Id": 0, "Sheet_ID": "上海 18. 泗涇鎭", "label": "上海 18. 泗涇鎭", "call_short": "G7824 .S2 A1 S25 .J3", "call_num": "G7824 .S2 A1 S25 .J3 CENTRAL 18", "recid": "wg236tx9814", "websiteUrl": "https://purl.stanford.edu/wg236tx9814", "title": "二万五千分一空中寫眞測圖 上海近傍", "ckey": 9440325, "available": true, "iiifUrl": "https://purl.stanford.edu/wg236tx9814/iiif/manifest" }, "geometry": { "type": "Polygon", "coordinates": [ [ [ 121.2055554, 31.075 ], [ 121.322222, 31.075 ], [ 121.322222, 31.1583333 ], [ 121.2055554, 31.1583333 ], [ 121.2055554, 31.075 ] ] ] } },
{ "type": "Feature", "properties": { "Id": 0, "Sheet_ID": "上海 11. 莘荘鎮", "label": "上海 11. 莘荘鎮", "call_short": "G7824 .S2 A1 S25 .J3", "call_num": "G7824 .S2 A1 S25 .J3 CENTRAL 11", "recid": "fb311vn9398", "websiteUrl": "https://purl.stanford.edu/fb311vn9398", "title": "二万五千分一空中寫眞測圖 上海近傍", "ckey": 9440325, "available": true, "iiifUrl": "https://purl.stanford.edu/fb311vn9398/iiif/manifest" }, "geometry": { "type": "Polygon", "coordinates": [ [ [ 121.322222, 31.075 ], [ 121.4388887, 31.075 ], [ 121.4388887, 31.1583333 ], [ 121.322222, 31.1583333 ], [ 121.322222, 31.075 ] ] ] } },
{ "type": "Feature", "properties": { "Id": 0, "Sheet_ID": "上海 5. 三林塘", "label": "上海 5. 三林塘", "call_short": "G7824 .S2 A1 S25 .J3", "call_num": "G7824 .S2 A1 S25 .J3 CENTRAL 5", "recid": "rq185jt9990", "websiteUrl": "https://purl.stanford.edu/rq185jt9990", "title": "二万五千分一空中寫眞測圖 上海近傍", "ckey": 9440325, "available": true, "iiifUrl": "https://purl.stanford.edu/rq185jt9990/iiif/manifest" }, "geometry": { "type": "Polygon", "coordinates": [ [ [ 121.4388887, 31.075 ], [ 121.5555553, 31.075 ], [ 121.5555553, 31.1583333 ], [ 121.4388887, 31.1583333 ], [ 121.4388887, 31.075 ] ] ] } },
{ "type": "Feature", "properties": { "Id": 0, "Sheet_ID": "上海東部 8. 周浦鎭", "label": "上海東部 8. 周浦鎭", "call_short": "G7824 .S2 A1 S25 .J3", "call_num": "G7824 .S2 A1 S25 .J3 EAST 8", "recid": "pg102kt5952", "websiteUrl": "https://purl.stanford.edu/pg102kt5952", "title": "二万五千分一空中寫眞測圖 上海近傍", "ckey": 9440325, "available": true, "iiifUrl": "https://purl.stanford.edu/pg102kt5952/iiif/manifest" }, "geometry": { "type": "Polygon", "coordinates": [ [ [ 121.5555553, 31.075 ], [ 121.6722219, 31.075 ], [ 121.6722219, 31.1583333 ], [ 121.5555553, 31.1583333 ], [ 121.5555553, 31.075 ] ] ] } },
{ "type": "Feature", "properties": { "Id": 0, "Sheet_ID": "上海東部 4. 竺家槁", "label": "上海東部 4. 竺家槁", "call_short": "G7824 .S2 A1 S25 .J3", "call_num": "G7824 .S2 A1 S25 .J3 EAST 4", "recid": "zg623xv5310", "websiteUrl": "https://purl.stanford.edu/zg623xv5310", "title": "二万五千分一空中寫眞測圖 上海近傍", "ckey": 9440325, "available": true, "iiifUrl": "https://purl.stanford.edu/zg623xv5310/iiif/manifest" }, "geometry": { "type": "Polygon", "coordinates": [ [ [ 121.6722219, 31.075 ], [ 121.7888886, 31.075 ], [ 121.7888886, 31.1583333 ], [ 121.6722219, 31.1583333 ], [ 121.6722219, 31.075 ] ] ] } },
{ "type": "Feature", "properties": { "Id": 0, "Sheet_ID": "上海東部 1. 謝家河", "label": "上海東部 1. 謝家河", "call_short": "G7824 .S2 A1 S25 .J3", "call_num": "G7824 .S2 A1 S25 .J3 EAST 1", "recid": "gc939vc8232", "websiteUrl": "https://purl.stanford.edu/gc939vc8232", "title": "二万五千分一空中寫眞測圖 上海近傍", "ckey": 9440325, "available": true, "iiifUrl": "https://purl.stanford.edu/gc939vc8232/iiif/manifest" }, "geometry": { "type": "Polygon", "coordinates": [ [ [ 121.7888886, 31.075 ], [ 121.9055552, 31.075 ], [ 121.9055552, 31.1583333 ], [ 121.7888886, 31.1583333 ], [ 121.7888886, 31.075 ] ] ] } },
{ "type": "Feature", "properties": { "Id": 0, "Sheet_ID": "上海 24. 重固鎮", "label": "上海 24. 重固鎮", "call_short": "G7824 .S2 A1 S25 .J3", "call_num": "G7824 .S2 A1 S25 .J3 CENTRAL 24", "recid": "vr233fc3470", "websiteUrl": "https://purl.stanford.edu/vr233fc3470", "title": "二万五千分一空中寫眞測圖 上海近傍", "ckey": 9440325, "available": true, "iiifUrl": "https://purl.stanford.edu/vr233fc3470/iiif/manifest" }, "geometry": { "type": "Polygon", "coordinates": [ [ [ 121.0888888, 31.1583333 ], [ 121.2055554, 31.1583333 ], [ 121.2055554, 31.2416667 ], [ 121.0888888, 31.2416667 ], [ 121.0888888, 31.1583333 ] ] ] } },
{ "type": "Feature", "properties": { "Id": 0, "Sheet_ID": "上海 17. 蟠龍鎮", "label": "上海 17. 蟠龍鎮", "call_short": "G7824 .S2 A1 S25 .J3", "call_num": "G7824 .S2 A1 S25 .J3 CENTRAL 17", "recid": "dn266sf9949", "websiteUrl": "https://purl.stanford.edu/dn266sf9949", "title": "二万五千分一空中寫眞測圖 上海近傍", "ckey": 9440325, "available": true, "iiifUrl": "https://purl.stanford.edu/dn266sf9949/iiif/manifest" }, "geometry": { "type": "Polygon", "coordinates": [ [ [ 121.2055554, 31.1583333 ], [ 121.322222, 31.1583333 ], [ 121.322222, 31.2416667 ], [ 121.2055554, 31.2416667 ], [ 121.2055554, 31.1583333 ] ] ] } },
{ "type": "Feature", "properties": { "Id": 0, "Sheet_ID": "上海 10. 法華鎮", "label": "上海 10. 法華鎮", "call_short": "G7824 .S2 A1 S25 .J3", "call_num": "G7824 .S2 A1 S25 .J3 CENTRAL 10", "recid": "gh491zk8204", "websiteUrl": "https://purl.stanford.edu/gh491zk8204", "title": "二万五千分一空中寫眞測圖 上海近傍", "ckey": 9440325, "available": true, "iiifUrl": "https://purl.stanford.edu/gh491zk8204/iiif/manifest" }, "geometry": { "type": "Polygon", "coordinates": [ [ [ 121.322222, 31.1583333 ], [ 121.4388887, 31.1583333 ], [ 121.4388887, 31.2416667 ], [ 121.322222, 31.2416667 ], [ 121.322222, 31.1583333 ] ] ] } },
{ "type": "Feature", "properties": { "Id": 0, "Sheet_ID": "上海 4. 上海", "label": "上海 4. 上海", "call_short": "0", "call_num": "0", "recid": "0", "websiteUrl": "0", "title": "0", "ckey": 0, "available": false, "iiifUrl": "0" }, "geometry": { "type": "Polygon", "coordinates": [ [ [ 121.4388887, 31.1583333 ], [ 121.5555553, 31.1583333 ], [ 121.5555553, 31.2416667 ], [ 121.4388887, 31.2416667 ], [ 121.4388887, 31.1583333 ] ] ] } },
{ "type": "Feature", "properties": { "Id": 0, "Sheet_ID": "上海東部 7. 張江柵", "label": "上海東部 7. 張江柵", "call_short": "G7824 .S2 A1 S25 .J3", "call_num": "G7824 .S2 A1 S25 .J3 EAST 7", "recid": "zq915jm3221", "websiteUrl": "https://purl.stanford.edu/zq915jm3221", "title": "二万五千分一空中寫眞測圖 上海近傍", "ckey": 9440325, "available": true, "iiifUrl": "https://purl.stanford.edu/zq915jm3221/iiif/manifest" }, "geometry": { "type": "Polygon", "coordinates": [ [ [ 121.5555553, 31.1583333 ], [ 121.6722219, 31.1583333 ], [ 121.6722219, 31.2416667 ], [ 121.5555553, 31.2416667 ], [ 121.5555553, 31.1583333 ] ] ] } },
{ "type": "Feature", "properties": { "Id": 0, "Sheet_ID": "上海東部 3. 川沙縣", "label": "上海東部 3. 川沙縣", "call_short": "G7824 .S2 A1 S25 .J3", "call_num": "G7824 .S2 A1 S25 .J3 EAST 3", "recid": "vn094rc0766", "websiteUrl": "https://purl.stanford.edu/vn094rc0766", "title": "二万五千分一空中寫眞測圖 上海近傍", "ckey": 9440325, "available": true, "iiifUrl": "https://purl.stanford.edu/vn094rc0766/iiif/manifest" }, "geometry": { "type": "Polygon", "coordinates": [ [ [ 121.6722219, 31.1583333 ], [ 121.7888886, 31.1583333 ], [ 121.7888886, 31.2416667 ], [ 121.6722219, 31.2416667 ], [ 121.6722219, 31.1583333 ] ] ] } },
{ "type": "Feature", "properties": { "Id": 0, "Sheet_ID": "上海西北部 8. 篆葭濱鎭", "label": "上海西北部 8. 篆葭濱鎭", "call_short": "G7824 .S2 A1 S25 .J3", "call_num": "G7824 .S2 A1 S25 .J3 NW 8", "recid": "mm039wr9988", "websiteUrl": "https://purl.stanford.edu/mm039wr9988", "title": "二万五千分一空中寫眞測圖 上海近傍", "ckey": 9440325, "available": true, "iiifUrl": "https://purl.stanford.edu/mm039wr9988/iiif/manifest" }, "geometry": { "type": "Polygon", "coordinates": [ [ [ 120.9722221, 31.2416667 ], [ 121.0888888, 31.2416667 ], [ 121.0888888, 31.3250001 ], [ 120.9722221, 31.3250001 ], [ 120.9722221, 31.2416667 ] ] ] } },
{ "type": "Feature", "properties": { "Id": 0, "Sheet_ID": "上海 23. 安亭", "label": "上海 23. 安亭", "call_short": "G7824 .S2 A1 S25 .J3", "call_num": "G7824 .S2 A1 S25 .J3 CENTRAL 23", "recid": "sh402rm1820", "websiteUrl": "https://purl.stanford.edu/sh402rm1820", "title": "二万五千分一空中寫眞測圖 上海近傍", "ckey": 9440325, "available": true, "iiifUrl": "https://purl.stanford.edu/sh402rm1820/iiif/manifest" }, "geometry": { "type": "Polygon", "coordinates": [ [ [ 121.0888888, 31.2416667 ], [ 121.2055554, 31.2416667 ], [ 121.2055554, 31.3250001 ], [ 121.0888888, 31.3250001 ], [ 121.0888888, 31.2416667 ] ] ] } },
{ "type": "Feature", "properties": { "Id": 0, "Sheet_ID": "上海 16. 南翔", "label": "上海 16. 南翔", "call_short": "G7824 .S2 A1 S25 .J3", "call_num": "G7824 .S2 A1 S25 .J3 CENTRAL 16", "recid": "sg041wj8288", "websiteUrl": "https://purl.stanford.edu/sg041wj8288", "title": "二万五千分一空中寫眞測圖 上海近傍", "ckey": 9440325, "available": true, "iiifUrl": "https://purl.stanford.edu/sg041wj8288/iiif/manifest" }, "geometry": { "type": "Polygon", "coordinates": [ [ [ 121.2055554, 31.2416667 ], [ 121.322222, 31.2416667 ], [ 121.322222, 31.3250001 ], [ 121.2055554, 31.3250001 ], [ 121.2055554, 31.2416667 ] ] ] } },
{ "type": "Feature", "properties": { "Id": 0, "Sheet_ID": "上海 9. 大場鎮", "label": "上海 9. 大場鎮", "call_short": "G7824 .S2 A1 S25 .J3", "call_num": "G7824 .S2 A1 S25 .J3 CENTRAL 9", "recid": "hr183bp8096", "websiteUrl": "https://purl.stanford.edu/hr183bp8096", "title": "二万五千分一空中寫眞測圖 上海近傍", "ckey": 9440325, "available": true, "iiifUrl": "https://purl.stanford.edu/hr183bp8096/iiif/manifest" }, "geometry": { "type": "Polygon", "coordinates": [ [ [ 121.322222, 31.2416667 ], [ 121.4388887, 31.2416667 ], [ 121.4388887, 31.3250001 ], [ 121.322222, 31.3250001 ], [ 121.322222, 31.2416667 ] ] ] } },
{ "type": "Feature", "properties": { "Id": 0, "Sheet_ID": "上海 3. 江灣", "label": "上海 3. 江灣", "call_short": "G7824 .S2 A1 S25 .J3", "call_num": "G7824 .S2 A1 S25 .J3 CENTRAL 3", "recid": "dr654mn4558", "websiteUrl": "https://purl.stanford.edu/dr654mn4558", "title": "二万五千分一空中寫眞測圖 上海近傍", "ckey": 9440325, "available": true, "iiifUrl": "https://purl.stanford.edu/dr654mn4558/iiif/manifest" }, "geometry": { "type": "Polygon", "coordinates": [ [ [ 121.4388887, 31.2416667 ], [ 121.5555553, 31.2416667 ], [ 121.5555553, 31.3250001 ], [ 121.4388887, 31.3250001 ], [ 121.4388887, 31.2416667 ] ] ] } },
{ "type": "Feature", "properties": { "Id": 0, "Sheet_ID": "上海東部 6. 高行鎭", "label": "上海東部 6. 高行鎭", "call_short": "G7824 .S2 A1 S25 .J3", "call_num": "G7824 .S2 A1 S25 .J3 EAST 6", "recid": "bp329rj2039", "websiteUrl": "https://purl.stanford.edu/bp329rj2039", "title": "二万五千分一空中寫眞測圖 上海近傍", "ckey": 9440325, "available": true, "iiifUrl": "https://purl.stanford.edu/bp329rj2039/iiif/manifest" }, "geometry": { "type": "Polygon", "coordinates": [ [ [ 121.5555553, 31.2416667 ], [ 121.6722219, 31.2416667 ], [ 121.6722219, 31.3250001 ], [ 121.5555553, 31.3250001 ], [ 121.5555553, 31.2416667 ] ] ] } },
{ "type": "Feature", "properties": { "Id": 0, "Sheet_ID": "上海東部 2. 新港", "label": "上海東部 2. 新港", "call_short": "G7824 .S2 A1 S25 .J3", "call_num": "G7824 .S2 A1 S25 .J3 EAST 2", "recid": "yr583yf5781", "websiteUrl": "https://purl.stanford.edu/yr583yf5781", "title": "二万五千分一空中寫眞測圖 上海近傍", "ckey": 9440325, "available": true, "iiifUrl": "https://purl.stanford.edu/yr583yf5781/iiif/manifest" }, "geometry": { "type": "Polygon", "coordinates": [ [ [ 121.6722219, 31.2416667 ], [ 121.7888886, 31.2416667 ], [ 121.7888886, 31.3250001 ], [ 121.6722219, 31.3250001 ], [ 121.6722219, 31.2416667 ] ] ] } },
{ "type": "Feature", "properties": { "Id": 0, "Sheet_ID": "上海西北部 14. 品洛", "label": "上海西北部 14. 品洛", "call_short": "G7824 .S2 A1 S25 .J3", "call_num": "G7824 .S2 A1 S25 .J3 NW 14", "recid": "xn111tv8822", "websiteUrl": "https://purl.stanford.edu/xn111tv8822", "title": "二万五千分一空中寫眞測圖 上海近傍", "ckey": 9440325, "available": true, "iiifUrl": "https://purl.stanford.edu/xn111tv8822/iiif/manifest" }, "geometry": { "type": "Polygon", "coordinates": [ [ [ 120.8555555, 31.3250001 ], [ 120.9722221, 31.3250001 ], [ 120.9722221, 31.4083335 ], [ 120.8555555, 31.4083335 ], [ 120.8555555, 31.3250001 ] ] ] } },
{ "type": "Feature", "properties": { "Id": 0, "Sheet_ID": "上海西北部 7. 崑山城", "label": "上海西北部 7. 崑山城", "call_short": "G7824 .S2 A1 S25 .J3", "call_num": "G7824 .S2 A1 S25 .J3 NW 7", "recid": "qx068zf0175", "websiteUrl": "https://purl.stanford.edu/qx068zf0175", "title": "二万五千分一空中寫眞測圖 上海近傍", "ckey": 9440325, "available": true, "iiifUrl": "https://purl.stanford.edu/qx068zf0175/iiif/manifest" }, "geometry": { "type": "Polygon", "coordinates": [ [ [ 120.9722221, 31.3250001 ], [ 121.0888888, 31.3250001 ], [ 121.0888888, 31.4083335 ], [ 120.9722221, 31.4083335 ], [ 120.9722221, 31.3250001 ] ] ] } },
{ "type": "Feature", "properties": { "Id": 0, "Sheet_ID": "上海 22. 蓬閬", "label": "上海 22. 蓬閬", "call_short": "G7824 .S2 A1 S25 .J3", "call_num": "G7824 .S2 A1 S25 .J3 CENTRAL 22", "recid": "fh156vf3275", "websiteUrl": "https://purl.stanford.edu/fh156vf3275", "title": "二万五千分一空中寫眞測圖 上海近傍", "ckey": 9440325, "available": true, "iiifUrl": "https://purl.stanford.edu/fh156vf3275/iiif/manifest" }, "geometry": { "type": "Polygon", "coordinates": [ [ [ 121.0888888, 31.3250001 ], [ 121.2055554, 31.3250001 ], [ 121.2055554, 31.4083335 ], [ 121.0888888, 31.4083335 ], [ 121.0888888, 31.3250001 ] ] ] } },
{ "type": "Feature", "properties": { "Id": 0, "Sheet_ID": "上海 15. 嘉定城", "label": "上海 15. 嘉定城", "call_short": "G7824 .S2 A1 S25 .J3", "call_num": "G7824 .S2 A1 S25 .J3 CENTRAL 15", "recid": "vk928tb9377", "websiteUrl": "https://purl.stanford.edu/vk928tb9377", "title": "二万五千分一空中寫眞測圖 上海近傍", "ckey": 9440325, "available": true, "iiifUrl": "https://purl.stanford.edu/vk928tb9377/iiif/manifest" }, "geometry": { "type": "Polygon", "coordinates": [ [ [ 121.2055554, 31.3250001 ], [ 121.322222, 31.3250001 ], [ 121.322222, 31.4083335 ], [ 121.2055554, 31.4083335 ], [ 121.2055554, 31.3250001 ] ] ] } },
{ "type": "Feature", "properties": { "Id": 0, "Sheet_ID": "上海 8. 劉家行", "label": "上海 8. 劉家行", "call_short": "G7824 .S2 A1 S25 .J3", "call_num": "G7824 .S2 A1 S25 .J3 CENTRAL 8", "recid": "fx645sg0520", "websiteUrl": "https://purl.stanford.edu/fx645sg0520", "title": "二万五千分一空中寫眞測圖 上海近傍", "ckey": 9440325, "available": true, "iiifUrl": "https://purl.stanford.edu/fx645sg0520/iiif/manifest" }, "geometry": { "type": "Polygon", "coordinates": [ [ [ 121.322222, 31.3250001 ], [ 121.4388887, 31.3250001 ], [ 121.4388887, 31.4083335 ], [ 121.322222, 31.4083335 ], [ 121.322222, 31.3250001 ] ] ] } },
{ "type": "Feature", "properties": { "Id": 0, "Sheet_ID": "上海 2. 寳山", "label": "上海 2. 寳山", "call_short": "G7824 .S2 A1 S25 .J3", "call_num": "G7824 .S2 A1 S25 .J3 CENTRAL 2", "recid": "dh816hm9504", "websiteUrl": "https://purl.stanford.edu/dh816hm9504", "title": "二万五千分一空中寫眞測圖 上海近傍", "ckey": 9440325, "available": true, "iiifUrl": "https://purl.stanford.edu/dh816hm9504/iiif/manifest" }, "geometry": { "type": "Polygon", "coordinates": [ [ [ 121.4388887, 31.3250001 ], [ 121.5555553, 31.3250001 ], [ 121.5555553, 31.4083335 ], [ 121.4388887, 31.4083335 ], [ 121.4388887, 31.3250001 ] ] ] } },
{ "type": "Feature", "properties": { "Id": 0, "Sheet_ID": "上海東部 5. 高槁鎮", "label": "上海東部 5. 高槁鎮", "call_short": "G7824 .S2 A1 S25 .J3", "call_num": "G7824 .S2 A1 S25 .J3 EAST 5", "recid": "rs931td8675", "websiteUrl": "https://purl.stanford.edu/rs931td8675", "title": "二万五千分一空中寫眞測圖 上海近傍", "ckey": 9440325, "available": true, "iiifUrl": "https://purl.stanford.edu/rs931td8675/iiif/manifest" }, "geometry": { "type": "Polygon", "coordinates": [ [ [ 121.5555553, 31.3250001 ], [ 121.6722219, 31.3250001 ], [ 121.6722219, 31.4083335 ], [ 121.5555553, 31.4083335 ], [ 121.5555553, 31.3250001 ] ] ] } },
{ "type": "Feature", "properties": { "Id": 0, "Sheet_ID": "上海西北部 13. 巴城鎭", "label": "上海西北部 13. 巴城鎭", "call_short": "G7824 .S2 A1 S25 .J3", "call_num": "G7824 .S2 A1 S25 .J3 NW 13", "recid": "wm204gc4837", "websiteUrl": "https://purl.stanford.edu/wm204gc4837", "title": "二万五千分一空中寫眞測圖 上海近傍", "ckey": 9440325, "available": true, "iiifUrl": "https://purl.stanford.edu/wm204gc4837/iiif/manifest" }, "geometry": { "type": "Polygon", "coordinates": [ [ [ 120.8555555, 31.4083335 ], [ 120.9722221, 31.4083335 ], [ 120.9722221, 31.4916668 ], [ 120.8555555, 31.4916668 ], [ 120.8555555, 31.4083335 ] ] ] } },
{ "type": "Feature", "properties": { "Id": 0, "Sheet_ID": "上海西北部 6. 周墅鎭", "label": "上海西北部 6. 周墅鎭", "call_short": "G7824 .S2 A1 S25 .J3", "call_num": "G7824 .S2 A1 S25 .J3 NW 6", "recid": "zb719kc5869", "websiteUrl": "https://purl.stanford.edu/zb719kc5869", "title": "二万五千分一空中寫眞測圖 上海近傍", "ckey": 9440325, "available": true, "iiifUrl": "https://purl.stanford.edu/zb719kc5869/iiif/manifest" }, "geometry": { "type": "Polygon", "coordinates": [ [ [ 120.9722221, 31.4083335 ], [ 121.0888888, 31.4083335 ], [ 121.0888888, 31.4916668 ], [ 120.9722221, 31.4916668 ], [ 120.9722221, 31.4083335 ] ] ] } },
{ "type": "Feature", "properties": { "Id": 0, "Sheet_ID": "上海 21. 太倉城", "label": "上海 21. 太倉城", "call_short": "G7824 .S2 A1 S25 .J3", "call_num": "G7824 .S2 A1 S25 .J3 CENTRAL 21", "recid": "wp172nr5159", "websiteUrl": "https://purl.stanford.edu/wp172nr5159", "title": "二万五千分一空中寫眞測圖 上海近傍", "ckey": 9440325, "available": true, "iiifUrl": "https://purl.stanford.edu/wp172nr5159/iiif/manifest" }, "geometry": { "type": "Polygon", "coordinates": [ [ [ 121.0888888, 31.4083335 ], [ 121.2055554, 31.4083335 ], [ 121.2055554, 31.4916668 ], [ 121.0888888, 31.4916668 ], [ 121.0888888, 31.4083335 ] ] ] } },
{ "type": "Feature", "properties": { "Id": 0, "Sheet_ID": "上海 14. 婁塘鎮", "label": "上海 14. 婁塘鎮", "call_short": "G7824 .S2 A1 S25 .J3", "call_num": "G7824 .S2 A1 S25 .J3 CENTRAL 14", "recid": "vr953yy0146", "websiteUrl": "https://purl.stanford.edu/vr953yy0146", "title": "二万五千分一空中寫眞測圖 上海近傍", "ckey": 9440325, "available": true, "iiifUrl": "https://purl.stanford.edu/vr953yy0146/iiif/manifest" }, "geometry": { "type": "Polygon", "coordinates": [ [ [ 121.2055554, 31.4083335 ], [ 121.322222, 31.4083335 ], [ 121.322222, 31.4916668 ], [ 121.2055554, 31.4916668 ], [ 121.2055554, 31.4083335 ] ] ] } },
{ "type": "Feature", "properties": { "Id": 0, "Sheet_ID": "上海 7. 羅店鎮", "label": "上海 7. 羅店鎮", "call_short": "G7824 .S2 A1 S25 .J3", "call_num": "G7824 .S2 A1 S25 .J3 CENTRAL 7", "recid": "pr128bg8106", "websiteUrl": "https://purl.stanford.edu/pr128bg8106", "title": "二万五千分一空中寫眞測圖 上海近傍", "ckey": 9440325, "available": true, "iiifUrl": "https://purl.stanford.edu/pr128bg8106/iiif/manifest" }, "geometry": { "type": "Polygon", "coordinates": [ [ [ 121.322222, 31.4083335 ], [ 121.4388887, 31.4083335 ], [ 121.4388887, 31.4916668 ], [ 121.322222, 31.4916668 ], [ 121.322222, 31.4083335 ] ] ] } },
{ "type": "Feature", "properties": { "Id": 0, "Sheet_ID": "上海 1. 寳山北", "label": "上海 1. 寳山北", "call_short": "0", "call_num": "0", "recid": "0", "websiteUrl": "0", "title": "0", "ckey": 0, "available": false, "iiifUrl": "0" }, "geometry": { "type": "Polygon", "coordinates": [ [ [ 121.4388887, 31.4083335 ], [ 121.5555553, 31.4083335 ], [ 121.5555553, 31.4916668 ], [ 121.4388887, 31.4916668 ], [ 121.4388887, 31.4083335 ] ] ] } },
{ "type": "Feature", "properties": { "Id": 0, "Sheet_ID": "上海西北部 18. 横涇", "label": "上海西北部 18. 横涇", "call_short": "G7824 .S2 A1 S25 .J3", "call_num": "G7824 .S2 A1 S25 .J3 NW 18", "recid": "dk710fx3511", "websiteUrl": "https://purl.stanford.edu/dk710fx3511", "title": "二万五千分一空中寫眞測圖 上海近傍", "ckey": 9440325, "available": true, "iiifUrl": "https://purl.stanford.edu/dk710fx3511/iiif/manifest" }, "geometry": { "type": "Polygon", "coordinates": [ [ [ 120.7388889, 31.4916668 ], [ 120.8555555, 31.4916668 ], [ 120.8555555, 31.5750002 ], [ 120.7388889, 31.5750002 ], [ 120.7388889, 31.4916668 ] ] ] } },
{ "type": "Feature", "properties": { "Id": 0, "Sheet_ID": "上海西北部 12. 李市鎭", "label": "上海西北部 12. 李市鎭", "call_short": "G7824 .S2 A1 S25 .J3", "call_num": "G7824 .S2 A1 S25 .J3 NW 12", "recid": "jk685fn0352", "websiteUrl": "https://purl.stanford.edu/jk685fn0352", "title": "二万五千分一空中寫眞測圖 上海近傍", "ckey": 9440325, "available": true, "iiifUrl": "https://purl.stanford.edu/jk685fn0352/iiif/manifest" }, "geometry": { "type": "Polygon", "coordinates": [ [ [ 120.8555555, 31.4916668 ], [ 120.9722221, 31.4916668 ], [ 120.9722221, 31.5750002 ], [ 120.8555555, 31.5750002 ], [ 120.8555555, 31.4916668 ] ] ] } },
{ "type": "Feature", "properties": { "Id": 0, "Sheet_ID": "上海西北部 5. 沙溪鎭", "label": "上海西北部 5. 沙溪鎭", "call_short": "G7824 .S2 A1 S25 .J3", "call_num": "G7824 .S2 A1 S25 .J3 NW 5", "recid": "vb360rq0475", "websiteUrl": "https://purl.stanford.edu/vb360rq0475", "title": "二万五千分一空中寫眞測圖 上海近傍", "ckey": 9440325, "available": true, "iiifUrl": "https://purl.stanford.edu/vb360rq0475/iiif/manifest" }, "geometry": { "type": "Polygon", "coordinates": [ [ [ 120.9722221, 31.4916668 ], [ 121.0888888, 31.4916668 ], [ 121.0888888, 31.5750002 ], [ 120.9722221, 31.5750002 ], [ 120.9722221, 31.4916668 ] ] ] } },
{ "type": "Feature", "properties": { "Id": 0, "Sheet_ID": "上海 20. 岳王市", "label": "上海 20. 岳王市", "call_short": "G7824 .S2 A1 S25 .J3", "call_num": "G7824 .S2 A1 S25 .J3 CENTRAL 20", "recid": "kc148sr8274", "websiteUrl": "https://purl.stanford.edu/kc148sr8274", "title": "二万五千分一空中寫眞測圖 上海近傍", "ckey": 9440325, "available": true, "iiifUrl": "https://purl.stanford.edu/kc148sr8274/iiif/manifest" }, "geometry": { "type": "Polygon", "coordinates": [ [ [ 121.0888888, 31.4916668 ], [ 121.2055554, 31.4916668 ], [ 121.2055554, 31.5750002 ], [ 121.0888888, 31.5750002 ], [ 121.0888888, 31.4916668 ] ] ] } },
{ "type": "Feature", "properties": { "Id": 0, "Sheet_ID": "上海 13. 劉河鎮", "label": "上海 13. 劉河鎮", "call_short": "G7824 .S2 A1 S25 .J3", "call_num": "G7824 .S2 A1 S25 .J3 CENTRAL 13", "recid": "hm314ry9410", "websiteUrl": "https://purl.stanford.edu/hm314ry9410", "title": "二万五千分一空中寫眞測圖 上海近傍", "ckey": 9440325, "available": true, "iiifUrl": "https://purl.stanford.edu/hm314ry9410/iiif/manifest" }, "geometry": { "type": "Polygon", "coordinates": [ [ [ 121.2055554, 31.4916668 ], [ 121.322222, 31.4916668 ], [ 121.322222, 31.5750002 ], [ 121.2055554, 31.5750002 ], [ 121.2055554, 31.4916668 ] ] ] } },
{ "type": "Feature", "properties": { "Id": 0, "Sheet_ID": "上海 6. 陳家宅", "label": "上海 6. 陳家宅", "call_short": "G7824 .S2 A1 S25 .J3", "call_num": "G7824 .S2 A1 S25 .J3 CENTRAL 6", "recid": "yp259bh4522", "websiteUrl": "https://purl.stanford.edu/yp259bh4522", "title": "二万五千分一空中寫眞測圖 上海近傍", "ckey": 9440325, "available": true, "iiifUrl": "https://purl.stanford.edu/yp259bh4522/iiif/manifest" }, "geometry": { "type": "Polygon", "coordinates": [ [ [ 121.322222, 31.4916668 ], [ 121.4388887, 31.4916668 ], [ 121.4388887, 31.5750002 ], [ 121.322222, 31.5750002 ], [ 121.322222, 31.4916668 ] ] ] } },
{ "type": "Feature", "properties": { "Id": 0, "Sheet_ID": "上海西北部 21. 常熟城", "label": "上海西北部 21. 常熟城", "call_short": "G7824 .S2 A1 S25 .J3", "call_num": "G7824 .S2 A1 S25 .J3 NW 21", "recid": "xs660zp1185", "websiteUrl": "https://purl.stanford.edu/xs660zp1185", "title": "二万五千分一空中寫眞測圖 上海近傍", "ckey": 9440325, "available": true, "iiifUrl": "https://purl.stanford.edu/xs660zp1185/iiif/manifest" }, "geometry": { "type": "Polygon", "coordinates": [ [ [ 120.6222222, 31.5750002 ], [ 120.7388889, 31.5750002 ], [ 120.7388889, 31.6583336 ], [ 120.6222222, 31.6583336 ], [ 120.6222222, 31.5750002 ] ] ] } },
{ "type": "Feature", "properties": { "Id": 0, "Sheet_ID": "上海西北部 17. 五渠鎭", "label": "上海西北部 17. 五渠鎭", "call_short": "G7824 .S2 A1 S25 .J3", "call_num": "G7824 .S2 A1 S25 .J3 NW 17", "recid": "qh670fc6860", "websiteUrl": "https://purl.stanford.edu/qh670fc6860", "title": "二万五千分一空中寫眞測圖 上海近傍", "ckey": 9440325, "available": true, "iiifUrl": "https://purl.stanford.edu/qh670fc6860/iiif/manifest" }, "geometry": { "type": "Polygon", "coordinates": [ [ [ 120.7388889, 31.5750002 ], [ 120.8555555, 31.5750002 ], [ 120.8555555, 31.6583336 ], [ 120.7388889, 31.6583336 ], [ 120.7388889, 31.5750002 ] ] ] } },
{ "type": "Feature", "properties": { "Id": 0, "Sheet_ID": "上海西北部 11. 支塘鎭", "label": "上海西北部 11. 支塘鎭", "call_short": "G7824 .S2 A1 S25 .J3", "call_num": "G7824 .S2 A1 S25 .J3 NW 11", "recid": "bj753bd8973", "websiteUrl": "https://purl.stanford.edu/bj753bd8973", "title": "二万五千分一空中寫眞測圖 上海近傍", "ckey": 9440325, "available": true, "iiifUrl": "https://purl.stanford.edu/bj753bd8973/iiif/manifest" }, "geometry": { "type": "Polygon", "coordinates": [ [ [ 120.8555555, 31.5750002 ], [ 120.9722221, 31.5750002 ], [ 120.9722221, 31.6583336 ], [ 120.8555555, 31.6583336 ], [ 120.8555555, 31.5750002 ] ] ] } },
{ "type": "Feature", "properties": { "Id": 0, "Sheet_ID": "上海西北部 4. 何家市", "label": "上海西北部 4. 何家市", "call_short": "G7824 .S2 A1 S25 .J3", "call_num": "G7824 .S2 A1 S25 .J3 NW 4", "recid": "wn285sc9367", "websiteUrl": "https://purl.stanford.edu/wn285sc9367", "title": "二万五千分一空中寫眞測圖 上海近傍", "ckey": 9440325, "available": true, "iiifUrl": "https://purl.stanford.edu/wn285sc9367/iiif/manifest" }, "geometry": { "type": "Polygon", "coordinates": [ [ [ 120.9722221, 31.5750002 ], [ 121.0888888, 31.5750002 ], [ 121.0888888, 31.6583336 ], [ 120.9722221, 31.6583336 ], [ 120.9722221, 31.5750002 ] ] ] } },
{ "type": "Feature", "properties": { "Id": 0, "Sheet_ID": "上海 19. 璜涇鎮", "label": "上海 19. 璜涇鎮", "call_short": "G7824 .S2 A1 S25 .J3", "call_num": "G7824 .S2 A1 S25 .J3 CENTRAL 19", "recid": "dy415by9656", "websiteUrl": "https://purl.stanford.edu/dy415by9656", "title": "二万五千分一空中寫眞測圖 上海近傍", "ckey": 9440325, "available": true, "iiifUrl": "https://purl.stanford.edu/dy415by9656/iiif/manifest" }, "geometry": { "type": "Polygon", "coordinates": [ [ [ 121.0888888, 31.5750002 ], [ 121.2055554, 31.5750002 ], [ 121.2055554, 31.6583336 ], [ 121.0888888, 31.6583336 ], [ 121.0888888, 31.5750002 ] ] ] } },
{ "type": "Feature", "properties": { "Id": 0, "Sheet_ID": "上海 12. 浮橋鎮", "label": "上海 12. 浮橋鎮", "call_short": "G7824 .S2 A1 S25 .J3", "call_num": "G7824 .S2 A1 S25 .J3 CENTRAL 12", "recid": "bs254qx9868", "websiteUrl": "https://purl.stanford.edu/bs254qx9868", "title": "二万五千分一空中寫眞測圖 上海近傍", "ckey": 9440325, "available": true, "iiifUrl": "https://purl.stanford.edu/bs254qx9868/iiif/manifest" }, "geometry": { "type": "Polygon", "coordinates": [ [ [ 121.2055554, 31.5750002 ], [ 121.322222, 31.5750002 ], [ 121.322222, 31.6583336 ], [ 121.2055554, 31.6583336 ], [ 121.2055554, 31.5750002 ] ] ] } },
{ "type": "Feature", "properties": { "Id": 0, "Sheet_ID": "上海西北部 20. 虞山", "label": "上海西北部 20. 虞山", "call_short": "G7824 .S2 A1 S25 .J3", "call_num": "G7824 .S2 A1 S25 .J3 NW 20", "recid": "rr054yr8217", "websiteUrl": "https://purl.stanford.edu/rr054yr8217", "title": "二万五千分一空中寫眞測圖 上海近傍", "ckey": 9440325, "available": true, "iiifUrl": "https://purl.stanford.edu/rr054yr8217/iiif/manifest" }, "geometry": { "type": "Polygon", "coordinates": [ [ [ 120.6222222, 31.6583336 ], [ 120.7388889, 31.6583336 ], [ 120.7388889, 31.741667 ], [ 120.6222222, 31.741667 ], [ 120.6222222, 31.6583336 ] ] ] } },
{ "type": "Feature", "properties": { "Id": 0, "Sheet_ID": "上海西北部 16. 謝家橋鎭", "label": "上海西北部 16. 謝家橋鎭", "call_short": "G7824 .S2 A1 S25 .J3", "call_num": "G7824 .S2 A1 S25 .J3 NW 16", "recid": "py090vv7897", "websiteUrl": "https://purl.stanford.edu/py090vv7897", "title": "二万五千分一空中寫眞測圖 上海近傍", "ckey": 9440325, "available": true, "iiifUrl": "https://purl.stanford.edu/py090vv7897/iiif/manifest" }, "geometry": { "type": "Polygon", "coordinates": [ [ [ 120.7388889, 31.6583336 ], [ 120.8555555, 31.6583336 ], [ 120.8555555, 31.741667 ], [ 120.7388889, 31.741667 ], [ 120.7388889, 31.6583336 ] ] ] } },
{ "type": "Feature", "properties": { "Id": 0, "Sheet_ID": "上海西北部 10. 梅李頭", "label": "上海西北部 10. 梅李頭", "call_short": "G7824 .S2 A1 S25 .J3", "call_num": "G7824 .S2 A1 S25 .J3 NW 10", "recid": "zt488qt8007", "websiteUrl": "https://purl.stanford.edu/zt488qt8007", "title": "二万五千分一空中寫眞測圖 上海近傍", "ckey": 9440325, "available": true, "iiifUrl": "https://purl.stanford.edu/zt488qt8007/iiif/manifest" }, "geometry": { "type": "Polygon", "coordinates": [ [ [ 120.8555555, 31.6583336 ], [ 120.9722221, 31.6583336 ], [ 120.9722221, 31.741667 ], [ 120.8555555, 31.741667 ], [ 120.8555555, 31.6583336 ] ] ] } },
{ "type": "Feature", "properties": { "Id": 0, "Sheet_ID": "上海西北部 3. 張家市", "label": "上海西北部 3. 張家市", "call_short": "G7824 .S2 A1 S25 .J3", "call_num": "G7824 .S2 A1 S25 .J3 NW 3", "recid": "ks506mj1819", "websiteUrl": "https://purl.stanford.edu/ks506mj1819", "title": "二万五千分一空中寫眞測圖 上海近傍", "ckey": 9440325, "available": true, "iiifUrl": "https://purl.stanford.edu/ks506mj1819/iiif/manifest" }, "geometry": { "type": "Polygon", "coordinates": [ [ [ 120.9722221, 31.6583336 ], [ 121.0888888, 31.6583336 ], [ 121.0888888, 31.741667 ], [ 120.9722221, 31.741667 ], [ 120.9722221, 31.6583336 ] ] ] } },
{ "type": "Feature", "properties": { "Id": 0, "Sheet_ID": "上海西北部 1. 錢涇口", "label": "上海西北部 1. 錢涇口", "call_short": "G7824 .S2 A1 S25 .J3", "call_num": "G7824 .S2 A1 S25 .J3 NW 1", "recid": "fz618vy6416", "websiteUrl": "https://purl.stanford.edu/fz618vy6416", "title": "二万五千分一空中寫眞測圖 上海近傍", "ckey": 9440325, "available": true, "iiifUrl": "https://purl.stanford.edu/fz618vy6416/iiif/manifest" }, "geometry": { "type": "Polygon", "coordinates": [ [ [ 121.0888888, 31.6583336 ], [ 121.2055554, 31.6583336 ], [ 121.2055554, 31.741667 ], [ 121.0888888, 31.741667 ], [ 121.0888888, 31.6583336 ] ] ] } },
{ "type": "Feature", "properties": { "Id": 0, "Sheet_ID": "上海西北部 19M. 夏灘橋", "label": "上海西北部 19M. 夏灘橋", "call_short": "G7824 .S2 A1 S25 .J3", "call_num": "G7824 .S2 A1 S25 .J3 NW 19M", "recid": "dm630vh6996", "websiteUrl": "https://purl.stanford.edu/dm630vh6996", "title": "二万五千分一空中寫眞測圖 上海近傍", "ckey": 9440325, "available": true, "iiifUrl": "https://purl.stanford.edu/dm630vh6996/iiif/manifest" }, "geometry": { "type": "Polygon", "coordinates": [ [ [ 120.6222222, 31.741667 ], [ 120.7388889, 31.741667 ], [ 120.7388889, 31.8250003 ], [ 120.6222222, 31.8250003 ], [ 120.6222222, 31.741667 ] ] ] } },
{ "type": "Feature", "properties": { "Id": 0, "Sheet_ID": "上海西北部 15M. 福山鎭", "label": "上海西北部 15M. 福山鎭", "call_short": "G7824 .S2 A1 S25 .J3", "call_num": "G7824 .S2 A1 S25 .J3 NW 15M", "recid": "gg288ny8171", "websiteUrl": "https://purl.stanford.edu/gg288ny8171", "title": "二万五千分一空中寫眞測圖 上海近傍", "ckey": 9440325, "available": true, "iiifUrl": "https://purl.stanford.edu/gg288ny8171/iiif/manifest" }, "geometry": { "type": "Polygon", "coordinates": [ [ [ 120.7388889, 31.741667 ], [ 120.8555555, 31.741667 ], [ 120.8555555, 31.8250003 ], [ 120.7388889, 31.8250003 ], [ 120.7388889, 31.741667 ] ] ] } },
{ "type": "Feature", "properties": { "Id": 0, "Sheet_ID": "上海西北部 9. 滸浦鎭", "label": "上海西北部 9. 滸浦鎭", "call_short": "G7824 .S2 A1 S25 .J3", "call_num": "G7824 .S2 A1 S25 .J3 NW 9", "recid": "qv309kq9886", "websiteUrl": "https://purl.stanford.edu/qv309kq9886", "title": "二万五千分一空中寫眞測圖 上海近傍", "ckey": 9440325, "available": true, "iiifUrl": "https://purl.stanford.edu/qv309kq9886/iiif/manifest" }, "geometry": { "type": "Polygon", "coordinates": [ [ [ 120.8555555, 31.741667 ], [ 120.9722221, 31.741667 ], [ 120.9722221, 31.8250003 ], [ 120.8555555, 31.8250003 ], [ 120.8555555, 31.741667 ] ] ] } },
{ "type": "Feature", "properties": { "Id": 0, "Sheet_ID": "上海西北部 2. 高浦塘口", "label": "上海西北部 2. 高浦塘口", "call_short": "G7824 .S2 A1 S25 .J3", "call_num": "G7824 .S2 A1 S25 .J3 NW 2", "recid": "gn617yy1927", "websiteUrl": "https://purl.stanford.edu/gn617yy1927", "title": "二万五千分一空中寫眞測圖 上海近傍", "ckey": 9440325, "available": true, "iiifUrl": "https://purl.stanford.edu/gn617yy1927/iiif/manifest" }, "geometry": { "type": "Polygon", "coordinates": [ [ [ 120.9722221, 31.741667 ], [ 121.0888888, 31.741667 ], [ 121.0888888, 31.8250003 ], [ 120.9722221, 31.8250003 ], [ 120.9722221, 31.741667 ] ] ] } },
{ "type": "Feature", "properties": { "Id": 0, "Sheet_ID": "上海西北部 15. 福山鎭", "label": "上海西北部 15. 福山鎭", "call_short": "G7824 .S2 A1 S25 .J3", "call_num": "G7824 .S2 A1 S25 .J3 NW 15", "recid": "pr500fk0560", "websiteUrl": "https://purl.stanford.edu/pr500fk0560", "title": "二万五千分一空中寫眞測圖 上海近傍", "ckey": 9440325, "available": true, "iiifUrl": "https://purl.stanford.edu/pr500fk0560/iiif/manifest" }, "geometry": { "type": "Polygon", "coordinates": [ [ [ 120.7388889, 31.741667 ], [ 120.8555555, 31.741667 ], [ 120.8555555, 31.8250003 ], [ 120.7388889, 31.8250003 ], [ 120.7388889, 31.741667 ] ] ] } },
{ "type": "Feature", "properties": { "Id": 0, "Sheet_ID": "上海西北部 19. 夏灘橋", "label": "上海西北部 19. 夏灘橋", "call_short": "G7824 .S2 A1 S25 .J3", "call_num": "G7824 .S2 A1 S25 .J3 NW 19", "recid": "cn173vm1102", "websiteUrl": "https://purl.stanford.edu/cn173vm1102", "title": "二万五千分一空中寫眞測圖 上海近傍", "ckey": 9440325, "available": true, "iiifUrl": "https://purl.stanford.edu/cn173vm1102/iiif/manifest" }, "geometry": { "type": "Polygon", "coordinates": [ [ [ 120.6222222, 31.741667 ], [ 120.7388889, 31.741667 ], [ 120.7388889, 31.8250003 ], [ 120.6222222, 31.8250003 ], [ 120.6222222, 31.741667 ] ] ] } },
{ "type": "Feature", "properties": { "Id": 0, "Sheet_ID": "上海南部 2. 三家營", "label": "上海南部 2. 三家營", "call_short": "G7824 .S2 A1 S25 .J3", "call_num": "G7824 .S2 A1 S25 .J3 SOUTH 2", "recid": "ws401pn9874", "websiteUrl": "https://purl.stanford.edu/ws401pn9874", "title": "二万五千分一空中寫眞測圖 上海近傍", "ckey": 9440325, "available": true, "iiifUrl": "https://purl.stanford.edu/ws401pn9874/iiif/manifest" }, "geometry": { "type": "Polygon", "coordinates": [ [ [ 121.5555553, 30.8249998 ], [ 121.6722219, 30.8249998 ], [ 121.6722219, 30.9083332 ], [ 121.5555553, 30.9083332 ], [ 121.5555553, 30.8249998 ] ] ] } },
{ "type": "Feature", "properties": { "Id": 0, "Sheet_ID": "上海南部 9. 莊行鎭", "label": "上海南部 9. 莊行鎭", "call_short": "G7824 .S2 A1 S25 .J3", "call_num": "G7824 .S2 A1 S25 .J3 SOUTH 9", "recid": "vx150rw8904", "websiteUrl": "https://purl.stanford.edu/vx150rw8904", "title": "二万五千分一空中寫眞測圖 上海近傍", "ckey": 9440325, "available": true, "iiifUrl": "https://purl.stanford.edu/vx150rw8904/iiif/manifest" }, "geometry": { "type": "Polygon", "coordinates": [ [ [ 121.322222, 30.8249998 ], [ 121.4388887, 30.8249998 ], [ 121.4388887, 30.9083332 ], [ 121.322222, 30.9083332 ], [ 121.322222, 30.8249998 ] ] ] } },
{ "type": "Feature", "properties": { "Id": 0, "Sheet_ID": "上海南部 20. 新倉鎭", "label": "上海南部 20. 新倉鎭", "call_short": "G7824 .S2 A1 S25 .J3", "call_num": "G7824 .S2 A1 S25 .J3 SOUTH 20", "recid": "kp820qp5104", "websiteUrl": "https://purl.stanford.edu/kp820qp5104", "title": "二万五千分一空中寫眞測圖 上海近傍", "ckey": 9440325, "available": true, "iiifUrl": "https://purl.stanford.edu/kp820qp5104/iiif/manifest" }, "geometry": { "type": "Polygon", "coordinates": [ [ [ 121.0888888, 30.7416665 ], [ 121.2055554, 30.7416665 ], [ 121.2055554, 30.8249998 ], [ 121.0888888, 30.8249998 ], [ 121.0888888, 30.7416665 ] ] ] } },
{ "type": "Feature", "properties": { "Id": 0, "Sheet_ID": "上海南部 23. 水旺村", "label": "上海南部 23. 水旺村", "call_short": "G7824 .S2 A1 S25 .J3", "call_num": "G7824 .S2 A1 S25 .J3 SOUTH 23", "recid": "bg648wr9340", "websiteUrl": "https://purl.stanford.edu/bg648wr9340", "title": "二万五千分一空中寫眞測圖 上海近傍", "ckey": 9440325, "available": true, "iiifUrl": "https://purl.stanford.edu/bg648wr9340/iiif/manifest" }, "geometry": { "type": "Polygon", "coordinates": [ [ [ 120.9722221, 30.9083332 ], [ 121.0888888, 30.9083332 ], [ 121.0888888, 30.9916666 ], [ 120.9722221, 30.9916666 ], [ 120.9722221, 30.9083332 ] ] ] } },
{ "type": "Feature", "properties": { "Id": 0, "Sheet_ID": "上海南部 25. 鍾埭鎭", "label": "上海南部 25. 鍾埭鎭", "call_short": "G7824 .S2 A1 S25 .J3", "call_num": "G7824 .S2 A1 S25 .J3 SOUTH 25", "recid": "br376vd3153", "websiteUrl": "https://purl.stanford.edu/br376vd3153", "title": "二万五千分一空中寫眞測圖 上海近傍", "ckey": 9440325, "available": true, "iiifUrl": "https://purl.stanford.edu/br376vd3153/iiif/manifest" }, "geometry": { "type": "Polygon", "coordinates": [ [ [ 120.9722221, 30.7416665 ], [ 121.0888888, 30.7416665 ], [ 121.0888888, 30.8249998 ], [ 120.9722221, 30.8249998 ], [ 120.9722221, 30.7416665 ] ] ] } },
{ "type": "Feature", "properties": { "Id": 0, "Sheet_ID": "上海南部 27. 乍浦鎭", "label": "上海南部 27. 乍浦鎭", "call_short": "G7824 .S2 A1 S25 .J3", "call_num": "G7824 .S2 A1 S25 .J3 SOUTH 27", "recid": "bn070zr2862", "websiteUrl": "https://purl.stanford.edu/bn070zr2862", "title": "二万五千分一空中寫眞測圖 上海近傍", "ckey": 9440325, "available": true, "iiifUrl": "https://purl.stanford.edu/bn070zr2862/iiif/manifest" }, "geometry": { "type": "Polygon", "coordinates": [ [ [ 120.9722221, 30.5749997 ], [ 121.0888888, 30.5749997 ], [ 121.0888888, 30.6583331 ], [ 120.9722221, 30.6583331 ], [ 120.9722221, 30.5749997 ] ] ] } },
{ "type": "Feature", "properties": { "Id": 0, "Sheet_ID": "上海南部 30. 新篁鎭", "label": "上海南部 30. 新篁鎭", "call_short": "G7824 .S2 A1 S25 .J3", "call_num": "G7824 .S2 A1 S25 .J3 SOUTH 30", "recid": "mp760kb1617", "websiteUrl": "https://purl.stanford.edu/mp760kb1617", "title": "二万五千分一空中寫眞測圖 上海近傍", "ckey": 9440325, "available": true, "iiifUrl": "https://purl.stanford.edu/mp760kb1617/iiif/manifest" }, "geometry": { "type": "Polygon", "coordinates": [ [ [ 120.8555555, 30.6583331 ], [ 120.9722221, 30.6583331 ], [ 120.9722221, 30.7416665 ], [ 120.8555555, 30.7416665 ], [ 120.8555555, 30.6583331 ] ] ] } }
]
}
