{
"type": "FeatureCollection",
"name": "index_map",
"xy_coordinate_resolution": 1e-07,
"features": [
{ "type": "Feature", "properties": { "Id": 0, "Sheet_ID": "六南イ180. ネマサラン", "label": "六南イ180. ネマサラン", "call_short": "G8180 S100 .J3", "call_num": "G8180 S100 .J3 6I/180", "recid": "dn307ds7196", "websiteUrl": "https://purl.stanford.edu/dn307ds7196", "title": "ビスマルク群島十万分一 空中寫真測圖 要圖", "ckey": 10244889, "available": true, "iiifUrl": "https://purl.stanford.edu/dn307ds7196/iiif/manifest" }, "geometry": { "type": "Polygon", "coordinates": [ [ [ 151.0, -3.333333 ], [ 151.5, -3.333333 ], [ 151.5, -2.9999997 ], [ 151.0, -2.9999997 ], [ 151.0, -3.333333 ] ] ] } },
{ "type": "Feature", "properties": { "Id": 0, "Sheet_ID": "六南イ170. キムンダン_補測1", "label": "六南イ170. キムンダン_補測1", "call_short": "G8180 S100 .J3", "call_num": "G8180 S100 .J3 6I/170 SS1", "recid": "jn356kr9284", "websiteUrl": "https://purl.stanford.edu/jn356kr9284", "title": "ビスマルク群島十万分一 空中寫真測圖 要圖", "ckey": 10244889, "available": true, "iiifUrl": "https://purl.stanford.edu/jn356kr9284/iiif/manifest" }, "geometry": { "type": "Polygon", "coordinates": [ [ [ 151.5, -3.333333 ], [ 152.0, -3.333333 ], [ 152.0, -2.9999997 ], [ 151.5, -2.9999997 ], [ 151.5, -3.333333 ] ] ] } },
{ "type": "Feature", "properties": { "Id": 0, "Sheet_ID": "六南イ160. レメキス_補測1", "label": "六南イ160. レメキス_補測1", "call_short": "G8180 S100 .J3", "call_num": "G8180 S100 .J3 6I/160 SS1", "recid": "cq191qh9721", "websiteUrl": "https://purl.stanford.edu/cq191qh9721", "title": "ビスマルク群島十万分一 空中寫真測圖 要圖", "ckey": 10244889, "available": true, "iiifUrl": "https://purl.stanford.edu/cq191qh9721/iiif/manifest" }, "geometry": { "type": "Polygon", "coordinates": [ [ [ 152.0, -3.333333 ], [ 152.5, -3.333333 ], [ 152.5, -2.9999997 ], [ 152.0, -2.9999997 ], [ 152.0, -3.333333 ] ] ] } },
{ "type": "Feature", "properties": { "Id": 0, "Sheet_ID": "六南イ150. リヒル島", "label": "六南イ150. リヒル島", "call_short": "G8180 S100 .J3", "call_num": "G8180 S100 .J3 6I/150", "recid": "dv274qp6480", "websiteUrl": "https://purl.stanford.edu/dv274qp6480", "title": "ビスマルク群島十万分一 空中寫真測圖 要圖", "ckey": 10244889, "available": true, "iiifUrl": "https://purl.stanford.edu/dv274qp6480/iiif/manifest" }, "geometry": { "type": "Polygon", "coordinates": [ [ [ 152.5, -3.333333 ], [ 153.0, -3.333333 ], [ 153.0, -2.9999997 ], [ 152.5, -2.9999997 ], [ 152.5, -3.333333 ] ] ] } },
{ "type": "Feature", "properties": { "Id": 0, "Sheet_ID": "六南イ189. ジャウル島", "label": "六南イ189. ジャウル島", "call_short": "0", "call_num": "0", "recid": "0", "websiteUrl": "0", "title": "0", "ckey": 0, "available": false, "iiifUrl": "0" }, "geometry": { "type": "Polygon", "coordinates": [ [ [ 150.5, -2.9999997 ], [ 151.0, -2.9999997 ], [ 151.0, -2.6666664 ], [ 150.5, -2.6666664 ], [ 150.5, -2.9999997 ] ] ] } },
{ "type": "Feature", "properties": { "Id": 0, "Sheet_ID": "六南イ179. サリ", "label": "六南イ179. サリ", "call_short": "G8180 S100 .J3", "call_num": "G8180 S100 .J3 6I/179", "recid": "dp326cq9728", "websiteUrl": "https://purl.stanford.edu/dp326cq9728", "title": "ビスマルク群島十万分一 空中寫真測圖 要圖", "ckey": 10244889, "available": true, "iiifUrl": "https://purl.stanford.edu/dp326cq9728/iiif/manifest" }, "geometry": { "type": "Polygon", "coordinates": [ [ [ 151.0, -2.9999997 ], [ 151.5, -2.9999997 ], [ 151.5, -2.6666664 ], [ 151.0, -2.6666664 ], [ 151.0, -2.9999997 ] ] ] } },
{ "type": "Feature", "properties": { "Id": 0, "Sheet_ID": "六南イ169. タタウ島", "label": "六南イ169. タタウ島", "call_short": "G8180 S100 .J3", "call_num": "G8180 S100 .J3 6I/169", "recid": "wx127vn6887", "websiteUrl": "https://purl.stanford.edu/wx127vn6887", "title": "ビスマルク群島十万分一 空中寫真測圖 要圖", "ckey": 10244889, "available": true, "iiifUrl": "https://purl.stanford.edu/wx127vn6887/iiif/manifest" }, "geometry": { "type": "Polygon", "coordinates": [ [ [ 151.5, -2.9999997 ], [ 152.0, -2.9999997 ], [ 152.0, -2.583333 ], [ 151.5, -2.583333 ], [ 151.5, -2.9999997 ] ] ] } },
{ "type": "Feature", "properties": { "Id": 0, "Sheet_ID": "六南イ159. タバル島", "label": "六南イ159. タバル島", "call_short": "G8180 S100 .J3", "call_num": "G8180 S100 .J3 6I/159", "recid": "tq022tb6928", "websiteUrl": "https://purl.stanford.edu/tq022tb6928", "title": "ビスマルク群島十万分一 空中寫真測圖 要圖", "ckey": 10244889, "available": true, "iiifUrl": "https://purl.stanford.edu/tq022tb6928/iiif/manifest" }, "geometry": { "type": "Polygon", "coordinates": [ [ [ 152.0, -2.9999997 ], [ 152.5, -2.9999997 ], [ 152.5, -2.583333 ], [ 152.0, -2.583333 ], [ 152.0, -2.9999997 ] ] ] } },
{ "type": "Feature", "properties": { "Id": 0, "Sheet_ID": "六南イ149. マサヘット島", "label": "六南イ149. マサヘット島", "call_short": "G8180 S100 .J3", "call_num": "G8180 S100 .J3 6I/149", "recid": "nh178dz1874", "websiteUrl": "https://purl.stanford.edu/nh178dz1874", "title": "ビスマルク群島十万分一 空中寫真測圖 要圖", "ckey": 10244889, "available": true, "iiifUrl": "https://purl.stanford.edu/nh178dz1874/iiif/manifest" }, "geometry": { "type": "Polygon", "coordinates": [ [ [ 152.5, -2.9999997 ], [ 153.0, -2.9999997 ], [ 153.0, -2.6666664 ], [ 152.5, -2.6666664 ], [ 152.5, -2.9999997 ] ] ] } },
{ "type": "Feature", "properties": { "Id": 0, "Sheet_ID": "七南イ108. マタナレム岬", "label": "七南イ108. マタナレム岬", "call_short": "0", "call_num": "0", "recid": "0", "websiteUrl": "0", "title": "0", "ckey": 0, "available": false, "iiifUrl": "0" }, "geometry": { "type": "Polygon", "coordinates": [ [ [ 149.5, -2.6666664 ], [ 150.0, -2.6666664 ], [ 150.0, -2.3333331 ], [ 149.5, -2.3333331 ], [ 149.5, -2.6666664 ] ] ] } },
{ "type": "Feature", "properties": { "Id": 0, "Sheet_ID": "六南イ198. ニューハノーバー島", "label": "六南イ198. ニューハノーバー島", "call_short": "G8180 S100 .J3", "call_num": "G8180 S100 .J3 6I/198", "recid": "dk116fk3532", "websiteUrl": "https://purl.stanford.edu/dk116fk3532", "title": "ビスマルク群島十万分一 空中寫真測圖 要圖", "ckey": 10244889, "available": true, "iiifUrl": "https://purl.stanford.edu/dk116fk3532/iiif/manifest" }, "geometry": { "type": "Polygon", "coordinates": [ [ [ 150.0, -2.7 ], [ 150.5, -2.7 ], [ 150.5, -2.3333331 ], [ 150.0, -2.3333331 ], [ 150.0, -2.7 ] ] ] } },
{ "type": "Feature", "properties": { "Id": 0, "Sheet_ID": "六南イ188. カビエン", "label": "六南イ188. カビエン", "call_short": "G8180 S100 .J3", "call_num": "G8180 S100 .J3 6I/188", "recid": "ry017qj5815", "websiteUrl": "https://purl.stanford.edu/ry017qj5815", "title": "ビスマルク群島十万分一 空中寫真測圖 要圖", "ckey": 10244889, "available": true, "iiifUrl": "https://purl.stanford.edu/ry017qj5815/iiif/manifest" }, "geometry": { "type": "Polygon", "coordinates": [ [ [ 150.5, -2.6666664 ], [ 151.0, -2.6666664 ], [ 151.0, -2.3333331 ], [ 150.5, -2.3333331 ], [ 150.5, -2.6666664 ] ] ] } },
{ "type": "Feature", "properties": { "Id": 0, "Sheet_ID": "七南イ105. セントマジアス島", "label": "七南イ105. セントマジアス島", "call_short": "G8180 S100 .J3", "call_num": "G8180 S100 .J3 7I/105", "recid": "dq260jk0414", "websiteUrl": "https://purl.stanford.edu/dq260jk0414", "title": "ビスマルク群島十万分一 空中寫真測圖 要圖", "ckey": 10244889, "available": true, "iiifUrl": "https://purl.stanford.edu/dq260jk0414/iiif/manifest" }, "geometry": { "type": "Polygon", "coordinates": [ [ [ 149.5, -1.7 ], [ 150.0, -1.7 ], [ 150.0, -1.3333333 ], [ 149.5, -1.3333333 ], [ 149.5, -1.7 ] ] ] } },
{ "type": "Feature", "properties": { "Id": 0, "Sheet_ID": "六南イ195. ストゥルム島", "label": "六南イ195. ストゥルム島", "call_short": "0", "call_num": "0", "recid": "0", "websiteUrl": "0", "title": "0", "ckey": 0, "available": false, "iiifUrl": "0" }, "geometry": { "type": "Polygon", "coordinates": [ [ [ 150.0, -1.7 ], [ 150.5, -1.7 ], [ 150.5, -1.3333333 ], [ 150.0, -1.3333333 ], [ 150.0, -1.7 ] ] ] } },
{ "type": "Feature", "properties": { "Id": 0, "Sheet_ID": "七南イ104. シーメンス岬", "label": "七南イ104. シーメンス岬", "call_short": "G8180 S100 .J3", "call_num": "G8180 S100 .J3 7I/104", "recid": "dc383qz8470", "websiteUrl": "https://purl.stanford.edu/dc383qz8470", "title": "ビスマルク群島十万分一 空中寫真測圖 要圖", "ckey": 10244889, "available": true, "iiifUrl": "https://purl.stanford.edu/dc383qz8470/iiif/manifest" }, "geometry": { "type": "Polygon", "coordinates": [ [ [ 149.5, -1.3333333 ], [ 150.0, -1.3333333 ], [ 150.0, -1.0 ], [ 149.5, -1.0 ], [ 149.5, -1.3333333 ] ] ] } },
{ "type": "Feature", "properties": { "Id": 0, "Sheet_ID": "七南ロ129. アマキオ島", "label": "七南ロ129. アマキオ島", "call_short": "G8180 S100 .J3", "call_num": "G8180 S100 .J3 7RO/129", "recid": "wm254gj9406", "websiteUrl": "https://purl.stanford.edu/wm254gj9406", "title": "ビスマルク群島十万分一 空中寫真測圖 要圖", "ckey": 10244889, "available": true, "iiifUrl": "https://purl.stanford.edu/wm254gj9406/iiif/manifest" }, "geometry": { "type": "Polygon", "coordinates": [ [ [ 148.5, -6.333333 ], [ 149.0, -6.333333 ], [ 149.0, -5.9999997 ], [ 148.5, -5.9999997 ], [ 148.5, -6.333333 ] ] ] } },
{ "type": "Feature", "properties": { "Id": 0, "Sheet_ID": "七南ロ119. アラウエ", "label": "七南ロ119. アラウエ", "call_short": "G8180 S100 .J3", "call_num": "G8180 S100 .J3 7RO/119", "recid": "qj295vq5286", "websiteUrl": "https://purl.stanford.edu/qj295vq5286", "title": "ビスマルク群島十万分一 空中寫真測圖 要圖", "ckey": 10244889, "available": true, "iiifUrl": "https://purl.stanford.edu/qj295vq5286/iiif/manifest" }, "geometry": { "type": "Polygon", "coordinates": [ [ [ 149.0, -6.333333 ], [ 149.5, -6.333333 ], [ 149.5, -5.9999997 ], [ 149.0, -5.9999997 ], [ 149.0, -6.333333 ] ] ] } },
{ "type": "Feature", "properties": { "Id": 0, "Sheet_ID": "七南ロ109. アイス_補測1", "label": "七南ロ109. アイス_補測1", "call_short": "G8180 S100 .J3", "call_num": "G8180 S100 .J3 7RO/109 SS1", "recid": "kz549wd7068", "websiteUrl": "https://purl.stanford.edu/kz549wd7068", "title": "ビスマルク群島十万分一 空中寫真測圖 要圖", "ckey": 10244889, "available": true, "iiifUrl": "https://purl.stanford.edu/kz549wd7068/iiif/manifest" }, "geometry": { "type": "Polygon", "coordinates": [ [ [ 149.5, -6.333333 ], [ 150.0, -6.333333 ], [ 150.0, -5.9999997 ], [ 149.5, -5.9999997 ], [ 149.5, -6.333333 ] ] ] } },
{ "type": "Feature", "properties": { "Id": 0, "Sheet_ID": "七南ロ148. 148 ヒギンス岬 / ギルセン", "label": "七南ロ148. 148 ヒギンス岬 / ギルセン", "call_short": "0", "call_num": "0", "recid": "0", "websiteUrl": "0", "title": "0", "ckey": 0, "available": false, "iiifUrl": "0" }, "geometry": { "type": "Polygon", "coordinates": [ [ [ 147.5, -5.9999997 ], [ 148.0, -5.9999997 ], [ 148.0, -5.6666665 ], [ 147.5, -5.6666665 ], [ 147.5, -5.9999997 ] ] ] } },
{ "type": "Feature", "properties": { "Id": 0, "Sheet_ID": "七南ロ138. アイシガ_補測1", "label": "七南ロ138. アイシガ_補測1", "call_short": "G8180 S100 .J3", "call_num": "G8180 S100 .J3 7RO/138 SS1", "recid": "dp907wp6620", "websiteUrl": "https://purl.stanford.edu/dp907wp6620", "title": "ビスマルク群島十万分一 空中寫真測圖 要圖", "ckey": 10244889, "available": true, "iiifUrl": "https://purl.stanford.edu/dp907wp6620/iiif/manifest" }, "geometry": { "type": "Polygon", "coordinates": [ [ [ 148.0, -5.9999997 ], [ 148.5, -5.9999997 ], [ 148.5, -5.6666665 ], [ 148.0, -5.6666665 ], [ 148.0, -5.9999997 ] ] ] } },
{ "type": "Feature", "properties": { "Id": 0, "Sheet_ID": "七南ロ128. ペイホ岬", "label": "七南ロ128. ペイホ岬", "call_short": "G8180 S100 .J3", "call_num": "G8180 S100 .J3 7RO/128", "recid": "kn302ft2684", "websiteUrl": "https://purl.stanford.edu/kn302ft2684", "title": "ビスマルク群島十万分一 空中寫真測圖 要圖", "ckey": 10244889, "available": true, "iiifUrl": "https://purl.stanford.edu/kn302ft2684/iiif/manifest" }, "geometry": { "type": "Polygon", "coordinates": [ [ [ 148.5, -5.9999997 ], [ 149.0, -5.9999997 ], [ 149.0, -5.6666665 ], [ 148.5, -5.6666665 ], [ 148.5, -5.9999997 ] ] ] } },
{ "type": "Feature", "properties": { "Id": 0, "Sheet_ID": "七南ロ118. アリア河上流_補測1", "label": "七南ロ118. アリア河上流_補測1", "call_short": "G8180 S100 .J3", "call_num": "G8180 S100 .J3 7RO/118 SS1", "recid": "ff901qy9553", "websiteUrl": "https://purl.stanford.edu/ff901qy9553", "title": "ビスマルク群島十万分一 空中寫真測圖 要圖", "ckey": 10244889, "available": true, "iiifUrl": "https://purl.stanford.edu/ff901qy9553/iiif/manifest" }, "geometry": { "type": "Polygon", "coordinates": [ [ [ 149.0, -5.9999997 ], [ 149.5, -5.9999997 ], [ 149.5, -5.6666665 ], [ 149.0, -5.6666665 ], [ 149.0, -5.9999997 ] ] ] } },
{ "type": "Feature", "properties": { "Id": 0, "Sheet_ID": "七南ロ108. タラセア南部", "label": "七南ロ108. タラセア南部", "call_short": "0", "call_num": "0", "recid": "0", "websiteUrl": "0", "title": "0", "ckey": 0, "available": false, "iiifUrl": "0" }, "geometry": { "type": "Polygon", "coordinates": [ [ [ 149.5, -5.9999997 ], [ 150.0, -5.9999997 ], [ 150.0, -5.6666665 ], [ 149.5, -5.6666665 ], [ 149.5, -5.9999997 ] ] ] } },
{ "type": "Feature", "properties": { "Id": 0, "Sheet_ID": "七南ロ147. キング岬_補測1", "label": "七南ロ147. キング岬_補測1", "call_short": "G8180 S100 .J3", "call_num": "G8180 S100 .J3 7RO/147 SS1", "recid": "nn822bz9229", "websiteUrl": "https://purl.stanford.edu/nn822bz9229", "title": "ビスマルク群島十万分一 空中寫真測圖 要圖", "ckey": 10244889, "available": true, "iiifUrl": "https://purl.stanford.edu/nn822bz9229/iiif/manifest" }, "geometry": { "type": "Polygon", "coordinates": [ [ [ 147.5, -5.6666665 ], [ 148.0, -5.6666665 ], [ 148.0, -5.3333332 ], [ 147.5, -5.3333332 ], [ 147.5, -5.6666665 ] ] ] } },
{ "type": "Feature", "properties": { "Id": 0, "Sheet_ID": "七南ロ137. ツルブ_補測1", "label": "七南ロ137. ツルブ_補測1", "call_short": "G8180 S100 .J3", "call_num": "G8180 S100 .J3 7RO/137 SS1", "recid": "rd400kq4128", "websiteUrl": "https://purl.stanford.edu/rd400kq4128", "title": "ビスマルク群島十万分一 空中寫真測圖 要圖", "ckey": 10244889, "available": true, "iiifUrl": "https://purl.stanford.edu/rd400kq4128/iiif/manifest" }, "geometry": { "type": "Polygon", "coordinates": [ [ [ 148.0, -5.6666665 ], [ 148.5, -5.6666665 ], [ 148.5, -5.3333332 ], [ 148.0, -5.3333332 ], [ 148.0, -5.6666665 ] ] ] } },
{ "type": "Feature", "properties": { "Id": 0, "Sheet_ID": "七南ロ127. ゴウフリ岬", "label": "七南ロ127. ゴウフリ岬", "call_short": "G8180 S100 .J3", "call_num": "G8180 S100 .J3 7RO/127", "recid": "bd533ch5716", "websiteUrl": "https://purl.stanford.edu/bd533ch5716", "title": "ビスマルク群島十万分一 空中寫真測圖 要圖", "ckey": 10244889, "available": true, "iiifUrl": "https://purl.stanford.edu/bd533ch5716/iiif/manifest" }, "geometry": { "type": "Polygon", "coordinates": [ [ [ 148.5, -5.6666665 ], [ 149.0, -5.6666665 ], [ 149.0, -5.3333332 ], [ 148.5, -5.3333332 ], [ 148.5, -5.6666665 ] ] ] } },
{ "type": "Feature", "properties": { "Id": 0, "Sheet_ID": "七南ロ117. イボキ_補測1", "label": "七南ロ117. イボキ_補測1", "call_short": "G8180 S100 .J3", "call_num": "G8180 S100 .J3 7RO/117 SS1", "recid": "qg105ct5969", "websiteUrl": "https://purl.stanford.edu/qg105ct5969", "title": "ビスマルク群島十万分一 空中寫真測圖 要圖", "ckey": 10244889, "available": true, "iiifUrl": "https://purl.stanford.edu/qg105ct5969/iiif/manifest" }, "geometry": { "type": "Polygon", "coordinates": [ [ [ 149.0, -5.6666665 ], [ 149.5, -5.6666665 ], [ 149.5, -5.3333332 ], [ 149.0, -5.3333332 ], [ 149.0, -5.6666665 ] ] ] } },
{ "type": "Feature", "properties": { "Id": 0, "Sheet_ID": "七南ロ107. タラセア", "label": "七南ロ107. タラセア", "call_short": "G8180 S100 .J3", "call_num": "G8180 S100 .J3 7RO/107", "recid": "fx985ym1968", "websiteUrl": "https://purl.stanford.edu/fx985ym1968", "title": "ビスマルク群島十万分一 空中寫真測圖 要圖", "ckey": 10244889, "available": true, "iiifUrl": "https://purl.stanford.edu/fx985ym1968/iiif/manifest" }, "geometry": { "type": "Polygon", "coordinates": [ [ [ 149.5, -5.6666665 ], [ 150.0, -5.6666665 ], [ 150.0, -5.3333332 ], [ 149.5, -5.3333332 ], [ 149.5, -5.6666665 ] ] ] } },
{ "type": "Feature", "properties": { "Id": 0, "Sheet_ID": "七南ロ146. トロキワ島", "label": "七南ロ146. トロキワ島", "call_short": "G8180 S100 .J3", "call_num": "G8180 S100 .J3 7RO/146", "recid": "bt400cc0467", "websiteUrl": "https://purl.stanford.edu/bt400cc0467", "title": "ビスマルク群島十万分一 空中寫真測圖 要圖", "ckey": 10244889, "available": true, "iiifUrl": "https://purl.stanford.edu/bt400cc0467/iiif/manifest" }, "geometry": { "type": "Polygon", "coordinates": [ [ [ 147.5, -5.3333332 ], [ 148.0, -5.3333332 ], [ 148.0, -5.0 ], [ 147.5, -5.0 ], [ 147.5, -5.3333332 ] ] ] } },
{ "type": "Feature", "properties": { "Id": 0, "Sheet_ID": "六南ロ199. ガスマタ", "label": "六南ロ199. ガスマタ", "call_short": "G8180 S100 .J3", "call_num": "G8180 S100 .J3 6RO/199", "recid": "ch886fy8380", "websiteUrl": "https://purl.stanford.edu/ch886fy8380", "title": "ビスマルク群島十万分一 空中寫真測圖 要圖", "ckey": 10244889, "available": true, "iiifUrl": "https://purl.stanford.edu/ch886fy8380/iiif/manifest" }, "geometry": { "type": "Polygon", "coordinates": [ [ [ 150.0, -6.333333 ], [ 150.5, -6.333333 ], [ 150.5, -5.9999997 ], [ 150.0, -5.9999997 ], [ 150.0, -6.333333 ] ] ] } },
{ "type": "Feature", "properties": { "Id": 0, "Sheet_ID": "六南ロ189. モンタグ灣", "label": "六南ロ189. モンタグ灣", "call_short": "G8180 S100 .J3", "call_num": "G8180 S100 .J3 6RO/189", "recid": "yy480hr0966", "websiteUrl": "https://purl.stanford.edu/yy480hr0966", "title": "ビスマルク群島十万分一 空中寫真測圖 要圖", "ckey": 10244889, "available": true, "iiifUrl": "https://purl.stanford.edu/yy480hr0966/iiif/manifest" }, "geometry": { "type": "Polygon", "coordinates": [ [ [ 150.5, -6.333333 ], [ 151.0, -6.333333 ], [ 151.0, -5.9999997 ], [ 150.5, -5.9999997 ], [ 150.5, -6.333333 ] ] ] } },
{ "type": "Feature", "properties": { "Id": 0, "Sheet_ID": "六南ロ179. ウヴォル", "label": "六南ロ179. ウヴォル", "call_short": "G8180 S100 .J3", "call_num": "G8180 S100 .J3 6RO/179", "recid": "jy566wp4131", "websiteUrl": "https://purl.stanford.edu/jy566wp4131", "title": "ビスマルク群島十万分一 空中寫真測圖 要圖", "ckey": 10244889, "available": true, "iiifUrl": "https://purl.stanford.edu/jy566wp4131/iiif/manifest" }, "geometry": { "type": "Polygon", "coordinates": [ [ [ 151.0, -6.333333 ], [ 151.5, -6.333333 ], [ 151.5, -5.9999997 ], [ 151.0, -5.9999997 ], [ 151.0, -6.333333 ] ] ] } },
{ "type": "Feature", "properties": { "Id": 0, "Sheet_ID": "六南ロ198. ボケ南部", "label": "六南ロ198. ボケ南部", "call_short": "G8180 S100 .J3", "call_num": "G8180 S100 .J3 6RO/198", "recid": "nk140hh6622", "websiteUrl": "https://purl.stanford.edu/nk140hh6622", "title": "ビスマルク群島十万分一 空中寫真測圖 要圖", "ckey": 10244889, "available": true, "iiifUrl": "https://purl.stanford.edu/nk140hh6622/iiif/manifest" }, "geometry": { "type": "Polygon", "coordinates": [ [ [ 150.0, -5.9999997 ], [ 150.5, -5.9999997 ], [ 150.5, -5.6666663 ], [ 150.0, -5.6666663 ], [ 150.0, -5.9999997 ] ] ] } },
{ "type": "Feature", "properties": { "Id": 0, "Sheet_ID": "六南ロ188. ヴァヌポ", "label": "六南ロ188. ヴァヌポ", "call_short": "G8180 S100 .J3", "call_num": "G8180 S100 .J3 6RO/188", "recid": "kk845vy8485", "websiteUrl": "https://purl.stanford.edu/kk845vy8485", "title": "ビスマルク群島十万分一 空中寫真測圖 要圖", "ckey": 10244889, "available": true, "iiifUrl": "https://purl.stanford.edu/kk845vy8485/iiif/manifest" }, "geometry": { "type": "Polygon", "coordinates": [ [ [ 150.5, -5.9999997 ], [ 151.0, -5.9999997 ], [ 151.0, -5.6666663 ], [ 150.5, -5.6666663 ], [ 150.5, -5.9999997 ] ] ] } },
{ "type": "Feature", "properties": { "Id": 0, "Sheet_ID": "六南ロ178. ラノ", "label": "六南ロ178. ラノ", "call_short": "G8180 S100 .J3", "call_num": "G8180 S100 .J3 6RO/178", "recid": "yk784pm4228", "websiteUrl": "https://purl.stanford.edu/yk784pm4228", "title": "ビスマルク群島十万分一 空中寫真測圖 要圖", "ckey": 10244889, "available": true, "iiifUrl": "https://purl.stanford.edu/yk784pm4228/iiif/manifest" }, "geometry": { "type": "Polygon", "coordinates": [ [ [ 151.0, -5.9999997 ], [ 151.5, -5.9999997 ], [ 151.5, -5.6666663 ], [ 151.0, -5.6666663 ], [ 151.0, -5.9999997 ] ] ] } },
{ "type": "Feature", "properties": { "Id": 0, "Sheet_ID": "六南ロ168. カニンガム岬", "label": "六南ロ168. カニンガム岬", "call_short": "G8180 S100 .J3", "call_num": "G8180 S100 .J3 6RO/168", "recid": "vg416mh9580", "websiteUrl": "https://purl.stanford.edu/vg416mh9580", "title": "ビスマルク群島十万分一 空中寫真測圖 要圖", "ckey": 10244889, "available": true, "iiifUrl": "https://purl.stanford.edu/vg416mh9580/iiif/manifest" }, "geometry": { "type": "Polygon", "coordinates": [ [ [ 151.5, -5.9999997 ], [ 152.0, -5.9999997 ], [ 152.0, -5.6666663 ], [ 151.5, -5.6666663 ], [ 151.5, -5.9999997 ] ] ] } },
{ "type": "Feature", "properties": { "Id": 0, "Sheet_ID": "六南ロ197. ボケ", "label": "六南ロ197. ボケ", "call_short": "G8180 S100 .J3", "call_num": "G8180 S100 .J3 6RO/197", "recid": "yp384vf8006", "websiteUrl": "https://purl.stanford.edu/yp384vf8006", "title": "ビスマルク群島十万分一 空中寫真測圖 要圖", "ckey": 10244889, "available": true, "iiifUrl": "https://purl.stanford.edu/yp384vf8006/iiif/manifest" }, "geometry": { "type": "Polygon", "coordinates": [ [ [ 150.0, -5.6666663 ], [ 150.5, -5.6666663 ], [ 150.5, -5.333333 ], [ 150.0, -5.333333 ], [ 150.0, -5.6666663 ] ] ] } },
{ "type": "Feature", "properties": { "Id": 0, "Sheet_ID": "六南ロ187. スル山", "label": "六南ロ187. スル山", "call_short": "G8180 S100 .J3", "call_num": "G8180 S100 .J3 6RO/187", "recid": "pt101rs1953", "websiteUrl": "https://purl.stanford.edu/pt101rs1953", "title": "ビスマルク群島十万分一 空中寫真測圖 要圖", "ckey": 10244889, "available": true, "iiifUrl": "https://purl.stanford.edu/pt101rs1953/iiif/manifest" }, "geometry": { "type": "Polygon", "coordinates": [ [ [ 150.5, -5.6666663 ], [ 151.0, -5.6666663 ], [ 151.0, -5.333333 ], [ 150.5, -5.333333 ], [ 150.5, -5.6666663 ] ] ] } },
{ "type": "Feature", "properties": { "Id": 0, "Sheet_ID": "六南ロ177. カロセウロ山", "label": "六南ロ177. カロセウロ山", "call_short": "G8180 S100 .J3", "call_num": "G8180 S100 .J3 6RO/177", "recid": "yw307nc1218", "websiteUrl": "https://purl.stanford.edu/yw307nc1218", "title": "ビスマルク群島十万分一 空中寫真測圖 要圖", "ckey": 10244889, "available": true, "iiifUrl": "https://purl.stanford.edu/yw307nc1218/iiif/manifest" }, "geometry": { "type": "Polygon", "coordinates": [ [ [ 151.0, -5.6666663 ], [ 151.5, -5.6666663 ], [ 151.5, -5.333333 ], [ 151.0, -5.333333 ], [ 151.0, -5.6666663 ] ] ] } },
{ "type": "Feature", "properties": { "Id": 0, "Sheet_ID": "六南ロ167. ジャキノー灣_補測2", "label": "六南ロ167. ジャキノー灣_補測2", "call_short": "G8180 S100 .J3", "call_num": "G8180 S100 .J3 6RO/167 SS2", "recid": "bd131fc4748", "websiteUrl": "https://purl.stanford.edu/bd131fc4748", "title": "ビスマルク群島十万分一 空中寫真測圖 要圖", "ckey": 10244889, "available": true, "iiifUrl": "https://purl.stanford.edu/bd131fc4748/iiif/manifest" }, "geometry": { "type": "Polygon", "coordinates": [ [ [ 151.5, -5.6666663 ], [ 152.0, -5.6666663 ], [ 152.0, -5.333333 ], [ 151.5, -5.333333 ], [ 151.5, -5.6666663 ] ] ] } },
{ "type": "Feature", "properties": { "Id": 0, "Sheet_ID": "六南ロ157. オーフォード岬", "label": "六南ロ157. オーフォード岬", "call_short": "0", "call_num": "0", "recid": "0", "websiteUrl": "0", "title": "0", "ckey": 0, "available": false, "iiifUrl": "0" }, "geometry": { "type": "Polygon", "coordinates": [ [ [ 152.0, -5.6666663 ], [ 152.5, -5.6666663 ], [ 152.5, -5.333333 ], [ 152.0, -5.333333 ], [ 152.0, -5.6666663 ] ] ] } },
{ "type": "Feature", "properties": { "Id": 0, "Sheet_ID": "六南ロ196. ヴァルパイ", "label": "六南ロ196. ヴァルパイ", "call_short": "G8180 S100 .J3", "call_num": "G8180 S100 .J3 6RO/196", "recid": "xn821nv1286", "websiteUrl": "https://purl.stanford.edu/xn821nv1286", "title": "ビスマルク群島十万分一 空中寫真測圖 要圖", "ckey": 10244889, "available": true, "iiifUrl": "https://purl.stanford.edu/xn821nv1286/iiif/manifest" }, "geometry": { "type": "Polygon", "coordinates": [ [ [ 149.9, -5.333333 ], [ 150.5, -5.333333 ], [ 150.5, -4.9999997 ], [ 149.9, -4.9999997 ], [ 149.9, -5.333333 ] ] ] } },
{ "type": "Feature", "properties": { "Id": 0, "Sheet_ID": "六南ロ176. ウラヴン山", "label": "六南ロ176. ウラヴン山", "call_short": "G8180 S100 .J3", "call_num": "G8180 S100 .J3 6RO/176", "recid": "bk923yz6419", "websiteUrl": "https://purl.stanford.edu/bk923yz6419", "title": "ビスマルク群島十万分一 空中寫真測圖 要圖", "ckey": 10244889, "available": true, "iiifUrl": "https://purl.stanford.edu/bk923yz6419/iiif/manifest" }, "geometry": { "type": "Polygon", "coordinates": [ [ [ 151.0, -5.333333 ], [ 151.5, -5.333333 ], [ 151.5, -4.9999997 ], [ 151.0, -4.9999997 ], [ 151.0, -5.333333 ] ] ] } },
{ "type": "Feature", "properties": { "Id": 0, "Sheet_ID": "六南ロ166. サウス岬", "label": "六南ロ166. サウス岬", "call_short": "G8180 S100 .J3", "call_num": "G8180 S100 .J3 6RO/166", "recid": "px446ks7614", "websiteUrl": "https://purl.stanford.edu/px446ks7614", "title": "ビスマルク群島十万分一 空中寫真測圖 要圖", "ckey": 10244889, "available": true, "iiifUrl": "https://purl.stanford.edu/px446ks7614/iiif/manifest" }, "geometry": { "type": "Polygon", "coordinates": [ [ [ 151.5, -5.333333 ], [ 152.0, -5.333333 ], [ 152.0, -4.9999997 ], [ 151.5, -4.9999997 ], [ 151.5, -5.333333 ] ] ] } },
{ "type": "Feature", "properties": { "Id": 0, "Sheet_ID": "六南ロ156. クレイター岬", "label": "六南ロ156. クレイター岬", "call_short": "G8180 S100 .J3", "call_num": "G8180 S100 .J3 6RO/156", "recid": "sp278sz0589", "websiteUrl": "https://purl.stanford.edu/sp278sz0589", "title": "ビスマルク群島十万分一 空中寫真測圖 要圖", "ckey": 10244889, "available": true, "iiifUrl": "https://purl.stanford.edu/sp278sz0589/iiif/manifest" }, "geometry": { "type": "Polygon", "coordinates": [ [ [ 152.0, -5.333333 ], [ 152.5, -5.333333 ], [ 152.5, -4.9999997 ], [ 152.0, -4.9999997 ], [ 152.0, -5.333333 ] ] ] } },
{ "type": "Feature", "properties": { "Id": 0, "Sheet_ID": "六南ロ175. リクロアガ山", "label": "六南ロ175. リクロアガ山", "call_short": "G8180 S100 .J3", "call_num": "G8180 S100 .J3 6RO/175", "recid": "hg854vr4519", "websiteUrl": "https://purl.stanford.edu/hg854vr4519", "title": "ビスマルク群島十万分一 空中寫真測圖 要圖", "ckey": 10244889, "available": true, "iiifUrl": "https://purl.stanford.edu/hg854vr4519/iiif/manifest" }, "geometry": { "type": "Polygon", "coordinates": [ [ [ 151.0, -4.9999997 ], [ 151.5, -4.9999997 ], [ 151.5, -4.6666663 ], [ 151.0, -4.6666663 ], [ 151.0, -4.9999997 ] ] ] } },
{ "type": "Feature", "properties": { "Id": 0, "Sheet_ID": "六南ロ165. ポウェル港_補測1", "label": "六南ロ165. ポウェル港_補測1", "call_short": "G8180 S100 .J3", "call_num": "G8180 S100 .J3 6RO/165 SS1", "recid": "qg907sp3394", "websiteUrl": "https://purl.stanford.edu/qg907sp3394", "title": "ビスマルク群島十万分一 空中寫真測圖 要圖", "ckey": 10244889, "available": true, "iiifUrl": "https://purl.stanford.edu/qg907sp3394/iiif/manifest" }, "geometry": { "type": "Polygon", "coordinates": [ [ [ 151.5, -4.9999997 ], [ 152.0, -4.9999997 ], [ 152.0, -4.6666663 ], [ 151.5, -4.6666663 ], [ 151.5, -4.9999997 ] ] ] } },
{ "type": "Feature", "properties": { "Id": 0, "Sheet_ID": "六南ロ155. アドラー灣", "label": "六南ロ155. アドラー灣", "call_short": "G8180 S100 .J3", "call_num": "G8180 S100 .J3 6RO/155", "recid": "fq988vh8238", "websiteUrl": "https://purl.stanford.edu/fq988vh8238", "title": "ビスマルク群島十万分一 空中寫真測圖 要圖", "ckey": 10244889, "available": true, "iiifUrl": "https://purl.stanford.edu/fq988vh8238/iiif/manifest" }, "geometry": { "type": "Polygon", "coordinates": [ [ [ 152.0, -4.9999997 ], [ 152.5, -4.9999997 ], [ 152.5, -4.6666663 ], [ 152.0, -4.6666663 ], [ 152.0, -4.9999997 ] ] ] } },
{ "type": "Feature", "properties": { "Id": 0, "Sheet_ID": "六南ロ145. マトガス", "label": "六南ロ145. マトガス", "call_short": "G8180 S100 .J3", "call_num": "G8180 S100 .J3 6RO/145", "recid": "hy948wd2577", "websiteUrl": "https://purl.stanford.edu/hy948wd2577", "title": "ビスマルク群島十万分一 空中寫真測圖 要圖", "ckey": 10244889, "available": true, "iiifUrl": "https://purl.stanford.edu/hy948wd2577/iiif/manifest" }, "geometry": { "type": "Polygon", "coordinates": [ [ [ 152.5, -4.9999997 ], [ 153.0, -4.9999997 ], [ 153.0, -4.6666663 ], [ 152.5, -4.6666663 ], [ 152.5, -4.9999997 ] ] ] } },
{ "type": "Feature", "properties": { "Id": 0, "Sheet_ID": "六南ロ164. ポンド", "label": "六南ロ164. ポンド", "call_short": "G8180 S100 .J3", "call_num": "G8180 S100 .J3 6RO/164", "recid": "xk745qc6117", "websiteUrl": "https://purl.stanford.edu/xk745qc6117", "title": "ビスマルク群島十万分一 空中寫真測圖 要圖", "ckey": 10244889, "available": true, "iiifUrl": "https://purl.stanford.edu/xk745qc6117/iiif/manifest" }, "geometry": { "type": "Polygon", "coordinates": [ [ [ 151.5, -4.6666663 ], [ 152.0, -4.6666663 ], [ 152.0, -4.333333 ], [ 151.5, -4.333333 ], [ 151.5, -4.6666663 ] ] ] } },
{ "type": "Feature", "properties": { "Id": 0, "Sheet_ID": "六南ロ154. カバンガ", "label": "六南ロ154. カバンガ", "call_short": "G8180 S100 .J3", "call_num": "G8180 S100 .J3 6RO/154", "recid": "vh064fm4592", "websiteUrl": "https://purl.stanford.edu/vh064fm4592", "title": "ビスマルク群島十万分一 空中寫真測圖 要圖", "ckey": 10244889, "available": true, "iiifUrl": "https://purl.stanford.edu/vh064fm4592/iiif/manifest" }, "geometry": { "type": "Polygon", "coordinates": [ [ [ 152.0, -4.6666663 ], [ 152.5, -4.6666663 ], [ 152.5, -4.333333 ], [ 152.0, -4.333333 ], [ 152.0, -4.6666663 ] ] ] } },
{ "type": "Feature", "properties": { "Id": 0, "Sheet_ID": "六南ロ144. キング", "label": "六南ロ144. キング", "call_short": "G8180 S100 .J3", "call_num": "G8180 S100 .J3 6RO/144", "recid": "qd947cv4466", "websiteUrl": "https://purl.stanford.edu/qd947cv4466", "title": "ビスマルク群島十万分一 空中寫真測圖 要圖", "ckey": 10244889, "available": true, "iiifUrl": "https://purl.stanford.edu/qd947cv4466/iiif/manifest" }, "geometry": { "type": "Polygon", "coordinates": [ [ [ 152.5, -4.6666663 ], [ 153.0, -4.6666663 ], [ 153.0, -4.333333 ], [ 152.5, -4.333333 ], [ 152.5, -4.6666663 ] ] ] } },
{ "type": "Feature", "properties": { "Id": 0, "Sheet_ID": "六南ロ134. プグマル", "label": "六南ロ134. プグマル", "call_short": "G8180 S100 .J3", "call_num": "G8180 S100 .J3 6RO/134", "recid": "cc309vv7783", "websiteUrl": "https://purl.stanford.edu/cc309vv7783", "title": "ビスマルク群島十万分一 空中寫真測圖 要圖", "ckey": 10244889, "available": true, "iiifUrl": "https://purl.stanford.edu/cc309vv7783/iiif/manifest" }, "geometry": { "type": "Polygon", "coordinates": [ [ [ 153.0, -4.6666663 ], [ 153.5, -4.6666663 ], [ 153.5, -4.333333 ], [ 153.0, -4.333333 ], [ 153.0, -4.6666663 ] ] ] } },
{ "type": "Feature", "properties": { "Id": 0, "Sheet_ID": "六南ロ163. ポマス岬", "label": "六南ロ163. ポマス岬", "call_short": "G8180 S100 .J3", "call_num": "G8180 S100 .J3 6RO/163", "recid": "dg186nw1032", "websiteUrl": "https://purl.stanford.edu/dg186nw1032", "title": "ビスマルク群島十万分一 空中寫真測圖 要圖", "ckey": 10244889, "available": true, "iiifUrl": "https://purl.stanford.edu/dg186nw1032/iiif/manifest" }, "geometry": { "type": "Polygon", "coordinates": [ [ [ 151.5, -4.333333 ], [ 152.0, -4.333333 ], [ 152.0, -3.9999997 ], [ 151.5, -3.9999997 ], [ 151.5, -4.333333 ] ] ] } },
{ "type": "Feature", "properties": { "Id": 0, "Sheet_ID": "六南ロ153. ラバウル", "label": "六南ロ153. ラバウル", "call_short": "G8180 S100 .J3", "call_num": "G8180 S100 .J3 6RO/153", "recid": "fz792tt7240", "websiteUrl": "https://purl.stanford.edu/fz792tt7240", "title": "ビスマルク群島十万分一 空中寫真測圖 要圖", "ckey": 10244889, "available": true, "iiifUrl": "https://purl.stanford.edu/fz792tt7240/iiif/manifest" }, "geometry": { "type": "Polygon", "coordinates": [ [ [ 152.0, -4.333333 ], [ 152.5, -4.333333 ], [ 152.5, -3.9999997 ], [ 152.0, -3.9999997 ], [ 152.0, -4.333333 ] ] ] } },
{ "type": "Feature", "properties": { "Id": 0, "Sheet_ID": "六南ロ143. バランゴット", "label": "六南ロ143. バランゴット", "call_short": "G8180 S100 .J3", "call_num": "G8180 S100 .J3 6RO/143", "recid": "pg470pc3372", "websiteUrl": "https://purl.stanford.edu/pg470pc3372", "title": "ビスマルク群島十万分一 空中寫真測圖 要圖", "ckey": 10244889, "available": true, "iiifUrl": "https://purl.stanford.edu/pg470pc3372/iiif/manifest" }, "geometry": { "type": "Polygon", "coordinates": [ [ [ 152.5, -4.333333 ], [ 153.0, -4.333333 ], [ 153.0, -3.9999997 ], [ 152.5, -3.9999997 ], [ 152.5, -4.333333 ] ] ] } },
{ "type": "Feature", "properties": { "Id": 0, "Sheet_ID": "六南ロ133. ダンフ", "label": "六南ロ133. ダンフ", "call_short": "G8180 S100 .J3", "call_num": "G8180 S100 .J3 6RO/133", "recid": "jf538ks3264", "websiteUrl": "https://purl.stanford.edu/jf538ks3264", "title": "ビスマルク群島十万分一 空中寫真測圖 要圖", "ckey": 10244889, "available": true, "iiifUrl": "https://purl.stanford.edu/jf538ks3264/iiif/manifest" }, "geometry": { "type": "Polygon", "coordinates": [ [ [ 153.0, -4.333333 ], [ 153.5, -4.333333 ], [ 153.5, -3.9999997 ], [ 153.0, -3.9999997 ], [ 153.0, -4.333333 ] ] ] } },
{ "type": "Feature", "properties": { "Id": 0, "Sheet_ID": "六南ロ123. フェニ島", "label": "六南ロ123. フェニ島", "call_short": "G8180 S100 .J3", "call_num": "G8180 S100 .J3 6RO/123", "recid": "gf044tn0958", "websiteUrl": "https://purl.stanford.edu/gf044tn0958", "title": "ビスマルク群島十万分一 空中寫真測圖 要圖", "ckey": 10244889, "available": true, "iiifUrl": "https://purl.stanford.edu/gf044tn0958/iiif/manifest" }, "geometry": { "type": "Polygon", "coordinates": [ [ [ 153.5, -4.333333 ], [ 154.0, -4.333333 ], [ 154.0, -3.9999997 ], [ 153.5, -3.9999997 ], [ 153.5, -4.333333 ] ] ] } },
{ "type": "Feature", "properties": { "Id": 0, "Sheet_ID": "六南ロ152. ナマタナイ南部", "label": "六南ロ152. ナマタナイ南部", "call_short": "G8180 S100 .J3", "call_num": "G8180 S100 .J3 6RO/152", "recid": "jg973md2981", "websiteUrl": "https://purl.stanford.edu/jg973md2981", "title": "ビスマルク群島十万分一 空中寫真測圖 要圖", "ckey": 10244889, "available": true, "iiifUrl": "https://purl.stanford.edu/jg973md2981/iiif/manifest" }, "geometry": { "type": "Polygon", "coordinates": [ [ [ 152.0, -3.9999997 ], [ 152.5, -3.9999997 ], [ 152.5, -3.6666663 ], [ 152.0, -3.6666663 ], [ 152.0, -3.9999997 ] ] ] } },
{ "type": "Feature", "properties": { "Id": 0, "Sheet_ID": "六南ロ142. ポルポップ港", "label": "六南ロ142. ポルポップ港", "call_short": "G8180 S100 .J3", "call_num": "G8180 S100 .J3 6RO/142", "recid": "dq037pq2786", "websiteUrl": "https://purl.stanford.edu/dq037pq2786", "title": "ビスマルク群島十万分一 空中寫真測圖 要圖", "ckey": 10244889, "available": true, "iiifUrl": "https://purl.stanford.edu/dq037pq2786/iiif/manifest" }, "geometry": { "type": "Polygon", "coordinates": [ [ [ 152.5, -3.9999997 ], [ 153.0, -3.9999997 ], [ 153.0, -3.6666663 ], [ 152.5, -3.6666663 ], [ 152.5, -3.9999997 ] ] ] } },
{ "type": "Feature", "properties": { "Id": 0, "Sheet_ID": "六南ロ161. カリリ", "label": "六南ロ161. カリリ", "call_short": "G8180 S100 .J3", "call_num": "G8180 S100 .J3 6RO/161", "recid": "bp681mf0865", "websiteUrl": "https://purl.stanford.edu/bp681mf0865", "title": "ビスマルク群島十万分一 空中寫真測圖 要圖", "ckey": 10244889, "available": true, "iiifUrl": "https://purl.stanford.edu/bp681mf0865/iiif/manifest" }, "geometry": { "type": "Polygon", "coordinates": [ [ [ 151.5, -3.6666663 ], [ 152.0, -3.6666663 ], [ 152.0, -3.333333 ], [ 151.5, -3.333333 ], [ 151.5, -3.6666663 ] ] ] } },
{ "type": "Feature", "properties": { "Id": 0, "Sheet_ID": "六南ロ151. ナマタナイ_補測1", "label": "六南ロ151. ナマタナイ_補測1", "call_short": "G8180 S100 .J3", "call_num": "G8180 S100 .J3 6RO/151 SS1", "recid": "vy045qj7564", "websiteUrl": "https://purl.stanford.edu/vy045qj7564", "title": "ビスマルク群島十万分一 空中寫真測圖 要圖", "ckey": 10244889, "available": true, "iiifUrl": "https://purl.stanford.edu/vy045qj7564/iiif/manifest" }, "geometry": { "type": "Polygon", "coordinates": [ [ [ 152.0, -3.6666663 ], [ 152.5, -3.6666663 ], [ 152.5, -3.333333 ], [ 152.0, -3.333333 ], [ 152.0, -3.6666663 ] ] ] } },
{ "type": "Feature", "properties": { "Id": 0, "Sheet_ID": "六南ロ131. タンガ諸島", "label": "六南ロ131. タンガ諸島", "call_short": "G8180 S100 .J3", "call_num": "G8180 S100 .J3 6RO/131", "recid": "gy230mq5543", "websiteUrl": "https://purl.stanford.edu/gy230mq5543", "title": "ビスマルク群島十万分一 空中寫真測圖 要圖", "ckey": 10244889, "available": true, "iiifUrl": "https://purl.stanford.edu/gy230mq5543/iiif/manifest" }, "geometry": { "type": "Polygon", "coordinates": [ [ [ 153.0, -3.6666663 ], [ 153.5, -3.6666663 ], [ 153.5, -3.333333 ], [ 153.0, -3.333333 ], [ 153.0, -3.6666663 ] ] ] } },
{ "type": "Feature", "properties": { "Id": 0, "Sheet_ID": "六南ロ142. ポルポップ港_補測1", "label": "六南ロ142. ポルポップ港_補測1", "call_short": "G8180 S100 .J3", "call_num": "G8180 S100 .J3 6RO/142 SS1", "recid": "cp236gt4440", "websiteUrl": "https://purl.stanford.edu/cp236gt4440", "title": "ビスマルク群島十万分一 空中寫真測圖 要圖", "ckey": 10244889, "available": true, "iiifUrl": "https://purl.stanford.edu/cp236gt4440/iiif/manifest" }, "geometry": { "type": "Polygon", "coordinates": [ [ [ 152.5, -3.9999997 ], [ 153.0, -3.9999997 ], [ 153.0, -3.6666663 ], [ 152.5, -3.6666663 ], [ 152.5, -3.9999997 ] ] ] } },
{ "type": "Feature", "properties": { "Id": 0, "Sheet_ID": "六南ロ143. バランゴット_補測2", "label": "六南ロ143. バランゴット_補測2", "call_short": "G8180 S100 .J3", "call_num": "G8180 S100 .J3 6RO/143 SS2", "recid": "yb908gr0905", "websiteUrl": "https://purl.stanford.edu/yb908gr0905", "title": "ビスマルク群島十万分一 空中寫真測圖 要圖", "ckey": 10244889, "available": true, "iiifUrl": "https://purl.stanford.edu/yb908gr0905/iiif/manifest" }, "geometry": { "type": "Polygon", "coordinates": [ [ [ 152.5, -4.333333 ], [ 153.0, -4.333333 ], [ 153.0, -3.9999997 ], [ 152.5, -3.9999997 ], [ 152.5, -4.333333 ] ] ] } },
{ "type": "Feature", "properties": { "Id": 0, "Sheet_ID": "六南ロ177. カロセウロ山_補測1", "label": "六南ロ177. カロセウロ山_補測1", "call_short": "G8180 S100 .J3", "call_num": "G8180 S100 .J3 6RO/177 SS1", "recid": "yt350bm6335", "websiteUrl": "https://purl.stanford.edu/yt350bm6335", "title": "ビスマルク群島十万分一 空中寫真測圖 要圖", "ckey": 10244889, "available": true, "iiifUrl": "https://purl.stanford.edu/yt350bm6335/iiif/manifest" }, "geometry": { "type": "Polygon", "coordinates": [ [ [ 151.0, -5.6666663 ], [ 151.5, -5.6666663 ], [ 151.5, -5.333333 ], [ 151.0, -5.333333 ], [ 151.0, -5.6666663 ] ] ] } },
{ "type": "Feature", "properties": { "Id": 0, "Sheet_ID": "七南ロ127. ゴウフリ岬_補測1", "label": "七南ロ127. ゴウフリ岬_補測1", "call_short": "G8180 S100 .J3", "call_num": "G8180 S100 .J3 7RO/127 SS1", "recid": "dm607yk0748", "websiteUrl": "https://purl.stanford.edu/dm607yk0748", "title": "ビスマルク群島十万分一 空中寫真測圖 要圖", "ckey": 10244889, "available": true, "iiifUrl": "https://purl.stanford.edu/dm607yk0748/iiif/manifest" }, "geometry": { "type": "Polygon", "coordinates": [ [ [ 148.5, -5.6666665 ], [ 149.0, -5.6666665 ], [ 149.0, -5.3333332 ], [ 148.5, -5.3333332 ], [ 148.5, -5.6666665 ] ] ] } }
]
}
