{"type":"FeatureCollection","features":[{"type":"Feature","properties":{"Id":0,"Sheet_ID":"12. パラウァン","label":"12. パラウァン","call_short":"","call_num":"","recid":"","websiteUrl":"","title":"","ckey":0,"web_map":"","available":"false","iiifUrl":""},"geometry":{"bbox":[119.66666699999996,12.999999999999943,121.00000033333333,13.666667000000075],"type":"Polygon","coordinates":[[[119.66666699999996,12.999999999999943],[119.66666699999996,13.666667000000075],[121.00000033333333,13.666667000000075],[121.00000033333333,12.999999999999943],[119.66666699999996,12.999999999999943]]]}},{"type":"Feature","properties":{"Id":0,"Sheet_ID":"11. カラパン","label":"11. カラパン","call_short":"G8062 .L8 S200 .J3","call_num":"G8062 .L8 S200 .J3 SHEET 11","recid":"gf376wb1264","websiteUrl":"https://purl.stanford.edu/gf376wb1264","title":"呂宋島附近二十万分一地誌圖","ckey":9689700,"web_map":"","available":"true","iiifUrl":"https://purl.stanford.edu/gf376wb1264/iiif/manifest"},"geometry":{"bbox":[121.00000033333333,12.999999999999943,122.3333336666667,13.666667000000075],"type":"Polygon","coordinates":[[[121.00000033333333,12.999999999999943],[121.00000033333333,13.666667000000075],[122.3333336666667,13.666667000000075],[122.3333336666667,12.999999999999943],[121.00000033333333,12.999999999999943]]]}},{"type":"Feature","properties":{"Id":0,"Sheet_ID":"14. ナガ","label":"14. ナガ","call_short":"G8062 .L8 S200 .J3","call_num":"G8062 .L8 S200 .J3 SHEET 14","recid":"hx200ck8857","websiteUrl":"https://purl.stanford.edu/hx200ck8857","title":"呂宋島附近二十万分一地誌圖","ckey":9689700,"web_map":"","available":"true","iiifUrl":"https://purl.stanford.edu/hx200ck8857/iiif/manifest"},"geometry":{"bbox":[122.3333336666667,12.999999999999943,123.66666700000007,13.666667000000075],"type":"Polygon","coordinates":[[[122.3333336666667,12.999999999999943],[122.3333336666667,13.666667000000075],[123.66666700000007,13.666667000000075],[123.66666700000007,12.999999999999943],[122.3333336666667,12.999999999999943]]]}},{"type":"Feature","properties":{"Id":0,"Sheet_ID":"10. マニラ","label":"10. マニラ","call_short":"G8062 .L8 S200 .J3","call_num":"G8062 .L8 S200 .J3 SHEET 10","recid":"yr696xy9778","websiteUrl":"https://purl.stanford.edu/yr696xy9778","title":"呂宋島附近二十万分一地誌圖","ckey":9689700,"web_map":"","available":"true","iiifUrl":"https://purl.stanford.edu/yr696xy9778/iiif/manifest"},"geometry":{"bbox":[119.66666700000002,13.666667,121.00000033333333,14.666667000000002],"type":"Polygon","coordinates":[[[119.66666700000002,13.666667],[119.66666700000002,14.666667000000002],[121.00000033333333,14.666667000000002],[121.00000033333333,13.666667],[119.66666700000002,13.666667]]]}},{"type":"Feature","properties":{"Id":0,"Sheet_ID":"9. ルセナ","label":"9. ルセナ","call_short":"G8062 .L8 S200 .J3","call_num":"G8062 .L8 S200 .J3 SHEET 9","recid":"pm085yg4493","websiteUrl":"https://purl.stanford.edu/pm085yg4493","title":"呂宋島附近二十万分一地誌圖","ckey":9689700,"web_map":"","available":"true","iiifUrl":"https://purl.stanford.edu/pm085yg4493/iiif/manifest"},"geometry":{"bbox":[121.00000033333333,13.666667,122.33333366666668,14.666667000000002],"type":"Polygon","coordinates":[[[121.00000033333333,13.666667],[121.00000033333333,14.666667000000002],[122.33333366666668,14.666667000000002],[122.33333366666668,13.666667],[121.00000033333333,13.666667]]]}},{"type":"Feature","properties":{"Id":0,"Sheet_ID":"13. ダエト","label":"13. ダエト","call_short":"G8062 .L8 S200 .J3","call_num":"G8062 .L8 S200 .J3 SHEET 13","recid":"hs160zh8101","websiteUrl":"https://purl.stanford.edu/hs160zh8101","title":"呂宋島附近二十万分一地誌圖","ckey":9689700,"web_map":"","available":"true","iiifUrl":"https://purl.stanford.edu/hs160zh8101/iiif/manifest"},"geometry":{"bbox":[122.33333366666668,13.666667,123.66666700000002,14.666667000000002],"type":"Polygon","coordinates":[[[122.33333366666668,13.666667],[122.33333366666668,14.666667000000002],[123.66666700000002,14.666667000000002],[123.66666700000002,13.666667],[122.33333366666668,13.666667]]]}},{"type":"Feature","properties":{"Id":0,"Sheet_ID":"8. サンフェルナンド","label":"8. サンフェルナンド","call_short":"G8062 .L8 S200 .J3","call_num":"G8062 .L8 S200 .J3 SHEET 8","recid":"ng229cv6469","websiteUrl":"https://purl.stanford.edu/ng229cv6469","title":"呂宋島附近二十万分一地誌圖","ckey":9689700,"web_map":"","available":"true","iiifUrl":"https://purl.stanford.edu/ng229cv6469/iiif/manifest"},"geometry":{"bbox":[119.66666700000002,14.666667000000002,121.00000033333333,15.666667],"type":"Polygon","coordinates":[[[119.66666700000002,14.666667000000002],[119.66666700000002,15.666667],[121.00000033333333,15.666667],[121.00000033333333,14.666667000000002],[119.66666700000002,14.666667000000002]]]}},{"type":"Feature","properties":{"Id":0,"Sheet_ID":"7. ポリリオ島","label":"7. ポリリオ島","call_short":"G8062 .L8 S200 .J3","call_num":"G8062 .L8 S200 .J3 SHEET 7","recid":"xs838fr3816","websiteUrl":"https://purl.stanford.edu/xs838fr3816","title":"呂宋島附近二十万分一地誌圖","ckey":9689700,"web_map":"","available":"true","iiifUrl":"https://purl.stanford.edu/xs838fr3816/iiif/manifest"},"geometry":{"bbox":[121.00000033333333,14.666667000000075,122.50000000000001,15.666667000000077],"type":"Polygon","coordinates":[[[121.00000033333333,14.666667000000075],[121.00000033333333,15.666667000000077],[122.50000000000001,15.666667000000077],[122.50000000000001,14.666667000000075],[121.00000033333333,14.666667000000075]]]}},{"type":"Feature","properties":{"Id":0,"Sheet_ID":"6. リンガエン","label":"6. リンガエン","call_short":"","call_num":"","recid":"","websiteUrl":"","title":"","ckey":0,"web_map":"","available":"false","iiifUrl":""},"geometry":{"bbox":[119.66666700000002,15.666667,121.00000033333333,16.666667],"type":"Polygon","coordinates":[[[119.66666700000002,15.666667],[119.66666700000002,16.666667],[121.00000033333333,16.666667],[121.00000033333333,15.666667],[119.66666700000002,15.666667]]]}},{"type":"Feature","properties":{"Id":0,"Sheet_ID":"5. カシグラン","label":"5. カシグラン","call_short":"G8062 .L8 S200 .J3","call_num":"G8062 .L8 S200 .J3 SHEET 5","recid":"cs945zb5559","websiteUrl":"https://purl.stanford.edu/cs945zb5559","title":"呂宋島附近二十万分一地誌圖","ckey":9689700,"web_map":"","available":"true","iiifUrl":"https://purl.stanford.edu/cs945zb5559/iiif/manifest"},"geometry":{"bbox":[121.00000033333333,15.666667,122.33333366666668,16.666667],"type":"Polygon","coordinates":[[[121.00000033333333,15.666667],[121.00000033333333,16.666667],[122.33333366666668,16.666667],[122.33333366666668,15.666667],[121.00000033333333,15.666667]]]}},{"type":"Feature","properties":{"Id":0,"Sheet_ID":"4. ビガン","label":"4. ビガン","call_short":"G8062 .L8 S200 .J3","call_num":"G8062 .L8 S200 .J3 SHEET 4","recid":"qv618cm2629","websiteUrl":"https://purl.stanford.edu/qv618cm2629","title":"呂宋島附近二十万分一地誌圖","ckey":9689700,"web_map":"","available":"true","iiifUrl":"https://purl.stanford.edu/qv618cm2629/iiif/manifest"},"geometry":{"bbox":[119.66666700000002,16.666667,121.00000033333333,17.666667],"type":"Polygon","coordinates":[[[119.66666700000002,16.666667],[119.66666700000002,17.666667],[121.00000033333333,17.666667],[121.00000033333333,16.666667],[119.66666700000002,16.666667]]]}},{"type":"Feature","properties":{"Id":0,"Sheet_ID":"3. トウゲガラオ","label":"3. トウゲガラオ","call_short":"G8062 .L8 S200 .J3","call_num":"G8062 .L8 S200 .J3 SHEET 3","recid":"xy122cp3909","websiteUrl":"https://purl.stanford.edu/xy122cp3909","title":"呂宋島附近二十万分一地誌圖","ckey":9689700,"web_map":"","available":"true","iiifUrl":"https://purl.stanford.edu/xy122cp3909/iiif/manifest"},"geometry":{"bbox":[121.00000033333333,16.666667000000018,122.50000000000001,17.666667000000018],"type":"Polygon","coordinates":[[[121.00000033333333,16.666667000000018],[121.00000033333333,17.666667000000018],[122.50000000000001,17.666667000000018],[122.50000000000001,16.666667000000018],[121.00000033333333,16.666667000000018]]]}},{"type":"Feature","properties":{"Id":0,"Sheet_ID":"2. ラオアッグ","label":"2. ラオアッグ","call_short":"G8062 .L8 S200 .J3","call_num":"G8062 .L8 S200 .J3 SHEET 2","recid":"rt179dq7503","websiteUrl":"https://purl.stanford.edu/rt179dq7503","title":"呂宋島附近二十万分一地誌圖","ckey":9689700,"web_map":"","available":"true","iiifUrl":"https://purl.stanford.edu/rt179dq7503/iiif/manifest"},"geometry":{"bbox":[119.66666700000002,17.666667,121.00000033333333,18.666667],"type":"Polygon","coordinates":[[[119.66666700000002,17.666667],[119.66666700000002,18.666667],[121.00000033333333,18.666667],[121.00000033333333,17.666667],[119.66666700000002,17.666667]]]}},{"type":"Feature","properties":{"Id":0,"Sheet_ID":"1. アパーリ","label":"1. アパーリ","call_short":"G8062 .L8 S200 .J3","call_num":"G8062 .L8 S200 .J3 SHEET 1","recid":"nm100xb0154","websiteUrl":"https://purl.stanford.edu/nm100xb0154","title":"呂宋島附近二十万分一地誌圖","ckey":9689700,"web_map":"","available":"true","iiifUrl":"https://purl.stanford.edu/nm100xb0154/iiif/manifest"},"geometry":{"bbox":[121.00000033333333,17.666667,122.33333366666668,18.666667],"type":"Polygon","coordinates":[[[121.00000033333333,17.666667],[121.00000033333333,18.666667],[122.33333366666668,18.666667],[122.33333366666668,17.666667],[121.00000033333333,17.666667]]]}}],"name":"index_9689700"}
