{
"type": "FeatureCollection",
"name": "index_map",
"xy_coordinate_resolution": 1e-07,
"features": [
{ "type": "Feature", "properties": { "Id": 0, "Sheet_ID": "SHEET 1", "label": "SHEET 1", "call_short": "G7964 .K35 1946 .J3", "call_num": "G7964 .K35 1946 .J3 SHEET 1", "recid": "wx577hh8703", "websiteUrl": "https://purl.stanford.edu/wx577hh8703", "title": "川崎市全圖", "ckey": 9689710, "available": true, "iiifUrl": "https://purl.stanford.edu/wx577hh8703/iiif/manifest" }, "geometry": { "type": "Polygon", "coordinates": [ [ [ 139.7758821, 35.549095 ], [ 139.728267, 35.5683626 ], [ 139.6964712, 35.4898334 ], [ 139.7441024, 35.4705593 ], [ 139.7758821, 35.549095 ] ] ] } },
{ "type": "Feature", "properties": { "Id": 0, "Sheet_ID": "SHEET 2", "label": "SHEET 2", "call_short": "G7964 .K35 1946 .J3", "call_num": "G7964 .K35 1946 .J3 SHEET 2", "recid": "hg969fg4809", "websiteUrl": "https://purl.stanford.edu/hg969fg4809", "title": "川崎市全圖", "ckey": 9689710, "available": true, "iiifUrl": "https://purl.stanford.edu/hg969fg4809/iiif/manifest" }, "geometry": { "type": "Polygon", "coordinates": [ [ [ 139.728267, 35.5683626 ], [ 139.6602238, 35.5958965 ], [ 139.6284279, 35.5173673 ], [ 139.6964712, 35.4898334 ], [ 139.728267, 35.5683626 ] ] ] } },
{ "type": "Feature", "properties": { "Id": 0, "Sheet_ID": "SHEET 3", "label": "SHEET 3", "call_short": "G7964 .K35 1946 .J3", "call_num": "G7964 .K35 1946 .J3 SHEET 3", "recid": "nx389mc8884", "websiteUrl": "https://purl.stanford.edu/nx389mc8884", "title": "川崎市全圖", "ckey": 9689710, "available": true, "iiifUrl": "https://purl.stanford.edu/nx389mc8884/iiif/manifest" }, "geometry": { "type": "Polygon", "coordinates": [ [ [ 139.6602238, 35.5958965 ], [ 139.5785651, 35.62894 ], [ 139.54678, 35.5504064 ], [ 139.6284279, 35.5173673 ], [ 139.6602238, 35.5958965 ] ] ] } },
{ "type": "Feature", "properties": { "Id": 0, "Sheet_ID": "SHEET 5", "label": "SHEET 5", "call_short": "G7964 .K35 1946 .J3", "call_num": "G7964 .K35 1946 .J3 SHEET 5", "recid": "jt605fd6291", "websiteUrl": "https://purl.stanford.edu/jt605fd6291", "title": "川崎市全圖", "ckey": 9689710, "available": true, "iiifUrl": "https://purl.stanford.edu/jt605fd6291/iiif/manifest" }, "geometry": { "type": "Polygon", "coordinates": [ [ [ 139.4696644, 35.6729998 ], [ 139.4378847, 35.5944678 ], [ 139.4651094, 35.5834512 ], [ 139.4969054, 35.6619805 ], [ 139.4696644, 35.6729998 ] ] ] } },
{ "type": "Feature", "properties": { "Id": 0, "Sheet_ID": "SHEET 4", "label": "SHEET 4", "call_short": "G7964 .K35 1946 .J3", "call_num": "G7964 .K35 1946 .J3 SHEET 4", "recid": "fd636rc1432", "websiteUrl": "https://purl.stanford.edu/fd636rc1432", "title": "川崎市全圖", "ckey": 9689710, "available": true, "iiifUrl": "https://purl.stanford.edu/fd636rc1432/iiif/manifest" }, "geometry": { "type": "Polygon", "coordinates": [ [ [ 139.5785651, 35.62894 ], [ 139.4969065, 35.6619834 ], [ 139.4651214, 35.5834498 ], [ 139.5467693, 35.5504107 ], [ 139.5785651, 35.62894 ] ] ] } }
]
}
