{
"type": "FeatureCollection",
"name": "index_map",
"xy_coordinate_resolution": 1e-07,
"features": [
{ "type": "Feature", "properties": { "Id": 0, "Sheet_ID": "壹壹イ134. モロタイ島西南部", "label": "壹壹イ134. モロタイ島西南部", "call_short": "G8132 .H3 S100 .J3", "call_num": "G8132 .H3 S100 .J3 11I-134", "recid": "zt434st7923", "websiteUrl": "https://purl.stanford.edu/zt434st7923", "title": "空中寫真測圖要圖 ハルマヘラ島十万分一", "ckey": 10557550, "available": true, "iiifUrl": "https://purl.stanford.edu/zt434st7923/iiif/manifest" }, "geometry": { "type": "Polygon", "coordinates": [ [ [ 128.0, 2.0 ], [ 128.5, 2.0 ], [ 128.5, 2.333333 ], [ 128.0, 2.333333 ], [ 128.0, 2.0 ] ] ] } },
{ "type": "Feature", "properties": { "Id": 0, "Sheet_ID": "壹壹イ124. モロタイ島東南部", "label": "壹壹イ124. モロタイ島東南部", "call_short": "G8132 .H3 S100 .J3", "call_num": "G8132 .H3 S100 .J3 11I-124", "recid": "gf930kv0405", "websiteUrl": "https://purl.stanford.edu/gf930kv0405", "title": "空中寫真測圖要圖 ハルマヘラ島十万分一", "ckey": 10557550, "available": true, "iiifUrl": "https://purl.stanford.edu/gf930kv0405/iiif/manifest" }, "geometry": { "type": "Polygon", "coordinates": [ [ [ 128.5, 2.0 ], [ 129.0, 2.0 ], [ 129.0, 2.333333 ], [ 128.5, 2.333333 ], [ 128.5, 2.0 ] ] ] } },
{ "type": "Feature", "properties": { "Id": 0, "Sheet_ID": "壹壹イ159. ティドレ島南部", "label": "壹壹イ159. ティドレ島南部", "call_short": null, "call_num": null, "recid": null, "websiteUrl": null, "title": null, "ckey": 0, "available": false, "iiifUrl": null }, "geometry": { "type": "Polygon", "coordinates": [ [ [ 127.0, 0.333333 ], [ 127.5, 0.333333 ], [ 127.5, 0.6666663 ], [ 127.0, 0.6666663 ], [ 127.0, 0.333333 ] ] ] } },
{ "type": "Feature", "properties": { "Id": 0, "Sheet_ID": "壹壹イ149. ウイマドエ岬", "label": "壹壹イ149. ウイマドエ岬", "call_short": "G8132 .H3 S100 .J3", "call_num": "G8132 .H3 S100 .J3 11I-149", "recid": "vc092pp3573", "websiteUrl": "https://purl.stanford.edu/vc092pp3573", "title": "空中寫真測圖要圖 ハルマヘラ島十万分一", "ckey": 10557550, "available": true, "iiifUrl": "https://purl.stanford.edu/vc092pp3573/iiif/manifest" }, "geometry": { "type": "Polygon", "coordinates": [ [ [ 127.5, 0.333333 ], [ 128.0, 0.333333 ], [ 128.0, 0.6666663 ], [ 127.5, 0.6666663 ], [ 127.5, 0.333333 ] ] ] } },
{ "type": "Feature", "properties": { "Id": 0, "Sheet_ID": "壹壹イ158. テルナテ島", "label": "壹壹イ158. テルナテ島", "call_short": "G8132 .H3 S100 .J3", "call_num": "G8132 .H3 S100 .J3 11I-158", "recid": "pk638xv5201", "websiteUrl": "https://purl.stanford.edu/pk638xv5201", "title": "空中寫真測圖要圖 ハルマヘラ島十万分一", "ckey": 10557550, "available": true, "iiifUrl": "https://purl.stanford.edu/pk638xv5201/iiif/manifest" }, "geometry": { "type": "Polygon", "coordinates": [ [ [ 127.0, 0.6666663 ], [ 127.5, 0.6666663 ], [ 127.5, 0.9999997 ], [ 127.0, 0.9999997 ], [ 127.0, 0.6666663 ] ] ] } },
{ "type": "Feature", "properties": { "Id": 0, "Sheet_ID": "壹壹イ148. アケラモ", "label": "壹壹イ148. アケラモ", "call_short": "G8132 .H3 S100 .J3", "call_num": "G8132 .H3 S100 .J3 11I-148", "recid": "ms234fw3322", "websiteUrl": "https://purl.stanford.edu/ms234fw3322", "title": "空中寫真測圖要圖 ハルマヘラ島十万分一", "ckey": 10557550, "available": true, "iiifUrl": "https://purl.stanford.edu/ms234fw3322/iiif/manifest" }, "geometry": { "type": "Polygon", "coordinates": [ [ [ 127.5, 0.6666663 ], [ 128.0, 0.6666663 ], [ 128.0, 0.9999997 ], [ 127.5, 0.9999997 ], [ 127.5, 0.6666663 ] ] ] } },
{ "type": "Feature", "properties": { "Id": 0, "Sheet_ID": "壹壹イ157. ジャイロロ", "label": "壹壹イ157. ジャイロロ", "call_short": "G8132 .H3 S100 .J3", "call_num": "G8132 .H3 S100 .J3 11I-157", "recid": "kk119rx7672", "websiteUrl": "https://purl.stanford.edu/kk119rx7672", "title": "空中寫真測圖要圖 ハルマヘラ島十万分一", "ckey": 10557550, "available": true, "iiifUrl": "https://purl.stanford.edu/kk119rx7672/iiif/manifest" }, "geometry": { "type": "Polygon", "coordinates": [ [ [ 127.0, 0.9999997 ], [ 127.5, 0.9999997 ], [ 127.5, 1.333333 ], [ 127.0, 1.333333 ], [ 127.0, 0.9999997 ] ] ] } },
{ "type": "Feature", "properties": { "Id": 0, "Sheet_ID": "壹壹イ147. トムリア山", "label": "壹壹イ147. トムリア山", "call_short": null, "call_num": null, "recid": null, "websiteUrl": null, "title": null, "ckey": 0, "available": false, "iiifUrl": null }, "geometry": { "type": "Polygon", "coordinates": [ [ [ 127.5, 0.9999997 ], [ 128.0, 0.9999997 ], [ 128.0, 1.333333 ], [ 127.5, 1.333333 ], [ 127.5, 0.9999997 ] ] ] } }
]
}
