{"type":"FeatureCollection","features":[{"type":"Feature","properties":{"Id":0,"Sheet_ID":"8. ディゴス西部","label":"8. ディゴス西部","call_short":"G8064 .D245 S50 .J3","call_num":"G8064 .D245 S50 .J3 SHEET 8","recid":"zh828kt2136","websiteUrl":"https://purl.stanford.edu/zh828kt2136","title":"ダバオ近傍圖","ckey":10532136,"web_map":"","available":"true","iiifUrl":"https://purl.stanford.edu/zh828kt2136/iiif/manifest"},"geometry":{"bbox":[125.00000000000001,6.666667,125.25,6.8333335],"type":"Polygon","coordinates":[[[125.00000000000001,6.666667],[125.00000000000001,6.8333335],[125.25,6.8333335],[125.25,6.666667],[125.00000000000001,6.666667]]]}},{"type":"Feature","properties":{"Id":0,"Sheet_ID":"7. ディゴス","label":"7. ディゴス","call_short":"G8064 .D245 S50 .J3","call_num":"G8064 .D245 S50 .J3 SHEET 7","recid":"ww531pg8163","websiteUrl":"https://purl.stanford.edu/ww531pg8163","title":"ダバオ近傍圖","ckey":10532136,"web_map":"","available":"true","iiifUrl":"https://purl.stanford.edu/ww531pg8163/iiif/manifest"},"geometry":{"bbox":[125.25,6.666667,125.5,6.8333335],"type":"Polygon","coordinates":[[[125.25,6.666667],[125.25,6.8333335],[125.5,6.8333335],[125.5,6.666667],[125.25,6.666667]]]}},{"type":"Feature","properties":{"Id":0,"Sheet_ID":"6. アポ山","label":"6. アポ山","call_short":"G8064 .D245 S50 .J3","call_num":"G8064 .D245 S50 .J3 SHEET 6","recid":"ff398nq3366","websiteUrl":"https://purl.stanford.edu/ff398nq3366","title":"ダバオ近傍圖","ckey":10532136,"web_map":"","available":"true","iiifUrl":"https://purl.stanford.edu/ff398nq3366/iiif/manifest"},"geometry":{"bbox":[125.25,6.8333335,125.5,7],"type":"Polygon","coordinates":[[[125.25,6.8333335],[125.25,7],[125.5,7],[125.5,6.8333335],[125.25,6.8333335]]]}},{"type":"Feature","properties":{"Id":0,"Sheet_ID":"4. サマル島南部","label":"4. サマル島南部","call_short":"G8064 .D245 S50 .J3","call_num":"G8064 .D245 S50 .J3 SHEET 4","recid":"zs508nd4169","websiteUrl":"https://purl.stanford.edu/zs508nd4169","title":"ダバオ近傍圖","ckey":10532136,"web_map":"","available":"true","iiifUrl":"https://purl.stanford.edu/zs508nd4169/iiif/manifest"},"geometry":{"bbox":[125.58333300000005,6.833333500000094,125.83333300000004,7.000000000000114],"type":"Polygon","coordinates":[[[125.58333300000005,6.833333500000094],[125.58333300000005,7.000000000000114],[125.83333300000004,7.000000000000114],[125.83333300000004,6.833333500000094],[125.58333300000005,6.833333500000094]]]}},{"type":"Feature","properties":{"Id":0,"Sheet_ID":"5. 吉田山","label":"5. 吉田山","call_short":"G8064 .D245 S50 .J3","call_num":"G8064 .D245 S50 .J3 SHEET 5","recid":"bt394cv2922","websiteUrl":"https://purl.stanford.edu/bt394cv2922","title":"ダバオ近傍圖","ckey":10532136,"web_map":"","available":"true","iiifUrl":"https://purl.stanford.edu/bt394cv2922/iiif/manifest"},"geometry":{"bbox":[125.25,7,125.5,7.166666500000001],"type":"Polygon","coordinates":[[[125.25,7],[125.25,7.166666500000001],[125.5,7.166666500000001],[125.5,7],[125.25,7]]]}},{"type":"Feature","properties":{"Id":0,"Sheet_ID":"3. ダバオ","label":"3. ダバオ","call_short":"G8064 .D245 S50 .J3","call_num":"G8064 .D245 S50 .J3 SHEET 3","recid":"qc332sy1729","websiteUrl":"https://purl.stanford.edu/qc332sy1729","title":"ダバオ近傍圖","ckey":10532136,"web_map":"","available":"true","iiifUrl":"https://purl.stanford.edu/qc332sy1729/iiif/manifest"},"geometry":{"bbox":[125.5,7,125.74999999999999,7.166666500000001],"type":"Polygon","coordinates":[[[125.5,7],[125.5,7.166666500000001],[125.74999999999999,7.166666500000001],[125.74999999999999,7],[125.5,7]]]}},{"type":"Feature","properties":{"Id":0,"Sheet_ID":"1. サマル島東北部","label":"1. サマル島東北部","call_short":"G8064 .D245 S50 .J3","call_num":"G8064 .D245 S50 .J3 SHEET 1","recid":"nt236fh7803","websiteUrl":"https://purl.stanford.edu/nt236fh7803","title":"ダバオ近傍圖","ckey":10532136,"web_map":"","available":"true","iiifUrl":"https://purl.stanford.edu/nt236fh7803/iiif/manifest"},"geometry":{"bbox":[125.74999999999999,7,126,7.166666500000001],"type":"Polygon","coordinates":[[[125.74999999999999,7],[125.74999999999999,7.166666500000001],[126,7.166666500000001],[126,7],[125.74999999999999,7]]]}},{"type":"Feature","properties":{"Id":0,"Sheet_ID":"2. テブンコ","label":"2. テブンコ","call_short":"G8064 .D245 S50 .J3","call_num":"G8064 .D245 S50 .J3 SHEET 2","recid":"qs945pv4099","websiteUrl":"https://purl.stanford.edu/qs945pv4099","title":"ダバオ近傍圖","ckey":10532136,"web_map":"","available":"true","iiifUrl":"https://purl.stanford.edu/qs945pv4099/iiif/manifest"},"geometry":{"bbox":[125.5,7.166666500000001,125.74999999999999,7.3333330000000005],"type":"Polygon","coordinates":[[[125.5,7.166666500000001],[125.5,7.3333330000000005],[125.74999999999999,7.3333330000000005],[125.74999999999999,7.166666500000001],[125.5,7.166666500000001]]]}}],"name":"index_10532136"}
