{
"type": "FeatureCollection",
"name": "index_map",
"features": [
{ "type": "Feature", "properties": { "Id": 0, "Sheet_ID": "其1. EAST", "label": "其1. EAST", "call_short": "G7330 1941 .J3", "call_num": "G7330 1941 .J3 EAST", "recid": "yd570gt8270", "websiteUrl": "https://purl.stanford.edu/yd570gt8270", "title": "五十万分一薩哈嗹州附近素圖", "ckey": 9229964, "available": true, "iiifUrl": "https://purl.stanford.edu/yd570gt8270/iiif/manifest" }, "geometry": { "type": "Polygon", "coordinates": [ [ [ 140.0, 50.0 ], [ 144.5, 50.0 ], [ 144.5, 54.5 ], [ 140.0, 54.5 ], [ 140.0, 50.0 ] ] ] } },
{ "type": "Feature", "properties": { "Id": 0, "Sheet_ID": "其2. WEST", "label": "其2. WEST", "call_short": "G7330 1941 .J3", "call_num": "G7330 1941 .J3 WEST", "recid": "zg109gd4320", "websiteUrl": "https://purl.stanford.edu/zg109gd4320", "title": "五十万分一薩哈嗹附近素圖", "ckey": 9229964, "available": true, "iiifUrl": "https://purl.stanford.edu/zg109gd4320/iiif/manifest" }, "geometry": { "type": "Polygon", "coordinates": [ [ [ 140.0, 50.0 ], [ 140.0, 53.25 ], [ 135.0, 53.25 ], [ 135.0, 50.0 ], [ 140.0, 50.0 ] ] ] } }
]
}
