{
"type": "FeatureCollection",
"name": "index_map",
"xy_coordinate_resolution": 1e-07,
"features": [
{ "type": "Feature", "properties": { "Id": 0, "Sheet_ID": "ウトコロカ", "label": "ウトコロカ", "call_short": "G7322 .K3 .J32", "call_num": "G7322 .K3 .J32", "recid": "xz719kc0009", "websiteUrl": "https://purl.stanford.edu/xz719kc0009", "title": "ウトコロカ", "ckey": 11392327, "available": "true", "iiifUrl": "https://purl.stanford.edu/xz719kc0009/iiif/manifest" }, "geometry": { "type": "Polygon", "coordinates": [ [ [ 156.2143217, 57.0967795 ], [ 156.9093722, 56.5652441 ], [ 157.6687085, 57.5581732 ], [ 156.9736581, 58.0897087 ], [ 156.2143217, 57.0967795 ] ] ] } }
]
}
