{
"type": "FeatureCollection",
"name": "index_map",
"xy_coordinate_resolution": 1e-07,
"features": [
{ "type": "Feature", "properties": { "Id": 0, "Sheet_ID": "4. ゴオレームス", "label": "4. ゴオレームス", "call_short": "G7064 .S6635 1908 .J3 1947", "call_num": "G7064 .S6635 1908 .J3 1947 SHEET 4", "recid": "qx723mb6880", "websiteUrl": "https://purl.stanford.edu/qx723mb6880", "title": "一万分一「ソロウェーヨフカ」近傍", "ckey": 10642358, "available": true, "iiifUrl": "https://purl.stanford.edu/qx723mb6880/iiif/manifest" }, "geometry": { "type": "Polygon", "coordinates": [ [ [ 142.713889, 46.729167 ], [ 142.755556, 46.729167 ], [ 142.755556, 46.770833 ], [ 142.713889, 46.770833 ], [ 142.713889, 46.729167 ] ] ] } },
{ "type": "Feature", "properties": { "Id": 0, "Sheet_ID": "3. ミツリヨフカ", "label": "3. ミツリヨフカ", "call_short": "G7064 .S6635 1908 .J3 1947", "call_num": "G7064 .S6635 1908 .J3 1947 SHEET 3", "recid": "zz587xw2710", "websiteUrl": "https://purl.stanford.edu/zz587xw2710", "title": "一万分一「ソロウェーヨフカ」近傍", "ckey": 10642358, "available": true, "iiifUrl": "https://purl.stanford.edu/zz587xw2710/iiif/manifest" }, "geometry": { "type": "Polygon", "coordinates": [ [ [ 142.713889, 46.7708337 ], [ 142.755556, 46.7708337 ], [ 142.755556, 46.8124997 ], [ 142.713889, 46.8124997 ], [ 142.713889, 46.7708337 ] ] ] } },
{ "type": "Feature", "properties": { "Id": 0, "Sheet_ID": "1. ミツリヨフカ東部", "label": "1. ミツリヨフカ東部", "call_short": "G7064 .S6635 1908 .J3 1947", "call_num": "G7064 .S6635 1908 .J3 1947 SHEET 1", "recid": "gw752gv2909", "websiteUrl": "https://purl.stanford.edu/gw752gv2909", "title": "一万分一「ソロウェーヨフカ」近傍", "ckey": 10642358, "available": true, "iiifUrl": "https://purl.stanford.edu/gw752gv2909/iiif/manifest" }, "geometry": { "type": "Polygon", "coordinates": [ [ [ 142.7555557, 46.7708337 ], [ 142.783333, 46.7708337 ], [ 142.783333, 46.8124997 ], [ 142.7555557, 46.8124997 ], [ 142.7555557, 46.7708337 ] ] ] } },
{ "type": "Feature", "properties": { "Id": 0, "Sheet_ID": "2. ゴオレームス東部", "label": "2. ゴオレームス東部", "call_short": "G7064 .S6635 1908 .J3 1947", "call_num": "G7064 .S6635 1908 .J3 1947 SHEET 2", "recid": "vh551hy2183", "websiteUrl": "https://purl.stanford.edu/vh551hy2183", "title": "一万分一「ソロウェーヨフカ」近傍", "ckey": 10642358, "available": true, "iiifUrl": "https://purl.stanford.edu/vh551hy2183/iiif/manifest" }, "geometry": { "type": "Polygon", "coordinates": [ [ [ 142.7555557, 46.729167 ], [ 142.783333, 46.729167 ], [ 142.783333, 46.770833 ], [ 142.7555557, 46.770833 ], [ 142.7555557, 46.729167 ] ] ] } },
{ "type": "Feature", "properties": { "Id": 0, "Sheet_ID": "5. ソロウェーヨフカ", "label": "5. ソロウェーヨフカ", "call_short": "G7064 .S6635 1908 .J3 1947", "call_num": "G7064 .S6635 1908 .J3 1947 SHEET 5", "recid": "mr187dw8948", "websiteUrl": "https://purl.stanford.edu/mr187dw8948", "title": "一万分一「ソロウェーヨフカ」近傍", "ckey": 10642358, "available": true, "iiifUrl": "https://purl.stanford.edu/mr187dw8948/iiif/manifest" }, "geometry": { "type": "Polygon", "coordinates": [ [ [ 142.713889, 46.695833 ], [ 142.769444, 46.695833 ], [ 142.769444, 46.7291663 ], [ 142.713889, 46.7291663 ], [ 142.713889, 46.695833 ] ] ] } }
]
}
