{
"type": "FeatureCollection",
"name": "index_map",
"features": [
{ "type": "Feature", "properties": { "Id": 0, "Sheet_ID": "壹八チ501 ナウゴング", "label": "壹八チ501 ナウゴング", "call_short": "G7650 S500 .J3", "call_num": "G7650 S500 .J3 18CHI501", "recid": "xd158st2128", "websiteUrl": "https://purl.stanford.edu/xd158st2128", "title": "印度緬甸五十万分一圖", "ckey": 10660657, "available": true, "iiifUrl": "https://purl.stanford.edu/xd158st2128/iiif/manifest" }, "geometry": { "type": "Polygon", "coordinates": [ [ [ 92.5, 25.0 ], [ 95.0, 25.0 ], [ 95.0, 26.666667 ], [ 92.5, 26.666667 ], [ 92.5, 25.0 ] ] ] } },
{ "type": "Feature", "properties": { "Id": 0, "Sheet_ID": "壹八チ501 ED.2 ノウゴン", "label": "壹八チ501 ED.2 ノウゴン", "call_short": "G7650 S500 .J3", "call_num": "G7650 S500 .J3 18CHI501 ED.2", "recid": "cp658dc5060", "websiteUrl": "https://purl.stanford.edu/cp658dc5060", "title": "印度緬甸五十万分一圖", "ckey": 10660657, "available": true, "iiifUrl": "https://purl.stanford.edu/cp658dc5060/iiif/manifest" }, "geometry": { "type": "Polygon", "coordinates": [ [ [ 92.5, 25.0 ], [ 95.0, 25.0 ], [ 95.0, 26.666667 ], [ 92.5, 26.666667 ], [ 92.5, 25.0 ] ] ] } }
]
}
