{"type":"FeatureCollection","features":[{"type":"Feature","properties":{"Id":0,"Sheet_ID":"SHEET 2","label":"SHEET 2","call_short":"G8132 .A7 1944 .J3","call_num":"G8132 .A7 1944 .J3 SHEET 2","recid":"fn347cz8789","websiteUrl":"https://purl.stanford.edu/fn347cz8789","title":"アル諸島 / 十万分一陸海編合圖","ckey":10648493,"web_map":"","available":"true","iiifUrl":"https://purl.stanford.edu/fn347cz8789/iiif/manifest"},"geometry":{"bbox":[134,-7.116667,134.916667,-6.333333],"type":"Polygon","coordinates":[[[134,-7.116667],[134,-6.333333],[134.916667,-6.333333],[134.916667,-7.116667],[134,-7.116667]]]}},{"type":"Feature","properties":{"Id":0,"Sheet_ID":"SHEET 1","label":"SHEET 1","call_short":"","call_num":"","recid":"","websiteUrl":"","title":"","ckey":0,"web_map":"","available":"false","iiifUrl":""},"geometry":{"bbox":[134,-6.333333,134.5,-5.650000000000001],"type":"Polygon","coordinates":[[[134,-6.333333],[134,-5.650000000000001],[134.5,-5.650000000000001],[134.5,-6.333333],[134,-6.333333]]]}}],"name":"index_10648493"}
