{
"type": "FeatureCollection",
"name": "index_map",
"features": [
{ "type": "Feature", "properties": { "Id": 0, "Sheet_ID": "ウルムチ", "label": "ウルムチ", "call_short": "G7824 .U5 1938 .J3", "call_num": "G7824 .U5 1938 .J3", "recid": "tr802by9969", "websiteUrl": "https://purl.stanford.edu/tr802by9969", "title": "新疆省迪化市街圖 (ウルムチ)", "ckey": 9680839, "available": true, "iiifUrl": "https://purl.stanford.edu/tr802by9969/iiif/manifest" }, "geometry": { "type": "Polygon", "coordinates": [ [ [ 87.533333, 43.766667 ], [ 87.641667, 43.766667 ], [ 87.641667, 43.866667 ], [ 87.533333, 43.866667 ], [ 87.533333, 43.766667 ] ] ] } }
]
}
