{"type":"FeatureCollection","features":[{"type":"Feature","properties":{"Id":0,"Sheet_ID":"大隅列島 -1 種子島北部","label":"大隅列島 -1 種子島北部","call_short":"G7962 .R9 S50 .J3","call_num":"G7962 .R9 S50 .J3 SHEET 1-1","recid":"hk480gv9811","websiteUrl":"https://purl.stanford.edu/hk480gv9811","title":"五万分一南西諸島陸海編合圖","ckey":10550669,"web_map":"","available":"true","iiifUrl":"https://purl.stanford.edu/hk480gv9811/iiif/manifest"},"geometry":{"bbox":[130.816667,30.541667000000004,131.1,30.9],"type":"Polygon","coordinates":[[[130.816667,30.541667000000004],[130.816667,30.9],[131.1,30.9],[131.1,30.541667000000004],[130.816667,30.541667000000004]]]}},{"type":"Feature","properties":{"Id":0,"Sheet_ID":"大隅列島 -2 種子島南部","label":"大隅列島 -2 種子島南部","call_short":"G7962 .R9 S50 .J3","call_num":"G7962 .R9 S50 .J3 SHEET 1-2","recid":"vq166dx7083","websiteUrl":"https://purl.stanford.edu/vq166dx7083","title":"五万分一南西諸島陸海編合圖","ckey":10550669,"web_map":"","available":"true","iiifUrl":"https://purl.stanford.edu/vq166dx7083/iiif/manifest"},"geometry":{"bbox":[130.81666700000028,30.183333000000005,131.10000000000002,30.541667000000015],"type":"Polygon","coordinates":[[[130.81666700000028,30.183333000000005],[130.81666700000028,30.541667000000015],[131.10000000000002,30.541667000000015],[131.10000000000002,30.183333000000005],[130.81666700000028,30.183333000000005]]]}},{"type":"Feature","properties":{"Id":0,"Sheet_ID":"大隅列島 -3 屋久島及口永良部島","label":"大隅列島 -3 屋久島及口永良部島","call_short":"G7962 .R9 S50 .J3","call_num":"G7962 .R9 S50 .J3 SHEET 1-3","recid":"yc577sc7361","websiteUrl":"https://purl.stanford.edu/yc577sc7361","title":"五万分一南西諸島陸海編合圖","ckey":10550669,"web_map":"","available":"true","iiifUrl":"https://purl.stanford.edu/yc577sc7361/iiif/manifest"},"geometry":{"bbox":[130.1416670000001,30.183333000000005,130.68333300000006,30.5166670000001],"type":"Polygon","coordinates":[[[130.1416670000001,30.183333000000005],[130.1416670000001,30.5166670000001],[130.68333300000006,30.5166670000001],[130.68333300000006,30.183333000000005],[130.1416670000001,30.183333000000005]]]}},{"type":"Feature","properties":{"Id":0,"Sheet_ID":"奄美群島 -1 大島東部","label":"奄美群島 -1 大島東部","call_short":"G7962 .R9 S50 .J3","call_num":"G7962 .R9 S50 .J3 SHEET 2-1","recid":"kc881fy7193","websiteUrl":"https://purl.stanford.edu/kc881fy7193","title":"五万分一南西諸島陸海編合圖","ckey":10550669,"web_map":"","available":"true","iiifUrl":"https://purl.stanford.edu/kc881fy7193/iiif/manifest"},"geometry":{"bbox":[129.491667,28.233333000000073,129.7583330000001,28.616667000000064],"type":"Polygon","coordinates":[[[129.491667,28.233333000000073],[129.491667,28.616667000000064],[129.7583330000001,28.616667000000064],[129.7583330000001,28.233333000000073],[129.491667,28.233333000000073]]]}},{"type":"Feature","properties":{"Id":0,"Sheet_ID":"奄美群島 -2 大島西部","label":"奄美群島 -2 大島西部","call_short":"G7962 .R9 S50 .J3","call_num":"G7962 .R9 S50 .J3 SHEET 2-2","recid":"qx750xg7288","websiteUrl":"https://purl.stanford.edu/qx750xg7288","title":"五万分一南西諸島陸海編合圖","ckey":10550669,"web_map":"","available":"true","iiifUrl":"https://purl.stanford.edu/qx750xg7288/iiif/manifest"},"geometry":{"bbox":[129.133333,27.966666999999973,129.491667,28.433332999999948],"type":"Polygon","coordinates":[[[129.133333,27.966666999999973],[129.133333,28.433332999999948],[129.491667,28.433332999999948],[129.491667,27.966666999999973],[129.133333,27.966666999999973]]]}},{"type":"Feature","properties":{"Id":0,"Sheet_ID":"奄美群島 -3 徳之島","label":"奄美群島 -3 徳之島","call_short":"G7962 .R9 S50 .J3","call_num":"G7962 .R9 S50 .J3 SHEET 2-3","recid":"rm740nj1077","websiteUrl":"https://purl.stanford.edu/rm740nj1077","title":"五万分一南西諸島陸海編合圖","ckey":10550669,"web_map":"","available":"true","iiifUrl":"https://purl.stanford.edu/rm740nj1077/iiif/manifest"},"geometry":{"bbox":[128.83333300000015,27.61666700000012,129.10000000000014,27.941667000000052],"type":"Polygon","coordinates":[[[128.83333300000015,27.61666700000012],[128.83333300000015,27.941667000000052],[129.10000000000014,27.941667000000052],[129.10000000000014,27.61666700000012],[128.83333300000015,27.61666700000012]]]}},{"type":"Feature","properties":{"Id":0,"Sheet_ID":"沖縄群島 -1 沖縄島東部","label":"沖縄群島 -1 沖縄島東部","call_short":"G7962 .R9 S50 .J3","call_num":"G7962 .R9 S50 .J3 SHEET 3-1","recid":"vx836dj6133","websiteUrl":"https://purl.stanford.edu/vx836dj6133","title":"五万分一南西諸島陸海編合圖","ckey":10550669,"web_map":"","available":"true","iiifUrl":"https://purl.stanford.edu/vx836dj6133/iiif/manifest"},"geometry":{"bbox":[128.0333330000002,26.466667000000086,128.3833330000001,26.916667000000135],"type":"Polygon","coordinates":[[[128.0333330000002,26.466667000000086],[128.0333330000002,26.916667000000135],[128.3833330000001,26.916667000000135],[128.3833330000001,26.466667000000086],[128.0333330000002,26.466667000000086]]]}},{"type":"Feature","properties":{"Id":0,"Sheet_ID":"沖縄群島 -2 沖縄島中部","label":"沖縄群島 -2 沖縄島中部","call_short":"G7962 .R9 S50 .J3","call_num":"G7962 .R9 S50 .J3 SHEET 3-2","recid":"xv177vd0056","websiteUrl":"https://purl.stanford.edu/xv177vd0056","title":"五万分一南西諸島陸海編合圖","ckey":10550669,"web_map":"","available":"true","iiifUrl":"https://purl.stanford.edu/xv177vd0056/iiif/manifest"},"geometry":{"bbox":[127.66666699999998,26.38333299999994,128.0333330000002,26.833332999999982],"type":"Polygon","coordinates":[[[127.66666699999998,26.38333299999994],[127.66666699999998,26.833332999999982],[128.03333300000008,26.833332999999982],[128.0333330000002,26.38333299999994],[127.66666699999998,26.38333299999994]]]}},{"type":"Feature","properties":{"Id":0,"Sheet_ID":"沖縄群島 -3 沖縄島南部","label":"沖縄群島 -3 沖縄島南部","call_short":"G7962 .R9 S50 .J3","call_num":"G7962 .R9 S50 .J3 SHEET 3-3","recid":"gv136zm7164","websiteUrl":"https://purl.stanford.edu/gv136zm7164","title":"五万分一南西諸島陸海編合圖","ckey":10550669,"web_map":"","available":"true","iiifUrl":"https://purl.stanford.edu/gv136zm7164/iiif/manifest"},"geometry":{"bbox":[127.51666699999998,26.050000000000125,128.03333300000008,26.38333299999994],"type":"Polygon","coordinates":[[[127.51666699999998,26.050000000000125],[127.51666699999998,26.38333299999994],[128.03333300000008,26.38333299999994],[128.03333300000008,26.050000000000125],[127.51666699999998,26.050000000000125]]]}},{"type":"Feature","properties":{"Id":0,"Sheet_ID":"沖縄群島 -4 慶良間列島","label":"沖縄群島 -4 慶良間列島","call_short":"G7962 .R9 S50 .J3","call_num":"G7962 .R9 S50 .J3 SHEET 3-4","recid":"qw109gv1714","websiteUrl":"https://purl.stanford.edu/qw109gv1714","title":"五万分一南西諸島陸海編合圖","ckey":10550669,"web_map":"","available":"true","iiifUrl":"https://purl.stanford.edu/qw109gv1714/iiif/manifest"},"geometry":{"bbox":[127.00000000000001,26.099999999999966,127.51666699999998,26.416667000000075],"type":"Polygon","coordinates":[[[127.00000000000001,26.099999999999966],[127.00000000000001,26.416667000000075],[127.51666699999998,26.416667000000075],[127.51666699999998,26.099999999999966],[127.00000000000001,26.099999999999966]]]}},{"type":"Feature","properties":{"Id":0,"Sheet_ID":"沖縄群島 -5 久米島","label":"沖縄群島 -5 久米島","call_short":"G7962 .R9 S50 .J3","call_num":"G7962 .R9 S50 .J3 SHEET 3-5","recid":"dp521vy1155","websiteUrl":"https://purl.stanford.edu/dp521vy1155","title":"五万分一南西諸島陸海編合圖","ckey":10550669,"web_map":"","available":"true","iiifUrl":"https://purl.stanford.edu/dp521vy1155/iiif/manifest"},"geometry":{"bbox":[126.66666699999996,26.26666700000004,127.00000000000001,26.633333000000107],"type":"Polygon","coordinates":[[[126.66666699999996,26.26666700000004],[126.66666699999996,26.633333000000107],[127.00000000000001,26.633333000000107],[127.00000000000001,26.26666700000004],[126.66666699999996,26.26666700000004]]]}},{"type":"Feature","properties":{"Id":0,"Sheet_ID":"先島群島 -1 宮古島及伊良部島","label":"先島群島 -1 宮古島及伊良部島","call_short":"G7962 .R9 S50 .J3","call_num":"G7962 .R9 S50 .J3 SHEET 4-1","recid":"jq533nm7821","websiteUrl":"https://purl.stanford.edu/jq533nm7821","title":"五万分一南西諸島陸海編合圖","ckey":10550669,"web_map":"","available":"true","iiifUrl":"https://purl.stanford.edu/jq533nm7821/iiif/manifest"},"geometry":{"bbox":[125.125,24.666667000000018,125.5,25.116667000000064],"type":"Polygon","coordinates":[[[125.125,24.666667000000018],[125.125,25.116667000000064],[125.5,25.116667000000064],[125.5,24.666667000000018],[125.125,24.666667000000018]]]}},{"type":"Feature","properties":{"Id":0,"Sheet_ID":"先島群島 -2 石垣島","label":"先島群島 -2 石垣島","call_short":"","call_num":"","recid":"","websiteUrl":"","title":"","ckey":0,"web_map":"","available":"false","iiifUrl":""},"geometry":{"bbox":[124.00000000000013,24.166667000000132,124.41666699999998,24.700000000000045],"type":"Polygon","coordinates":[[[124.00000000000013,24.166667000000132],[124.00000000000013,24.700000000000045],[124.41666699999998,24.700000000000045],[124.41666699999998,24.166667000000132],[124.00000000000013,24.166667000000132]]]}},{"type":"Feature","properties":{"Id":0,"Sheet_ID":"先島群島 -3 西表島","label":"先島群島 -3 西表島","call_short":"G7962 .R9 S50 .J3","call_num":"G7962 .R9 S50 .J3 SHEET 4-3","recid":"sp737fz8713","websiteUrl":"https://purl.stanford.edu/sp737fz8713","title":"五万分一南西諸島陸海編合圖","ckey":10550669,"web_map":"","available":"true","iiifUrl":"https://purl.stanford.edu/sp737fz8713/iiif/manifest"},"geometry":{"bbox":[123.64999999999996,24.033333000000084,124.00000000000013,24.48333300000013],"type":"Polygon","coordinates":[[[123.64999999999996,24.033333000000084],[123.64999999999996,24.48333300000013],[124.00000000000013,24.48333300000013],[124.00000000000013,24.033333000000084],[123.64999999999996,24.033333000000084]]]}},{"type":"Feature","properties":{"Id":0,"Sheet_ID":"大東島近傍 - 北大東島及南大東島","label":"大東島近傍 - 北大東島及南大東島","call_short":"G7962 .R9 S50 .J3","call_num":"G7962 .R9 S50 .J3 SHEET 5","recid":"qk950rb2173","websiteUrl":"https://purl.stanford.edu/qk950rb2173","title":"五万分一南西諸島陸海編合圖","ckey":10550669,"web_map":"","available":"true","iiifUrl":"https://purl.stanford.edu/qk950rb2173/iiif/manifest"},"geometry":{"bbox":[131.16666699999996,25.775000000000034,131.35833300000013,26.000000000000057],"type":"Polygon","coordinates":[[[131.16666699999996,25.775000000000034],[131.16666699999996,26.000000000000057],[131.35833300000013,26.000000000000057],[131.35833300000013,25.775000000000034],[131.16666699999996,25.775000000000034]]]}},{"type":"Feature","properties":{"Id":0,"Sheet_ID":"沖縄群島 -1 伊平屋島","label":"沖縄群島 -1 伊平屋島","call_short":"G7962 .R9 S50 .J3","call_num":"G7962 .R9 S50 .J3 SHEET 3-1","recid":"vx836dj6133","websiteUrl":"https://purl.stanford.edu/vx836dj6133","title":"五万分一南西諸島陸海編合圖","ckey":10550669,"web_map":"","available":"true","iiifUrl":"https://purl.stanford.edu/vx836dj6133/iiif/manifest"},"geometry":{"bbox":[127.87500000000011,26.88333300000005,128.05833299999995,27.100000000000136],"type":"Polygon","coordinates":[[[128.05833299999995,26.88333300000005],[127.87500000000011,26.88333300000005],[127.87500000000011,27.100000000000136],[128.05833299999995,27.100000000000136],[128.05833299999995,26.88333300000005]]]}},{"type":"Feature","properties":{"Id":0,"Sheet_ID":"沖縄群島 -4 粟國島","label":"沖縄群島 -4 粟國島","call_short":"G7962 .R9 S50 .J3","call_num":"G7962 .R9 S50 .J3 SHEET 3-4","recid":"qw109gv1714","websiteUrl":"https://purl.stanford.edu/qw109gv1714","title":"五万分一南西諸島陸海編合圖","ckey":10550669,"web_map":"","available":"true","iiifUrl":"https://purl.stanford.edu/qw109gv1714/iiif/manifest"},"geometry":{"bbox":[127.16666700000007,26.500000000000114,127.33333300000004,26.633333000000107],"type":"Polygon","coordinates":[[[127.16666700000007,26.500000000000114],[127.16666700000007,26.633333000000107],[127.33333300000004,26.633333000000107],[127.33333300000004,26.500000000000114],[127.16666700000007,26.500000000000114]]]}},{"type":"Feature","properties":{"Id":0,"Sheet_ID":"奄美群島 -3 沖永良部島","label":"奄美群島 -3 沖永良部島","call_short":"G7962 .R9 S50 .J3","call_num":"G7962 .R9 S50 .J3 SHEET 2-3","recid":"rm740nj1077","websiteUrl":"https://purl.stanford.edu/rm740nj1077","title":"五万分一南西諸島陸海編合圖","ckey":10550669,"web_map":"","available":"true","iiifUrl":"https://purl.stanford.edu/rm740nj1077/iiif/manifest"},"geometry":{"bbox":[128.491667,27.30000000000001,128.7583330000001,27.483333000000073],"type":"Polygon","coordinates":[[[128.491667,27.30000000000001],[128.491667,27.483333000000073],[128.7583330000001,27.483333000000073],[128.7583330000001,27.30000000000001],[128.491667,27.30000000000001]]]}},{"type":"Feature","properties":{"Id":0,"Sheet_ID":"奄美群島 -3 輿論島","label":"奄美群島 -3 輿論島","call_short":"G7962 .R9 S50 .J3","call_num":"G7962 .R9 S50 .J3 SHEET 2-3","recid":"rm740nj1077","websiteUrl":"https://purl.stanford.edu/rm740nj1077","title":"五万分一南西諸島陸海編合圖","ckey":10550669,"web_map":"","available":"true","iiifUrl":"https://purl.stanford.edu/rm740nj1077/iiif/manifest"},"geometry":{"bbox":[128.30000000000007,26.97500000000008,128.56666700000005,27.116667000000007],"type":"Polygon","coordinates":[[[128.30000000000007,26.97500000000008],[128.30000000000007,27.116667000000007],[128.56666700000005,27.116667000000007],[128.56666700000005,26.97500000000008],[128.30000000000007,26.97500000000008]]]}},{"type":"Feature","properties":{"Id":0,"Sheet_ID":"先島群島 -1 赤尾嶼、黄尾嶼、魚釣島","label":"先島群島 -1 赤尾嶼、黄尾嶼、魚釣島","call_short":"G7962 .R9 S50 .J3","call_num":"G7962 .R9 S50 .J3 SHEET 4-1","recid":"jq533nm7821","websiteUrl":"https://purl.stanford.edu/jq533nm7821","title":"五万分一南西諸島陸海編合圖","ckey":10550669,"web_map":"","available":"true","iiifUrl":"https://purl.stanford.edu/jq533nm7821/iiif/manifest"},"geometry":{"bbox":[123.45000000000016,25.716667000000086,124.60000000000014,25.97500000000008],"type":"Polygon","coordinates":[[[124.60000000000014,25.716667000000086],[123.45000000000016,25.716667000000086],[123.45000000000016,25.97500000000008],[124.60000000000014,25.97500000000008],[124.60000000000014,25.716667000000086]]]}},{"type":"Feature","properties":{"Id":0,"Sheet_ID":"先島群島 -3 與那國島","label":"先島群島 -3 與那國島","call_short":"G7962 .R9 S50 .J3","call_num":"G7962 .R9 S50 .J3 SHEET 4-3","recid":"sp737fz8713","websiteUrl":"https://purl.stanford.edu/sp737fz8713","title":"五万分一南西諸島陸海編合圖","ckey":10550669,"web_map":"","available":"true","iiifUrl":"https://purl.stanford.edu/sp737fz8713/iiif/manifest"},"geometry":{"bbox":[122.91666700000006,24.416667000000075,123.06667000000017,24.48333300000013],"type":"Polygon","coordinates":[[[122.91666700000006,24.416667000000075],[122.91666700000006,24.48333300000013],[123.06666700000005,24.48333300000013],[123.06667000000017,24.416667000000075],[122.91666700000006,24.416667000000075]]]}},{"type":"Feature","properties":{"Id":0,"Sheet_ID":"大東島近傍 - 沖大東島","label":"大東島近傍 - 沖大東島","call_short":"G7962 .R9 S50 .J3","call_num":"G7962 .R9 S50 .J3 SHEET 5","recid":"qk950rb2173","websiteUrl":"https://purl.stanford.edu/qk950rb2173","title":"五万分一南西諸島陸海編合圖","ckey":10550669,"web_map":"","available":"true","iiifUrl":"https://purl.stanford.edu/qk950rb2173/iiif/manifest"},"geometry":{"bbox":[131.1333330000001,24.43333300000006,131.21666700000003,24.51666700000004],"type":"Polygon","coordinates":[[[131.1333330000001,24.43333300000006],[131.1333330000001,24.51666700000004],[131.21666700000003,24.51666700000004],[131.21666700000003,24.43333300000006],[131.1333330000001,24.43333300000006]]]}},{"type":"Feature","properties":{"Id":0,"Sheet_ID":"先島群島 -2 多良間島","label":"先島群島 -2 多良間島","call_short":"","call_num":"","recid":"","websiteUrl":"","title":"","ckey":0,"web_map":"","available":"false","iiifUrl":""},"geometry":{"bbox":[124.63333300000001,24.600000000000136,124.75000000000013,24.80000000000001],"type":"Polygon","coordinates":[[[124.63333300000001,24.600000000000136],[124.63333300000001,24.80000000000001],[124.75000000000013,24.80000000000001],[124.75000000000013,24.600000000000136],[124.63333300000001,24.600000000000136]]]}},{"type":"Feature","properties":{"Id":0,"Sheet_ID":"奄美群島 -1 口之島、中之島、諏訪瀬島、臥蛇島、平島、惡石島、小寶島、寶島","label":"奄美群島 -1 口之島、中之島、諏訪瀬島、臥蛇島、平島、惡石島、小寶島、寶島","call_short":"G7962 .R9 S50 .J3","call_num":"G7962 .R9 S50 .J3 SHEET 2-1","recid":"kc881fy7193","websiteUrl":"https://purl.stanford.edu/kc881fy7193","title":"五万分一南西諸島陸海編合圖","ckey":10550669,"web_map":"","available":"true","iiifUrl":"https://purl.stanford.edu/kc881fy7193/iiif/manifest"},"geometry":{"bbox":[129.15833300000008,29.10000000000008,130.10000000000014,30.020833000000096],"type":"Polygon","coordinates":[[[129.15833300000008,29.10000000000008],[129.15833300000008,30.020833000000096],[130.10000000000014,30.020833000000096],[130.10000000000014,29.10000000000008],[129.15833300000008,29.10000000000008]]]}},{"type":"Feature","properties":{"Id":0,"Sheet_ID":"奄美群島 -1 喜界島","label":"奄美群島 -1 喜界島","call_short":"G7962 .R9 S50 .J3","call_num":"G7962 .R9 S50 .J3 SHEET 2-1","recid":"kc881fy7193","websiteUrl":"https://purl.stanford.edu/kc881fy7193","title":"五万分一南西諸島陸海編合圖","ckey":10550669,"web_map":"","available":"true","iiifUrl":"https://purl.stanford.edu/kc881fy7193/iiif/manifest"},"geometry":{"bbox":[129.883333,28.250000000000114,130.070833,28.399999999999977],"type":"Polygon","coordinates":[[[129.883333,28.250000000000114],[129.883333,28.399999999999977],[130.070833,28.399999999999977],[130.070833,28.250000000000114],[129.883333,28.250000000000114]]]}},{"type":"Feature","properties":{"Id":0,"Sheet_ID":"奄美群島 -1 横當島","label":"奄美群島 -1 横當島","call_short":"G7962 .R9 S50 .J3","call_num":"G7962 .R9 S50 .J3 SHEET 2-1","recid":"kc881fy7193","websiteUrl":"https://purl.stanford.edu/kc881fy7193","title":"五万分一南西諸島陸海編合圖","ckey":10550669,"web_map":"","available":"true","iiifUrl":"https://purl.stanford.edu/kc881fy7193/iiif/manifest"},"geometry":{"bbox":[128.94166700000005,28.774999999999977,129.03333299999997,28.866667000000007],"type":"Polygon","coordinates":[[[128.94166700000005,28.774999999999977],[128.94166700000005,28.866667000000007],[129.03333299999997,28.866667000000007],[129.03333299999997,28.774999999999977],[128.94166700000005,28.774999999999977]]]}},{"type":"Feature","properties":{"Id":0,"Sheet_ID":"奄美群島 -2 鳥島","label":"奄美群島 -2 鳥島","call_short":"G7962 .R9 S50 .J3","call_num":"G7962 .R9 S50 .J3 SHEET 2-2","recid":"qx750xg7288","websiteUrl":"https://purl.stanford.edu/qx750xg7288","title":"五万分一南西諸島陸海編合圖","ckey":10550669,"web_map":"","available":"true","iiifUrl":"https://purl.stanford.edu/qx750xg7288/iiif/manifest"},"geometry":{"bbox":[128.18333300000006,27.825000000000045,128.26666699999998,27.900000000000038],"type":"Polygon","coordinates":[[[128.18333300000006,27.825000000000045],[128.18333300000006,27.900000000000038],[128.26666699999998,27.900000000000038],[128.26666699999998,27.825000000000045],[128.18333300000006,27.825000000000045]]]}}],"name":"index_10550669"}
