{
"type": "FeatureCollection",
"name": "index_map",
"xy_coordinate_resolution": 1e-07,
"features": [
{ "type": "Feature", "properties": { "Id": 0, "shee_ID": "21. ソコー島", "label": "21. ソコー島", "call_short": "G7940 S20 .J3", "call_num": "G7940 S20 .J3 SHEET 21", "recid": "vk497rb9136", "websiteUrl": "https://purl.stanford.edu/vk497rb9136", "title": "二万分一香港近傍", "ckey": 9565138, "available": true, "iiifUrl": "https://purl.stanford.edu/vk497rb9136/iiif/manifest" }, "geometry": { "type": "Polygon", "coordinates": [ [ [ 113.825, 22.158333 ], [ 113.9708332, 22.158333 ], [ 113.9708332, 22.2486108 ], [ 113.825, 22.2486108 ], [ 113.825, 22.158333 ] ] ] } },
{ "type": "Feature", "properties": { "Id": 0, "shee_ID": "22. 長洲島", "label": "22. 長洲島", "call_short": "G7940 S20 .J3", "call_num": "G7940 S20 .J3 SHEET 22", "recid": "ym790xr7319", "websiteUrl": "https://purl.stanford.edu/ym790xr7319", "title": "二万分一香港近傍", "ckey": 9565138, "available": true, "iiifUrl": "https://purl.stanford.edu/ym790xr7319/iiif/manifest" }, "geometry": { "type": "Polygon", "coordinates": [ [ [ 113.9708332, 22.158333 ], [ 114.1166665, 22.158333 ], [ 114.1166665, 22.2486108 ], [ 113.9708332, 22.2486108 ], [ 113.9708332, 22.158333 ] ] ] } },
{ "type": "Feature", "properties": { "Id": 0, "shee_ID": "23. 春坎灣", "label": "23. 春坎灣", "call_short": "G7940 S20 .J3", "call_num": "G7940 S20 .J3 SHEET 23", "recid": "fq053dk4603", "websiteUrl": "https://purl.stanford.edu/fq053dk4603", "title": "二万分一香港近傍", "ckey": 9565138, "available": true, "iiifUrl": "https://purl.stanford.edu/fq053dk4603/iiif/manifest" }, "geometry": { "type": "Polygon", "coordinates": [ [ [ 114.1166665, 22.158333 ], [ 114.2624998, 22.158333 ], [ 114.2624998, 22.2486108 ], [ 114.1166665, 22.2486108 ], [ 114.1166665, 22.158333 ] ] ] } },
{ "type": "Feature", "properties": { "Id": 0, "shee_ID": "24. 泰康水道", "label": "24. 泰康水道", "call_short": "G7940 S20 .J3", "call_num": "G7940 S20 .J3 SHEET 24", "recid": "ts147wr0362", "websiteUrl": "https://purl.stanford.edu/ts147wr0362", "title": "二万分一香港近傍", "ckey": 9565138, "available": true, "iiifUrl": "https://purl.stanford.edu/ts147wr0362/iiif/manifest" }, "geometry": { "type": "Polygon", "coordinates": [ [ [ 114.2624998, 22.158333 ], [ 114.408333, 22.158333 ], [ 114.408333, 22.2486108 ], [ 114.2624998, 22.2486108 ], [ 114.2624998, 22.158333 ] ] ] } },
{ "type": "Feature", "properties": { "Id": 0, "shee_ID": "17. 大嶼", "label": "17. 大嶼", "call_short": "G7940 S20 .J3", "call_num": "G7940 S20 .J3 SHEET 17", "recid": "rs147bz5473", "websiteUrl": "https://purl.stanford.edu/rs147bz5473", "title": "二万分一香港近傍", "ckey": 9565138, "available": true, "iiifUrl": "https://purl.stanford.edu/rs147bz5473/iiif/manifest" }, "geometry": { "type": "Polygon", "coordinates": [ [ [ 113.825, 22.2486108 ], [ 113.9708332, 22.2486108 ], [ 113.9708332, 22.3388887 ], [ 113.825, 22.3388887 ], [ 113.825, 22.2486108 ] ] ] } },
{ "type": "Feature", "properties": { "Id": 0, "shee_ID": "18. 平洲", "label": "18. 平洲", "call_short": "G7940 S20 .J3", "call_num": "G7940 S20 .J3 SHEET 18", "recid": "jt781yj0908", "websiteUrl": "https://purl.stanford.edu/jt781yj0908", "title": "二万分一香港近傍", "ckey": 9565138, "available": true, "iiifUrl": "https://purl.stanford.edu/jt781yj0908/iiif/manifest" }, "geometry": { "type": "Polygon", "coordinates": [ [ [ 113.9708332, 22.2486108 ], [ 114.1166665, 22.2486108 ], [ 114.1166665, 22.3388887 ], [ 113.9708332, 22.3388887 ], [ 113.9708332, 22.2486108 ] ] ] } },
{ "type": "Feature", "properties": { "Id": 0, "shee_ID": "19. 維多利港", "label": "19. 維多利港", "call_short": "G7940 S20 .J3", "call_num": "G7940 S20 .J3 SHEET 19", "recid": "bj961ps7871", "websiteUrl": "https://purl.stanford.edu/bj961ps7871", "title": "二万分一香港近傍", "ckey": 9565138, "available": true, "iiifUrl": "https://purl.stanford.edu/bj961ps7871/iiif/manifest" }, "geometry": { "type": "Polygon", "coordinates": [ [ [ 114.1166665, 22.2486108 ], [ 114.2624998, 22.2486108 ], [ 114.2624998, 22.3388887 ], [ 114.1166665, 22.3388887 ], [ 114.1166665, 22.2486108 ] ] ] } },
{ "type": "Feature", "properties": { "Id": 0, "shee_ID": "20. シェルター島", "label": "20. シェルター島", "call_short": "G7940 S20 .J3", "call_num": "G7940 S20 .J3 SHEET 20", "recid": "dw381hj6332", "websiteUrl": "https://purl.stanford.edu/dw381hj6332", "title": "二万分一香港近傍", "ckey": 9565138, "available": true, "iiifUrl": "https://purl.stanford.edu/dw381hj6332/iiif/manifest" }, "geometry": { "type": "Polygon", "coordinates": [ [ [ 114.2624998, 22.2486108 ], [ 114.408333, 22.2486108 ], [ 114.408333, 22.3388887 ], [ 114.2624998, 22.3388887 ], [ 114.2624998, 22.2486108 ] ] ] } },
{ "type": "Feature", "properties": { "Id": 0, "shee_ID": "13. 銅鼓", "label": "13. 銅鼓", "call_short": "G7940 S20 .J3", "call_num": "G7940 S20 .J3 SHEET 13", "recid": "tn887qc7150", "websiteUrl": "https://purl.stanford.edu/tn887qc7150", "title": "二万分一香港近傍", "ckey": 9565138, "available": true, "iiifUrl": "https://purl.stanford.edu/tn887qc7150/iiif/manifest" }, "geometry": { "type": "Polygon", "coordinates": [ [ [ 113.825, 22.3388887 ], [ 113.9708332, 22.3388887 ], [ 113.9708332, 22.4291665 ], [ 113.825, 22.4291665 ], [ 113.825, 22.3388887 ] ] ] } },
{ "type": "Feature", "properties": { "Id": 0, "shee_ID": "14. 荃灣圍", "label": "14. 荃灣圍", "call_short": "G7940 S20 .J3", "call_num": "G7940 S20 .J3 SHEET 14", "recid": "mx786dt4016", "websiteUrl": "https://purl.stanford.edu/mx786dt4016", "title": "二万分一香港近傍", "ckey": 9565138, "available": true, "iiifUrl": "https://purl.stanford.edu/mx786dt4016/iiif/manifest" }, "geometry": { "type": "Polygon", "coordinates": [ [ [ 113.9708332, 22.3388887 ], [ 114.1166665, 22.3388887 ], [ 114.1166665, 22.4291665 ], [ 113.9708332, 22.4291665 ], [ 113.9708332, 22.3388887 ] ] ] } },
{ "type": "Feature", "properties": { "Id": 0, "shee_ID": "15. 潮水灣", "label": "15. 潮水灣", "call_short": "G7940 S20 .J3", "call_num": "G7940 S20 .J3 SHEET 15", "recid": "bp367my2256", "websiteUrl": "https://purl.stanford.edu/bp367my2256", "title": "二万分一香港近傍", "ckey": 9565138, "available": true, "iiifUrl": "https://purl.stanford.edu/bp367my2256/iiif/manifest" }, "geometry": { "type": "Polygon", "coordinates": [ [ [ 114.1166665, 22.3388887 ], [ 114.2624998, 22.3388887 ], [ 114.2624998, 22.4291665 ], [ 114.1166665, 22.4291665 ], [ 114.1166665, 22.3388887 ] ] ] } },
{ "type": "Feature", "properties": { "Id": 0, "shee_ID": "16. シェルター灣", "label": "16. シェルター灣", "call_short": "G7940 S20 .J3", "call_num": "G7940 S20 .J3 SHEET 16", "recid": "vp690wh8456", "websiteUrl": "https://purl.stanford.edu/vp690wh8456", "title": "二万分一香港近傍", "ckey": 9565138, "available": true, "iiifUrl": "https://purl.stanford.edu/vp690wh8456/iiif/manifest" }, "geometry": { "type": "Polygon", "coordinates": [ [ [ 114.2624998, 22.3388887 ], [ 114.408333, 22.3388887 ], [ 114.408333, 22.4291665 ], [ 114.2624998, 22.4291665 ], [ 114.2624998, 22.3388887 ] ] ] } },
{ "type": "Feature", "properties": { "Id": 0, "shee_ID": "9. 灣下", "label": "9. 灣下", "call_short": "G7940 S20 .J3", "call_num": "G7940 S20 .J3 SHEET 9", "recid": "ms724kp5977", "websiteUrl": "https://purl.stanford.edu/ms724kp5977", "title": "二万分一香港近傍", "ckey": 9565138, "available": true, "iiifUrl": "https://purl.stanford.edu/ms724kp5977/iiif/manifest" }, "geometry": { "type": "Polygon", "coordinates": [ [ [ 113.825, 22.4291665 ], [ 113.9708332, 22.4291665 ], [ 113.9708332, 22.5194443 ], [ 113.825, 22.5194443 ], [ 113.825, 22.4291665 ] ] ] } },
{ "type": "Feature", "properties": { "Id": 0, "shee_ID": "10. 新田", "label": "10. 新田", "call_short": "G7940 S20 .J3", "call_num": "G7940 S20 .J3 SHEET 10", "recid": "dz937xt0991", "websiteUrl": "https://purl.stanford.edu/dz937xt0991", "title": "二万分一香港近傍", "ckey": 9565138, "available": true, "iiifUrl": "https://purl.stanford.edu/dz937xt0991/iiif/manifest" }, "geometry": { "type": "Polygon", "coordinates": [ [ [ 113.9708332, 22.4291665 ], [ 114.1166665, 22.4291665 ], [ 114.1166665, 22.5194443 ], [ 113.9708332, 22.5194443 ], [ 113.9708332, 22.4291665 ] ] ] } },
{ "type": "Feature", "properties": { "Id": 0, "shee_ID": "11. 大埔", "label": "11. 大埔", "call_short": "G7940 S20 .J3", "call_num": "G7940 S20 .J3 SHEET 11", "recid": "wc351hr7772", "websiteUrl": "https://purl.stanford.edu/wc351hr7772", "title": "二万分一香港近傍", "ckey": 9565138, "available": true, "iiifUrl": "https://purl.stanford.edu/wc351hr7772/iiif/manifest" }, "geometry": { "type": "Polygon", "coordinates": [ [ [ 114.1166665, 22.4291665 ], [ 114.2624998, 22.4291665 ], [ 114.2624998, 22.5194443 ], [ 114.1166665, 22.5194443 ], [ 114.1166665, 22.4291665 ] ] ] } },
{ "type": "Feature", "properties": { "Id": 0, "shee_ID": "12. 沱羅水道", "label": "12. 沱羅水道", "call_short": "G7940 S20 .J3", "call_num": "G7940 S20 .J3 SHEET 12", "recid": "bt371km4180", "websiteUrl": "https://purl.stanford.edu/bt371km4180", "title": "二万分一香港近傍", "ckey": 9565138, "available": true, "iiifUrl": "https://purl.stanford.edu/bt371km4180/iiif/manifest" }, "geometry": { "type": "Polygon", "coordinates": [ [ [ 114.2624998, 22.4291665 ], [ 114.408333, 22.4291665 ], [ 114.408333, 22.5194443 ], [ 114.2624998, 22.5194443 ], [ 114.2624998, 22.4291665 ] ] ] } },
{ "type": "Feature", "properties": { "Id": 0, "shee_ID": "5. 西鄉", "label": "5. 西鄉", "call_short": "G7940 S20 .J3", "call_num": "G7940 S20 .J3 SHEET 5", "recid": "rq001gf2795", "websiteUrl": "https://purl.stanford.edu/rq001gf2795", "title": "二万分一香港近傍", "ckey": 9565138, "available": true, "iiifUrl": "https://purl.stanford.edu/rq001gf2795/iiif/manifest" }, "geometry": { "type": "Polygon", "coordinates": [ [ [ 113.825, 22.5194443 ], [ 113.9708332, 22.5194443 ], [ 113.9708332, 22.6097222 ], [ 113.825, 22.6097222 ], [ 113.825, 22.5194443 ] ] ] } },
{ "type": "Feature", "properties": { "Id": 0, "shee_ID": "6. 沙頭", "label": "6. 沙頭", "call_short": "G7940 S20 .J3", "call_num": "G7940 S20 .J3 SHEET 6", "recid": "hd464ct4965", "websiteUrl": "https://purl.stanford.edu/hd464ct4965", "title": "二万分一香港近傍", "ckey": 9565138, "available": true, "iiifUrl": "https://purl.stanford.edu/hd464ct4965/iiif/manifest" }, "geometry": { "type": "Polygon", "coordinates": [ [ [ 113.9708332, 22.5194443 ], [ 114.1166665, 22.5194443 ], [ 114.1166665, 22.6097222 ], [ 113.9708332, 22.6097222 ], [ 113.9708332, 22.5194443 ] ] ] } },
{ "type": "Feature", "properties": { "Id": 0, "shee_ID": "7. 沙頭角", "label": "7. 沙頭角", "call_short": "G7940 S20 .J3", "call_num": "G7940 S20 .J3 SHEET 7", "recid": "vz127wj7573", "websiteUrl": "https://purl.stanford.edu/vz127wj7573", "title": "二万分一香港近傍", "ckey": 9565138, "available": true, "iiifUrl": "https://purl.stanford.edu/vz127wj7573/iiif/manifest" }, "geometry": { "type": "Polygon", "coordinates": [ [ [ 114.1166665, 22.5194443 ], [ 114.2624998, 22.5194443 ], [ 114.2624998, 22.6097222 ], [ 114.1166665, 22.6097222 ], [ 114.1166665, 22.5194443 ] ] ] } },
{ "type": "Feature", "properties": { "Id": 0, "shee_ID": "8. マイアス灣", "label": "8. マイアス灣", "call_short": "G7940 S20 .J3", "call_num": "G7940 S20 .J3 SHEET 8", "recid": "tr114zh5316", "websiteUrl": "https://purl.stanford.edu/tr114zh5316", "title": "二万分一香港近傍", "ckey": 9565138, "available": true, "iiifUrl": "https://purl.stanford.edu/tr114zh5316/iiif/manifest" }, "geometry": { "type": "Polygon", "coordinates": [ [ [ 114.2624998, 22.5194443 ], [ 114.408333, 22.5194443 ], [ 114.408333, 22.6097222 ], [ 114.2624998, 22.6097222 ], [ 114.2624998, 22.5194443 ] ] ] } },
{ "type": "Feature", "properties": { "Id": 0, "shee_ID": "1. 黄田", "label": "1. 黄田", "call_short": "G7940 S20 .J3", "call_num": "G7940 S20 .J3 SHEET 1", "recid": "fz825xj8441", "websiteUrl": "https://purl.stanford.edu/fz825xj8441", "title": "二万分一香港近傍", "ckey": 9565138, "available": true, "iiifUrl": "https://purl.stanford.edu/fz825xj8441/iiif/manifest" }, "geometry": { "type": "Polygon", "coordinates": [ [ [ 113.825, 22.6097222 ], [ 113.9708332, 22.6097222 ], [ 113.9708332, 22.7 ], [ 113.825, 22.7 ], [ 113.825, 22.6097222 ] ] ] } },
{ "type": "Feature", "properties": { "Id": 0, "shee_ID": "2. 清湖", "label": "2. 清湖", "call_short": "G7940 S20 .J3", "call_num": "G7940 S20 .J3 SHEET 2", "recid": "vk664dc0792", "websiteUrl": "https://purl.stanford.edu/vk664dc0792", "title": "二万分一香港近傍", "ckey": 9565138, "available": true, "iiifUrl": "https://purl.stanford.edu/vk664dc0792/iiif/manifest" }, "geometry": { "type": "Polygon", "coordinates": [ [ [ 113.9708332, 22.6097222 ], [ 114.1166665, 22.6097222 ], [ 114.1166665, 22.7 ], [ 113.9708332, 22.7 ], [ 113.9708332, 22.6097222 ] ] ] } },
{ "type": "Feature", "properties": { "Id": 0, "shee_ID": "3. 横岡", "label": "3. 横岡", "call_short": "G7940 S20 .J3", "call_num": "G7940 S20 .J3 SHEET 3", "recid": "nv455pd8800", "websiteUrl": "https://purl.stanford.edu/nv455pd8800", "title": "二万分一香港近傍", "ckey": 9565138, "available": true, "iiifUrl": "https://purl.stanford.edu/nv455pd8800/iiif/manifest" }, "geometry": { "type": "Polygon", "coordinates": [ [ [ 114.1166665, 22.6097222 ], [ 114.2624998, 22.6097222 ], [ 114.2624998, 22.7 ], [ 114.1166665, 22.7 ], [ 114.1166665, 22.6097222 ] ] ] } },
{ "type": "Feature", "properties": { "Id": 0, "shee_ID": "4. 碧嶺", "label": "4. 碧嶺", "call_short": "G7940 S20 .J3", "call_num": "G7940 S20 .J3 SHEET 4", "recid": "dt106kr4276", "websiteUrl": "https://purl.stanford.edu/dt106kr4276", "title": "二万分一香港近傍", "ckey": 9565138, "available": true, "iiifUrl": "https://purl.stanford.edu/dt106kr4276/iiif/manifest" }, "geometry": { "type": "Polygon", "coordinates": [ [ [ 114.2624998, 22.6097222 ], [ 114.408333, 22.6097222 ], [ 114.408333, 22.7 ], [ 114.2624998, 22.7 ], [ 114.2624998, 22.6097222 ] ] ] } }
]
}
