{
"type": "FeatureCollection",
"name": "index_map",
"xy_coordinate_resolution": 1e-07,
"features": [
{ "type": "Feature", "properties": { "Id": 0, "Sheet_ID": "7. パロンポン", "label": "7. パロンポン", "call_short": "G8064 .T115 S50 .J3", "call_num": "G8064 .T115 S50 .J3 SHEET 7", "recid": "mb863gs2856", "websiteUrl": "https://purl.stanford.edu/mb863gs2856", "title": "五万分一地形圖 タクロバン近傍", "ckey": 10550792, "available": true, "iiifUrl": "https://purl.stanford.edu/mb863gs2856/iiif/manifest" }, "geometry": { "type": "Polygon", "coordinates": [ [ [ 124.25, 10.858333 ], [ 124.558333, 10.858333 ], [ 124.558333, 11.333333 ], [ 124.25, 11.333333 ], [ 124.25, 10.858333 ] ] ] } },
{ "type": "Feature", "properties": { "Id": 0, "Sheet_ID": "3. オルモック", "label": "3. オルモック", "call_short": "G8064 .T115 S50 .J3", "call_num": "G8064 .T115 S50 .J3 SHEET 3", "recid": "jk784mt0834", "websiteUrl": "https://purl.stanford.edu/jk784mt0834", "title": "五万分一地形圖 タクロバン近傍", "ckey": 10550792, "available": true, "iiifUrl": "https://purl.stanford.edu/jk784mt0834/iiif/manifest" }, "geometry": { "type": "Polygon", "coordinates": [ [ [ 124.558333, 10.858333 ], [ 124.891667, 10.858333 ], [ 124.891667, 11.333333 ], [ 124.558333, 11.333333 ], [ 124.558333, 10.858333 ] ] ] } },
{ "type": "Feature", "properties": { "Id": 0, "Sheet_ID": "2. タクロバン", "label": "2. タクロバン", "call_short": "G8064 .T115 S50 .J3", "call_num": "G8064 .T115 S50 .J3 SHEET 2", "recid": "fp778hd5115", "websiteUrl": "https://purl.stanford.edu/fp778hd5115", "title": "五万分一地形圖 タクロバン近傍", "ckey": 10550792, "available": true, "iiifUrl": "https://purl.stanford.edu/fp778hd5115/iiif/manifest" }, "geometry": { "type": "Polygon", "coordinates": [ [ [ 124.891667, 10.858333 ], [ 125.216667, 10.858333 ], [ 125.216667, 11.333333 ], [ 124.891667, 11.333333 ], [ 124.891667, 10.858333 ] ] ] } },
{ "type": "Feature", "properties": { "Id": 0, "Sheet_ID": "6. サンイシドロ", "label": "6. サンイシドロ", "call_short": "G8064 .T115 S50 .J3", "call_num": "G8064 .T115 S50 .J3 SHEET 6", "recid": "hq089bf3072", "websiteUrl": "https://purl.stanford.edu/hq089bf3072", "title": "五万分一地形圖 タクロバン近傍", "ckey": 10550792, "available": true, "iiifUrl": "https://purl.stanford.edu/hq089bf3072/iiif/manifest" }, "geometry": { "type": "Polygon", "coordinates": [ [ [ 124.25, 11.333333 ], [ 124.729167, 11.333333 ], [ 124.729167, 11.6666665 ], [ 124.25, 11.6666665 ], [ 124.25, 11.333333 ] ] ] } },
{ "type": "Feature", "properties": { "Id": 0, "Sheet_ID": "1. スマラガ", "label": "1. スマラガ", "call_short": "G8064 .T115 S50 .J3", "call_num": "G8064 .T115 S50 .J3 SHEET 1", "recid": "cc009kx1945", "websiteUrl": "https://purl.stanford.edu/cc009kx1945", "title": "五万分一地形圖 タクロバン近傍", "ckey": 10550792, "available": true, "iiifUrl": "https://purl.stanford.edu/cc009kx1945/iiif/manifest" }, "geometry": { "type": "Polygon", "coordinates": [ [ [ 124.729167, 11.333333 ], [ 125.216667, 11.333333 ], [ 125.216667, 11.6666665 ], [ 124.729167, 11.6666665 ], [ 124.729167, 11.333333 ] ] ] } },
{ "type": "Feature", "properties": { "Id": 0, "Sheet_ID": "5. マリピピ", "label": "5. マリピピ", "call_short": "G8064 .T115 S50 .J3", "call_num": "G8064 .T115 S50 .J3 SHEET 5", "recid": "mj920ry4209", "websiteUrl": "https://purl.stanford.edu/mj920ry4209", "title": "五万分一地形圖 タクロバン近傍", "ckey": 10550792, "available": true, "iiifUrl": "https://purl.stanford.edu/mj920ry4209/iiif/manifest" }, "geometry": { "type": "Polygon", "coordinates": [ [ [ 124.25, 11.6666665 ], [ 124.729167, 11.6666665 ], [ 124.729167, 11.833333 ], [ 124.25, 11.833333 ], [ 124.25, 11.6666665 ] ] ] } },
{ "type": "Feature", "properties": { "Id": 0, "Sheet_ID": "4. バイバイ", "label": "4. バイバイ", "call_short": "G8064 .T115 S50 .J3", "call_num": "G8064 .T115 S50 .J3 SHEET 4", "recid": "wv658dr0378", "websiteUrl": "https://purl.stanford.edu/wv658dr0378", "title": "五万分一地形圖 タクロバン近傍", "ckey": 10550792, "available": true, "iiifUrl": "https://purl.stanford.edu/wv658dr0378/iiif/manifest" }, "geometry": { "type": "Polygon", "coordinates": [ [ [ 124.729167, 10.533333 ], [ 125.216667, 10.533333 ], [ 125.216667, 10.858333 ], [ 124.729167, 10.858333 ], [ 124.729167, 10.533333 ] ] ] } }
]
}
