{"type":"FeatureCollection","features":[{"type":"Feature","properties":{"Id":0,"Sheet_ID":"24. ヴェリノー","label":"24. ヴェリノー","call_short":"G7270 S100 .J374","call_num":"G7270 S100 .J374 SHEET 24","recid":"ts201sh7161","websiteUrl":"https://purl.stanford.edu/ts201sh7161","title":"西伯利十万分一圖 ハバロフスク","ckey":12284149,"web_map":"","available":"true","iiifUrl":"https://purl.stanford.edu/ts201sh7161/iiif/manifest"},"geometry":{"bbox":[135,47.666667000000075,136,47.999999750000086],"type":"Polygon","coordinates":[[[135,47.666667000000075],[135,47.999999750000086],[136,47.999999750000086],[136,47.666667000000075],[135,47.666667000000075]]]}},{"type":"Feature","properties":{"Id":0,"Sheet_ID":"23. ハバロフスク","label":"23. ハバロフスク","call_short":"","call_num":"","recid":"","websiteUrl":"","title":"","ckey":0,"web_map":"","available":"false","iiifUrl":""},"geometry":{"bbox":[135,47.99999975,136,48.6666665],"type":"Polygon","coordinates":[[[135,47.99999975],[135,48.6666665],[136,48.6666665],[136,47.99999975],[135,47.99999975]]]}},{"type":"Feature","properties":{"Id":0,"Sheet_ID":"22. ハバロフスク北部","label":"22. ハバロフスク北部","call_short":"G7270 S100 .J374","call_num":"G7270 S100 .J374 SHEET 22","recid":"ky215cp8598","websiteUrl":"https://purl.stanford.edu/ky215cp8598","title":"西伯利十万分一圖 ハバロフスク","ckey":12284149,"web_map":"","available":"true","iiifUrl":"https://purl.stanford.edu/ky215cp8598/iiif/manifest"},"geometry":{"bbox":[135,48.666666500000005,136,49.33333325],"type":"Polygon","coordinates":[[[135,48.666666500000005],[135,49.33333325],[136,49.33333325],[136,48.666666500000005],[135,48.666666500000005]]]}},{"type":"Feature","properties":{"Id":0,"Sheet_ID":"17. クルン","label":"17. クルン","call_short":"G7270 S100 .J374","call_num":"G7270 S100 .J374 SHEET 17","recid":"td663jt5943","websiteUrl":"https://purl.stanford.edu/td663jt5943","title":"西伯利十万分一圖 ハバロフスク","ckey":12284149,"web_map":"","available":"true","iiifUrl":"https://purl.stanford.edu/td663jt5943/iiif/manifest"},"geometry":{"bbox":[136,48.666666500000005,137,49.33333325],"type":"Polygon","coordinates":[[[136,48.666666500000005],[136,49.33333325],[137,49.33333325],[137,48.666666500000005],[136,48.666666500000005]]]}},{"type":"Feature","properties":{"Id":0,"Sheet_ID":"16. ボロン湖","label":"16. ボロン湖","call_short":"G7270 S100 .J374","call_num":"G7270 S100 .J374 SHEET 16","recid":"yy704kz6827","websiteUrl":"https://purl.stanford.edu/yy704kz6827","title":"西伯利十万分一圖 ハバロフスク","ckey":12284149,"web_map":"","available":"true","iiifUrl":"https://purl.stanford.edu/yy704kz6827/iiif/manifest"},"geometry":{"bbox":[136,49.33333325,137,50],"type":"Polygon","coordinates":[[[136,49.33333325],[136,50],[137,50],[137,49.33333325],[136,49.33333325]]]}},{"type":"Feature","properties":{"Id":0,"Sheet_ID":"11. ドンドン河北部","label":"11. ドンドン河北部","call_short":"G7270 S100 .J374","call_num":"G7270 S100 .J374 SHEET 11","recid":"mj678fd4444","websiteUrl":"https://purl.stanford.edu/mj678fd4444","title":"西伯利十万分一圖 ハバロフスク","ckey":12284149,"web_map":"","available":"true","iiifUrl":"https://purl.stanford.edu/mj678fd4444/iiif/manifest"},"geometry":{"bbox":[137,49.13333300000005,138,50.00000000000006],"type":"Polygon","coordinates":[[[137,49.13333300000005],[137,50.00000000000006],[138,50.00000000000006],[138,49.13333300000005],[137,49.13333300000005]]]}}],"name":"index_12284149"}
