{
"type": "FeatureCollection",
"name": "index_map",
"xy_coordinate_resolution": 1e-07,
"features": [
{ "type": "Feature", "properties": { "Id": 0, "Sheet_ID": "12. ポポワ島", "label": "12. ポポワ島", "call_short": "G7064 .V56 S25 .J3", "call_num": "G7064 .V56 S25 .J3 SHEET 12", "recid": "hy418gy5215", "websiteUrl": "https://purl.stanford.edu/hy418gy5215", "title": "浦潮近傍二万五千分一圖", "ckey": 9607938, "available": true, "iiifUrl": "https://purl.stanford.edu/hy418gy5215/iiif/manifest" }, "geometry": { "type": "Polygon", "coordinates": [ [ [ 131.6875, 42.916667 ], [ 131.8125, 42.916667 ], [ 131.8125, 43.0000002 ], [ 131.6875, 43.0000002 ], [ 131.6875, 42.916667 ] ] ] } },
{ "type": "Feature", "properties": { "Id": 0, "Sheet_ID": "10. トビーシナ岬", "label": "10. トビーシナ岬", "call_short": "G7064 .V56 S25 .J3", "call_num": "G7064 .V56 S25 .J3 SHEET 10", "recid": "rq410qn7158", "websiteUrl": "https://purl.stanford.edu/rq410qn7158", "title": "浦潮近傍二万五千分一圖", "ckey": 9607938, "available": true, "iiifUrl": "https://purl.stanford.edu/rq410qn7158/iiif/manifest" }, "geometry": { "type": "Polygon", "coordinates": [ [ [ 131.8125, 42.916667 ], [ 131.9375, 42.916667 ], [ 131.9375, 43.0000002 ], [ 131.8125, 43.0000002 ], [ 131.8125, 42.916667 ] ] ] } },
{ "type": "Feature", "properties": { "Id": 0, "Sheet_ID": "11. ルースキフ山", "label": "11. ルースキフ山", "call_short": "G7064 .V56 S25 .J3", "call_num": "G7064 .V56 S25 .J3 SHEET 11", "recid": "gv841pj0985", "websiteUrl": "https://purl.stanford.edu/gv841pj0985", "title": "浦潮近傍二万五千分一圖", "ckey": 9607938, "available": true, "iiifUrl": "https://purl.stanford.edu/gv841pj0985/iiif/manifest" }, "geometry": { "type": "Polygon", "coordinates": [ [ [ 131.75, 43.0000002 ], [ 131.875, 43.0000002 ], [ 131.875, 43.0833334 ], [ 131.75, 43.0833334 ], [ 131.75, 43.0000002 ] ] ] } },
{ "type": "Feature", "properties": { "Id": 0, "Sheet_ID": "9. パツロークリ灣", "label": "9. パツロークリ灣", "call_short": "G7064 .V56 S25 .J3", "call_num": "G7064 .V56 S25 .J3 SHEET 9", "recid": "dz211bm8366", "websiteUrl": "https://purl.stanford.edu/dz211bm8366", "title": "浦潮近傍二万五千分一圖", "ckey": 9607938, "available": true, "iiifUrl": "https://purl.stanford.edu/dz211bm8366/iiif/manifest" }, "geometry": { "type": "Polygon", "coordinates": [ [ [ 131.875, 43.0000002 ], [ 132.0, 43.0000002 ], [ 132.0, 43.0833334 ], [ 131.875, 43.0833334 ], [ 131.875, 43.0000002 ] ] ] } },
{ "type": "Feature", "properties": { "Id": 0, "Sheet_ID": "8. 浦潮斯徳", "label": "8. 浦潮斯徳", "call_short": "G7064 .V56 S25 .J3", "call_num": "G7064 .V56 S25 .J3 SHEET 8", "recid": "hx050sr0933", "websiteUrl": "https://purl.stanford.edu/hx050sr0933", "title": "浦潮近傍二万五千分一圖", "ckey": 9607938, "available": true, "iiifUrl": "https://purl.stanford.edu/hx050sr0933/iiif/manifest" }, "geometry": { "type": "Polygon", "coordinates": [ [ [ 131.875, 43.0833334 ], [ 132.0, 43.0833334 ], [ 132.0, 43.1666666 ], [ 131.875, 43.1666666 ], [ 131.875, 43.125 ], [ 131.84, 43.125 ], [ 131.84, 43.0833334 ], [ 131.875, 43.0833334 ] ] ] } },
{ "type": "Feature", "properties": { "Id": 0, "Sheet_ID": "6. ゴルノスターイ灣", "label": "6. ゴルノスターイ灣", "call_short": "G7064 .V56 S25 .J3", "call_num": "G7064 .V56 S25 .J3 SHEET 6", "recid": "xy504cc7490", "websiteUrl": "https://purl.stanford.edu/xy504cc7490", "title": "浦潮近傍二万五千分一圖", "ckey": 9607938, "available": true, "iiifUrl": "https://purl.stanford.edu/xy504cc7490/iiif/manifest" }, "geometry": { "type": "Polygon", "coordinates": [ [ [ 132.0, 43.0833334 ], [ 132.125, 43.0833334 ], [ 132.125, 43.1666666 ], [ 132.0, 43.1666666 ], [ 132.0, 43.0833334 ] ] ] } },
{ "type": "Feature", "properties": { "Id": 0, "Sheet_ID": "7. フタラヤ・レーチカ", "label": "7. フタラヤ・レーチカ", "call_short": "G7064 .V56 S25 .J3", "call_num": "G7064 .V56 S25 .J3 SHEET 7", "recid": "nt646gt1219", "websiteUrl": "https://purl.stanford.edu/nt646gt1219", "title": "浦潮近傍二万五千分一圖", "ckey": 9607938, "available": true, "iiifUrl": "https://purl.stanford.edu/nt646gt1219/iiif/manifest" }, "geometry": { "type": "Polygon", "coordinates": [ [ [ 131.875, 43.1666666 ], [ 132.0, 43.1666666 ], [ 132.0, 43.2499998 ], [ 131.875, 43.2499998 ], [ 131.875, 43.1666666 ] ] ] } },
{ "type": "Feature", "properties": { "Id": 0, "Sheet_ID": "5. オケアンスカヤ", "label": "5. オケアンスカヤ", "call_short": "G7064 .V56 S25 .J3", "call_num": "G7064 .V56 S25 .J3 SHEET 5", "recid": "bv006wt3349", "websiteUrl": "https://purl.stanford.edu/bv006wt3349", "title": "浦潮近傍二万五千分一圖", "ckey": 9607938, "available": true, "iiifUrl": "https://purl.stanford.edu/bv006wt3349/iiif/manifest" }, "geometry": { "type": "Polygon", "coordinates": [ [ [ 132.0, 43.1666666 ], [ 132.125, 43.1666666 ], [ 132.125, 43.2499998 ], [ 132.0, 43.2499998 ], [ 132.0, 43.1666666 ] ] ] } },
{ "type": "Feature", "properties": { "Id": 0, "Sheet_ID": "3. チムプール", "label": "3. チムプール", "call_short": "G7064 .V56 S25 .J3", "call_num": "G7064 .V56 S25 .J3 SHEET 3", "recid": "fg827bg1497", "websiteUrl": "https://purl.stanford.edu/fg827bg1497", "title": "浦潮近傍二万五千分一圖", "ckey": 9607938, "available": true, "iiifUrl": "https://purl.stanford.edu/fg827bg1497/iiif/manifest" }, "geometry": { "type": "Polygon", "coordinates": [ [ [ 132.125, 43.1666666 ], [ 132.25, 43.1666666 ], [ 132.25, 43.2499998 ], [ 132.125, 43.2499998 ], [ 132.125, 43.1666666 ] ] ] } },
{ "type": "Feature", "properties": { "Id": 0, "Sheet_ID": "4. ウグローワヤ", "label": "4. ウグローワヤ", "call_short": "G7064 .V56 S25 .J3", "call_num": "G7064 .V56 S25 .J3 SHEET 4", "recid": "xn994th4136", "websiteUrl": "https://purl.stanford.edu/xn994th4136", "title": "浦潮近傍二万五千分一圖", "ckey": 9607938, "available": true, "iiifUrl": "https://purl.stanford.edu/xn994th4136/iiif/manifest" }, "geometry": { "type": "Polygon", "coordinates": [ [ [ 132.0, 43.2499998 ], [ 132.125, 43.2499998 ], [ 132.125, 43.333333 ], [ 132.0, 43.333333 ], [ 132.0, 43.2499998 ] ] ] } },
{ "type": "Feature", "properties": { "Id": 0, "Sheet_ID": "2. アムバボーザ", "label": "2. アムバボーザ", "call_short": "G7064 .V56 S25 .J3", "call_num": "G7064 .V56 S25 .J3 SHEET 2", "recid": "gv260mh4598", "websiteUrl": "https://purl.stanford.edu/gv260mh4598", "title": "浦潮近傍二万五千分一圖", "ckey": 9607938, "available": true, "iiifUrl": "https://purl.stanford.edu/gv260mh4598/iiif/manifest" }, "geometry": { "type": "Polygon", "coordinates": [ [ [ 132.125, 43.2499998 ], [ 132.25, 43.2499998 ], [ 132.25, 43.333333 ], [ 132.125, 43.333333 ], [ 132.125, 43.2499998 ] ] ] } },
{ "type": "Feature", "properties": { "Id": 0, "Sheet_ID": "1. シェウェリヨーフカ", "label": "1. シェウェリヨーフカ", "call_short": "G7064 .V56 S25 .J3", "call_num": "G7064 .V56 S25 .J3 SHEET 1", "recid": "cj438kg6864", "websiteUrl": "https://purl.stanford.edu/cj438kg6864", "title": "浦潮近傍二万五千分一圖", "ckey": 9607938, "available": true, "iiifUrl": "https://purl.stanford.edu/cj438kg6864/iiif/manifest" }, "geometry": { "type": "Polygon", "coordinates": [ [ [ 132.25, 43.2499998 ], [ 132.375, 43.2499998 ], [ 132.375, 43.333333 ], [ 132.25, 43.333333 ], [ 132.25, 43.2499998 ] ] ] } }
]
}
