{
"type": "FeatureCollection",
"name": "index_map",
"xy_coordinate_resolution": 1e-07,
"features": [
{ "type": "Feature", "properties": { "Id": 0, "Sheet_ID": "SHEET 15", "label": "SHEET 15", "call_short": "G7824 .D3 S1 .J3", "call_num": "G7824 .D3 S1 .J3 SHEET B-15", "recid": "sw450nm6647", "websiteUrl": "https://purl.stanford.edu/sw450nm6647", "title": "石道街/傅家庄附近地形圖", "ckey": 9938142, "available": true, "iiifUrl": "https://purl.stanford.edu/sw450nm6647/iiif/manifest" }, "geometry": { "type": "Polygon", "coordinates": [ [ [ 121.6061107, 38.860694 ], [ 121.6177775, 38.860694 ], [ 121.6177775, 38.868194 ], [ 121.6061107, 38.868194 ], [ 121.6061107, 38.860694 ] ] ] } },
{ "type": "Feature", "properties": { "Id": 0, "Sheet_ID": "SHEET 10", "label": "SHEET 10", "call_short": "G7824 .D3 S1 .J3", "call_num": "G7824 .D3 S1 .J3 SHEET B-10", "recid": "qn232gp9409", "websiteUrl": "https://purl.stanford.edu/qn232gp9409", "title": "石道街/傅家庄附近地形圖", "ckey": 9938142, "available": true, "iiifUrl": "https://purl.stanford.edu/qn232gp9409/iiif/manifest" }, "geometry": { "type": "Polygon", "coordinates": [ [ [ 121.6177775, 38.860694 ], [ 121.6294442, 38.860694 ], [ 121.6294442, 38.868194 ], [ 121.6177775, 38.868194 ], [ 121.6177775, 38.860694 ] ] ] } },
{ "type": "Feature", "properties": { "Id": 0, "Sheet_ID": "SHEET 5", "label": "SHEET 5", "call_short": "G7824 .D3 S1 .J3", "call_num": "G7824 .D3 S1 .J3 SHEET B-5", "recid": "pb572qs2668", "websiteUrl": "https://purl.stanford.edu/pb572qs2668", "title": "石道街/傅家庄附近地形圖", "ckey": 9938142, "available": true, "iiifUrl": "https://purl.stanford.edu/pb572qs2668/iiif/manifest" }, "geometry": { "type": "Polygon", "coordinates": [ [ [ 121.6294442, 38.860694 ], [ 121.641111, 38.860694 ], [ 121.641111, 38.868194 ], [ 121.6294442, 38.868194 ], [ 121.6294442, 38.860694 ] ] ] } },
{ "type": "Feature", "properties": { "Id": 0, "Sheet_ID": "SHEET 14", "label": "SHEET 14", "call_short": "G7824 .D3 S1 .J3", "call_num": "G7824 .D3 S1 .J3 SHEET B-14", "recid": "xc910pk3180", "websiteUrl": "https://purl.stanford.edu/xc910pk3180", "title": "石道街/傅家庄附近地形圖", "ckey": 9938142, "available": true, "iiifUrl": "https://purl.stanford.edu/xc910pk3180/iiif/manifest" }, "geometry": { "type": "Polygon", "coordinates": [ [ [ 121.6061107, 38.868194 ], [ 121.6177775, 38.868194 ], [ 121.6177775, 38.875694 ], [ 121.6061107, 38.875694 ], [ 121.6061107, 38.868194 ] ] ] } },
{ "type": "Feature", "properties": { "Id": 0, "Sheet_ID": "SHEET 9", "label": "SHEET 9", "call_short": "G7824 .D3 S1 .J3", "call_num": "G7824 .D3 S1 .J3 SHEET B-9", "recid": "mf153hv6471", "websiteUrl": "https://purl.stanford.edu/mf153hv6471", "title": "石道街/傅家庄附近地形圖", "ckey": 9938142, "available": true, "iiifUrl": "https://purl.stanford.edu/mf153hv6471/iiif/manifest" }, "geometry": { "type": "Polygon", "coordinates": [ [ [ 121.6177775, 38.868194 ], [ 121.6294442, 38.868194 ], [ 121.6294442, 38.875694 ], [ 121.6177775, 38.875694 ], [ 121.6177775, 38.868194 ] ] ] } },
{ "type": "Feature", "properties": { "Id": 0, "Sheet_ID": "SHEET 4", "label": "SHEET 4", "call_short": "G7824 .D3 S1 .J3", "call_num": "G7824 .D3 S1 .J3 SHEET B-4", "recid": "nx791wm8095", "websiteUrl": "https://purl.stanford.edu/nx791wm8095", "title": "石道街/傅家庄附近地形圖", "ckey": 9938142, "available": true, "iiifUrl": "https://purl.stanford.edu/nx791wm8095/iiif/manifest" }, "geometry": { "type": "Polygon", "coordinates": [ [ [ 121.6294442, 38.868194 ], [ 121.641111, 38.868194 ], [ 121.641111, 38.875694 ], [ 121.6294442, 38.875694 ], [ 121.6294442, 38.868194 ] ] ] } },
{ "type": "Feature", "properties": { "Id": 0, "Sheet_ID": "SHEET 18-2", "label": "SHEET 18-2", "call_short": "G7824 .D3 S1 .J3", "call_num": "G7824 .D3 S1 .J3 SHEET B-18-2", "recid": "py333pd5727", "websiteUrl": "https://purl.stanford.edu/py333pd5727", "title": "石道街/傅家庄附近地形圖", "ckey": 9938142, "available": true, "iiifUrl": "https://purl.stanford.edu/py333pd5727/iiif/manifest" }, "geometry": { "type": "Polygon", "coordinates": [ [ [ 121.6002771, 38.871944 ], [ 121.6002777, 38.879444 ], [ 121.594444, 38.879444 ], [ 121.594444, 38.871944 ], [ 121.6002771, 38.871944 ] ] ] } },
{ "type": "Feature", "properties": { "Id": 0, "Sheet_ID": "SHEET 13", "label": "SHEET 13", "call_short": "G7824 .D3 S1 .J3", "call_num": "G7824 .D3 S1 .J3 SHEET B-13", "recid": "wz163tn4009", "websiteUrl": "https://purl.stanford.edu/wz163tn4009", "title": "石道街/傅家庄附近地形圖", "ckey": 9938142, "available": true, "iiifUrl": "https://purl.stanford.edu/wz163tn4009/iiif/manifest" }, "geometry": { "type": "Polygon", "coordinates": [ [ [ 121.6061107, 38.875694 ], [ 121.6177775, 38.875694 ], [ 121.6177775, 38.883194 ], [ 121.6061107, 38.883194 ], [ 121.6061107, 38.875694 ] ] ] } },
{ "type": "Feature", "properties": { "Id": 0, "Sheet_ID": "SHEET 8", "label": "SHEET 8", "call_short": "G7824 .D3 S1 .J3", "call_num": "G7824 .D3 S1 .J3 SHEET B-8", "recid": "cg677ym4236", "websiteUrl": "https://purl.stanford.edu/cg677ym4236", "title": "石道街/傅家庄附近地形圖", "ckey": 9938142, "available": true, "iiifUrl": "https://purl.stanford.edu/cg677ym4236/iiif/manifest" }, "geometry": { "type": "Polygon", "coordinates": [ [ [ 121.6177775, 38.875694 ], [ 121.6294442, 38.875694 ], [ 121.6294442, 38.883194 ], [ 121.6177775, 38.883194 ], [ 121.6177775, 38.875694 ] ] ] } },
{ "type": "Feature", "properties": { "Id": 0, "Sheet_ID": "SHEET 3", "label": "SHEET 3", "call_short": "G7824 .D3 S1 .J3", "call_num": "G7824 .D3 S1 .J3 SHEET B-3", "recid": "ds487sc0744", "websiteUrl": "https://purl.stanford.edu/ds487sc0744", "title": "石道街/傅家庄附近地形圖", "ckey": 9938142, "available": true, "iiifUrl": "https://purl.stanford.edu/ds487sc0744/iiif/manifest" }, "geometry": { "type": "Polygon", "coordinates": [ [ [ 121.6294442, 38.875694 ], [ 121.641111, 38.875694 ], [ 121.641111, 38.883194 ], [ 121.6294442, 38.883194 ], [ 121.6294442, 38.875694 ] ] ] } },
{ "type": "Feature", "properties": { "Id": 0, "Sheet_ID": "SHEET 17", "label": "SHEET 17", "call_short": "G7824 .D3 S1 .J3", "call_num": "G7824 .D3 S1 .J3 SHEET B-17", "recid": "dj217kb3355", "websiteUrl": "https://purl.stanford.edu/dj217kb3355", "title": "石道街/傅家庄附近地形圖", "ckey": 9938142, "available": true, "iiifUrl": "https://purl.stanford.edu/dj217kb3355/iiif/manifest" }, "geometry": { "type": "Polygon", "coordinates": [ [ [ 121.594444, 38.879444 ], [ 121.6061107, 38.879444 ], [ 121.6061107, 38.886944 ], [ 121.594444, 38.886944 ], [ 121.594444, 38.879444 ] ] ] } },
{ "type": "Feature", "properties": { "Id": 0, "Sheet_ID": "SHEET 12", "label": "SHEET 12", "call_short": "G7824 .D3 S1 .J3", "call_num": "G7824 .D3 S1 .J3 SHEET B-12", "recid": "zz278yt4100", "websiteUrl": "https://purl.stanford.edu/zz278yt4100", "title": "石道街/傅家庄附近地形圖", "ckey": 9938142, "available": true, "iiifUrl": "https://purl.stanford.edu/zz278yt4100/iiif/manifest" }, "geometry": { "type": "Polygon", "coordinates": [ [ [ 121.6061107, 38.883194 ], [ 121.6177775, 38.883194 ], [ 121.6177775, 38.890694 ], [ 121.6061107, 38.890694 ], [ 121.6061107, 38.883194 ] ] ] } },
{ "type": "Feature", "properties": { "Id": 0, "Sheet_ID": "SHEET 7", "label": "SHEET 7", "call_short": "G7824 .D3 S1 .J3", "call_num": "G7824 .D3 S1 .J3 SHEET B-7", "recid": "nz752gf5552", "websiteUrl": "https://purl.stanford.edu/nz752gf5552", "title": "石道街/傅家庄附近地形圖", "ckey": 9938142, "available": true, "iiifUrl": "https://purl.stanford.edu/nz752gf5552/iiif/manifest" }, "geometry": { "type": "Polygon", "coordinates": [ [ [ 121.6177775, 38.883194 ], [ 121.6294442, 38.883194 ], [ 121.6294442, 38.890694 ], [ 121.6177775, 38.890694 ], [ 121.6177775, 38.883194 ] ] ] } },
{ "type": "Feature", "properties": { "Id": 0, "Sheet_ID": "SHEET 2", "label": "SHEET 2", "call_short": "G7824 .D3 S1 .J3", "call_num": "G7824 .D3 S1 .J3 SHEET B-2", "recid": "rh728vp9480", "websiteUrl": "https://purl.stanford.edu/rh728vp9480", "title": "石道街/傅家庄附近地形圖", "ckey": 9938142, "available": true, "iiifUrl": "https://purl.stanford.edu/rh728vp9480/iiif/manifest" }, "geometry": { "type": "Polygon", "coordinates": [ [ [ 121.6294442, 38.883194 ], [ 121.641111, 38.883194 ], [ 121.641111, 38.890694 ], [ 121.6294442, 38.890694 ], [ 121.6294442, 38.883194 ] ] ] } },
{ "type": "Feature", "properties": { "Id": 0, "Sheet_ID": "SHEET 16", "label": "SHEET 16", "call_short": "G7824 .D3 S1 .J3", "call_num": "G7824 .D3 S1 .J3 SHEET B-16", "recid": "vc002fj2565", "websiteUrl": "https://purl.stanford.edu/vc002fj2565", "title": "石道街/傅家庄附近地形圖", "ckey": 9938142, "available": true, "iiifUrl": "https://purl.stanford.edu/vc002fj2565/iiif/manifest" }, "geometry": { "type": "Polygon", "coordinates": [ [ [ 121.594444, 38.886944 ], [ 121.6061107, 38.886944 ], [ 121.6061107, 38.894444 ], [ 121.594444, 38.894444 ], [ 121.594444, 38.886944 ] ] ] } },
{ "type": "Feature", "properties": { "Id": 0, "Sheet_ID": "SHEET 11", "label": "SHEET 11", "call_short": "G7824 .D3 S1 .J3", "call_num": "G7824 .D3 S1 .J3 SHEET B-11", "recid": "rc527rj0266", "websiteUrl": "https://purl.stanford.edu/rc527rj0266", "title": "石道街/傅家庄附近地形圖", "ckey": 9938142, "available": true, "iiifUrl": "https://purl.stanford.edu/rc527rj0266/iiif/manifest" }, "geometry": { "type": "Polygon", "coordinates": [ [ [ 121.6061107, 38.890694 ], [ 121.6177775, 38.890694 ], [ 121.6177775, 38.898194 ], [ 121.6061107, 38.898194 ], [ 121.6061107, 38.890694 ] ] ] } },
{ "type": "Feature", "properties": { "Id": 0, "Sheet_ID": "SHEET 6", "label": "SHEET 6", "call_short": "G7824 .D3 S1 .J3", "call_num": "G7824 .D3 S1 .J3 SHEET B-6", "recid": "dt179qj9106", "websiteUrl": "https://purl.stanford.edu/dt179qj9106", "title": "石道街/傅家庄附近地形圖", "ckey": 9938142, "available": true, "iiifUrl": "https://purl.stanford.edu/dt179qj9106/iiif/manifest" }, "geometry": { "type": "Polygon", "coordinates": [ [ [ 121.6177775, 38.890694 ], [ 121.6294442, 38.890694 ], [ 121.6294442, 38.898194 ], [ 121.6177775, 38.898194 ], [ 121.6177775, 38.890694 ] ] ] } },
{ "type": "Feature", "properties": { "Id": 0, "Sheet_ID": "SHEET 1", "label": "SHEET 1", "call_short": "G7824 .D3 S1 .J3", "call_num": "G7824 .D3 S1 .J3 SHEET B-1", "recid": "bz864rs3085", "websiteUrl": "https://purl.stanford.edu/bz864rs3085", "title": "石道街/傅家庄附近地形圖", "ckey": 9938142, "available": true, "iiifUrl": "https://purl.stanford.edu/bz864rs3085/iiif/manifest" }, "geometry": { "type": "Polygon", "coordinates": [ [ [ 121.6294442, 38.890694 ], [ 121.641111, 38.890694 ], [ 121.641111, 38.898194 ], [ 121.6294442, 38.898194 ], [ 121.6294442, 38.890694 ] ] ] } },
{ "type": "Feature", "properties": { "Id": 0, "Sheet_ID": "SHEET 19", "label": "SHEET 19", "call_short": "G7824 .D3 S1 .J3", "call_num": "G7824 .D3 S1 .J3 SHEET B-19", "recid": "tx191ny9482", "websiteUrl": "https://purl.stanford.edu/tx191ny9482", "title": "石道街/傅家庄附近地形圖", "ckey": 9938142, "available": true, "iiifUrl": "https://purl.stanford.edu/tx191ny9482/iiif/manifest" }, "geometry": { "type": "Polygon", "coordinates": [ [ [ 121.6002772, 38.8681938 ], [ 121.6061108, 38.8681938 ], [ 121.6061108, 38.871944 ], [ 121.6002775, 38.871944 ], [ 121.6002772, 38.8681938 ] ] ] } },
{ "type": "Feature", "properties": { "Id": 0, "Sheet_ID": "SHEET 18-1", "label": "SHEET 18-1", "call_short": "G7824 .D3 S1 .J3", "call_num": "G7824 .D3 S1 .J3 SHEET B-18", "recid": "by178kd5116", "websiteUrl": "https://purl.stanford.edu/by178kd5116", "title": "石道街/傅家庄附近地形圖", "ckey": 9938142, "available": true, "iiifUrl": "https://purl.stanford.edu/by178kd5116/iiif/manifest" }, "geometry": { "type": "Polygon", "coordinates": [ [ [ 121.6002771, 38.871944 ], [ 121.6061108, 38.871944 ], [ 121.6061108, 38.879444 ], [ 121.6002777, 38.879444 ], [ 121.6002771, 38.871944 ] ] ] } },
{ "type": "Feature", "properties": { "Id": 0, "Sheet_ID": "SHEET 20", "label": "SHEET 20", "call_short": "G7824 .D3 S1 .J3", "call_num": "G7824 .D3 S1 .J3 SHEET B-20", "recid": "nb901yg9849", "websiteUrl": "https://purl.stanford.edu/nb901yg9849", "title": "石道街/傅家庄附近地形圖", "ckey": 9938142, "available": true, "iiifUrl": "https://purl.stanford.edu/nb901yg9849/iiif/manifest" }, "geometry": { "type": "Polygon", "coordinates": [ [ [ 121.5944437, 38.879444 ], [ 121.5944443, 38.886944 ], [ 121.5886107, 38.886944 ], [ 121.5886107, 38.879444 ], [ 121.5944437, 38.879444 ] ] ] } },
{ "type": "Feature", "properties": { "Id": 0, "Sheet_ID": "SHEET 21", "label": "SHEET 21", "call_short": "G7824 .D3 S1 .J3", "call_num": "G7824 .D3 S1 .J3 SHEET B-21", "recid": "hz612hr9957", "websiteUrl": "https://purl.stanford.edu/hz612hr9957", "title": "石道街/傅家庄附近地形圖", "ckey": 9938142, "available": true, "iiifUrl": "https://purl.stanford.edu/hz612hr9957/iiif/manifest" }, "geometry": { "type": "Polygon", "coordinates": [ [ [ 121.5944437, 38.871944 ], [ 121.5944443, 38.879444 ], [ 121.5886107, 38.879444 ], [ 121.5886107, 38.871944 ], [ 121.5944437, 38.871944 ] ] ] } }
]
}
