{
"type": "FeatureCollection",
"name": "index_map",
"xy_coordinate_resolution": 1e-07,
"features": [
{ "type": "Feature", "properties": { "Id": 0, "Sheet_ID": "SHEET 128", "label": "SHEET 128", "call_short": "G7908 .H4 S20 .J3", "call_num": "G7908 .H4 S20 .J3 SHEET 128", "recid": "dq774yj6455", "websiteUrl": "https://purl.stanford.edu/dq774yj6455", "title": "二万分一羅津要塞近傍", "ckey": 9751854, "available": true, "iiifUrl": "https://purl.stanford.edu/dq774yj6455/iiif/manifest" }, "geometry": { "type": "Polygon", "coordinates": [ [ [ 129.6541671, 41.969444 ], [ 129.7652782, 41.969444 ], [ 129.7652782, 42.0388885 ], [ 129.6541671, 42.0388885 ], [ 129.6541671, 41.969444 ] ] ] } },
{ "type": "Feature", "properties": { "Id": 0, "Sheet_ID": "SHEET 96", "label": "SHEET 96", "call_short": "G7908 .H4 S20 .J3", "call_num": "G7908 .H4 S20 .J3 SHEET 96", "recid": "qt403ww3123", "websiteUrl": "https://purl.stanford.edu/qt403ww3123", "title": "二万分一羅津要塞近傍", "ckey": 9751854, "available": true, "iiifUrl": "https://purl.stanford.edu/qt403ww3123/iiif/manifest" }, "geometry": { "type": "Polygon", "coordinates": [ [ [ 129.8763893, 41.969444 ], [ 129.9875004, 41.969444 ], [ 129.9875004, 42.0388885 ], [ 129.8763893, 42.0388885 ], [ 129.8763893, 41.969444 ] ] ] } },
{ "type": "Feature", "properties": { "Id": 0, "Sheet_ID": "SHEET 79", "label": "SHEET 79", "call_short": "G7908 .H4 S20 .J3", "call_num": "G7908 .H4 S20 .J3 SHEET 79", "recid": "rm302zb4083", "websiteUrl": "https://purl.stanford.edu/rm302zb4083", "title": "二万分一羅津要塞近傍", "ckey": 9751854, "available": true, "iiifUrl": "https://purl.stanford.edu/rm302zb4083/iiif/manifest" }, "geometry": { "type": "Polygon", "coordinates": [ [ [ 129.9875004, 41.969444 ], [ 130.0986115, 41.969444 ], [ 130.0986115, 42.0388885 ], [ 129.9875004, 42.0388885 ], [ 129.9875004, 41.969444 ] ] ] } },
{ "type": "Feature", "properties": { "Id": 0, "Sheet_ID": "SHEET 139", "label": "SHEET 139", "call_short": "G7908 .H4 S20 .J3", "call_num": "G7908 .H4 S20 .J3 SHEET 139", "recid": "yq719jf0557", "websiteUrl": "https://purl.stanford.edu/yq719jf0557", "title": "二万分一羅津要塞近傍", "ckey": 9751854, "available": true, "iiifUrl": "https://purl.stanford.edu/yq719jf0557/iiif/manifest" }, "geometry": { "type": "Polygon", "coordinates": [ [ [ 129.543056, 42.0388885 ], [ 129.6541671, 42.0388885 ], [ 129.6541671, 42.1083329 ], [ 129.543056, 42.1083329 ], [ 129.543056, 42.0388885 ] ] ] } },
{ "type": "Feature", "properties": { "Id": 0, "Sheet_ID": "SHEET 127", "label": "SHEET 127", "call_short": "G7908 .H4 S20 .J3", "call_num": "G7908 .H4 S20 .J3 SHEET 127", "recid": "zb041nk9088", "websiteUrl": "https://purl.stanford.edu/zb041nk9088", "title": "二万分一羅津要塞近傍", "ckey": 9751854, "available": true, "iiifUrl": "https://purl.stanford.edu/zb041nk9088/iiif/manifest" }, "geometry": { "type": "Polygon", "coordinates": [ [ [ 129.6541671, 42.0388885 ], [ 129.7652782, 42.0388885 ], [ 129.7652782, 42.1083329 ], [ 129.6541671, 42.1083329 ], [ 129.6541671, 42.0388885 ] ] ] } },
{ "type": "Feature", "properties": { "Id": 0, "Sheet_ID": "SHEET 112", "label": "SHEET 112", "call_short": "G7908 .H4 S20 .J3", "call_num": "G7908 .H4 S20 .J3 SHEET 112", "recid": "dm651dy4743", "websiteUrl": "https://purl.stanford.edu/dm651dy4743", "title": "二万分一羅津要塞近傍", "ckey": 9751854, "available": true, "iiifUrl": "https://purl.stanford.edu/dm651dy4743/iiif/manifest" }, "geometry": { "type": "Polygon", "coordinates": [ [ [ 129.7652782, 42.0388885 ], [ 129.8763893, 42.0388885 ], [ 129.8763893, 42.1083329 ], [ 129.7652782, 42.1083329 ], [ 129.7652782, 42.0388885 ] ] ] } },
{ "type": "Feature", "properties": { "Id": 0, "Sheet_ID": "SHEET 95", "label": "SHEET 95", "call_short": "G7908 .H4 S20 .J3", "call_num": "G7908 .H4 S20 .J3 SHEET 95", "recid": "yy311qr1665", "websiteUrl": "https://purl.stanford.edu/yy311qr1665", "title": "二万分一羅津要塞近傍", "ckey": 9751854, "available": true, "iiifUrl": "https://purl.stanford.edu/yy311qr1665/iiif/manifest" }, "geometry": { "type": "Polygon", "coordinates": [ [ [ 129.8763893, 42.0388885 ], [ 129.9875004, 42.0388885 ], [ 129.9875004, 42.1083329 ], [ 129.8763893, 42.1083329 ], [ 129.8763893, 42.0388885 ] ] ] } },
{ "type": "Feature", "properties": { "Id": 0, "Sheet_ID": "SHEET 78", "label": "SHEET 78", "call_short": "G7908 .H4 S20 .J3", "call_num": "G7908 .H4 S20 .J3 SHEET 78", "recid": "ms577cy7616", "websiteUrl": "https://purl.stanford.edu/ms577cy7616", "title": "二万分一羅津要塞近傍", "ckey": 9751854, "available": true, "iiifUrl": "https://purl.stanford.edu/ms577cy7616/iiif/manifest" }, "geometry": { "type": "Polygon", "coordinates": [ [ [ 129.9875004, 42.0388885 ], [ 130.0986115, 42.0388885 ], [ 130.0986115, 42.1083329 ], [ 129.9875004, 42.1083329 ], [ 129.9875004, 42.0388885 ] ] ] } },
{ "type": "Feature", "properties": { "Id": 0, "Sheet_ID": "SHEET 62", "label": "SHEET 62", "call_short": "G7908 .H4 S20 .J3", "call_num": "G7908 .H4 S20 .J3 SHEET 62", "recid": "cj775jv2333", "websiteUrl": "https://purl.stanford.edu/cj775jv2333", "title": "二万分一羅津要塞近傍", "ckey": 9751854, "available": true, "iiifUrl": "https://purl.stanford.edu/cj775jv2333/iiif/manifest" }, "geometry": { "type": "Polygon", "coordinates": [ [ [ 130.0986115, 42.0388885 ], [ 130.2097225, 42.0388885 ], [ 130.2097225, 42.1083329 ], [ 130.0986115, 42.1083329 ], [ 130.0986115, 42.0388885 ] ] ] } },
{ "type": "Feature", "properties": { "Id": 0, "Sheet_ID": "SHEET 138", "label": "SHEET 138", "call_short": "G7908 .H4 S20 .J3", "call_num": "G7908 .H4 S20 .J3 SHEET 138", "recid": "mf440zr7362", "websiteUrl": "https://purl.stanford.edu/mf440zr7362", "title": "二万分一羅津要塞近傍", "ckey": 9751854, "available": true, "iiifUrl": "https://purl.stanford.edu/mf440zr7362/iiif/manifest" }, "geometry": { "type": "Polygon", "coordinates": [ [ [ 129.543056, 42.1083329 ], [ 129.6541671, 42.1083329 ], [ 129.6541671, 42.1777774 ], [ 129.543056, 42.1777774 ], [ 129.543056, 42.1083329 ] ] ] } },
{ "type": "Feature", "properties": { "Id": 0, "Sheet_ID": "SHEET 126", "label": "SHEET 126", "call_short": "G7908 .H4 S20 .J3", "call_num": "G7908 .H4 S20 .J3 SHEET 126", "recid": "jj745bp8174", "websiteUrl": "https://purl.stanford.edu/jj745bp8174", "title": "二万分一羅津要塞近傍", "ckey": 9751854, "available": true, "iiifUrl": "https://purl.stanford.edu/jj745bp8174/iiif/manifest" }, "geometry": { "type": "Polygon", "coordinates": [ [ [ 129.6541671, 42.1083329 ], [ 129.7652782, 42.1083329 ], [ 129.7652782, 42.1777774 ], [ 129.6541671, 42.1777774 ], [ 129.6541671, 42.1083329 ] ] ] } },
{ "type": "Feature", "properties": { "Id": 0, "Sheet_ID": "SHEET 111", "label": "SHEET 111", "call_short": "G7908 .H4 S20 .J3", "call_num": "G7908 .H4 S20 .J3 SHEET 111", "recid": "hx197pk1217", "websiteUrl": "https://purl.stanford.edu/hx197pk1217", "title": "二万分一羅津要塞近傍", "ckey": 9751854, "available": true, "iiifUrl": "https://purl.stanford.edu/hx197pk1217/iiif/manifest" }, "geometry": { "type": "Polygon", "coordinates": [ [ [ 129.7652782, 42.1083329 ], [ 129.8763893, 42.1083329 ], [ 129.8763893, 42.1777774 ], [ 129.7652782, 42.1777774 ], [ 129.7652782, 42.1083329 ] ] ] } },
{ "type": "Feature", "properties": { "Id": 0, "Sheet_ID": "SHEET 94", "label": "SHEET 94", "call_short": "G7908 .H4 S20 .J3", "call_num": "G7908 .H4 S20 .J3 SHEET 94", "recid": "tx856pw7203", "websiteUrl": "https://purl.stanford.edu/tx856pw7203", "title": "二万分一羅津要塞近傍", "ckey": 9751854, "available": true, "iiifUrl": "https://purl.stanford.edu/tx856pw7203/iiif/manifest" }, "geometry": { "type": "Polygon", "coordinates": [ [ [ 129.8763893, 42.1083329 ], [ 129.9875004, 42.1083329 ], [ 129.9875004, 42.1777774 ], [ 129.8763893, 42.1777774 ], [ 129.8763893, 42.1083329 ] ] ] } },
{ "type": "Feature", "properties": { "Id": 0, "Sheet_ID": "SHEET 77", "label": "SHEET 77", "call_short": "G7908 .H4 S20 .J3", "call_num": "G7908 .H4 S20 .J3 SHEET 77", "recid": "yq287wt0460", "websiteUrl": "https://purl.stanford.edu/yq287wt0460", "title": "二万分一羅津要塞近傍", "ckey": 9751854, "available": true, "iiifUrl": "https://purl.stanford.edu/yq287wt0460/iiif/manifest" }, "geometry": { "type": "Polygon", "coordinates": [ [ [ 129.9875004, 42.1083329 ], [ 130.0986115, 42.1083329 ], [ 130.0986115, 42.1777774 ], [ 129.9875004, 42.1777774 ], [ 129.9875004, 42.1083329 ] ] ] } },
{ "type": "Feature", "properties": { "Id": 0, "Sheet_ID": "SHEET 61", "label": "SHEET 61", "call_short": "G7908 .H4 S20 .J3", "call_num": "G7908 .H4 S20 .J3 SHEET 61", "recid": "rp349rs0593", "websiteUrl": "https://purl.stanford.edu/rp349rs0593", "title": "二万分一羅津要塞近傍", "ckey": 9751854, "available": true, "iiifUrl": "https://purl.stanford.edu/rp349rs0593/iiif/manifest" }, "geometry": { "type": "Polygon", "coordinates": [ [ [ 130.0986115, 42.1083329 ], [ 130.2097225, 42.1083329 ], [ 130.2097225, 42.1777774 ], [ 130.0986115, 42.1777774 ], [ 130.0986115, 42.1083329 ] ] ] } },
{ "type": "Feature", "properties": { "Id": 0, "Sheet_ID": "SHEET 46", "label": "SHEET 46", "call_short": "G7908 .H4 S20 .J3", "call_num": "G7908 .H4 S20 .J3 SHEET 46", "recid": "gb853vq5561", "websiteUrl": "https://purl.stanford.edu/gb853vq5561", "title": "二万分一羅津要塞近傍", "ckey": 9751854, "available": true, "iiifUrl": "https://purl.stanford.edu/gb853vq5561/iiif/manifest" }, "geometry": { "type": "Polygon", "coordinates": [ [ [ 130.2097225, 42.1083329 ], [ 130.3208336, 42.1083329 ], [ 130.3208336, 42.1777774 ], [ 130.2097225, 42.1777774 ], [ 130.2097225, 42.1083329 ] ] ] } },
{ "type": "Feature", "properties": { "Id": 0, "Sheet_ID": "SHEET 137", "label": "SHEET 137", "call_short": "G7908 .H4 S20 .J3", "call_num": "G7908 .H4 S20 .J3 SHEET 137", "recid": "vm601qh6604", "websiteUrl": "https://purl.stanford.edu/vm601qh6604", "title": "二万分一羅津要塞近傍", "ckey": 9751854, "available": true, "iiifUrl": "https://purl.stanford.edu/vm601qh6604/iiif/manifest" }, "geometry": { "type": "Polygon", "coordinates": [ [ [ 129.543056, 42.1777774 ], [ 129.6541671, 42.1777774 ], [ 129.6541671, 42.2472219 ], [ 129.543056, 42.2472219 ], [ 129.543056, 42.1777774 ] ] ] } },
{ "type": "Feature", "properties": { "Id": 0, "Sheet_ID": "SHEET 125", "label": "SHEET 125", "call_short": "G7908 .H4 S20 .J3", "call_num": "G7908 .H4 S20 .J3 SHEET 125", "recid": "fq577ky8237", "websiteUrl": "https://purl.stanford.edu/fq577ky8237", "title": "二万分一羅津要塞近傍", "ckey": 9751854, "available": true, "iiifUrl": "https://purl.stanford.edu/fq577ky8237/iiif/manifest" }, "geometry": { "type": "Polygon", "coordinates": [ [ [ 129.6541671, 42.1777774 ], [ 129.7652782, 42.1777774 ], [ 129.7652782, 42.2472219 ], [ 129.6541671, 42.2472219 ], [ 129.6541671, 42.1777774 ] ] ] } },
{ "type": "Feature", "properties": { "Id": 0, "Sheet_ID": "SHEET 110", "label": "SHEET 110", "call_short": "G7908 .H4 S20 .J3", "call_num": "G7908 .H4 S20 .J3 SHEET 110", "recid": "jv355zb3631", "websiteUrl": "https://purl.stanford.edu/jv355zb3631", "title": "二万分一羅津要塞近傍", "ckey": 9751854, "available": true, "iiifUrl": "https://purl.stanford.edu/jv355zb3631/iiif/manifest" }, "geometry": { "type": "Polygon", "coordinates": [ [ [ 129.7652782, 42.1777774 ], [ 129.8763893, 42.1777774 ], [ 129.8763893, 42.2472219 ], [ 129.7652782, 42.2472219 ], [ 129.7652782, 42.1777774 ] ] ] } },
{ "type": "Feature", "properties": { "Id": 0, "Sheet_ID": "SHEET 93", "label": "SHEET 93", "call_short": "G7908 .H4 S20 .J3", "call_num": "G7908 .H4 S20 .J3 SHEET 93", "recid": "jj852tc9131", "websiteUrl": "https://purl.stanford.edu/jj852tc9131", "title": "二万分一羅津要塞近傍", "ckey": 9751854, "available": true, "iiifUrl": "https://purl.stanford.edu/jj852tc9131/iiif/manifest" }, "geometry": { "type": "Polygon", "coordinates": [ [ [ 129.8763893, 42.1777774 ], [ 129.9875004, 42.1777774 ], [ 129.9875004, 42.2472219 ], [ 129.8763893, 42.2472219 ], [ 129.8763893, 42.1777774 ] ] ] } },
{ "type": "Feature", "properties": { "Id": 0, "Sheet_ID": "SHEET 76", "label": "SHEET 76", "call_short": "G7908 .H4 S20 .J3", "call_num": "G7908 .H4 S20 .J3 SHEET 76", "recid": "dk546jf3373", "websiteUrl": "https://purl.stanford.edu/dk546jf3373", "title": "二万分一羅津要塞近傍", "ckey": 9751854, "available": true, "iiifUrl": "https://purl.stanford.edu/dk546jf3373/iiif/manifest" }, "geometry": { "type": "Polygon", "coordinates": [ [ [ 129.9875004, 42.1777774 ], [ 130.0986115, 42.1777774 ], [ 130.0986115, 42.2472219 ], [ 129.9875004, 42.2472219 ], [ 129.9875004, 42.1777774 ] ] ] } },
{ "type": "Feature", "properties": { "Id": 0, "Sheet_ID": "SHEET 60", "label": "SHEET 60", "call_short": "G7908 .H4 S20 .J3", "call_num": "G7908 .H4 S20 .J3 SHEET 60", "recid": "bf289vt4443", "websiteUrl": "https://purl.stanford.edu/bf289vt4443", "title": "二万分一羅津要塞近傍", "ckey": 9751854, "available": true, "iiifUrl": "https://purl.stanford.edu/bf289vt4443/iiif/manifest" }, "geometry": { "type": "Polygon", "coordinates": [ [ [ 130.0986115, 42.1777774 ], [ 130.2097225, 42.1777774 ], [ 130.2097225, 42.2472219 ], [ 130.0986115, 42.2472219 ], [ 130.0986115, 42.1777774 ] ] ] } },
{ "type": "Feature", "properties": { "Id": 0, "Sheet_ID": "SHEET 45", "label": "SHEET 45", "call_short": "G7908 .H4 S20 .J3", "call_num": "G7908 .H4 S20 .J3 SHEET 45", "recid": "qt865qy6114", "websiteUrl": "https://purl.stanford.edu/qt865qy6114", "title": "二万分一羅津要塞近傍", "ckey": 9751854, "available": true, "iiifUrl": "https://purl.stanford.edu/qt865qy6114/iiif/manifest" }, "geometry": { "type": "Polygon", "coordinates": [ [ [ 130.2097225, 42.1777774 ], [ 130.3208336, 42.1777774 ], [ 130.3208336, 42.2472219 ], [ 130.2097225, 42.2472219 ], [ 130.2097225, 42.1777774 ] ] ] } },
{ "type": "Feature", "properties": { "Id": 0, "Sheet_ID": "SHEET 32", "label": "SHEET 32", "call_short": "G7908 .H4 S20 .J3", "call_num": "G7908 .H4 S20 .J3 SHEET 32", "recid": "gd329hk4862", "websiteUrl": "https://purl.stanford.edu/gd329hk4862", "title": "二万分一羅津要塞近傍", "ckey": 9751854, "available": true, "iiifUrl": "https://purl.stanford.edu/gd329hk4862/iiif/manifest" }, "geometry": { "type": "Polygon", "coordinates": [ [ [ 130.3208336, 42.1777774 ], [ 130.4319447, 42.1777774 ], [ 130.4319447, 42.2472219 ], [ 130.3208336, 42.2472219 ], [ 130.3208336, 42.1777774 ] ] ] } },
{ "type": "Feature", "properties": { "Id": 0, "Sheet_ID": "SHEET 20", "label": "SHEET 20", "call_short": "G7908 .H4 S20 .J3", "call_num": "G7908 .H4 S20 .J3 SHEET 20", "recid": "bs663rb3948", "websiteUrl": "https://purl.stanford.edu/bs663rb3948", "title": "二万分一羅津要塞近傍", "ckey": 9751854, "available": true, "iiifUrl": "https://purl.stanford.edu/bs663rb3948/iiif/manifest" }, "geometry": { "type": "Polygon", "coordinates": [ [ [ 130.4319447, 42.1777774 ], [ 130.5430558, 42.1777774 ], [ 130.5430558, 42.2472219 ], [ 130.4319447, 42.2472219 ], [ 130.4319447, 42.1777774 ] ] ] } },
{ "type": "Feature", "properties": { "Id": 0, "Sheet_ID": "SHEET 136", "label": "SHEET 136", "call_short": "G7908 .H4 S20 .J3", "call_num": "G7908 .H4 S20 .J3 SHEET 136", "recid": "rq607by3599", "websiteUrl": "https://purl.stanford.edu/rq607by3599", "title": "二万分一羅津要塞近傍", "ckey": 9751854, "available": true, "iiifUrl": "https://purl.stanford.edu/rq607by3599/iiif/manifest" }, "geometry": { "type": "Polygon", "coordinates": [ [ [ 129.543056, 42.2472219 ], [ 129.6541671, 42.2472219 ], [ 129.6541671, 42.3166664 ], [ 129.543056, 42.3166664 ], [ 129.543056, 42.2472219 ] ] ] } },
{ "type": "Feature", "properties": { "Id": 0, "Sheet_ID": "SHEET 124", "label": "SHEET 124", "call_short": "G7908 .H4 S20 .J3", "call_num": "G7908 .H4 S20 .J3 SHEET 124", "recid": "cs865tr5534", "websiteUrl": "https://purl.stanford.edu/cs865tr5534", "title": "二万分一羅津要塞近傍", "ckey": 9751854, "available": true, "iiifUrl": "https://purl.stanford.edu/cs865tr5534/iiif/manifest" }, "geometry": { "type": "Polygon", "coordinates": [ [ [ 129.6541671, 42.2472219 ], [ 129.7652782, 42.2472219 ], [ 129.7652782, 42.3166664 ], [ 129.6541671, 42.3166664 ], [ 129.6541671, 42.2472219 ] ] ] } },
{ "type": "Feature", "properties": { "Id": 0, "Sheet_ID": "SHEET 109", "label": "SHEET 109", "call_short": "G7908 .H4 S20 .J3", "call_num": "G7908 .H4 S20 .J3 SHEET 109", "recid": "gw972ss1084", "websiteUrl": "https://purl.stanford.edu/gw972ss1084", "title": "二万分一羅津要塞近傍", "ckey": 9751854, "available": true, "iiifUrl": "https://purl.stanford.edu/gw972ss1084/iiif/manifest" }, "geometry": { "type": "Polygon", "coordinates": [ [ [ 129.7652782, 42.2472219 ], [ 129.8763893, 42.2472219 ], [ 129.8763893, 42.3166664 ], [ 129.7652782, 42.3166664 ], [ 129.7652782, 42.2472219 ] ] ] } },
{ "type": "Feature", "properties": { "Id": 0, "Sheet_ID": "SHEET 92", "label": "SHEET 92", "call_short": "G7908 .H4 S20 .J3", "call_num": "G7908 .H4 S20 .J3 SHEET 92", "recid": "fk484hp5241", "websiteUrl": "https://purl.stanford.edu/fk484hp5241", "title": "二万分一羅津要塞近傍", "ckey": 9751854, "available": true, "iiifUrl": "https://purl.stanford.edu/fk484hp5241/iiif/manifest" }, "geometry": { "type": "Polygon", "coordinates": [ [ [ 129.8763893, 42.2472219 ], [ 129.9875004, 42.2472219 ], [ 129.9875004, 42.3166664 ], [ 129.8763893, 42.3166664 ], [ 129.8763893, 42.2472219 ] ] ] } },
{ "type": "Feature", "properties": { "Id": 0, "Sheet_ID": "SHEET 75", "label": "SHEET 75", "call_short": "G7908 .H4 S20 .J3", "call_num": "G7908 .H4 S20 .J3 SHEET 75", "recid": "yy260hx8292", "websiteUrl": "https://purl.stanford.edu/yy260hx8292", "title": "二万分一羅津要塞近傍", "ckey": 9751854, "available": true, "iiifUrl": "https://purl.stanford.edu/yy260hx8292/iiif/manifest" }, "geometry": { "type": "Polygon", "coordinates": [ [ [ 129.9875004, 42.2472219 ], [ 130.0986115, 42.2472219 ], [ 130.0986115, 42.3166664 ], [ 129.9875004, 42.3166664 ], [ 129.9875004, 42.2472219 ] ] ] } },
{ "type": "Feature", "properties": { "Id": 0, "Sheet_ID": "SHEET 59", "label": "SHEET 59", "call_short": "G7908 .H4 S20 .J3", "call_num": "G7908 .H4 S20 .J3 SHEET 59", "recid": "dv692gb7533", "websiteUrl": "https://purl.stanford.edu/dv692gb7533", "title": "二万分一羅津要塞近傍", "ckey": 9751854, "available": true, "iiifUrl": "https://purl.stanford.edu/dv692gb7533/iiif/manifest" }, "geometry": { "type": "Polygon", "coordinates": [ [ [ 130.0986115, 42.2472219 ], [ 130.2097225, 42.2472219 ], [ 130.2097225, 42.3166664 ], [ 130.0986115, 42.3166664 ], [ 130.0986115, 42.2472219 ] ] ] } },
{ "type": "Feature", "properties": { "Id": 0, "Sheet_ID": "SHEET 44", "label": "SHEET 44", "call_short": "G7908 .H4 S20 .J3", "call_num": "G7908 .H4 S20 .J3 SHEET 44", "recid": "hk400tk5835", "websiteUrl": "https://purl.stanford.edu/hk400tk5835", "title": "二万分一羅津要塞近傍", "ckey": 9751854, "available": true, "iiifUrl": "https://purl.stanford.edu/hk400tk5835/iiif/manifest" }, "geometry": { "type": "Polygon", "coordinates": [ [ [ 130.2097225, 42.2472219 ], [ 130.3208336, 42.2472219 ], [ 130.3208336, 42.3166664 ], [ 130.2097225, 42.3166664 ], [ 130.2097225, 42.2472219 ] ] ] } },
{ "type": "Feature", "properties": { "Id": 0, "Sheet_ID": "SHEET 31", "label": "SHEET 31", "call_short": "G7908 .H4 S20 .J3", "call_num": "G7908 .H4 S20 .J3 SHEET 31", "recid": "jj649vx4312", "websiteUrl": "https://purl.stanford.edu/jj649vx4312", "title": "二万分一羅津要塞近傍", "ckey": 9751854, "available": true, "iiifUrl": "https://purl.stanford.edu/jj649vx4312/iiif/manifest" }, "geometry": { "type": "Polygon", "coordinates": [ [ [ 130.3208336, 42.2472219 ], [ 130.4319447, 42.2472219 ], [ 130.4319447, 42.3166664 ], [ 130.3208336, 42.3166664 ], [ 130.3208336, 42.2472219 ] ] ] } },
{ "type": "Feature", "properties": { "Id": 0, "Sheet_ID": "SHEET 19", "label": "SHEET 19", "call_short": "G7908 .H4 S20 .J3", "call_num": "G7908 .H4 S20 .J3 SHEET 19", "recid": "bq954zj2787", "websiteUrl": "https://purl.stanford.edu/bq954zj2787", "title": "二万分一羅津要塞近傍", "ckey": 9751854, "available": true, "iiifUrl": "https://purl.stanford.edu/bq954zj2787/iiif/manifest" }, "geometry": { "type": "Polygon", "coordinates": [ [ [ 130.4319447, 42.2472219 ], [ 130.5430558, 42.2472219 ], [ 130.5430558, 42.3166664 ], [ 130.4319447, 42.3166664 ], [ 130.4319447, 42.2472219 ] ] ] } },
{ "type": "Feature", "properties": { "Id": 0, "Sheet_ID": "SHEET 12", "label": "SHEET 12", "call_short": "G7908 .H4 S20 .J3", "call_num": "G7908 .H4 S20 .J3 SHEET 12", "recid": "dx563gh9607", "websiteUrl": "https://purl.stanford.edu/dx563gh9607", "title": "二万分一羅津要塞近傍", "ckey": 9751854, "available": true, "iiifUrl": "https://purl.stanford.edu/dx563gh9607/iiif/manifest" }, "geometry": { "type": "Polygon", "coordinates": [ [ [ 130.5430558, 42.2472219 ], [ 130.6541669, 42.2472219 ], [ 130.6541669, 42.3166664 ], [ 130.5430558, 42.3166664 ], [ 130.5430558, 42.2472219 ] ] ] } },
{ "type": "Feature", "properties": { "Id": 0, "Sheet_ID": "SHEET 5", "label": "SHEET 5", "call_short": "G7908 .H4 S20 .J3", "call_num": "G7908 .H4 S20 .J3 SHEET 5", "recid": "ks789vd5389", "websiteUrl": "https://purl.stanford.edu/ks789vd5389", "title": "二万分一羅津要塞近傍", "ckey": 9751854, "available": true, "iiifUrl": "https://purl.stanford.edu/ks789vd5389/iiif/manifest" }, "geometry": { "type": "Polygon", "coordinates": [ [ [ 130.6541669, 42.2472219 ], [ 130.765278, 42.2472219 ], [ 130.765278, 42.3166664 ], [ 130.6541669, 42.3166664 ], [ 130.6541669, 42.2472219 ] ] ] } },
{ "type": "Feature", "properties": { "Id": 0, "Sheet_ID": "SHEET 135", "label": "SHEET 135", "call_short": "G7908 .H4 S20 .J3", "call_num": "G7908 .H4 S20 .J3 SHEET 135", "recid": "tc694fr1567", "websiteUrl": "https://purl.stanford.edu/tc694fr1567", "title": "二万分一羅津要塞近傍", "ckey": 9751854, "available": true, "iiifUrl": "https://purl.stanford.edu/tc694fr1567/iiif/manifest" }, "geometry": { "type": "Polygon", "coordinates": [ [ [ 129.543056, 42.3166664 ], [ 129.6541671, 42.3166664 ], [ 129.6541671, 42.3861108 ], [ 129.543056, 42.3861108 ], [ 129.543056, 42.3166664 ] ] ] } },
{ "type": "Feature", "properties": { "Id": 0, "Sheet_ID": "SHEET 123", "label": "SHEET 123", "call_short": "G7908 .H4 S20 .J3", "call_num": "G7908 .H4 S20 .J3 SHEET 123", "recid": "hb529gx0499", "websiteUrl": "https://purl.stanford.edu/hb529gx0499", "title": "二万分一羅津要塞近傍", "ckey": 9751854, "available": true, "iiifUrl": "https://purl.stanford.edu/hb529gx0499/iiif/manifest" }, "geometry": { "type": "Polygon", "coordinates": [ [ [ 129.6541671, 42.3166664 ], [ 129.7652782, 42.3166664 ], [ 129.7652782, 42.3861108 ], [ 129.6541671, 42.3861108 ], [ 129.6541671, 42.3166664 ] ] ] } },
{ "type": "Feature", "properties": { "Id": 0, "Sheet_ID": "SHEET 108", "label": "SHEET 108", "call_short": "G7908 .H4 S20 .J3", "call_num": "G7908 .H4 S20 .J3 SHEET 108", "recid": "pm445sc5032", "websiteUrl": "https://purl.stanford.edu/pm445sc5032", "title": "二万分一羅津要塞近傍", "ckey": 9751854, "available": true, "iiifUrl": "https://purl.stanford.edu/pm445sc5032/iiif/manifest" }, "geometry": { "type": "Polygon", "coordinates": [ [ [ 129.7652782, 42.3166664 ], [ 129.8763893, 42.3166664 ], [ 129.8763893, 42.3861108 ], [ 129.7652782, 42.3861108 ], [ 129.7652782, 42.3166664 ] ] ] } },
{ "type": "Feature", "properties": { "Id": 0, "Sheet_ID": "SHEET 91", "label": "SHEET 91", "call_short": "G7908 .H4 S20 .J3", "call_num": "G7908 .H4 S20 .J3 SHEET 91", "recid": "ds376by7986", "websiteUrl": "https://purl.stanford.edu/ds376by7986", "title": "二万分一羅津要塞近傍", "ckey": 9751854, "available": true, "iiifUrl": "https://purl.stanford.edu/ds376by7986/iiif/manifest" }, "geometry": { "type": "Polygon", "coordinates": [ [ [ 129.8763893, 42.3166664 ], [ 129.9875004, 42.3166664 ], [ 129.9875004, 42.3861108 ], [ 129.8763893, 42.3861108 ], [ 129.8763893, 42.3166664 ] ] ] } },
{ "type": "Feature", "properties": { "Id": 0, "Sheet_ID": "SHEET 74", "label": "SHEET 74", "call_short": "G7908 .H4 S20 .J3", "call_num": "G7908 .H4 S20 .J3 SHEET 74", "recid": "zm888jw1003", "websiteUrl": "https://purl.stanford.edu/zm888jw1003", "title": "二万分一羅津要塞近傍", "ckey": 9751854, "available": true, "iiifUrl": "https://purl.stanford.edu/zm888jw1003/iiif/manifest" }, "geometry": { "type": "Polygon", "coordinates": [ [ [ 129.9875004, 42.3166664 ], [ 130.0986115, 42.3166664 ], [ 130.0986115, 42.3861108 ], [ 129.9875004, 42.3861108 ], [ 129.9875004, 42.3166664 ] ] ] } },
{ "type": "Feature", "properties": { "Id": 0, "Sheet_ID": "SHEET 58", "label": "SHEET 58", "call_short": "G7908 .H4 S20 .J3", "call_num": "G7908 .H4 S20 .J3 SHEET 58", "recid": "qt843sm8523", "websiteUrl": "https://purl.stanford.edu/qt843sm8523", "title": "二万分一羅津要塞近傍", "ckey": 9751854, "available": true, "iiifUrl": "https://purl.stanford.edu/qt843sm8523/iiif/manifest" }, "geometry": { "type": "Polygon", "coordinates": [ [ [ 130.0986115, 42.3166664 ], [ 130.2097225, 42.3166664 ], [ 130.2097225, 42.3861108 ], [ 130.0986115, 42.3861108 ], [ 130.0986115, 42.3166664 ] ] ] } },
{ "type": "Feature", "properties": { "Id": 0, "Sheet_ID": "SHEET 43", "label": "SHEET 43", "call_short": "G7908 .H4 S20 .J3", "call_num": "G7908 .H4 S20 .J3 SHEET 43", "recid": "cb204mp9191", "websiteUrl": "https://purl.stanford.edu/cb204mp9191", "title": "二万分一羅津要塞近傍", "ckey": 9751854, "available": true, "iiifUrl": "https://purl.stanford.edu/cb204mp9191/iiif/manifest" }, "geometry": { "type": "Polygon", "coordinates": [ [ [ 130.2097225, 42.3166664 ], [ 130.3208336, 42.3166664 ], [ 130.3208336, 42.3861108 ], [ 130.2097225, 42.3861108 ], [ 130.2097225, 42.3166664 ] ] ] } },
{ "type": "Feature", "properties": { "Id": 0, "Sheet_ID": "SHEET 30", "label": "SHEET 30", "call_short": "G7908 .H4 S20 .J3", "call_num": "G7908 .H4 S20 .J3 SHEET 30", "recid": "mm448cv9804", "websiteUrl": "https://purl.stanford.edu/mm448cv9804", "title": "二万分一羅津要塞近傍", "ckey": 9751854, "available": true, "iiifUrl": "https://purl.stanford.edu/mm448cv9804/iiif/manifest" }, "geometry": { "type": "Polygon", "coordinates": [ [ [ 130.3208336, 42.3166664 ], [ 130.4319447, 42.3166664 ], [ 130.4319447, 42.3861108 ], [ 130.3208336, 42.3861108 ], [ 130.3208336, 42.3166664 ] ] ] } },
{ "type": "Feature", "properties": { "Id": 0, "Sheet_ID": "SHEET 18", "label": "SHEET 18", "call_short": "G7908 .H4 S20 .J3", "call_num": "G7908 .H4 S20 .J3 SHEET 18", "recid": "vq336pp3215", "websiteUrl": "https://purl.stanford.edu/vq336pp3215", "title": "二万分一羅津要塞近傍", "ckey": 9751854, "available": true, "iiifUrl": "https://purl.stanford.edu/vq336pp3215/iiif/manifest" }, "geometry": { "type": "Polygon", "coordinates": [ [ [ 130.4319447, 42.3166664 ], [ 130.5430558, 42.3166664 ], [ 130.5430558, 42.3861108 ], [ 130.4319447, 42.3861108 ], [ 130.4319447, 42.3166664 ] ] ] } },
{ "type": "Feature", "properties": { "Id": 0, "Sheet_ID": "SHEET 11", "label": "SHEET 11", "call_short": "G7908 .H4 S20 .J3", "call_num": "G7908 .H4 S20 .J3 SHEET 11", "recid": "nw829gv4392", "websiteUrl": "https://purl.stanford.edu/nw829gv4392", "title": "二万分一羅津要塞近傍", "ckey": 9751854, "available": true, "iiifUrl": "https://purl.stanford.edu/nw829gv4392/iiif/manifest" }, "geometry": { "type": "Polygon", "coordinates": [ [ [ 130.5430558, 42.3166664 ], [ 130.6541669, 42.3166664 ], [ 130.6541669, 42.3861108 ], [ 130.5430558, 42.3861108 ], [ 130.5430558, 42.3166664 ] ] ] } },
{ "type": "Feature", "properties": { "Id": 0, "Sheet_ID": "SHEET 4", "label": "SHEET 4", "call_short": "G7908 .H4 S20 .J3", "call_num": "G7908 .H4 S20 .J3 SHEET 4", "recid": "qb641xk0138", "websiteUrl": "https://purl.stanford.edu/qb641xk0138", "title": "二万分一羅津要塞近傍", "ckey": 9751854, "available": true, "iiifUrl": "https://purl.stanford.edu/qb641xk0138/iiif/manifest" }, "geometry": { "type": "Polygon", "coordinates": [ [ [ 130.6541669, 42.3166664 ], [ 130.765278, 42.3166664 ], [ 130.765278, 42.3861108 ], [ 130.6541669, 42.3861108 ], [ 130.6541669, 42.3166664 ] ] ] } },
{ "type": "Feature", "properties": { "Id": 0, "Sheet_ID": "SHEET 134", "label": "SHEET 134", "call_short": "G7908 .H4 S20 .J3", "call_num": "G7908 .H4 S20 .J3 SHEET 134", "recid": "fp555bg8068", "websiteUrl": "https://purl.stanford.edu/fp555bg8068", "title": "二万分一羅津要塞近傍", "ckey": 9751854, "available": true, "iiifUrl": "https://purl.stanford.edu/fp555bg8068/iiif/manifest" }, "geometry": { "type": "Polygon", "coordinates": [ [ [ 129.543056, 42.3861108 ], [ 129.6541671, 42.3861108 ], [ 129.6541671, 42.4555553 ], [ 129.543056, 42.4555553 ], [ 129.543056, 42.3861108 ] ] ] } },
{ "type": "Feature", "properties": { "Id": 0, "Sheet_ID": "SHEET 122", "label": "SHEET 122", "call_short": "G7908 .H4 S20 .J3", "call_num": "G7908 .H4 S20 .J3 SHEET 122", "recid": "rx014ns3936", "websiteUrl": "https://purl.stanford.edu/rx014ns3936", "title": "二万分一羅津要塞近傍", "ckey": 9751854, "available": true, "iiifUrl": "https://purl.stanford.edu/rx014ns3936/iiif/manifest" }, "geometry": { "type": "Polygon", "coordinates": [ [ [ 129.6541671, 42.3861108 ], [ 129.7652782, 42.3861108 ], [ 129.7652782, 42.4555553 ], [ 129.6541671, 42.4555553 ], [ 129.6541671, 42.3861108 ] ] ] } },
{ "type": "Feature", "properties": { "Id": 0, "Sheet_ID": "SHEET 107", "label": "SHEET 107", "call_short": "G7908 .H4 S20 .J3", "call_num": "G7908 .H4 S20 .J3 SHEET 107", "recid": "rh323qr7474", "websiteUrl": "https://purl.stanford.edu/rh323qr7474", "title": "二万分一羅津要塞近傍", "ckey": 9751854, "available": true, "iiifUrl": "https://purl.stanford.edu/rh323qr7474/iiif/manifest" }, "geometry": { "type": "Polygon", "coordinates": [ [ [ 129.7652782, 42.3861108 ], [ 129.8763893, 42.3861108 ], [ 129.8763893, 42.4555553 ], [ 129.7652782, 42.4555553 ], [ 129.7652782, 42.3861108 ] ] ] } },
{ "type": "Feature", "properties": { "Id": 0, "Sheet_ID": "SHEET 90", "label": "SHEET 90", "call_short": "G7908 .H4 S20 .J3", "call_num": "G7908 .H4 S20 .J3 SHEET 90", "recid": "gw094hw1256", "websiteUrl": "https://purl.stanford.edu/gw094hw1256", "title": "二万分一羅津要塞近傍", "ckey": 9751854, "available": true, "iiifUrl": "https://purl.stanford.edu/gw094hw1256/iiif/manifest" }, "geometry": { "type": "Polygon", "coordinates": [ [ [ 129.8763893, 42.3861108 ], [ 129.9875004, 42.3861108 ], [ 129.9875004, 42.4555553 ], [ 129.8763893, 42.4555553 ], [ 129.8763893, 42.3861108 ] ] ] } },
{ "type": "Feature", "properties": { "Id": 0, "Sheet_ID": "SHEET 73", "label": "SHEET 73", "call_short": "G7908 .H4 S20 .J3", "call_num": "G7908 .H4 S20 .J3 SHEET 73", "recid": "bw683pm1910", "websiteUrl": "https://purl.stanford.edu/bw683pm1910", "title": "二万分一羅津要塞近傍", "ckey": 9751854, "available": true, "iiifUrl": "https://purl.stanford.edu/bw683pm1910/iiif/manifest" }, "geometry": { "type": "Polygon", "coordinates": [ [ [ 129.9875004, 42.3861108 ], [ 130.0986115, 42.3861108 ], [ 130.0986115, 42.4555553 ], [ 129.9875004, 42.4555553 ], [ 129.9875004, 42.3861108 ] ] ] } },
{ "type": "Feature", "properties": { "Id": 0, "Sheet_ID": "SHEET 57", "label": "SHEET 57", "call_short": "G7908 .H4 S20 .J3", "call_num": "G7908 .H4 S20 .J3 SHEET 57", "recid": "rg967ys1492", "websiteUrl": "https://purl.stanford.edu/rg967ys1492", "title": "二万分一羅津要塞近傍", "ckey": 9751854, "available": true, "iiifUrl": "https://purl.stanford.edu/rg967ys1492/iiif/manifest" }, "geometry": { "type": "Polygon", "coordinates": [ [ [ 130.0986115, 42.3861108 ], [ 130.2097225, 42.3861108 ], [ 130.2097225, 42.4555553 ], [ 130.0986115, 42.4555553 ], [ 130.0986115, 42.3861108 ] ] ] } },
{ "type": "Feature", "properties": { "Id": 0, "Sheet_ID": "SHEET 42", "label": "SHEET 42", "call_short": "G7908 .H4 S20 .J3", "call_num": "G7908 .H4 S20 .J3 SHEET 42", "recid": "dx693kf1069", "websiteUrl": "https://purl.stanford.edu/dx693kf1069", "title": "二万分一羅津要塞近傍", "ckey": 9751854, "available": true, "iiifUrl": "https://purl.stanford.edu/dx693kf1069/iiif/manifest" }, "geometry": { "type": "Polygon", "coordinates": [ [ [ 130.2097225, 42.3861108 ], [ 130.3208336, 42.3861108 ], [ 130.3208336, 42.4555553 ], [ 130.2097225, 42.4555553 ], [ 130.2097225, 42.3861108 ] ] ] } },
{ "type": "Feature", "properties": { "Id": 0, "Sheet_ID": "SHEET 29", "label": "SHEET 29", "call_short": "G7908 .H4 S20 .J3", "call_num": "G7908 .H4 S20 .J3 SHEET 29", "recid": "pc627py1344", "websiteUrl": "https://purl.stanford.edu/pc627py1344", "title": "二万分一羅津要塞近傍", "ckey": 9751854, "available": true, "iiifUrl": "https://purl.stanford.edu/pc627py1344/iiif/manifest" }, "geometry": { "type": "Polygon", "coordinates": [ [ [ 130.3208336, 42.3861108 ], [ 130.4319447, 42.3861108 ], [ 130.4319447, 42.4555553 ], [ 130.3208336, 42.4555553 ], [ 130.3208336, 42.3861108 ] ] ] } },
{ "type": "Feature", "properties": { "Id": 0, "Sheet_ID": "SHEET 17", "label": "SHEET 17", "call_short": "G7908 .H4 S20 .J3", "call_num": "G7908 .H4 S20 .J3 SHEET 17", "recid": "ky295vb0074", "websiteUrl": "https://purl.stanford.edu/ky295vb0074", "title": "二万分一羅津要塞近傍", "ckey": 9751854, "available": true, "iiifUrl": "https://purl.stanford.edu/ky295vb0074/iiif/manifest" }, "geometry": { "type": "Polygon", "coordinates": [ [ [ 130.4319447, 42.3861108 ], [ 130.5430558, 42.3861108 ], [ 130.5430558, 42.4555553 ], [ 130.4319447, 42.4555553 ], [ 130.4319447, 42.3861108 ] ] ] } },
{ "type": "Feature", "properties": { "Id": 0, "Sheet_ID": "SHEET 10", "label": "SHEET 10", "call_short": "G7908 .H4 S20 .J3", "call_num": "G7908 .H4 S20 .J3 SHEET 10", "recid": "tf138ys7124", "websiteUrl": "https://purl.stanford.edu/tf138ys7124", "title": "二万分一羅津要塞近傍", "ckey": 9751854, "available": true, "iiifUrl": "https://purl.stanford.edu/tf138ys7124/iiif/manifest" }, "geometry": { "type": "Polygon", "coordinates": [ [ [ 130.5430558, 42.3861108 ], [ 130.6541669, 42.3861108 ], [ 130.6541669, 42.4555553 ], [ 130.5430558, 42.4555553 ], [ 130.5430558, 42.3861108 ] ] ] } },
{ "type": "Feature", "properties": { "Id": 0, "Sheet_ID": "SHEET 3", "label": "SHEET 3", "call_short": "G7908 .H4 S20 .J3", "call_num": "G7908 .H4 S20 .J3 SHEET 3", "recid": "dd913jx6332", "websiteUrl": "https://purl.stanford.edu/dd913jx6332", "title": "二万分一羅津要塞近傍", "ckey": 9751854, "available": true, "iiifUrl": "https://purl.stanford.edu/dd913jx6332/iiif/manifest" }, "geometry": { "type": "Polygon", "coordinates": [ [ [ 130.6541669, 42.3861108 ], [ 130.765278, 42.3861108 ], [ 130.765278, 42.4555553 ], [ 130.6541669, 42.4555553 ], [ 130.6541669, 42.3861108 ] ] ] } },
{ "type": "Feature", "properties": { "Id": 0, "Sheet_ID": "SHEET 133", "label": "SHEET 133", "call_short": "G7908 .H4 S20 .J3", "call_num": "G7908 .H4 S20 .J3 SHEET 133", "recid": "cy652qh0444", "websiteUrl": "https://purl.stanford.edu/cy652qh0444", "title": "二万分一羅津要塞近傍", "ckey": 9751854, "available": true, "iiifUrl": "https://purl.stanford.edu/cy652qh0444/iiif/manifest" }, "geometry": { "type": "Polygon", "coordinates": [ [ [ 129.543056, 42.4555553 ], [ 129.6541671, 42.4555553 ], [ 129.6541671, 42.5249998 ], [ 129.543056, 42.5249998 ], [ 129.543056, 42.4555553 ] ] ] } },
{ "type": "Feature", "properties": { "Id": 0, "Sheet_ID": "SHEET 121", "label": "SHEET 121", "call_short": "G7908 .H4 S20 .J3", "call_num": "G7908 .H4 S20 .J3 SHEET 121", "recid": "kj423yp8343", "websiteUrl": "https://purl.stanford.edu/kj423yp8343", "title": "二万分一羅津要塞近傍", "ckey": 9751854, "available": true, "iiifUrl": "https://purl.stanford.edu/kj423yp8343/iiif/manifest" }, "geometry": { "type": "Polygon", "coordinates": [ [ [ 129.6541671, 42.4555553 ], [ 129.7652782, 42.4555553 ], [ 129.7652782, 42.5249998 ], [ 129.6541671, 42.5249998 ], [ 129.6541671, 42.4555553 ] ] ] } },
{ "type": "Feature", "properties": { "Id": 0, "Sheet_ID": "SHEET 106", "label": "SHEET 106", "call_short": "G7908 .H4 S20 .J3", "call_num": "G7908 .H4 S20 .J3 SHEET 106", "recid": "qm752js3072", "websiteUrl": "https://purl.stanford.edu/qm752js3072", "title": "二万分一羅津要塞近傍", "ckey": 9751854, "available": true, "iiifUrl": "https://purl.stanford.edu/qm752js3072/iiif/manifest" }, "geometry": { "type": "Polygon", "coordinates": [ [ [ 129.7652782, 42.4555553 ], [ 129.8763893, 42.4555553 ], [ 129.8763893, 42.5249998 ], [ 129.7652782, 42.5249998 ], [ 129.7652782, 42.4555553 ] ] ] } },
{ "type": "Feature", "properties": { "Id": 0, "Sheet_ID": "SHEET 89", "label": "SHEET 89", "call_short": "G7908 .H4 S20 .J3", "call_num": "G7908 .H4 S20 .J3 SHEET 89", "recid": "jg119fc4508", "websiteUrl": "https://purl.stanford.edu/jg119fc4508", "title": "二万分一羅津要塞近傍", "ckey": 9751854, "available": true, "iiifUrl": "https://purl.stanford.edu/jg119fc4508/iiif/manifest" }, "geometry": { "type": "Polygon", "coordinates": [ [ [ 129.8763893, 42.4555553 ], [ 129.9875004, 42.4555553 ], [ 129.9875004, 42.5249998 ], [ 129.8763893, 42.5249998 ], [ 129.8763893, 42.4555553 ] ] ] } },
{ "type": "Feature", "properties": { "Id": 0, "Sheet_ID": "SHEET 72", "label": "SHEET 72", "call_short": "G7908 .H4 S20 .J3", "call_num": "G7908 .H4 S20 .J3 SHEET 72", "recid": "bj904cd0826", "websiteUrl": "https://purl.stanford.edu/bj904cd0826", "title": "二万分一羅津要塞近傍", "ckey": 9751854, "available": true, "iiifUrl": "https://purl.stanford.edu/bj904cd0826/iiif/manifest" }, "geometry": { "type": "Polygon", "coordinates": [ [ [ 129.9875004, 42.4555553 ], [ 130.0986115, 42.4555553 ], [ 130.0986115, 42.5249998 ], [ 129.9875004, 42.5249998 ], [ 129.9875004, 42.4555553 ] ] ] } },
{ "type": "Feature", "properties": { "Id": 0, "Sheet_ID": "SHEET 56", "label": "SHEET 56", "call_short": "G7908 .H4 S20 .J3", "call_num": "G7908 .H4 S20 .J3 SHEET 56", "recid": "hz699pg5057", "websiteUrl": "https://purl.stanford.edu/hz699pg5057", "title": "二万分一羅津要塞近傍", "ckey": 9751854, "available": true, "iiifUrl": "https://purl.stanford.edu/hz699pg5057/iiif/manifest" }, "geometry": { "type": "Polygon", "coordinates": [ [ [ 130.0986115, 42.4555553 ], [ 130.2097225, 42.4555553 ], [ 130.2097225, 42.5249998 ], [ 130.0986115, 42.5249998 ], [ 130.0986115, 42.4555553 ] ] ] } },
{ "type": "Feature", "properties": { "Id": 0, "Sheet_ID": "SHEET 41", "label": "SHEET 41", "call_short": "G7908 .H4 S20 .J3", "call_num": "G7908 .H4 S20 .J3 SHEET 41", "recid": "df517jt3186", "websiteUrl": "https://purl.stanford.edu/df517jt3186", "title": "二万分一羅津要塞近傍", "ckey": 9751854, "available": true, "iiifUrl": "https://purl.stanford.edu/df517jt3186/iiif/manifest" }, "geometry": { "type": "Polygon", "coordinates": [ [ [ 130.2097225, 42.4555553 ], [ 130.3208336, 42.4555553 ], [ 130.3208336, 42.5249998 ], [ 130.2097225, 42.5249998 ], [ 130.2097225, 42.4555553 ] ] ] } },
{ "type": "Feature", "properties": { "Id": 0, "Sheet_ID": "SHEET 28", "label": "SHEET 28", "call_short": "G7908 .H4 S20 .J3", "call_num": "G7908 .H4 S20 .J3 SHEET 28", "recid": "qd938vx4185", "websiteUrl": "https://purl.stanford.edu/qd938vx4185", "title": "二万分一羅津要塞近傍", "ckey": 9751854, "available": true, "iiifUrl": "https://purl.stanford.edu/qd938vx4185/iiif/manifest" }, "geometry": { "type": "Polygon", "coordinates": [ [ [ 130.3208336, 42.4555553 ], [ 130.4319447, 42.4555553 ], [ 130.4319447, 42.5249998 ], [ 130.3208336, 42.5249998 ], [ 130.3208336, 42.4555553 ] ] ] } },
{ "type": "Feature", "properties": { "Id": 0, "Sheet_ID": "SHEET 16", "label": "SHEET 16", "call_short": "G7908 .H4 S20 .J3", "call_num": "G7908 .H4 S20 .J3 SHEET 16", "recid": "yb344bg4864", "websiteUrl": "https://purl.stanford.edu/yb344bg4864", "title": "二万分一羅津要塞近傍", "ckey": 9751854, "available": true, "iiifUrl": "https://purl.stanford.edu/yb344bg4864/iiif/manifest" }, "geometry": { "type": "Polygon", "coordinates": [ [ [ 130.4319447, 42.4555553 ], [ 130.5430558, 42.4555553 ], [ 130.5430558, 42.5249998 ], [ 130.4319447, 42.5249998 ], [ 130.4319447, 42.4555553 ] ] ] } },
{ "type": "Feature", "properties": { "Id": 0, "Sheet_ID": "SHEET 9", "label": "SHEET 9", "call_short": "G7908 .H4 S20 .J3", "call_num": "G7908 .H4 S20 .J3 SHEET 9", "recid": "zd883wr6218", "websiteUrl": "https://purl.stanford.edu/zd883wr6218", "title": "二万分一羅津要塞近傍", "ckey": 9751854, "available": true, "iiifUrl": "https://purl.stanford.edu/zd883wr6218/iiif/manifest" }, "geometry": { "type": "Polygon", "coordinates": [ [ [ 130.5430558, 42.4555553 ], [ 130.6541669, 42.4555553 ], [ 130.6541669, 42.5249998 ], [ 130.5430558, 42.5249998 ], [ 130.5430558, 42.4555553 ] ] ] } },
{ "type": "Feature", "properties": { "Id": 0, "Sheet_ID": "SHEET 2", "label": "SHEET 2", "call_short": "G7908 .H4 S20 .J3", "call_num": "G7908 .H4 S20 .J3 SHEET 2", "recid": "vp594xc2554", "websiteUrl": "https://purl.stanford.edu/vp594xc2554", "title": "二万分一羅津要塞近傍", "ckey": 9751854, "available": true, "iiifUrl": "https://purl.stanford.edu/vp594xc2554/iiif/manifest" }, "geometry": { "type": "Polygon", "coordinates": [ [ [ 130.6541669, 42.4555553 ], [ 130.765278, 42.4555553 ], [ 130.765278, 42.5249998 ], [ 130.6541669, 42.5249998 ], [ 130.6541669, 42.4555553 ] ] ] } },
{ "type": "Feature", "properties": { "Id": 0, "Sheet_ID": "SHEET 132", "label": "SHEET 132", "call_short": "G7908 .H4 S20 .J3", "call_num": "G7908 .H4 S20 .J3 SHEET 132", "recid": "ng744zc4891", "websiteUrl": "https://purl.stanford.edu/ng744zc4891", "title": "二万分一羅津要塞近傍", "ckey": 9751854, "available": true, "iiifUrl": "https://purl.stanford.edu/ng744zc4891/iiif/manifest" }, "geometry": { "type": "Polygon", "coordinates": [ [ [ 129.543056, 42.5249998 ], [ 129.6541671, 42.5249998 ], [ 129.6541671, 42.5944442 ], [ 129.543056, 42.5944442 ], [ 129.543056, 42.5249998 ] ] ] } },
{ "type": "Feature", "properties": { "Id": 0, "Sheet_ID": "SHEET 120", "label": "SHEET 120", "call_short": "G7908 .H4 S20 .J3", "call_num": "G7908 .H4 S20 .J3 SHEET 120", "recid": "sh042ch3752", "websiteUrl": "https://purl.stanford.edu/sh042ch3752", "title": "二万分一羅津要塞近傍", "ckey": 9751854, "available": true, "iiifUrl": "https://purl.stanford.edu/sh042ch3752/iiif/manifest" }, "geometry": { "type": "Polygon", "coordinates": [ [ [ 129.6541671, 42.5249998 ], [ 129.7652782, 42.5249998 ], [ 129.7652782, 42.5944442 ], [ 129.6541671, 42.5944442 ], [ 129.6541671, 42.5249998 ] ] ] } },
{ "type": "Feature", "properties": { "Id": 0, "Sheet_ID": "SHEET 105", "label": "SHEET 105", "call_short": "G7908 .H4 S20 .J3", "call_num": "G7908 .H4 S20 .J3 SHEET 105", "recid": "jc897cv2537", "websiteUrl": "https://purl.stanford.edu/jc897cv2537", "title": "二万分一羅津要塞近傍", "ckey": 9751854, "available": true, "iiifUrl": "https://purl.stanford.edu/jc897cv2537/iiif/manifest" }, "geometry": { "type": "Polygon", "coordinates": [ [ [ 129.7652782, 42.5249998 ], [ 129.8763893, 42.5249998 ], [ 129.8763893, 42.5944442 ], [ 129.7652782, 42.5944442 ], [ 129.7652782, 42.5249998 ] ] ] } },
{ "type": "Feature", "properties": { "Id": 0, "Sheet_ID": "SHEET 88", "label": "SHEET 88", "call_short": "G7908 .H4 S20 .J3", "call_num": "G7908 .H4 S20 .J3 SHEET 88", "recid": "ts047dy5911", "websiteUrl": "https://purl.stanford.edu/ts047dy5911", "title": "二万分一羅津要塞近傍", "ckey": 9751854, "available": true, "iiifUrl": "https://purl.stanford.edu/ts047dy5911/iiif/manifest" }, "geometry": { "type": "Polygon", "coordinates": [ [ [ 129.8763893, 42.5249998 ], [ 129.9875004, 42.5249998 ], [ 129.9875004, 42.5944442 ], [ 129.8763893, 42.5944442 ], [ 129.8763893, 42.5249998 ] ] ] } },
{ "type": "Feature", "properties": { "Id": 0, "Sheet_ID": "SHEET 71", "label": "SHEET 71", "call_short": "G7908 .H4 S20 .J3", "call_num": "G7908 .H4 S20 .J3 SHEET 71", "recid": "qk964wh6703", "websiteUrl": "https://purl.stanford.edu/qk964wh6703", "title": "二万分一羅津要塞近傍", "ckey": 9751854, "available": true, "iiifUrl": "https://purl.stanford.edu/qk964wh6703/iiif/manifest" }, "geometry": { "type": "Polygon", "coordinates": [ [ [ 129.9875004, 42.5249998 ], [ 130.0986115, 42.5249998 ], [ 130.0986115, 42.5944442 ], [ 129.9875004, 42.5944442 ], [ 129.9875004, 42.5249998 ] ] ] } },
{ "type": "Feature", "properties": { "Id": 0, "Sheet_ID": "SHEET 55", "label": "SHEET 55", "call_short": "G7908 .H4 S20 .J3", "call_num": "G7908 .H4 S20 .J3 SHEET 55", "recid": "wg516yh4986", "websiteUrl": "https://purl.stanford.edu/wg516yh4986", "title": "二万分一羅津要塞近傍", "ckey": 9751854, "available": true, "iiifUrl": "https://purl.stanford.edu/wg516yh4986/iiif/manifest" }, "geometry": { "type": "Polygon", "coordinates": [ [ [ 130.0986115, 42.5249998 ], [ 130.2097225, 42.5249998 ], [ 130.2097225, 42.5944442 ], [ 130.0986115, 42.5944442 ], [ 130.0986115, 42.5249998 ] ] ] } },
{ "type": "Feature", "properties": { "Id": 0, "Sheet_ID": "SHEET 40", "label": "SHEET 40", "call_short": "G7908 .H4 S20 .J3", "call_num": "G7908 .H4 S20 .J3 SHEET 40", "recid": "ch902gc3331", "websiteUrl": "https://purl.stanford.edu/ch902gc3331", "title": "二万分一羅津要塞近傍", "ckey": 9751854, "available": true, "iiifUrl": "https://purl.stanford.edu/ch902gc3331/iiif/manifest" }, "geometry": { "type": "Polygon", "coordinates": [ [ [ 130.2097225, 42.5249998 ], [ 130.3208336, 42.5249998 ], [ 130.3208336, 42.5944442 ], [ 130.2097225, 42.5944442 ], [ 130.2097225, 42.5249998 ] ] ] } },
{ "type": "Feature", "properties": { "Id": 0, "Sheet_ID": "SHEET 27", "label": "SHEET 27", "call_short": "G7908 .H4 S20 .J3", "call_num": "G7908 .H4 S20 .J3 SHEET 27", "recid": "mv501bt9942", "websiteUrl": "https://purl.stanford.edu/mv501bt9942", "title": "二万分一羅津要塞近傍", "ckey": 9751854, "available": true, "iiifUrl": "https://purl.stanford.edu/mv501bt9942/iiif/manifest" }, "geometry": { "type": "Polygon", "coordinates": [ [ [ 130.3208336, 42.5249998 ], [ 130.4319447, 42.5249998 ], [ 130.4319447, 42.5944442 ], [ 130.3208336, 42.5944442 ], [ 130.3208336, 42.5249998 ] ] ] } },
{ "type": "Feature", "properties": { "Id": 0, "Sheet_ID": "SHEET 15", "label": "SHEET 15", "call_short": "G7908 .H4 S20 .J3", "call_num": "G7908 .H4 S20 .J3 SHEET 15", "recid": "jc864zw7313", "websiteUrl": "https://purl.stanford.edu/jc864zw7313", "title": "二万分一羅津要塞近傍", "ckey": 9751854, "available": true, "iiifUrl": "https://purl.stanford.edu/jc864zw7313/iiif/manifest" }, "geometry": { "type": "Polygon", "coordinates": [ [ [ 130.4319447, 42.5249998 ], [ 130.5430558, 42.5249998 ], [ 130.5430558, 42.5944442 ], [ 130.4319447, 42.5944442 ], [ 130.4319447, 42.5249998 ] ] ] } },
{ "type": "Feature", "properties": { "Id": 0, "Sheet_ID": "SHEET 8", "label": "SHEET 8", "call_short": "G7908 .H4 S20 .J3", "call_num": "G7908 .H4 S20 .J3 SHEET 8", "recid": "mq057zp0235", "websiteUrl": "https://purl.stanford.edu/mq057zp0235", "title": "二万分一羅津要塞近傍", "ckey": 9751854, "available": true, "iiifUrl": "https://purl.stanford.edu/mq057zp0235/iiif/manifest" }, "geometry": { "type": "Polygon", "coordinates": [ [ [ 130.5430558, 42.5249998 ], [ 130.6541669, 42.5249998 ], [ 130.6541669, 42.5944442 ], [ 130.5430558, 42.5944442 ], [ 130.5430558, 42.5249998 ] ] ] } },
{ "type": "Feature", "properties": { "Id": 0, "Sheet_ID": "SHEET 119", "label": "SHEET 119", "call_short": "G7908 .H4 S20 .J3", "call_num": "G7908 .H4 S20 .J3 SHEET 119", "recid": "my527yv9882", "websiteUrl": "https://purl.stanford.edu/my527yv9882", "title": "二万分一羅津要塞近傍", "ckey": 9751854, "available": true, "iiifUrl": "https://purl.stanford.edu/my527yv9882/iiif/manifest" }, "geometry": { "type": "Polygon", "coordinates": [ [ [ 129.6541671, 42.5944442 ], [ 129.7652782, 42.5944442 ], [ 129.7652782, 42.6638887 ], [ 129.6541671, 42.6638887 ], [ 129.6541671, 42.5944442 ] ] ] } },
{ "type": "Feature", "properties": { "Id": 0, "Sheet_ID": "SHEET 104", "label": "SHEET 104", "call_short": "G7908 .H4 S20 .J3", "call_num": "G7908 .H4 S20 .J3 SHEET 104", "recid": "qs415bp4811", "websiteUrl": "https://purl.stanford.edu/qs415bp4811", "title": "二万分一羅津要塞近傍", "ckey": 9751854, "available": true, "iiifUrl": "https://purl.stanford.edu/qs415bp4811/iiif/manifest" }, "geometry": { "type": "Polygon", "coordinates": [ [ [ 129.7652782, 42.5944442 ], [ 129.8763893, 42.5944442 ], [ 129.8763893, 42.6638887 ], [ 129.7652782, 42.6638887 ], [ 129.7652782, 42.5944442 ] ] ] } },
{ "type": "Feature", "properties": { "Id": 0, "Sheet_ID": "SHEET 87", "label": "SHEET 87", "call_short": "G7908 .H4 S20 .J3", "call_num": "G7908 .H4 S20 .J3 SHEET 87", "recid": "hb870bn3020", "websiteUrl": "https://purl.stanford.edu/hb870bn3020", "title": "二万分一羅津要塞近傍", "ckey": 9751854, "available": true, "iiifUrl": "https://purl.stanford.edu/hb870bn3020/iiif/manifest" }, "geometry": { "type": "Polygon", "coordinates": [ [ [ 129.8763893, 42.5944442 ], [ 129.9875004, 42.5944442 ], [ 129.9875004, 42.6638887 ], [ 129.8763893, 42.6638887 ], [ 129.8763893, 42.5944442 ] ] ] } },
{ "type": "Feature", "properties": { "Id": 0, "Sheet_ID": "SHEET 70", "label": "SHEET 70", "call_short": "G7908 .H4 S20 .J3", "call_num": "G7908 .H4 S20 .J3 SHEET 70", "recid": "vq406sk1944", "websiteUrl": "https://purl.stanford.edu/vq406sk1944", "title": "二万分一羅津要塞近傍", "ckey": 9751854, "available": true, "iiifUrl": "https://purl.stanford.edu/vq406sk1944/iiif/manifest" }, "geometry": { "type": "Polygon", "coordinates": [ [ [ 129.9875004, 42.5944442 ], [ 130.0986115, 42.5944442 ], [ 130.0986115, 42.6638887 ], [ 129.9875004, 42.6638887 ], [ 129.9875004, 42.5944442 ] ] ] } },
{ "type": "Feature", "properties": { "Id": 0, "Sheet_ID": "SHEET 54", "label": "SHEET 54", "call_short": "G7908 .H4 S20 .J3", "call_num": "G7908 .H4 S20 .J3 SHEET 54", "recid": "bb587pd7732", "websiteUrl": "https://purl.stanford.edu/bb587pd7732", "title": "二万分一羅津要塞近傍", "ckey": 9751854, "available": true, "iiifUrl": "https://purl.stanford.edu/bb587pd7732/iiif/manifest" }, "geometry": { "type": "Polygon", "coordinates": [ [ [ 130.0986115, 42.5944442 ], [ 130.2097225, 42.5944442 ], [ 130.2097225, 42.6638887 ], [ 130.0986115, 42.6638887 ], [ 130.0986115, 42.5944442 ] ] ] } },
{ "type": "Feature", "properties": { "Id": 0, "Sheet_ID": "SHEET 39", "label": "SHEET 39", "call_short": "G7908 .H4 S20 .J3", "call_num": "G7908 .H4 S20 .J3 SHEET 39", "recid": "xt795by2419", "websiteUrl": "https://purl.stanford.edu/xt795by2419", "title": "二万分一羅津要塞近傍", "ckey": 9751854, "available": true, "iiifUrl": "https://purl.stanford.edu/xt795by2419/iiif/manifest" }, "geometry": { "type": "Polygon", "coordinates": [ [ [ 130.2097225, 42.5944442 ], [ 130.3208336, 42.5944442 ], [ 130.3208336, 42.6638887 ], [ 130.2097225, 42.6638887 ], [ 130.2097225, 42.5944442 ] ] ] } },
{ "type": "Feature", "properties": { "Id": 0, "Sheet_ID": "SHEET 26", "label": "SHEET 26", "call_short": "G7908 .H4 S20 .J3", "call_num": "G7908 .H4 S20 .J3 SHEET 26", "recid": "cg987nc2368", "websiteUrl": "https://purl.stanford.edu/cg987nc2368", "title": "二万分一羅津要塞近傍", "ckey": 9751854, "available": true, "iiifUrl": "https://purl.stanford.edu/cg987nc2368/iiif/manifest" }, "geometry": { "type": "Polygon", "coordinates": [ [ [ 130.3208336, 42.5944442 ], [ 130.4319447, 42.5944442 ], [ 130.4319447, 42.6638887 ], [ 130.3208336, 42.6638887 ], [ 130.3208336, 42.5944442 ] ] ] } },
{ "type": "Feature", "properties": { "Id": 0, "Sheet_ID": "SHEET 14", "label": "SHEET 14", "call_short": "G7908 .H4 S20 .J3", "call_num": "G7908 .H4 S20 .J3 SHEET 14", "recid": "jh408tx6005", "websiteUrl": "https://purl.stanford.edu/jh408tx6005", "title": "二万分一羅津要塞近傍", "ckey": 9751854, "available": true, "iiifUrl": "https://purl.stanford.edu/jh408tx6005/iiif/manifest" }, "geometry": { "type": "Polygon", "coordinates": [ [ [ 130.4319447, 42.5944442 ], [ 130.5430558, 42.5944442 ], [ 130.5430558, 42.6638887 ], [ 130.4319447, 42.6638887 ], [ 130.4319447, 42.5944442 ] ] ] } },
{ "type": "Feature", "properties": { "Id": 0, "Sheet_ID": "SHEET 7", "label": "SHEET 7", "call_short": "G7908 .H4 S20 .J3", "call_num": "G7908 .H4 S20 .J3 SHEET 7", "recid": "vz844mn5576", "websiteUrl": "https://purl.stanford.edu/vz844mn5576", "title": "二万分一羅津要塞近傍", "ckey": 9751854, "available": true, "iiifUrl": "https://purl.stanford.edu/vz844mn5576/iiif/manifest" }, "geometry": { "type": "Polygon", "coordinates": [ [ [ 130.5430558, 42.5944442 ], [ 130.6541669, 42.5944442 ], [ 130.6541669, 42.6638887 ], [ 130.5430558, 42.6638887 ], [ 130.5430558, 42.5944442 ] ] ] } },
{ "type": "Feature", "properties": { "Id": 0, "Sheet_ID": "SHEET 1", "label": "SHEET 1", "call_short": "G7908 .H4 S20 .J3", "call_num": "G7908 .H4 S20 .J3 SHEET 1", "recid": "pf687wz3550", "websiteUrl": "https://purl.stanford.edu/pf687wz3550", "title": "二万分一羅津要塞近傍", "ckey": 9751854, "available": true, "iiifUrl": "https://purl.stanford.edu/pf687wz3550/iiif/manifest" }, "geometry": { "type": "Polygon", "coordinates": [ [ [ 130.6541669, 42.5944442 ], [ 130.765278, 42.5944442 ], [ 130.765278, 42.6638887 ], [ 130.6541669, 42.6638887 ], [ 130.6541669, 42.5944442 ] ] ] } },
{ "type": "Feature", "properties": { "Id": 0, "Sheet_ID": "SHEET 131", "label": "SHEET 131", "call_short": "G7908 .H4 S20 .J3", "call_num": "G7908 .H4 S20 .J3 SHEET 131", "recid": "hb980mc4303", "websiteUrl": "https://purl.stanford.edu/hb980mc4303", "title": "二万分一羅津要塞近傍", "ckey": 9751854, "available": true, "iiifUrl": "https://purl.stanford.edu/hb980mc4303/iiif/manifest" }, "geometry": { "type": "Polygon", "coordinates": [ [ [ 129.543056, 42.6638887 ], [ 129.6541671, 42.6638887 ], [ 129.6541671, 42.7333332 ], [ 129.543056, 42.7333332 ], [ 129.543056, 42.6638887 ] ] ] } },
{ "type": "Feature", "properties": { "Id": 0, "Sheet_ID": "SHEET 118", "label": "SHEET 118", "call_short": "G7908 .H4 S20 .J3", "call_num": "G7908 .H4 S20 .J3 SHEET 118", "recid": "jp512vs3237", "websiteUrl": "https://purl.stanford.edu/jp512vs3237", "title": "二万分一羅津要塞近傍", "ckey": 9751854, "available": true, "iiifUrl": "https://purl.stanford.edu/jp512vs3237/iiif/manifest" }, "geometry": { "type": "Polygon", "coordinates": [ [ [ 129.6541671, 42.6638887 ], [ 129.7652782, 42.6638887 ], [ 129.7652782, 42.7333332 ], [ 129.6541671, 42.7333332 ], [ 129.6541671, 42.6638887 ] ] ] } },
{ "type": "Feature", "properties": { "Id": 0, "Sheet_ID": "SHEET 103", "label": "SHEET 103", "call_short": "G7908 .H4 S20 .J3", "call_num": "G7908 .H4 S20 .J3 SHEET 103", "recid": "gd460kb4632", "websiteUrl": "https://purl.stanford.edu/gd460kb4632", "title": "二万分一羅津要塞近傍", "ckey": 9751854, "available": true, "iiifUrl": "https://purl.stanford.edu/gd460kb4632/iiif/manifest" }, "geometry": { "type": "Polygon", "coordinates": [ [ [ 129.7652782, 42.6638887 ], [ 129.8763893, 42.6638887 ], [ 129.8763893, 42.7333332 ], [ 129.7652782, 42.7333332 ], [ 129.7652782, 42.6638887 ] ] ] } },
{ "type": "Feature", "properties": { "Id": 0, "Sheet_ID": "SHEET 86", "label": "SHEET 86", "call_short": "G7908 .H4 S20 .J3", "call_num": "G7908 .H4 S20 .J3 SHEET 86", "recid": "ms855dk5655", "websiteUrl": "https://purl.stanford.edu/ms855dk5655", "title": "二万分一羅津要塞近傍", "ckey": 9751854, "available": true, "iiifUrl": "https://purl.stanford.edu/ms855dk5655/iiif/manifest" }, "geometry": { "type": "Polygon", "coordinates": [ [ [ 129.8763893, 42.6638887 ], [ 129.9875004, 42.6638887 ], [ 129.9875004, 42.7333332 ], [ 129.8763893, 42.7333332 ], [ 129.8763893, 42.6638887 ] ] ] } },
{ "type": "Feature", "properties": { "Id": 0, "Sheet_ID": "SHEET 69", "label": "SHEET 69", "call_short": "G7908 .H4 S20 .J3", "call_num": "G7908 .H4 S20 .J3 SHEET 69", "recid": "jd094hz7869", "websiteUrl": "https://purl.stanford.edu/jd094hz7869", "title": "二万分一羅津要塞近傍", "ckey": 9751854, "available": true, "iiifUrl": "https://purl.stanford.edu/jd094hz7869/iiif/manifest" }, "geometry": { "type": "Polygon", "coordinates": [ [ [ 129.9875004, 42.6638887 ], [ 130.0986115, 42.6638887 ], [ 130.0986115, 42.7333332 ], [ 129.9875004, 42.7333332 ], [ 129.9875004, 42.6638887 ] ] ] } },
{ "type": "Feature", "properties": { "Id": 0, "Sheet_ID": "SHEET 53", "label": "SHEET 53", "call_short": "G7908 .H4 S20 .J3", "call_num": "G7908 .H4 S20 .J3 SHEET 53", "recid": "tq601rd0586", "websiteUrl": "https://purl.stanford.edu/tq601rd0586", "title": "二万分一羅津要塞近傍", "ckey": 9751854, "available": true, "iiifUrl": "https://purl.stanford.edu/tq601rd0586/iiif/manifest" }, "geometry": { "type": "Polygon", "coordinates": [ [ [ 130.0986115, 42.6638887 ], [ 130.2097225, 42.6638887 ], [ 130.2097225, 42.7333332 ], [ 130.0986115, 42.7333332 ], [ 130.0986115, 42.6638887 ] ] ] } },
{ "type": "Feature", "properties": { "Id": 0, "Sheet_ID": "SHEET 38", "label": "SHEET 38", "call_short": "G7908 .H4 S20 .J3", "call_num": "G7908 .H4 S20 .J3 SHEET 38", "recid": "yt563bv7829", "websiteUrl": "https://purl.stanford.edu/yt563bv7829", "title": "二万分一羅津要塞近傍", "ckey": 9751854, "available": true, "iiifUrl": "https://purl.stanford.edu/yt563bv7829/iiif/manifest" }, "geometry": { "type": "Polygon", "coordinates": [ [ [ 130.2097225, 42.6638887 ], [ 130.3208336, 42.6638887 ], [ 130.3208336, 42.7333332 ], [ 130.2097225, 42.7333332 ], [ 130.2097225, 42.6638887 ] ] ] } },
{ "type": "Feature", "properties": { "Id": 0, "Sheet_ID": "SHEET 25", "label": "SHEET 25", "call_short": "G7908 .H4 S20 .J3", "call_num": "G7908 .H4 S20 .J3 SHEET 25", "recid": "qr979zb8901", "websiteUrl": "https://purl.stanford.edu/qr979zb8901", "title": "二万分一羅津要塞近傍", "ckey": 9751854, "available": true, "iiifUrl": "https://purl.stanford.edu/qr979zb8901/iiif/manifest" }, "geometry": { "type": "Polygon", "coordinates": [ [ [ 130.3208336, 42.6638887 ], [ 130.4319447, 42.6638887 ], [ 130.4319447, 42.7333332 ], [ 130.3208336, 42.7333332 ], [ 130.3208336, 42.6638887 ] ] ] } },
{ "type": "Feature", "properties": { "Id": 0, "Sheet_ID": "SHEET 13", "label": "SHEET 13", "call_short": "G7908 .H4 S20 .J3", "call_num": "G7908 .H4 S20 .J3 SHEET 13", "recid": "dz813hn1297", "websiteUrl": "https://purl.stanford.edu/dz813hn1297", "title": "二万分一羅津要塞近傍", "ckey": 9751854, "available": true, "iiifUrl": "https://purl.stanford.edu/dz813hn1297/iiif/manifest" }, "geometry": { "type": "Polygon", "coordinates": [ [ [ 130.4319447, 42.6638887 ], [ 130.5430558, 42.6638887 ], [ 130.5430558, 42.7333332 ], [ 130.4319447, 42.7333332 ], [ 130.4319447, 42.6638887 ] ] ] } },
{ "type": "Feature", "properties": { "Id": 0, "Sheet_ID": "SHEET 6", "label": "SHEET 6", "call_short": "G7908 .H4 S20 .J3", "call_num": "G7908 .H4 S20 .J3 SHEET 6", "recid": "vf598gk9469", "websiteUrl": "https://purl.stanford.edu/vf598gk9469", "title": "二万分一羅津要塞近傍", "ckey": 9751854, "available": true, "iiifUrl": "https://purl.stanford.edu/vf598gk9469/iiif/manifest" }, "geometry": { "type": "Polygon", "coordinates": [ [ [ 130.5430558, 42.6638887 ], [ 130.6541669, 42.6638887 ], [ 130.6541669, 42.7333332 ], [ 130.5430558, 42.7333332 ], [ 130.5430558, 42.6638887 ] ] ] } },
{ "type": "Feature", "properties": { "Id": 0, "Sheet_ID": "SHEET 130", "label": "SHEET 130", "call_short": "G7908 .H4 S20 .J3", "call_num": "G7908 .H4 S20 .J3 SHEET 130", "recid": "rk163tz8626", "websiteUrl": "https://purl.stanford.edu/rk163tz8626", "title": "二万分一羅津要塞近傍", "ckey": 9751854, "available": true, "iiifUrl": "https://purl.stanford.edu/rk163tz8626/iiif/manifest" }, "geometry": { "type": "Polygon", "coordinates": [ [ [ 129.543056, 42.7333332 ], [ 129.6541671, 42.7333332 ], [ 129.6541671, 42.8027776 ], [ 129.543056, 42.8027776 ], [ 129.543056, 42.7333332 ] ] ] } },
{ "type": "Feature", "properties": { "Id": 0, "Sheet_ID": "SHEET 117", "label": "SHEET 117", "call_short": "G7908 .H4 S20 .J3", "call_num": "G7908 .H4 S20 .J3 SHEET 117", "recid": "fd947qz0565", "websiteUrl": "https://purl.stanford.edu/fd947qz0565", "title": "二万分一羅津要塞近傍", "ckey": 9751854, "available": true, "iiifUrl": "https://purl.stanford.edu/fd947qz0565/iiif/manifest" }, "geometry": { "type": "Polygon", "coordinates": [ [ [ 129.6541671, 42.7333332 ], [ 129.7652782, 42.7333332 ], [ 129.7652782, 42.8027776 ], [ 129.6541671, 42.8027776 ], [ 129.6541671, 42.7333332 ] ] ] } },
{ "type": "Feature", "properties": { "Id": 0, "Sheet_ID": "SHEET 102", "label": "SHEET 102", "call_short": "G7908 .H4 S20 .J3", "call_num": "G7908 .H4 S20 .J3 SHEET 102", "recid": "jf004xz2645", "websiteUrl": "https://purl.stanford.edu/jf004xz2645", "title": "二万分一羅津要塞近傍", "ckey": 9751854, "available": true, "iiifUrl": "https://purl.stanford.edu/jf004xz2645/iiif/manifest" }, "geometry": { "type": "Polygon", "coordinates": [ [ [ 129.7652782, 42.7333332 ], [ 129.8763893, 42.7333332 ], [ 129.8763893, 42.8027776 ], [ 129.7652782, 42.8027776 ], [ 129.7652782, 42.7333332 ] ] ] } },
{ "type": "Feature", "properties": { "Id": 0, "Sheet_ID": "SHEET 85", "label": "SHEET 85", "call_short": "G7908 .H4 S20 .J3", "call_num": "G7908 .H4 S20 .J3 SHEET 85", "recid": "mt072rv6598", "websiteUrl": "https://purl.stanford.edu/mt072rv6598", "title": "二万分一羅津要塞近傍", "ckey": 9751854, "available": true, "iiifUrl": "https://purl.stanford.edu/mt072rv6598/iiif/manifest" }, "geometry": { "type": "Polygon", "coordinates": [ [ [ 129.8763893, 42.7333332 ], [ 129.9875004, 42.7333332 ], [ 129.9875004, 42.8027776 ], [ 129.8763893, 42.8027776 ], [ 129.8763893, 42.7333332 ] ] ] } },
{ "type": "Feature", "properties": { "Id": 0, "Sheet_ID": "SHEET 68", "label": "SHEET 68", "call_short": "G7908 .H4 S20 .J3", "call_num": "G7908 .H4 S20 .J3 SHEET 68", "recid": "kh947vm6690", "websiteUrl": "https://purl.stanford.edu/kh947vm6690", "title": "二万分一羅津要塞近傍", "ckey": 9751854, "available": true, "iiifUrl": "https://purl.stanford.edu/kh947vm6690/iiif/manifest" }, "geometry": { "type": "Polygon", "coordinates": [ [ [ 129.9875004, 42.7333332 ], [ 130.0986115, 42.7333332 ], [ 130.0986115, 42.8027776 ], [ 129.9875004, 42.8027776 ], [ 129.9875004, 42.7333332 ] ] ] } },
{ "type": "Feature", "properties": { "Id": 0, "Sheet_ID": "SHEET 52", "label": "SHEET 52", "call_short": "G7908 .H4 S20 .J3", "call_num": "G7908 .H4 S20 .J3 SHEET 52", "recid": "wf972fw8485", "websiteUrl": "https://purl.stanford.edu/wf972fw8485", "title": "二万分一羅津要塞近傍", "ckey": 9751854, "available": true, "iiifUrl": "https://purl.stanford.edu/wf972fw8485/iiif/manifest" }, "geometry": { "type": "Polygon", "coordinates": [ [ [ 130.0986115, 42.7333332 ], [ 130.2097225, 42.7333332 ], [ 130.2097225, 42.8027776 ], [ 130.0986115, 42.8027776 ], [ 130.0986115, 42.7333332 ] ] ] } },
{ "type": "Feature", "properties": { "Id": 0, "Sheet_ID": "SHEET 37", "label": "SHEET 37", "call_short": "G7908 .H4 S20 .J3", "call_num": "G7908 .H4 S20 .J3 SHEET 37", "recid": "gw146xx3464", "websiteUrl": "https://purl.stanford.edu/gw146xx3464", "title": "二万分一羅津要塞近傍", "ckey": 9751854, "available": true, "iiifUrl": "https://purl.stanford.edu/gw146xx3464/iiif/manifest" }, "geometry": { "type": "Polygon", "coordinates": [ [ [ 130.2097225, 42.7333332 ], [ 130.3208336, 42.7333332 ], [ 130.3208336, 42.8027776 ], [ 130.2097225, 42.8027776 ], [ 130.2097225, 42.7333332 ] ] ] } },
{ "type": "Feature", "properties": { "Id": 0, "Sheet_ID": "SHEET 24", "label": "SHEET 24", "call_short": "G7908 .H4 S20 .J3", "call_num": "G7908 .H4 S20 .J3 SHEET 24", "recid": "cx854pj0343", "websiteUrl": "https://purl.stanford.edu/cx854pj0343", "title": "二万分一羅津要塞近傍", "ckey": 9751854, "available": true, "iiifUrl": "https://purl.stanford.edu/cx854pj0343/iiif/manifest" }, "geometry": { "type": "Polygon", "coordinates": [ [ [ 130.3208336, 42.7333332 ], [ 130.4319447, 42.7333332 ], [ 130.4319447, 42.8027776 ], [ 130.3208336, 42.8027776 ], [ 130.3208336, 42.7333332 ] ] ] } },
{ "type": "Feature", "properties": { "Id": 0, "Sheet_ID": "SHEET 129", "label": "SHEET 129", "call_short": "G7908 .H4 S20 .J3", "call_num": "G7908 .H4 S20 .J3 SHEET 129", "recid": "by248rp2584", "websiteUrl": "https://purl.stanford.edu/by248rp2584", "title": "二万分一羅津要塞近傍", "ckey": 9751854, "available": true, "iiifUrl": "https://purl.stanford.edu/by248rp2584/iiif/manifest" }, "geometry": { "type": "Polygon", "coordinates": [ [ [ 129.543056, 42.8027776 ], [ 129.6541671, 42.8027776 ], [ 129.6541671, 42.8722221 ], [ 129.543056, 42.8722221 ], [ 129.543056, 42.8027776 ] ] ] } },
{ "type": "Feature", "properties": { "Id": 0, "Sheet_ID": "SHEET 116", "label": "SHEET 116", "call_short": "G7908 .H4 S20 .J3", "call_num": "G7908 .H4 S20 .J3 SHEET 116", "recid": "gd536fq8315", "websiteUrl": "https://purl.stanford.edu/gd536fq8315", "title": "二万分一羅津要塞近傍", "ckey": 9751854, "available": true, "iiifUrl": "https://purl.stanford.edu/gd536fq8315/iiif/manifest" }, "geometry": { "type": "Polygon", "coordinates": [ [ [ 129.6541671, 42.8027776 ], [ 129.7652782, 42.8027776 ], [ 129.7652782, 42.8722221 ], [ 129.6541671, 42.8722221 ], [ 129.6541671, 42.8027776 ] ] ] } },
{ "type": "Feature", "properties": { "Id": 0, "Sheet_ID": "SHEET 101", "label": "SHEET 101", "call_short": "G7908 .H4 S20 .J3", "call_num": "G7908 .H4 S20 .J3 SHEET 101", "recid": "mz116qb1300", "websiteUrl": "https://purl.stanford.edu/mz116qb1300", "title": "二万分一羅津要塞近傍", "ckey": 9751854, "available": true, "iiifUrl": "https://purl.stanford.edu/mz116qb1300/iiif/manifest" }, "geometry": { "type": "Polygon", "coordinates": [ [ [ 129.7652782, 42.8027776 ], [ 129.8763893, 42.8027776 ], [ 129.8763893, 42.8722221 ], [ 129.7652782, 42.8722221 ], [ 129.7652782, 42.8027776 ] ] ] } },
{ "type": "Feature", "properties": { "Id": 0, "Sheet_ID": "SHEET 84", "label": "SHEET 84", "call_short": "G7908 .H4 S20 .J3", "call_num": "G7908 .H4 S20 .J3 SHEET 84", "recid": "jj834hj1142", "websiteUrl": "https://purl.stanford.edu/jj834hj1142", "title": "二万分一羅津要塞近傍", "ckey": 9751854, "available": true, "iiifUrl": "https://purl.stanford.edu/jj834hj1142/iiif/manifest" }, "geometry": { "type": "Polygon", "coordinates": [ [ [ 129.8763893, 42.8027776 ], [ 129.9875004, 42.8027776 ], [ 129.9875004, 42.8722221 ], [ 129.8763893, 42.8722221 ], [ 129.8763893, 42.8027776 ] ] ] } },
{ "type": "Feature", "properties": { "Id": 0, "Sheet_ID": "SHEET 67", "label": "SHEET 67", "call_short": "G7908 .H4 S20 .J3", "call_num": "G7908 .H4 S20 .J3 SHEET 67", "recid": "kb869km1164", "websiteUrl": "https://purl.stanford.edu/kb869km1164", "title": "二万分一羅津要塞近傍", "ckey": 9751854, "available": true, "iiifUrl": "https://purl.stanford.edu/kb869km1164/iiif/manifest" }, "geometry": { "type": "Polygon", "coordinates": [ [ [ 129.9875004, 42.8027776 ], [ 130.0986115, 42.8027776 ], [ 130.0986115, 42.8722221 ], [ 129.9875004, 42.8722221 ], [ 129.9875004, 42.8027776 ] ] ] } },
{ "type": "Feature", "properties": { "Id": 0, "Sheet_ID": "SHEET 51", "label": "SHEET 51", "call_short": "G7908 .H4 S20 .J3", "call_num": "G7908 .H4 S20 .J3 SHEET 51", "recid": "nz472tw5441", "websiteUrl": "https://purl.stanford.edu/nz472tw5441", "title": "二万分一羅津要塞近傍", "ckey": 9751854, "available": true, "iiifUrl": "https://purl.stanford.edu/nz472tw5441/iiif/manifest" }, "geometry": { "type": "Polygon", "coordinates": [ [ [ 130.0986115, 42.8027776 ], [ 130.2097225, 42.8027776 ], [ 130.2097225, 42.8722221 ], [ 130.0986115, 42.8722221 ], [ 130.0986115, 42.8027776 ] ] ] } },
{ "type": "Feature", "properties": { "Id": 0, "Sheet_ID": "SHEET 36", "label": "SHEET 36", "call_short": "G7908 .H4 S20 .J3", "call_num": "G7908 .H4 S20 .J3 SHEET 36", "recid": "bx536wt3881", "websiteUrl": "https://purl.stanford.edu/bx536wt3881", "title": "二万分一羅津要塞近傍", "ckey": 9751854, "available": true, "iiifUrl": "https://purl.stanford.edu/bx536wt3881/iiif/manifest" }, "geometry": { "type": "Polygon", "coordinates": [ [ [ 130.2097225, 42.8027776 ], [ 130.3208336, 42.8027776 ], [ 130.3208336, 42.8722221 ], [ 130.2097225, 42.8722221 ], [ 130.2097225, 42.8027776 ] ] ] } },
{ "type": "Feature", "properties": { "Id": 0, "Sheet_ID": "SHEET 23", "label": "SHEET 23", "call_short": "G7908 .H4 S20 .J3", "call_num": "G7908 .H4 S20 .J3 SHEET 23", "recid": "cf551fr8360", "websiteUrl": "https://purl.stanford.edu/cf551fr8360", "title": "二万分一羅津要塞近傍", "ckey": 9751854, "available": true, "iiifUrl": "https://purl.stanford.edu/cf551fr8360/iiif/manifest" }, "geometry": { "type": "Polygon", "coordinates": [ [ [ 130.3208336, 42.8027776 ], [ 130.4319447, 42.8027776 ], [ 130.4319447, 42.8722221 ], [ 130.3208336, 42.8722221 ], [ 130.3208336, 42.8027776 ] ] ] } },
{ "type": "Feature", "properties": { "Id": 0, "Sheet_ID": "SHEET 115", "label": "SHEET 115", "call_short": "G7908 .H4 S20 .J3", "call_num": "G7908 .H4 S20 .J3 SHEET 115", "recid": "rs984by9536", "websiteUrl": "https://purl.stanford.edu/rs984by9536", "title": "二万分一羅津要塞近傍", "ckey": 9751854, "available": true, "iiifUrl": "https://purl.stanford.edu/rs984by9536/iiif/manifest" }, "geometry": { "type": "Polygon", "coordinates": [ [ [ 129.6541671, 42.8722221 ], [ 129.7652782, 42.8722221 ], [ 129.7652782, 42.9416666 ], [ 129.6541671, 42.9416666 ], [ 129.6541671, 42.8722221 ] ] ] } },
{ "type": "Feature", "properties": { "Id": 0, "Sheet_ID": "SHEET 100", "label": "SHEET 100", "call_short": "G7908 .H4 S20 .J3", "call_num": "G7908 .H4 S20 .J3 SHEET 100", "recid": "wc791qs0837", "websiteUrl": "https://purl.stanford.edu/wc791qs0837", "title": "二万分一羅津要塞近傍", "ckey": 9751854, "available": true, "iiifUrl": "https://purl.stanford.edu/wc791qs0837/iiif/manifest" }, "geometry": { "type": "Polygon", "coordinates": [ [ [ 129.7652782, 42.8722221 ], [ 129.8763893, 42.8722221 ], [ 129.8763893, 42.9416666 ], [ 129.7652782, 42.9416666 ], [ 129.7652782, 42.8722221 ] ] ] } },
{ "type": "Feature", "properties": { "Id": 0, "Sheet_ID": "SHEET 83", "label": "SHEET 83", "call_short": "G7908 .H4 S20 .J3", "call_num": "G7908 .H4 S20 .J3 SHEET 83", "recid": "qw220cr9033", "websiteUrl": "https://purl.stanford.edu/qw220cr9033", "title": "二万分一羅津要塞近傍", "ckey": 9751854, "available": true, "iiifUrl": "https://purl.stanford.edu/qw220cr9033/iiif/manifest" }, "geometry": { "type": "Polygon", "coordinates": [ [ [ 129.8763893, 42.8722221 ], [ 129.9875004, 42.8722221 ], [ 129.9875004, 42.9416666 ], [ 129.8763893, 42.9416666 ], [ 129.8763893, 42.8722221 ] ] ] } },
{ "type": "Feature", "properties": { "Id": 0, "Sheet_ID": "SHEET 66", "label": "SHEET 66", "call_short": "G7908 .H4 S20 .J3", "call_num": "G7908 .H4 S20 .J3 SHEET 66", "recid": "hp538ys0374", "websiteUrl": "https://purl.stanford.edu/hp538ys0374", "title": "二万分一羅津要塞近傍", "ckey": 9751854, "available": true, "iiifUrl": "https://purl.stanford.edu/hp538ys0374/iiif/manifest" }, "geometry": { "type": "Polygon", "coordinates": [ [ [ 129.9875004, 42.8722221 ], [ 130.0986115, 42.8722221 ], [ 130.0986115, 42.9416666 ], [ 129.9875004, 42.9416666 ], [ 129.9875004, 42.8722221 ] ] ] } },
{ "type": "Feature", "properties": { "Id": 0, "Sheet_ID": "SHEET 50", "label": "SHEET 50", "call_short": "G7908 .H4 S20 .J3", "call_num": "G7908 .H4 S20 .J3 SHEET 50", "recid": "cm872fp8800", "websiteUrl": "https://purl.stanford.edu/cm872fp8800", "title": "二万分一羅津要塞近傍", "ckey": 9751854, "available": true, "iiifUrl": "https://purl.stanford.edu/cm872fp8800/iiif/manifest" }, "geometry": { "type": "Polygon", "coordinates": [ [ [ 130.0986115, 42.8722221 ], [ 130.2097225, 42.8722221 ], [ 130.2097225, 42.9416666 ], [ 130.0986115, 42.9416666 ], [ 130.0986115, 42.8722221 ] ] ] } },
{ "type": "Feature", "properties": { "Id": 0, "Sheet_ID": "SHEET 35", "label": "SHEET 35", "call_short": "G7908 .H4 S20 .J3", "call_num": "G7908 .H4 S20 .J3 SHEET 35", "recid": "zc248zc0572", "websiteUrl": "https://purl.stanford.edu/zc248zc0572", "title": "二万分一羅津要塞近傍", "ckey": 9751854, "available": true, "iiifUrl": "https://purl.stanford.edu/zc248zc0572/iiif/manifest" }, "geometry": { "type": "Polygon", "coordinates": [ [ [ 130.2097225, 42.8722221 ], [ 130.3208336, 42.8722221 ], [ 130.3208336, 42.9416666 ], [ 130.2097225, 42.9416666 ], [ 130.2097225, 42.8722221 ] ] ] } },
{ "type": "Feature", "properties": { "Id": 0, "Sheet_ID": "SHEET 22", "label": "SHEET 22", "call_short": "G7908 .H4 S20 .J3", "call_num": "G7908 .H4 S20 .J3 SHEET 22", "recid": "ry415zb0939", "websiteUrl": "https://purl.stanford.edu/ry415zb0939", "title": "二万分一羅津要塞近傍", "ckey": 9751854, "available": true, "iiifUrl": "https://purl.stanford.edu/ry415zb0939/iiif/manifest" }, "geometry": { "type": "Polygon", "coordinates": [ [ [ 130.3208336, 42.8722221 ], [ 130.4319447, 42.8722221 ], [ 130.4319447, 42.9416666 ], [ 130.3208336, 42.9416666 ], [ 130.3208336, 42.8722221 ] ] ] } },
{ "type": "Feature", "properties": { "Id": 0, "Sheet_ID": "SHEET 114", "label": "SHEET 114", "call_short": "G7908 .H4 S20 .J3", "call_num": "G7908 .H4 S20 .J3 SHEET 114", "recid": "qz437wt7909", "websiteUrl": "https://purl.stanford.edu/qz437wt7909", "title": "二万分一羅津要塞近傍", "ckey": 9751854, "available": true, "iiifUrl": "https://purl.stanford.edu/qz437wt7909/iiif/manifest" }, "geometry": { "type": "Polygon", "coordinates": [ [ [ 129.6541671, 42.9416666 ], [ 129.7652782, 42.9416666 ], [ 129.7652782, 43.0111111 ], [ 129.6541671, 43.0111111 ], [ 129.6541671, 42.9416666 ] ] ] } },
{ "type": "Feature", "properties": { "Id": 0, "Sheet_ID": "SHEET 99", "label": "SHEET 99", "call_short": "G7908 .H4 S20 .J3", "call_num": "G7908 .H4 S20 .J3 SHEET 99", "recid": "vh589dr5801", "websiteUrl": "https://purl.stanford.edu/vh589dr5801", "title": "二万分一羅津要塞近傍", "ckey": 9751854, "available": true, "iiifUrl": "https://purl.stanford.edu/vh589dr5801/iiif/manifest" }, "geometry": { "type": "Polygon", "coordinates": [ [ [ 129.7652782, 42.9416666 ], [ 129.8763893, 42.9416666 ], [ 129.8763893, 43.0111111 ], [ 129.7652782, 43.0111111 ], [ 129.7652782, 42.9416666 ] ] ] } },
{ "type": "Feature", "properties": { "Id": 0, "Sheet_ID": "SHEET 82", "label": "SHEET 82", "call_short": "G7908 .H4 S20 .J3", "call_num": "G7908 .H4 S20 .J3 SHEET 82", "recid": "dj970sr6962", "websiteUrl": "https://purl.stanford.edu/dj970sr6962", "title": "二万分一羅津要塞近傍", "ckey": 9751854, "available": true, "iiifUrl": "https://purl.stanford.edu/dj970sr6962/iiif/manifest" }, "geometry": { "type": "Polygon", "coordinates": [ [ [ 129.8763893, 42.9416666 ], [ 129.9875004, 42.9416666 ], [ 129.9875004, 43.0111111 ], [ 129.8763893, 43.0111111 ], [ 129.8763893, 42.9416666 ] ] ] } },
{ "type": "Feature", "properties": { "Id": 0, "Sheet_ID": "SHEET 65", "label": "SHEET 65", "call_short": "G7908 .H4 S20 .J3", "call_num": "G7908 .H4 S20 .J3 SHEET 65", "recid": "jd867bk2123", "websiteUrl": "https://purl.stanford.edu/jd867bk2123", "title": "二万分一羅津要塞近傍", "ckey": 9751854, "available": true, "iiifUrl": "https://purl.stanford.edu/jd867bk2123/iiif/manifest" }, "geometry": { "type": "Polygon", "coordinates": [ [ [ 129.9875004, 42.9416666 ], [ 130.0986115, 42.9416666 ], [ 130.0986115, 43.0111111 ], [ 129.9875004, 43.0111111 ], [ 129.9875004, 42.9416666 ] ] ] } },
{ "type": "Feature", "properties": { "Id": 0, "Sheet_ID": "SHEET 49", "label": "SHEET 49", "call_short": "G7908 .H4 S20 .J3", "call_num": "G7908 .H4 S20 .J3 SHEET 49", "recid": "ds610gb2788", "websiteUrl": "https://purl.stanford.edu/ds610gb2788", "title": "二万分一羅津要塞近傍", "ckey": 9751854, "available": true, "iiifUrl": "https://purl.stanford.edu/ds610gb2788/iiif/manifest" }, "geometry": { "type": "Polygon", "coordinates": [ [ [ 130.0986115, 42.9416666 ], [ 130.2097225, 42.9416666 ], [ 130.2097225, 43.0111111 ], [ 130.0986115, 43.0111111 ], [ 130.0986115, 42.9416666 ] ] ] } },
{ "type": "Feature", "properties": { "Id": 0, "Sheet_ID": "SHEET 34", "label": "SHEET 34", "call_short": "G7908 .H4 S20 .J3", "call_num": "G7908 .H4 S20 .J3 SHEET 34", "recid": "jy679br1958", "websiteUrl": "https://purl.stanford.edu/jy679br1958", "title": "二万分一羅津要塞近傍", "ckey": 9751854, "available": true, "iiifUrl": "https://purl.stanford.edu/jy679br1958/iiif/manifest" }, "geometry": { "type": "Polygon", "coordinates": [ [ [ 130.2097225, 42.9416666 ], [ 130.3208336, 42.9416666 ], [ 130.3208336, 43.0111111 ], [ 130.2097225, 43.0111111 ], [ 130.2097225, 42.9416666 ] ] ] } },
{ "type": "Feature", "properties": { "Id": 0, "Sheet_ID": "SHEET 21", "label": "SHEET 21", "call_short": "G7908 .H4 S20 .J3", "call_num": "G7908 .H4 S20 .J3 SHEET 21", "recid": "fd136pj7573", "websiteUrl": "https://purl.stanford.edu/fd136pj7573", "title": "二万分一羅津要塞近傍", "ckey": 9751854, "available": true, "iiifUrl": "https://purl.stanford.edu/fd136pj7573/iiif/manifest" }, "geometry": { "type": "Polygon", "coordinates": [ [ [ 130.3208336, 42.9416666 ], [ 130.4319447, 42.9416666 ], [ 130.4319447, 43.0111111 ], [ 130.3208336, 43.0111111 ], [ 130.3208336, 42.9416666 ] ] ] } },
{ "type": "Feature", "properties": { "Id": 0, "Sheet_ID": "SHEET 113", "label": "SHEET 113", "call_short": "G7908 .H4 S20 .J3", "call_num": "G7908 .H4 S20 .J3 SHEET 113", "recid": "xr673ch8576", "websiteUrl": "https://purl.stanford.edu/xr673ch8576", "title": "二万分一羅津要塞近傍", "ckey": 9751854, "available": true, "iiifUrl": "https://purl.stanford.edu/xr673ch8576/iiif/manifest" }, "geometry": { "type": "Polygon", "coordinates": [ [ [ 129.6541671, 43.0111111 ], [ 129.7652782, 43.0111111 ], [ 129.7652782, 43.0805555 ], [ 129.6541671, 43.0805555 ], [ 129.6541671, 43.0111111 ] ] ] } },
{ "type": "Feature", "properties": { "Id": 0, "Sheet_ID": "SHEET 98", "label": "SHEET 98", "call_short": "G7908 .H4 S20 .J3", "call_num": "G7908 .H4 S20 .J3 SHEET 98", "recid": "rc853cg6633", "websiteUrl": "https://purl.stanford.edu/rc853cg6633", "title": "二万分一羅津要塞近傍", "ckey": 9751854, "available": true, "iiifUrl": "https://purl.stanford.edu/rc853cg6633/iiif/manifest" }, "geometry": { "type": "Polygon", "coordinates": [ [ [ 129.7652782, 43.0111111 ], [ 129.8763893, 43.0111111 ], [ 129.8763893, 43.0805555 ], [ 129.7652782, 43.0805555 ], [ 129.7652782, 43.0111111 ] ] ] } },
{ "type": "Feature", "properties": { "Id": 0, "Sheet_ID": "SHEET 81", "label": "SHEET 81", "call_short": "G7908 .H4 S20 .J3", "call_num": "G7908 .H4 S20 .J3 SHEET 81", "recid": "fb898yc6501", "websiteUrl": "https://purl.stanford.edu/fb898yc6501", "title": "二万分一羅津要塞近傍", "ckey": 9751854, "available": true, "iiifUrl": "https://purl.stanford.edu/fb898yc6501/iiif/manifest" }, "geometry": { "type": "Polygon", "coordinates": [ [ [ 129.8763893, 43.0111111 ], [ 129.9875004, 43.0111111 ], [ 129.9875004, 43.0805555 ], [ 129.8763893, 43.0805555 ], [ 129.8763893, 43.0111111 ] ] ] } },
{ "type": "Feature", "properties": { "Id": 0, "Sheet_ID": "SHEET 64", "label": "SHEET 64", "call_short": "G7908 .H4 S20 .J3", "call_num": "G7908 .H4 S20 .J3 SHEET 64", "recid": "qv799fd1266", "websiteUrl": "https://purl.stanford.edu/qv799fd1266", "title": "二万分一羅津要塞近傍", "ckey": 9751854, "available": true, "iiifUrl": "https://purl.stanford.edu/qv799fd1266/iiif/manifest" }, "geometry": { "type": "Polygon", "coordinates": [ [ [ 129.9875004, 43.0111111 ], [ 130.0986115, 43.0111111 ], [ 130.0986115, 43.0805555 ], [ 129.9875004, 43.0805555 ], [ 129.9875004, 43.0111111 ] ] ] } },
{ "type": "Feature", "properties": { "Id": 0, "Sheet_ID": "SHEET 48", "label": "SHEET 48", "call_short": "G7908 .H4 S20 .J3", "call_num": "G7908 .H4 S20 .J3 SHEET 48", "recid": "xw910kq0276", "websiteUrl": "https://purl.stanford.edu/xw910kq0276", "title": "二万分一羅津要塞近傍", "ckey": 9751854, "available": true, "iiifUrl": "https://purl.stanford.edu/xw910kq0276/iiif/manifest" }, "geometry": { "type": "Polygon", "coordinates": [ [ [ 130.0986115, 43.0111111 ], [ 130.2097225, 43.0111111 ], [ 130.2097225, 43.0805555 ], [ 130.0986115, 43.0805555 ], [ 130.0986115, 43.0111111 ] ] ] } },
{ "type": "Feature", "properties": { "Id": 0, "Sheet_ID": "SHEET 33", "label": "SHEET 33", "call_short": "G7908 .H4 S20 .J3", "call_num": "G7908 .H4 S20 .J3 SHEET 33", "recid": "wg633nc5052", "websiteUrl": "https://purl.stanford.edu/wg633nc5052", "title": "二万分一羅津要塞近傍", "ckey": 9751854, "available": true, "iiifUrl": "https://purl.stanford.edu/wg633nc5052/iiif/manifest" }, "geometry": { "type": "Polygon", "coordinates": [ [ [ 130.2097225, 43.0111111 ], [ 130.3208336, 43.0111111 ], [ 130.3208336, 43.0805555 ], [ 130.2097225, 43.0805555 ], [ 130.2097225, 43.0111111 ] ] ] } },
{ "type": "Feature", "properties": { "Id": 0, "Sheet_ID": "SHEET 97", "label": "SHEET 97", "call_short": "G7908 .H4 S20 .J3", "call_num": "G7908 .H4 S20 .J3 SHEET 97", "recid": "ws171zc0495", "websiteUrl": "https://purl.stanford.edu/ws171zc0495", "title": "二万分一羅津要塞近傍", "ckey": 9751854, "available": true, "iiifUrl": "https://purl.stanford.edu/ws171zc0495/iiif/manifest" }, "geometry": { "type": "Polygon", "coordinates": [ [ [ 129.7652782, 43.0805555 ], [ 129.8763893, 43.0805555 ], [ 129.8763893, 43.15 ], [ 129.7652782, 43.15 ], [ 129.7652782, 43.0805555 ] ] ] } },
{ "type": "Feature", "properties": { "Id": 0, "Sheet_ID": "SHEET 80", "label": "SHEET 80", "call_short": "G7908 .H4 S20 .J3", "call_num": "G7908 .H4 S20 .J3 SHEET 80", "recid": "nt938zr5696", "websiteUrl": "https://purl.stanford.edu/nt938zr5696", "title": "二万分一羅津要塞近傍", "ckey": 9751854, "available": true, "iiifUrl": "https://purl.stanford.edu/nt938zr5696/iiif/manifest" }, "geometry": { "type": "Polygon", "coordinates": [ [ [ 129.8763893, 43.0805555 ], [ 129.9875004, 43.0805555 ], [ 129.9875004, 43.15 ], [ 129.8763893, 43.15 ], [ 129.8763893, 43.0805555 ] ] ] } },
{ "type": "Feature", "properties": { "Id": 0, "Sheet_ID": "SHEET 63", "label": "SHEET 63", "call_short": "G7908 .H4 S20 .J3", "call_num": "G7908 .H4 S20 .J3 SHEET 63", "recid": "gy592vs3199", "websiteUrl": "https://purl.stanford.edu/gy592vs3199", "title": "二万分一羅津要塞近傍", "ckey": 9751854, "available": true, "iiifUrl": "https://purl.stanford.edu/gy592vs3199/iiif/manifest" }, "geometry": { "type": "Polygon", "coordinates": [ [ [ 129.9875004, 43.0805555 ], [ 130.0986115, 43.0805555 ], [ 130.0986115, 43.15 ], [ 129.9875004, 43.15 ], [ 129.9875004, 43.0805555 ] ] ] } },
{ "type": "Feature", "properties": { "Id": 0, "Sheet_ID": "SHEET 47", "label": "SHEET 47", "call_short": "G7908 .H4 S20 .J3", "call_num": "G7908 .H4 S20 .J3 SHEET 47", "recid": "gv571bw3687", "websiteUrl": "https://purl.stanford.edu/gv571bw3687", "title": "二万分一羅津要塞近傍", "ckey": 9751854, "available": true, "iiifUrl": "https://purl.stanford.edu/gv571bw3687/iiif/manifest" }, "geometry": { "type": "Polygon", "coordinates": [ [ [ 130.0986115, 43.0805555 ], [ 130.2097225, 43.0805555 ], [ 130.2097225, 43.15 ], [ 130.0986115, 43.15 ], [ 130.0986115, 43.0805555 ] ] ] } }
]
}
