{
"type": "FeatureCollection",
"name": "index_map",
"xy_coordinate_resolution": 1e-07,
"features": [
{ "type": "Feature", "properties": { "Id": 0, "Sheet_ID": "1號. クレストウイ", "label": "1號. クレストウイ", "call_short": "G7064 .B515 1908 .J3 1947", "call_num": "G7064 .B515 1908 .J3 1947 SHEET 1", "recid": "cz633dr9513", "websiteUrl": "https://purl.stanford.edu/cz633dr9513", "title": "一万分一「ベレズニヤキー」近傍", "ckey": 10642367, "available": true, "iiifUrl": "https://purl.stanford.edu/cz633dr9513/iiif/manifest" }, "geometry": { "type": "Polygon", "coordinates": [ [ [ 142.726944, 47.1425 ], [ 142.793611, 47.1425 ], [ 142.793611, 47.175833 ], [ 142.726944, 47.175833 ], [ 142.726944, 47.1425 ] ] ] } },
{ "type": "Feature", "properties": { "Id": 0, "Sheet_ID": "3號. ベレズニヤキー", "label": "3號. ベレズニヤキー", "call_short": "G7064 .B515 1908 .J3 1947", "call_num": "G7064 .B515 1908 .J3 1947 SHEET 3", "recid": "vc293gt0757", "websiteUrl": "https://purl.stanford.edu/vc293gt0757", "title": "一万分一「ベレズニヤキー」近傍", "ckey": 10642367, "available": true, "iiifUrl": "https://purl.stanford.edu/vc293gt0757/iiif/manifest" }, "geometry": { "type": "Polygon", "coordinates": [ [ [ 142.7102773, 47.1091667 ], [ 142.7769443, 47.1091667 ], [ 142.7769443, 47.1424997 ], [ 142.7102773, 47.1424997 ], [ 142.7102773, 47.1091667 ] ] ] } },
{ "type": "Feature", "properties": { "Id": 0, "Sheet_ID": "4號. タコエ川", "label": "4號. タコエ川", "call_short": "G7064 .B515 1908 .J3 1947", "call_num": "G7064 .B515 1908 .J3 1947 SHEET 4", "recid": "xb160qk6766", "websiteUrl": "https://purl.stanford.edu/xb160qk6766", "title": "一万分一「ベレズニヤキー」近傍", "ckey": 10642367, "available": true, "iiifUrl": "https://purl.stanford.edu/xb160qk6766/iiif/manifest" }, "geometry": { "type": "Polygon", "coordinates": [ [ [ 142.7102773, 47.084167 ], [ 142.7769443, 47.084167 ], [ 142.7769443, 47.1091663 ], [ 142.7102773, 47.1091663 ], [ 142.7102773, 47.084167 ] ] ] } },
{ "type": "Feature", "properties": { "Id": 0, "Sheet_ID": "5號. タコエ川南部", "label": "5號. タコエ川南部", "call_short": "G7064 .B515 1908 .J3 1947", "call_num": "G7064 .B515 1908 .J3 1947 SHEET 5", "recid": "qs915mb5671", "websiteUrl": "https://purl.stanford.edu/qs915mb5671", "title": "一万分一「ベレズニヤキー」近傍", "ckey": 10642367, "available": true, "iiifUrl": "https://purl.stanford.edu/qs915mb5671/iiif/manifest" }, "geometry": { "type": "Polygon", "coordinates": [ [ [ 142.7104551, 47.0675 ], [ 142.7769443, 47.0675 ], [ 142.7769443, 47.0841663 ], [ 142.7102773, 47.0841663 ], [ 142.7104551, 47.0675 ] ] ] } },
{ "type": "Feature", "properties": { "Id": 0, "Sheet_ID": "4‐5號東部補足圖", "label": "4‐5號東部補足圖", "call_short": "G7064 .B515 1908 .J3 1947", "call_num": "G7064 .B515 1908 .J3 1947 SHEET 4-5 EAST", "recid": "nb168mh0936", "websiteUrl": "https://purl.stanford.edu/nb168mh0936", "title": "一万分一「ベレズニヤキー」近傍", "ckey": 10642367, "available": true, "iiifUrl": "https://purl.stanford.edu/nb168mh0936/iiif/manifest" }, "geometry": { "type": "Polygon", "coordinates": [ [ [ 142.776944, 47.0675 ], [ 142.793611, 47.0675 ], [ 142.793611, 47.1091663 ], [ 142.776944, 47.1091663 ], [ 142.776944, 47.0675 ] ] ] } },
{ "type": "Feature", "properties": { "Id": 0, "Sheet_ID": "2號. ベレズニヤキー東部", "label": "2號. ベレズニヤキー東部", "call_short": "G7064 .B515 1908 .J3 1947", "call_num": "G7064 .B515 1908 .J3 1947 SHEET 2", "recid": "tf078nk6869", "websiteUrl": "https://purl.stanford.edu/tf078nk6869", "title": "一万分一「ベレズニヤキー」近傍", "ckey": 10642367, "available": true, "iiifUrl": "https://purl.stanford.edu/tf078nk6869/iiif/manifest" }, "geometry": { "type": "Polygon", "coordinates": [ [ [ 142.776944, 47.1091667 ], [ 142.818611, 47.1091667 ], [ 142.818611, 47.1424997 ], [ 142.776944, 47.1424997 ], [ 142.776944, 47.1091667 ] ] ] } }
]
}
