{
"type": "FeatureCollection",
"name": "index_map",
"features": [
{ "type": "Feature", "properties": { "Id": 0, "Sheet_ID": "タラカン附近 3號", "label": "タラカン附近 3號", "call_short": "G8101 .D2 S200 .J3", "call_num": "G8101 .D2 S200 .J3 SHEET 3", "recid": "bm016vy9826", "websiteUrl": "https://purl.stanford.edu/bm016vy9826", "title": "二十万分一蘭領ボルネオ", "ckey": 10425288, "available": true, "iiifUrl": "https://purl.stanford.edu/bm016vy9826/iiif/manifest" }, "geometry": { "type": "Polygon", "coordinates": [ [ [ 116.5, 4.666667 ], [ 116.5, 4.0 ], [ 117.166667, 4.0 ], [ 117.166667, 4.666667 ], [ 116.5, 4.666667 ] ] ] } },
{ "type": "Feature", "properties": { "Id": 0, "Sheet_ID": "バリックパパン附近 45號", "label": "バリックパパン附近 45號", "call_short": "G8101 .D2 S200 .J3", "call_num": "G8101 .D2 S200 .J3 SHEET 45", "recid": "ck438bb3719", "websiteUrl": "https://purl.stanford.edu/ck438bb3719", "title": "二十万分一蘭領ボルネオ", "ckey": 10425288, "available": true, "iiifUrl": "https://purl.stanford.edu/ck438bb3719/iiif/manifest" }, "geometry": { "type": "Polygon", "coordinates": [ [ [ 115.833333, -2.0 ], [ 115.833333, -2.666667 ], [ 116.5, -2.666667 ], [ 116.5, -2.0 ], [ 115.833333, -2.0 ] ] ] } }
]
}
