{"type":"FeatureCollection","features":[{"type":"Feature","properties":{"Id":0,"Sheet_ID":"4. 釜山西南部","label":"4. 釜山西南部","call_short":"G7904 .P987 1919 .K6","call_num":"G7904 .P987 1919 .K6 SHEET 4","recid":"cp472rh8251","websiteUrl":"https://purl.stanford.edu/cp472rh8251","title":"一万分一地形圖 鎭海湾要塞釜山近傍","ckey":10786241,"web_map":"","available":"true","iiiUrl":"https://purl.stanford.edu/cp472rh8251/iiif/manifest"},"geometry":{"bbox":[129.00111100000004,35.075000000000045,129.0444440000001,35.11666650000001],"type":"Polygon","coordinates":[[[129.00111100000004,35.075000000000045],[129.00111100000004,35.11666650000001],[129.0444440000001,35.11666650000001],[129.0444440000001,35.075000000000045],[129.00111100000004,35.075000000000045]]]}},{"type":"Feature","properties":{"Id":0,"Sheet_ID":"2. 釜山東南部","label":"2. 釜山東南部","call_short":"","call_num":"","recid":"","websiteUrl":"","title":"","ckey":0,"web_map":"","available":"false","iiiUrl":""},"geometry":{"bbox":[129.0444440000001,35.075000000000045,129.08611100000007,35.11666650000001],"type":"Polygon","coordinates":[[[129.0444440000001,35.075000000000045],[129.0444440000001,35.11666650000001],[129.08611100000007,35.11666650000001],[129.08611100000007,35.075000000000045],[129.0444440000001,35.075000000000045]]]}},{"type":"Feature","properties":{"Id":0,"Sheet_ID":"3. 釜山西北部","label":"3. 釜山西北部","call_short":"G7904 .P987 1919 .K6","call_num":"G7904 .P987 1919 .K6 SHEET 3","recid":"zb226jz5302","websiteUrl":"https://purl.stanford.edu/zb226jz5302","title":"一万分一地形圖 鎭海湾要塞釜山近傍","ckey":10786241,"web_map":"","available":"true","iiiUrl":"https://purl.stanford.edu/zb226jz5302/iiif/manifest"},"geometry":{"bbox":[129.00111100000004,35.11666650000001,129.0444440000001,35.15833299999992],"type":"Polygon","coordinates":[[[129.00111100000004,35.11666650000001],[129.00111100000004,35.15833299999992],[129.0444440000001,35.15833299999992],[129.0444440000001,35.11666650000001],[129.00111100000004,35.11666650000001]]]}},{"type":"Feature","properties":{"Id":0,"Sheet_ID":"1. 釜山東北部","label":"1. 釜山東北部","call_short":"G7904 .P987 1919 .K6","call_num":"G7904 .P987 1919 .K6 SHEET 1","recid":"wy111yd0051","websiteUrl":"https://purl.stanford.edu/wy111yd0051","title":"一万分一地形圖 鎭海湾要塞釜山近傍","ckey":10786241,"web_map":"","available":"true","iiiUrl":"https://purl.stanford.edu/wy111yd0051/iiif/manifest"},"geometry":{"bbox":[129.0444440000001,35.11666650000001,129.08611100000007,35.15833299999992],"type":"Polygon","coordinates":[[[129.0444440000001,35.11666650000001],[129.0444440000001,35.15833299999992],[129.08611100000007,35.15833299999992],[129.08611100000007,35.11666650000001],[129.0444440000001,35.11666650000001]]]}}],"name":"index_10786241"}
