{
"type": "FeatureCollection",
"name": "index_map",
"xy_coordinate_resolution": 1e-07,
"features": [
{ "type": "Feature", "properties": { "Id": 0, "Sheet_ID": "折木城及岫巖近傍 2", "label": "折木城及岫巖近傍 2", "call_short": "G7831 .S5 1931 .J3", "call_num": "G7831 .S5 1931 .J3 SHEET 1-2", "recid": "xv200wf7646", "websiteUrl": "https://purl.stanford.edu/xv200wf7646", "title": "公刊日露戦史附圖集成圖", "ckey": 9689706, "available": true, "iiifUrl": "https://purl.stanford.edu/xv200wf7646/iiif/manifest" }, "geometry": { "type": "Polygon", "coordinates": [ [ [ 122.883333, 40.183333 ], [ 123.483333, 40.183333 ], [ 123.483333, 40.5 ], [ 122.883333, 40.5 ], [ 122.883333, 40.183333 ] ] ] } },
{ "type": "Feature", "properties": { "Id": 0, "Sheet_ID": "折木城及岫巖近傍 1", "label": "折木城及岫巖近傍 1", "call_short": "G7831 .S5 1931 .J3", "call_num": "G7831 .S5 1931 .J3 SHEET 1-1", "recid": "kq502yr3533", "websiteUrl": "https://purl.stanford.edu/kq502yr3533", "title": "公刊日露戦史附圖集成圖", "ckey": 9689706, "available": true, "iiifUrl": "https://purl.stanford.edu/kq502yr3533/iiif/manifest" }, "geometry": { "type": "Polygon", "coordinates": [ [ [ 122.883333, 40.5 ], [ 123.483333, 40.5 ], [ 123.483333, 40.816667 ], [ 122.883333, 40.816667 ], [ 122.883333, 40.5 ] ] ] } },
{ "type": "Feature", "properties": { "Id": 0, "Sheet_ID": "得利寺近傍", "label": "得利寺近傍", "call_short": "G7831 .S5 1931 .J3", "call_num": "G7831 .S5 1931 .J3 SHEET 3", "recid": "fh012cy6086", "websiteUrl": "https://purl.stanford.edu/fh012cy6086", "title": "公刊日露戦史附圖集成圖", "ckey": 9689706, "available": true, "iiifUrl": "https://purl.stanford.edu/fh012cy6086/iiif/manifest" }, "geometry": { "type": "Polygon", "coordinates": [ [ [ 121.7, 39.566667 ], [ 122.2, 39.566667 ], [ 122.2, 39.866667 ], [ 121.7, 39.866667 ], [ 121.7, 39.566667 ] ] ] } },
{ "type": "Feature", "properties": { "Id": 0, "Sheet_ID": "九連城近傍", "label": "九連城近傍", "call_short": "G7831 .S5 1931 .J3", "call_num": "G7831 .S5 1931 .J3 SHEET 4", "recid": "nk451kg2521", "websiteUrl": "https://purl.stanford.edu/nk451kg2521", "title": "公刊日露戦史附圖集成圖", "ckey": 9689706, "available": true, "iiifUrl": "https://purl.stanford.edu/nk451kg2521/iiif/manifest" }, "geometry": { "type": "Polygon", "coordinates": [ [ [ 124.283333, 40.0 ], [ 124.7, 40.0 ], [ 124.7, 40.316667 ], [ 124.283333, 40.316667 ], [ 124.283333, 40.0 ] ] ] } },
{ "type": "Feature", "properties": { "Id": 0, "Sheet_ID": "海城大石橋蓋平近傍 1", "label": "海城大石橋蓋平近傍 1", "call_short": "G7831 .S5 1931 .J3", "call_num": "G7831 .S5 1931 .J3 SHEET 5-1", "recid": "ch780cp7964", "websiteUrl": "https://purl.stanford.edu/ch780cp7964", "title": "公刊日露戦史附圖集成圖", "ckey": 9689706, "available": true, "iiifUrl": "https://purl.stanford.edu/ch780cp7964/iiif/manifest" }, "geometry": { "type": "Polygon", "coordinates": [ [ [ 122.2166663, 40.6666667 ], [ 122.8166663, 40.6666667 ], [ 122.8166663, 40.9833337 ], [ 122.2166663, 40.9833337 ], [ 122.2166663, 40.6666667 ] ] ] } },
{ "type": "Feature", "properties": { "Id": 0, "Sheet_ID": "海城大石橋蓋平近傍 2", "label": "海城大石橋蓋平近傍 2", "call_short": "G7831 .S5 1931 .J3", "call_num": "G7831 .S5 1931 .J3 SHEET 5-2", "recid": "js890vh4557", "websiteUrl": "https://purl.stanford.edu/js890vh4557", "title": "公刊日露戦史附圖集成圖", "ckey": 9689706, "available": true, "iiifUrl": "https://purl.stanford.edu/js890vh4557/iiif/manifest" }, "geometry": { "type": "Polygon", "coordinates": [ [ [ 122.2166663, 40.3499997 ], [ 122.8166663, 40.3499997 ], [ 122.8166663, 40.6666667 ], [ 122.2166663, 40.6666667 ], [ 122.2166663, 40.3499997 ] ] ] } },
{ "type": "Feature", "properties": { "Id": 0, "Sheet_ID": "海城大石橋蓋平近傍 1 ED. 1947", "label": "海城大石橋蓋平近傍 1 ED. 1947", "call_short": "G7831 .S5 1931 .J3", "call_num": "G7831 .S5 1931 .J3 SHEET 5-1 ED. 1947", "recid": "qs704bf7153", "websiteUrl": "https://purl.stanford.edu/qs704bf7153", "title": "公刊日露戦史附圖集成圖", "ckey": 9689706, "available": true, "iiifUrl": "https://purl.stanford.edu/qs704bf7153/iiif/manifest" }, "geometry": { "type": "Polygon", "coordinates": [ [ [ 122.2166663, 40.6666667 ], [ 122.8166663, 40.6666667 ], [ 122.8166663, 40.9833337 ], [ 122.2166663, 40.9833337 ], [ 122.2166663, 40.6666667 ] ] ] } },
{ "type": "Feature", "properties": { "Id": 0, "Sheet_ID": "奉天沙河遼陽近傍 8", "label": "奉天沙河遼陽近傍 8", "call_short": "G7831 .S5 1931 .J3", "call_num": "G7831 .S5 1931 .J3 SHEET 2-8", "recid": "nx437py9047", "websiteUrl": "https://purl.stanford.edu/nx437py9047", "title": "公刊日露戦史附圖集成圖", "ckey": 9689706, "available": true, "iiifUrl": "https://purl.stanford.edu/nx437py9047/iiif/manifest" }, "geometry": { "type": "Polygon", "coordinates": [ [ [ 122.733333, 40.833333 ], [ 123.325, 40.833333 ], [ 123.325, 41.1416665 ], [ 122.733333, 41.1416665 ], [ 122.733333, 40.833333 ] ] ] } },
{ "type": "Feature", "properties": { "Id": 0, "Sheet_ID": "奉天沙河遼陽近傍 4", "label": "奉天沙河遼陽近傍 4", "call_short": "G7831 .S5 1931 .J3", "call_num": "G7831 .S5 1931 .J3 SHEET 2-4", "recid": "ms530hs6355", "websiteUrl": "https://purl.stanford.edu/ms530hs6355", "title": "公刊日露戦史附圖集成圖", "ckey": 9689706, "available": true, "iiifUrl": "https://purl.stanford.edu/ms530hs6355/iiif/manifest" }, "geometry": { "type": "Polygon", "coordinates": [ [ [ 123.325, 40.833333 ], [ 123.916667, 40.833333 ], [ 123.916667, 41.1416665 ], [ 123.325, 41.1416665 ], [ 123.325, 40.833333 ] ] ] } },
{ "type": "Feature", "properties": { "Id": 0, "Sheet_ID": "奉天沙河遼陽近傍 7", "label": "奉天沙河遼陽近傍 7", "call_short": "G7831 .S5 1931 .J3", "call_num": "G7831 .S5 1931 .J3 SHEET 2-7", "recid": "sb441gz2339", "websiteUrl": "https://purl.stanford.edu/sb441gz2339", "title": "公刊日露戦史附圖集成圖", "ckey": 9689706, "available": true, "iiifUrl": "https://purl.stanford.edu/sb441gz2339/iiif/manifest" }, "geometry": { "type": "Polygon", "coordinates": [ [ [ 122.733333, 41.1416665 ], [ 123.325, 41.1416665 ], [ 123.325, 41.45 ], [ 122.733333, 41.45 ], [ 122.733333, 41.1416665 ] ] ] } },
{ "type": "Feature", "properties": { "Id": 0, "Sheet_ID": "奉天沙河遼陽近傍 3", "label": "奉天沙河遼陽近傍 3", "call_short": "G7831 .S5 1931 .J3", "call_num": "G7831 .S5 1931 .J3 SHEET 2-3", "recid": "jm567pm9129", "websiteUrl": "https://purl.stanford.edu/jm567pm9129", "title": "公刊日露戦史附圖集成圖", "ckey": 9689706, "available": true, "iiifUrl": "https://purl.stanford.edu/jm567pm9129/iiif/manifest" }, "geometry": { "type": "Polygon", "coordinates": [ [ [ 123.325, 41.1416665 ], [ 123.916667, 41.1416665 ], [ 123.916667, 41.45 ], [ 123.325, 41.45 ], [ 123.325, 41.1416665 ] ] ] } },
{ "type": "Feature", "properties": { "Id": 0, "Sheet_ID": "奉天沙河遼陽近傍 6", "label": "奉天沙河遼陽近傍 6", "call_short": "G7831 .S5 1931 .J3", "call_num": "G7831 .S5 1931 .J3 SHEET 2-6", "recid": "qf978fg6858", "websiteUrl": "https://purl.stanford.edu/qf978fg6858", "title": "公刊日露戦史附圖集成圖", "ckey": 9689706, "available": true, "iiifUrl": "https://purl.stanford.edu/qf978fg6858/iiif/manifest" }, "geometry": { "type": "Polygon", "coordinates": [ [ [ 122.733333, 41.45 ], [ 123.325, 41.45 ], [ 123.325, 41.7583335 ], [ 122.733333, 41.7583335 ], [ 122.733333, 41.45 ] ] ] } },
{ "type": "Feature", "properties": { "Id": 0, "Sheet_ID": "奉天沙河遼陽近傍 2", "label": "奉天沙河遼陽近傍 2", "call_short": "G7831 .S5 1931 .J3", "call_num": "G7831 .S5 1931 .J3 SHEET 2-2", "recid": "fn689wp1780", "websiteUrl": "https://purl.stanford.edu/fn689wp1780", "title": "公刊日露戦史附圖集成圖", "ckey": 9689706, "available": true, "iiifUrl": "https://purl.stanford.edu/fn689wp1780/iiif/manifest" }, "geometry": { "type": "Polygon", "coordinates": [ [ [ 123.325, 41.45 ], [ 123.916667, 41.45 ], [ 123.916667, 41.7583335 ], [ 123.325, 41.7583335 ], [ 123.325, 41.45 ] ] ] } },
{ "type": "Feature", "properties": { "Id": 0, "Sheet_ID": "奉天沙河遼陽近傍 5", "label": "奉天沙河遼陽近傍 5", "call_short": "G7831 .S5 1931 .J3", "call_num": "G7831 .S5 1931 .J3 SHEET 2-5", "recid": "wh345rq2679", "websiteUrl": "https://purl.stanford.edu/wh345rq2679", "title": "公刊日露戦史附圖集成圖", "ckey": 9689706, "available": true, "iiifUrl": "https://purl.stanford.edu/wh345rq2679/iiif/manifest" }, "geometry": { "type": "Polygon", "coordinates": [ [ [ 122.733333, 41.7583335 ], [ 123.325, 41.7583335 ], [ 123.325, 42.066667 ], [ 122.733333, 42.066667 ], [ 122.733333, 41.7583335 ] ] ] } },
{ "type": "Feature", "properties": { "Id": 0, "Sheet_ID": "奉天沙河遼陽近傍 1", "label": "奉天沙河遼陽近傍 1", "call_short": "G7831 .S5 1931 .J3", "call_num": "G7831 .S5 1931 .J3 SHEET 2-1", "recid": "sz048fd9677", "websiteUrl": "https://purl.stanford.edu/sz048fd9677", "title": "公刊日露戦史附圖集成圖", "ckey": 9689706, "available": true, "iiifUrl": "https://purl.stanford.edu/sz048fd9677/iiif/manifest" }, "geometry": { "type": "Polygon", "coordinates": [ [ [ 123.325, 41.7583335 ], [ 123.916667, 41.7583335 ], [ 123.916667, 42.066667 ], [ 123.325, 42.066667 ], [ 123.325, 41.7583335 ] ] ] } }
]
}
