{
"type": "FeatureCollection",
"name": "index_map",
"features": [
{ "type": "Feature", "properties": { "Id": 0, "Sheet_ID": "1. ゴンザーガ", "label": "1. ゴンザーガ", "call_short": "G8062 .L8 S100 .J3", "call_num": "G8062 .L8 S100 .J3 SHEET 1", "recid": "pp857xv7640", "websiteUrl": "https://purl.stanford.edu/pp857xv7640", "title": "要圖 (空中寫眞測量) 呂宋島十万分一圖", "ckey": 8027316, "available": true, "iiifUrl": "https://purl.stanford.edu/pp857xv7640/iiif/manifest" }, "geometry": { "type": "Polygon", "coordinates": [ [ [ 121.8, 18.15 ], [ 122.133333, 18.15 ], [ 122.133333, 18.483333 ], [ 121.8, 18.483333 ], [ 121.8, 18.15 ] ] ] } },
{ "type": "Feature", "properties": { "Id": 0, "Sheet_ID": "2. アパーリ", "label": "2. アパーリ", "call_short": "G8062 .L8 S100 .J3", "call_num": "G8062 .L8 S100 .J3 SHEET 2", "recid": "hp756vh9858", "websiteUrl": "https://purl.stanford.edu/hp756vh9858", "title": "要圖 (空中寫眞測量) 呂宋島十万分一圖", "ckey": 8027316, "available": true, "iiifUrl": "https://purl.stanford.edu/hp756vh9858/iiif/manifest" }, "geometry": { "type": "Polygon", "coordinates": [ [ [ 121.8, 18.15 ], [ 121.8, 18.483333 ], [ 121.3, 18.483333 ], [ 121.3, 18.15 ], [ 121.8, 18.15 ] ] ] } },
{ "type": "Feature", "properties": { "Id": 0, "Sheet_ID": "3. アルカラ", "label": "3. アルカラ", "call_short": "G8062 .L8 S100 .J3", "call_num": "G8062 .L8 S100 .J3 SHEET 3", "recid": "zd246pt8418", "websiteUrl": "https://purl.stanford.edu/zd246pt8418", "title": "要圖 (空中寫眞測量) 呂宋島十万分一圖", "ckey": 8027316, "available": true, "iiifUrl": "https://purl.stanford.edu/zd246pt8418/iiif/manifest" }, "geometry": { "type": "Polygon", "coordinates": [ [ [ 121.9, 18.15 ], [ 121.4, 18.15 ], [ 121.4, 17.783333 ], [ 121.9, 17.783333 ], [ 121.9, 18.15 ] ] ] } },
{ "type": "Feature", "properties": { "Id": 0, "Sheet_ID": "4. ツゲガラオ", "label": "4. ツゲガラオ", "call_short": "G8062 .L8 S100 .J3", "call_num": "G8062 .L8 S100 .J3 SHEET 4", "recid": "mt887bs6555", "websiteUrl": "https://purl.stanford.edu/mt887bs6555", "title": "要圖 (空中寫眞測量) 呂宋島十万分一圖", "ckey": 8027316, "available": true, "iiifUrl": "https://purl.stanford.edu/mt887bs6555/iiif/manifest" }, "geometry": { "type": "Polygon", "coordinates": [ [ [ 121.9, 17.433333 ], [ 121.9, 17.783333 ], [ 121.4, 17.783333 ], [ 121.4, 17.433333 ], [ 121.9, 17.433333 ] ] ] } },
{ "type": "Feature", "properties": { "Id": 0, "Sheet_ID": "5. イラガン", "label": "5. イラガン", "call_short": null, "call_num": null, "recid": null, "websiteUrl": null, "title": null, "ckey": 0, "available": false, "iiifUrl": null }, "geometry": { "type": "Polygon", "coordinates": [ [ [ 122.0, 17.433333 ], [ 121.5, 17.433333 ], [ 121.5, 17.1 ], [ 122.0, 17.1 ], [ 122.0, 17.433333 ] ] ] } },
{ "type": "Feature", "properties": { "Id": 0, "Sheet_ID": "6. カウアヤン", "label": "6. カウアヤン", "call_short": "G8062 .L8 S100 .J3", "call_num": "G8062 .L8 S100 .J3 SHEET 6", "recid": "qp323sz1101", "websiteUrl": "https://purl.stanford.edu/qp323sz1101", "title": "要圖 (空中寫眞測量) 呂宋島十万分一圖", "ckey": 8027316, "available": true, "iiifUrl": "https://purl.stanford.edu/qp323sz1101/iiif/manifest" }, "geometry": { "type": "Polygon", "coordinates": [ [ [ 122.0, 16.766667 ], [ 122.0, 17.1 ], [ 121.5, 17.1 ], [ 121.5, 16.766667 ], [ 122.0, 16.766667 ] ] ] } },
{ "type": "Feature", "properties": { "Id": 0, "Sheet_ID": "7. サンティアゴ", "label": "7. サンティアゴ", "call_short": "G8062 .L8 S100 .J3", "call_num": "G8062 .L8 S100 .J3 SHEET 7", "recid": "fk599qn4928", "websiteUrl": "https://purl.stanford.edu/fk599qn4928", "title": "要圖 (空中寫眞測量) 呂宋島十万分一圖", "ckey": 8027316, "available": true, "iiifUrl": "https://purl.stanford.edu/fk599qn4928/iiif/manifest" }, "geometry": { "type": "Polygon", "coordinates": [ [ [ 121.916667, 16.766667 ], [ 121.416667, 16.766667 ], [ 121.416667, 16.366667 ], [ 121.916667, 16.366667 ], [ 121.916667, 16.766667 ] ] ] } },
{ "type": "Feature", "properties": { "Id": 0, "Sheet_ID": "8. バヨンボン", "label": "8. バヨンボン", "call_short": "G8062 .L8 S100 .J3", "call_num": "G8062 .L8 S100 .J3 SHEET 8", "recid": "qd587tn0306", "websiteUrl": "https://purl.stanford.edu/qd587tn0306", "title": "要圖 (空中寫眞測量) 呂宋島十万分一圖", "ckey": 8027316, "available": true, "iiifUrl": "https://purl.stanford.edu/qd587tn0306/iiif/manifest" }, "geometry": { "type": "Polygon", "coordinates": [ [ [ 120.916667, 16.766667 ], [ 120.916667, 16.366667 ], [ 121.416667, 16.366667 ], [ 121.416667, 16.766667 ], [ 120.916667, 16.766667 ] ] ] } },
{ "type": "Feature", "properties": { "Id": 0, "Sheet_ID": "14. サンフェルナンド", "label": "14. サンフェルナンド", "call_short": null, "call_num": null, "recid": null, "websiteUrl": null, "title": null, "ckey": 0, "available": false, "iiifUrl": null }, "geometry": { "type": "Polygon", "coordinates": [ [ [ 120.2, 16.766667 ], [ 120.2, 16.366667 ], [ 120.7, 16.366667 ], [ 120.7, 16.766667 ], [ 120.2, 16.766667 ] ] ] } },
{ "type": "Feature", "properties": { "Id": 0, "Sheet_ID": "15. リンガエン", "label": "15. リンガエン", "call_short": null, "call_num": null, "recid": null, "websiteUrl": null, "title": null, "ckey": 0, "available": false, "iiifUrl": null }, "geometry": { "type": "Polygon", "coordinates": [ [ [ 120.2, 16.0 ], [ 120.7, 16.0 ], [ 120.7, 16.366667 ], [ 120.2, 16.366667 ], [ 120.2, 16.0 ] ] ] } },
{ "type": "Feature", "properties": { "Id": 0, "Sheet_ID": "16. ロザレス", "label": "16. ロザレス", "call_short": "G8062 .L8 S100 .J3", "call_num": "G8062 .L8 S100 .J3 SHEET 16", "recid": "vv072yk9754", "websiteUrl": "https://purl.stanford.edu/vv072yk9754", "title": "要圖 (空中寫眞測量) 呂宋島十万分一圖", "ckey": 8027316, "available": true, "iiifUrl": "https://purl.stanford.edu/vv072yk9754/iiif/manifest" }, "geometry": { "type": "Polygon", "coordinates": [ [ [ 120.2, 16.0 ], [ 120.2, 15.666667 ], [ 120.7, 15.666667 ], [ 120.7, 16.0 ], [ 120.2, 16.0 ] ] ] } },
{ "type": "Feature", "properties": { "Id": 0, "Sheet_ID": "11. サンニコラス", "label": "11. サンニコラス", "call_short": "G8062 .L8 S100 .J3", "call_num": "G8062 .L8 S100 .J3 SHEET 11", "recid": "rb470rd8908", "websiteUrl": "https://purl.stanford.edu/rb470rd8908", "title": "要圖 (空中寫眞測量) 呂宋島十万分一圖", "ckey": 8027316, "available": true, "iiifUrl": "https://purl.stanford.edu/rb470rd8908/iiif/manifest" }, "geometry": { "type": "Polygon", "coordinates": [ [ [ 121.2, 16.0 ], [ 121.2, 16.366667 ], [ 120.7, 16.366667 ], [ 120.7, 16.0 ], [ 121.2, 16.0 ] ] ] } },
{ "type": "Feature", "properties": { "Id": 0, "Sheet_ID": "12. サンホセ", "label": "12. サンホセ", "call_short": null, "call_num": null, "recid": null, "websiteUrl": null, "title": null, "ckey": 0, "available": false, "iiifUrl": null }, "geometry": { "type": "Polygon", "coordinates": [ [ [ 121.2, 16.0 ], [ 120.7, 16.0 ], [ 120.7, 15.666667 ], [ 121.2, 15.666667 ], [ 121.2, 16.0 ] ] ] } },
{ "type": "Feature", "properties": { "Id": 0, "Sheet_ID": "13. カバナッアン", "label": "13. カバナッアン", "call_short": "G8062 .L8 S100 .J3", "call_num": "G8062 .L8 S100 .J3 SHEET 13", "recid": "pr716kr4390", "websiteUrl": "https://purl.stanford.edu/pr716kr4390", "title": "要圖 (空中寫眞測量) 呂宋島十万分一圖", "ckey": 8027316, "available": true, "iiifUrl": "https://purl.stanford.edu/pr716kr4390/iiif/manifest" }, "geometry": { "type": "Polygon", "coordinates": [ [ [ 121.2, 15.333333 ], [ 121.2, 15.666667 ], [ 120.7, 15.666667 ], [ 120.7, 15.333333 ], [ 121.2, 15.333333 ] ] ] } },
{ "type": "Feature", "properties": { "Id": 0, "Sheet_ID": "9. バレル", "label": "9. バレル", "call_short": "G8062 .L8 S100 .J3", "call_num": "G8062 .L8 S100 .J3 SHEET 9", "recid": "pn205hh4186", "websiteUrl": "https://purl.stanford.edu/pn205hh4186", "title": "要圖 (空中寫眞測量) 呂宋島十万分一圖", "ckey": 8027316, "available": true, "iiifUrl": "https://purl.stanford.edu/pn205hh4186/iiif/manifest" }, "geometry": { "type": "Polygon", "coordinates": [ [ [ 121.2, 16.0 ], [ 121.2, 15.666667 ], [ 121.7, 15.666667 ], [ 121.7, 16.0 ], [ 121.2, 16.0 ] ] ] } },
{ "type": "Feature", "properties": { "Id": 0, "Sheet_ID": "10. ディガラン湾", "label": "10. ディガラン湾", "call_short": "G8062 .L8 S100 .J3", "call_num": "G8062 .L8 S100 .J3 SHEET 10", "recid": "mq751sr4638", "websiteUrl": "https://purl.stanford.edu/mq751sr4638", "title": "要圖 (空中寫眞測量) 呂宋島十万分一圖", "ckey": 8027316, "available": true, "iiifUrl": "https://purl.stanford.edu/mq751sr4638/iiif/manifest" }, "geometry": { "type": "Polygon", "coordinates": [ [ [ 121.2, 15.333333 ], [ 121.7, 15.333333 ], [ 121.7, 15.666667 ], [ 121.2, 15.666667 ], [ 121.2, 15.333333 ] ] ] } },
{ "type": "Feature", "properties": { "Id": 0, "Sheet_ID": "17. ラオアグ", "label": "17. ラオアグ", "call_short": null, "call_num": null, "recid": null, "websiteUrl": null, "title": null, "ckey": 0, "available": false, "iiifUrl": null }, "geometry": { "type": "Polygon", "coordinates": [ [ [ 120.8, 18.333333 ], [ 120.4, 18.333333 ], [ 120.4, 18.016667 ], [ 120.8, 18.016667 ], [ 120.8, 18.333333 ] ] ] } },
{ "type": "Feature", "properties": { "Id": 0, "Sheet_ID": "18. ビガン", "label": "18. ビガン", "call_short": "G8062 .L8 S100 .J3", "call_num": "G8062 .L8 S100 .J3 SHEET 18", "recid": "nx098hw3657", "websiteUrl": "https://purl.stanford.edu/nx098hw3657", "title": "要圖 (空中寫眞測量) 呂宋島十万分一圖", "ckey": 8027316, "available": true, "iiifUrl": "https://purl.stanford.edu/nx098hw3657/iiif/manifest" }, "geometry": { "type": "Polygon", "coordinates": [ [ [ 120.6, 17.666667 ], [ 120.2, 17.666667 ], [ 120.2, 17.35 ], [ 120.6, 17.35 ], [ 120.6, 17.666667 ] ] ] } }
]
}
