{
"type": "FeatureCollection",
"name": "index_map",
"features": [
{ "type": "Feature", "properties": { "Id": 0, "Sheet_ID": "SHEET 17", "label": "SHEET 17", "call_short": null, "call_num": null, "recid": null, "websiteUrl": null, "title": null, "ckey": 0, "web_map": null, "available": false, "iiifUrl": null }, "geometry": { "type": "Polygon", "coordinates": [ [ [ 108.166667, 17.666667 ], [ 111.166667, 17.666667 ], [ 111.166667, 19.666667 ], [ 108.166667, 19.7049447 ], [ 108.166667, 17.666667 ] ] ] } },
{ "type": "Feature", "properties": { "Id": 0, "Sheet_ID": "SHEET 16", "label": "SHEET 16", "call_short": "G7820 S300 .J3", "call_num": "G7820 S300 .J3 SHEET 16", "recid": "cn019rx5665", "websiteUrl": "https://purl.stanford.edu/cn019rx5665", "title": "三十万分一支那沿岸陸海編合圖", "ckey": 10648570, "web_map": null, "available": true, "iiifUrl": "https://purl.stanford.edu/cn019rx5665/iiif/manifest" }, "geometry": { "type": "Polygon", "coordinates": [ [ [ 108.166667, 19.666667 ], [ 110.166667, 19.666667 ], [ 110.166667, 22.333333 ], [ 108.166667, 22.333333 ], [ 108.166667, 19.666667 ] ] ] } },
{ "type": "Feature", "properties": { "Id": 0, "Sheet_ID": "SHEET 15", "label": "SHEET 15", "call_short": "G7820 S300 .J3", "call_num": "G7820 S300 .J3 SHEET 15", "recid": "bh041pf1560", "websiteUrl": "https://purl.stanford.edu/bh041pf1560", "title": "三十万分一支那沿岸陸海編合圖", "ckey": 10648570, "web_map": null, "available": true, "iiifUrl": "https://purl.stanford.edu/bh041pf1560/iiif/manifest" }, "geometry": { "type": "Polygon", "coordinates": [ [ [ 110.166667, 19.666667 ], [ 112.166667, 19.666667 ], [ 112.166667, 22.333333 ], [ 110.166667, 22.333333 ], [ 110.166667, 19.666667 ] ] ] } },
{ "type": "Feature", "properties": { "Id": 0, "Sheet_ID": "SHEET 14", "label": "SHEET 14", "call_short": "G7820 S300 .J3", "call_num": "G7820 S300 .J3 SHEET 14", "recid": "tv362pn3280", "websiteUrl": "https://purl.stanford.edu/tv362pn3280", "title": "三十万分一支那沿岸陸海編合圖", "ckey": 10648570, "web_map": null, "available": true, "iiifUrl": "https://purl.stanford.edu/tv362pn3280/iiif/manifest" }, "geometry": { "type": "Polygon", "coordinates": [ [ [ 112.166667, 21.333333 ], [ 115.0, 21.333333 ], [ 115.0, 23.333333 ], [ 112.166667, 23.333333 ], [ 112.166667, 21.333333 ] ] ] } },
{ "type": "Feature", "properties": { "Id": 0, "Sheet_ID": "SHEET 13", "label": "SHEET 13", "call_short": "G7820 S300 .J3", "call_num": "G7820 S300 .J3 SHEET 13", "recid": "cs927cr4625", "websiteUrl": "https://purl.stanford.edu/cs927cr4625", "title": "三十万分一支那沿岸陸海編合圖", "ckey": 10648570, "web_map": null, "available": true, "iiifUrl": "https://purl.stanford.edu/cs927cr4625/iiif/manifest" }, "geometry": { "type": "Polygon", "coordinates": [ [ [ 115.0, 21.333333 ], [ 117.0, 21.333333 ], [ 117.0, 24.0 ], [ 115.0, 24.0 ], [ 115.0, 21.333333 ] ] ] } },
{ "type": "Feature", "properties": { "Id": 0, "Sheet_ID": "SHEET 12", "label": "SHEET 12", "call_short": "G7820 S300 .J3", "call_num": "G7820 S300 .J3 SHEET 12", "recid": "ww775tb3315", "websiteUrl": "https://purl.stanford.edu/ww775tb3315", "title": "三十万分一支那沿岸陸海編合圖", "ckey": 10648570, "web_map": null, "available": true, "iiifUrl": "https://purl.stanford.edu/ww775tb3315/iiif/manifest" }, "geometry": { "type": "Polygon", "coordinates": [ [ [ 117.0, 23.333333 ], [ 120.0, 23.333333 ], [ 120.0, 25.333333 ], [ 117.0, 25.333333 ], [ 117.0, 23.333333 ] ] ] } },
{ "type": "Feature", "properties": { "Id": 0, "Sheet_ID": "SHEET 11", "label": "SHEET 11", "call_short": "G7820 S300 .J3", "call_num": "G7820 S300 .J3 SHEET 11", "recid": "hw003pp0872", "websiteUrl": "https://purl.stanford.edu/hw003pp0872", "title": "三十万分一支那沿岸陸海編合圖", "ckey": 10648570, "web_map": null, "available": true, "iiifUrl": "https://purl.stanford.edu/hw003pp0872/iiif/manifest" }, "geometry": { "type": "Polygon", "coordinates": [ [ [ 118.5, 25.333333 ], [ 121.5, 25.333333 ], [ 121.5, 27.333333 ], [ 118.5, 27.333333 ], [ 118.5, 25.333333 ] ] ] } },
{ "type": "Feature", "properties": { "Id": 0, "Sheet_ID": "SHEET 10", "label": "SHEET 10", "call_short": "G7820 S300 .J3", "call_num": "G7820 S300 .J3 SHEET 10", "recid": "gw187kg7217", "websiteUrl": "https://purl.stanford.edu/gw187kg7217", "title": "三十万分一支那沿岸陸海編合圖", "ckey": 10648570, "web_map": null, "available": true, "iiifUrl": "https://purl.stanford.edu/gw187kg7217/iiif/manifest" }, "geometry": { "type": "Polygon", "coordinates": [ [ [ 120.0, 27.333333 ], [ 123.0, 27.333333 ], [ 123.0, 29.333333 ], [ 120.0, 29.333333 ], [ 120.0, 27.333333 ] ] ] } },
{ "type": "Feature", "properties": { "Id": 0, "Sheet_ID": "SHEET 9", "label": "SHEET 9", "call_short": "G7820 S300 .J3", "call_num": "G7820 S300 .J3 SHEET 9", "recid": "vg815br0003", "websiteUrl": "https://purl.stanford.edu/vg815br0003", "title": "三十万分一支那沿岸陸海編合圖", "ckey": 10648570, "web_map": null, "available": true, "iiifUrl": "https://purl.stanford.edu/vg815br0003/iiif/manifest" }, "geometry": { "type": "Polygon", "coordinates": [ [ [ 120.0, 29.333333 ], [ 123.0, 29.333333 ], [ 123.0, 31.333333 ], [ 120.0, 31.333333 ], [ 120.0, 29.333333 ] ] ] } },
{ "type": "Feature", "properties": { "Id": 0, "Sheet_ID": "SHEET 8", "label": "SHEET 8", "call_short": "G7820 S300 .J3", "call_num": "G7820 S300 .J3 SHEET 8", "recid": "zm548dx1332", "websiteUrl": "https://purl.stanford.edu/zm548dx1332", "title": "三十万分一支那沿岸陸海編合圖", "ckey": 10648570, "web_map": null, "available": true, "iiifUrl": "https://purl.stanford.edu/zm548dx1332/iiif/manifest" }, "geometry": { "type": "Polygon", "coordinates": [ [ [ 120.0, 31.333333 ], [ 123.0, 31.333333 ], [ 123.0, 33.333333 ], [ 120.0, 33.333333 ], [ 120.0, 31.333333 ] ] ] } },
{ "type": "Feature", "properties": { "Id": 0, "Sheet_ID": "SHEET 7", "label": "SHEET 7", "call_short": "G7820 S300 .J3", "call_num": "G7820 S300 .J3 SHEET 7", "recid": "mm957jj5377", "websiteUrl": "https://purl.stanford.edu/mm957jj5377", "title": "三十万分一支那沿岸陸海編合圖", "ckey": 10648570, "web_map": null, "available": true, "iiifUrl": "https://purl.stanford.edu/mm957jj5377/iiif/manifest" }, "geometry": { "type": "Polygon", "coordinates": [ [ [ 118.5, 33.333333 ], [ 121.5, 33.333333 ], [ 121.5, 35.333333 ], [ 118.5, 35.333333 ], [ 118.5, 33.333333 ] ] ] } },
{ "type": "Feature", "properties": { "Id": 0, "Sheet_ID": "SHEET 6", "label": "SHEET 6", "call_short": "G7820 S300 .J3", "call_num": "G7820 S300 .J3 SHEET 6", "recid": "zr036hh8773", "websiteUrl": "https://purl.stanford.edu/zr036hh8773", "title": "三十万分一支那沿岸陸海編合圖", "ckey": 10648570, "web_map": null, "available": true, "iiifUrl": "https://purl.stanford.edu/zr036hh8773/iiif/manifest" }, "geometry": { "type": "Polygon", "coordinates": [ [ [ 118.75, 35.333333 ], [ 121.75, 35.333333 ], [ 121.75, 37.333333 ], [ 118.75, 37.333333 ], [ 118.75, 35.333333 ] ] ] } },
{ "type": "Feature", "properties": { "Id": 0, "Sheet_ID": "SHEET 5", "label": "SHEET 5", "call_short": "G7820 S300 .J3", "call_num": "G7820 S300 .J3 SHEET 5", "recid": "tx712mq1298", "websiteUrl": "https://purl.stanford.edu/tx712mq1298", "title": "三十万分一支那沿岸陸海編合圖", "ckey": 10648570, "web_map": null, "available": true, "iiifUrl": "https://purl.stanford.edu/tx712mq1298/iiif/manifest" }, "geometry": { "type": "Polygon", "coordinates": [ [ [ 121.75, 35.333333 ], [ 123.0, 35.333333 ], [ 123.0, 37.333333 ], [ 121.75, 37.333333 ], [ 121.75, 35.333333 ] ] ] } },
{ "type": "Feature", "properties": { "Id": 0, "Sheet_ID": "SHEET 4", "label": "SHEET 4", "call_short": "G7820 S300 .J3", "call_num": "G7820 S300 .J3 SHEET 4", "recid": "vw905hk1219", "websiteUrl": "https://purl.stanford.edu/vw905hk1219", "title": "三十万分一支那沿岸陸海編合圖", "ckey": 10648570, "web_map": null, "available": true, "iiifUrl": "https://purl.stanford.edu/vw905hk1219/iiif/manifest" }, "geometry": { "type": "Polygon", "coordinates": [ [ [ 117.5, 37.333333 ], [ 120.0, 37.333333 ], [ 120.0, 39.333333 ], [ 117.5, 39.333333 ], [ 117.5, 37.333333 ] ] ] } },
{ "type": "Feature", "properties": { "Id": 0, "Sheet_ID": "SHEET 2", "label": "SHEET 2", "call_short": "G7820 S300 .J3", "call_num": "G7820 S300 .J3 SHEET 2", "recid": "hs494nr0057", "websiteUrl": "https://purl.stanford.edu/hs494nr0057", "title": "三十万分一支那沿岸陸海編合圖", "ckey": 10648570, "web_map": null, "available": true, "iiifUrl": "https://purl.stanford.edu/hs494nr0057/iiif/manifest" }, "geometry": { "type": "Polygon", "coordinates": [ [ [ 120.0, 37.333333 ], [ 122.5, 37.333333 ], [ 122.5, 39.333333 ], [ 120.0, 39.333333 ], [ 120.0, 37.333333 ] ] ] } },
{ "type": "Feature", "properties": { "Id": 0, "Sheet_ID": "SHEET 3", "label": "SHEET 3", "call_short": "G7820 S300 .J3", "call_num": "G7820 S300 .J3 SHEET 3", "recid": "jb561xj9603", "websiteUrl": "https://purl.stanford.edu/jb561xj9603", "title": "三十万分一支那沿岸陸海編合圖", "ckey": 10648570, "web_map": null, "available": true, "iiifUrl": "https://purl.stanford.edu/jb561xj9603/iiif/manifest" }, "geometry": { "type": "Polygon", "coordinates": [ [ [ 117.5, 39.333333 ], [ 120.0, 39.333333 ], [ 120.0, 41.333333 ], [ 117.5, 41.333333 ], [ 117.5, 39.333333 ] ] ] } },
{ "type": "Feature", "properties": { "Id": 0, "Sheet_ID": "SHEET 1", "label": "SHEET 1", "call_short": "G7820 S300 .J3", "call_num": "G7820 S300 .J3 SHEET 1", "recid": "fq313tp3854", "websiteUrl": "https://purl.stanford.edu/fq313tp3854", "title": "三十万分一支那沿岸陸海編合圖", "ckey": 10648570, "web_map": null, "available": true, "iiifUrl": "https://purl.stanford.edu/fq313tp3854/iiif/manifest" }, "geometry": { "type": "Polygon", "coordinates": [ [ [ 120.0, 39.333333 ], [ 122.5, 39.333333 ], [ 122.5, 41.333333 ], [ 120.0, 41.333333 ], [ 120.0, 39.333333 ] ] ] } }
]
}
