{"type":"FeatureCollection","features":[{"type":"Feature","properties":{"Id":0,"Sheet_ID":"[開魯25號.] パーチルスーム 清國蒙古","label":"[開魯25號.] パーチルスーム 清國蒙古","call_short":"G7895 S100 .J3","call_num":"G7895 S100 .J3 W6N6-25","recid":"nk017gj5702","websiteUrl":"https://purl.stanford.edu/nk017gj5702","title":"蒙古十万分一圖","ckey":12730476,"web_map":"","available":"true","iiifUrl":"https://purl.stanford.edu/nk017gj5702/iiif/manifest"},"geometry":{"bbox":[119.99999999999999,43.333333,120.50000000000001,43.66666636363637],"type":"Polygon","coordinates":[[[119.99999999999999,43.333333],[119.99999999999999,43.66666636363637],[120.50000000000001,43.66666636363637],[120.50000000000001,43.333333],[119.99999999999999,43.333333]]]}},{"type":"Feature","properties":{"Id":0,"Sheet_ID":"開魯4號. 達爾罕王府","label":"開魯4號. 達爾罕王府","call_short":"G7895 S100 .J3","call_num":"G7895 S100 .J3 W6N6-4","recid":"vs642fk3861","websiteUrl":"https://purl.stanford.edu/vs642fk3861","title":"蒙古十万分一圖","ckey":12730476,"web_map":"","available":"true","iiifUrl":"https://purl.stanford.edu/vs642fk3861/iiif/manifest"},"geometry":{"bbox":[122,43.66666636363637,122.50000000000001,43.99999972727273],"type":"Polygon","coordinates":[[[122,43.66666636363637],[122,43.99999972727273],[122.50000000000001,43.99999972727273],[122.50000000000001,43.66666636363637],[122,43.66666636363637]]]}},{"type":"Feature","properties":{"Id":0,"Sheet_ID":"[開魯18號.] 三成隆 清國蒙古","label":"[開魯18號.] 三成隆 清國蒙古","call_short":"G7895 S100 .J3","call_num":"G7895 S100 .J3 W6N6-18","recid":"kn144ny4721","websiteUrl":"https://purl.stanford.edu/kn144ny4721","title":"蒙古十万分一圖","ckey":12730476,"web_map":"","available":"true","iiifUrl":"https://purl.stanford.edu/kn144ny4721/iiif/manifest"},"geometry":{"bbox":[120.50000000000001,43.99999972727273,121,44.33333309090909],"type":"Polygon","coordinates":[[[120.50000000000001,43.99999972727273],[120.50000000000001,44.33333309090909],[121,44.33333309090909],[121,43.99999972727273],[120.50000000000001,43.99999972727273]]]}},{"type":"Feature","properties":{"Id":0,"Sheet_ID":"突泉11號. トベコアイラ","label":"突泉11號. トベコアイラ","call_short":"G7895 S100 .J3","call_num":"G7895 S100 .J3 W6N7-11","recid":"jc544gj5973","websiteUrl":"https://purl.stanford.edu/jc544gj5973","title":"蒙古十万分一圖","ckey":12730476,"web_map":"","available":"true","iiifUrl":"https://purl.stanford.edu/jc544gj5973/iiif/manifest"},"geometry":{"bbox":[121,46.33333327272727,121.5,46.66666663636364],"type":"Polygon","coordinates":[[[121,46.33333327272727],[121,46.66666663636364],[121.5,46.66666663636364],[121.5,46.33333327272727],[121,46.33333327272727]]]}},{"type":"Feature","properties":{"Id":0,"Sheet_ID":"札賚特25號. モーホー嶺西部","label":"札賚特25號. モーホー嶺西部","call_short":"G7895 S100 .J3","call_num":"G7895 S100 .J3 W6N8-25","recid":"vz780fr5131","websiteUrl":"https://purl.stanford.edu/vz780fr5131","title":"蒙古十万分一圖","ckey":12730476,"web_map":"","available":"true","iiifUrl":"https://purl.stanford.edu/vz780fr5131/iiif/manifest"},"geometry":{"bbox":[119.99999999999999,46.66666663636364,120.50000000000001,47],"type":"Polygon","coordinates":[[[119.99999999999999,46.66666663636364],[119.99999999999999,47],[120.50000000000001,47],[120.50000000000001,46.66666663636364],[119.99999999999999,46.66666663636364]]]}},{"type":"Feature","properties":{"Id":0,"Sheet_ID":"満洲里24號. ヤマトホドコ","label":"満洲里24號. ヤマトホドコ","call_short":"G7895 S100 .J3","call_num":"G7895 S100 .J3 W6N9-24","recid":"ry225kf3329","websiteUrl":"https://purl.stanford.edu/ry225kf3329","title":"蒙古十万分一圖","ckey":12730476,"web_map":"","available":"true","iiifUrl":"https://purl.stanford.edu/ry225kf3329/iiif/manifest"},"geometry":{"bbox":[115.00000000000013,48.66666663636403,115.49999999999999,49.000000000000114],"type":"Polygon","coordinates":[[[115.00000000000013,48.66666663636403],[115.00000000000013,49.000000000000114],[115.49999999999999,49.000000000000114],[115.49999999999999,48.66666663636403],[115.00000000000013,48.66666663636403]]]}}],"name":"index_12730476"}
