{
"type": "FeatureCollection",
"name": "index_map",
"xy_coordinate_resolution": 1e-07,
"features": [
{ "type": "Feature", "properties": { "Id": 0, "Sheet_ID": "1. 馬山", "label": "1. 馬山", "call_short": "G7904 .M394 1919 .J3", "call_num": "G7904 .M394 1919 .J3 SHEET 1", "recid": "tb303fm7493", "websiteUrl": "https://purl.stanford.edu/tb303fm7493", "title": "一万分一地形圖 鎮海灣要塞 馬山近傍", "ckey": 10786236, "available": true, "iiifUrl": "https://purl.stanford.edu/tb303fm7493/iiif/manifest" }, "geometry": { "type": "Polygon", "coordinates": [ [ [ 128.538889, 35.163889 ], [ 128.588889, 35.163889 ], [ 128.588889, 35.213889 ], [ 128.538889, 35.213889 ], [ 128.538889, 35.163889 ] ] ] } }
]
}
