{"type":"FeatureCollection","features":[{"type":"Feature","properties":{"Id":0,"Sheet_ID":"Kendari","label":"Kendari","call_short":"G8110 S200 .J3","call_num":"G8110 S200 .J3 SHEET 84-85/XXX-XXXI","recid":"dq045rb9387","websiteUrl":"https://purl.stanford.edu/dq045rb9387","title":"二十万分一圖セレベス島","ckey":13897305,"web_map":"","available":"true","iiifUrl":"https://purl.stanford.edu/dq045rb9387/iiif/manifest"},"geometry":{"bbox":[122.50000000000001,-4.599999999999966,123.26000000000012,-3.7666669999998703],"type":"Polygon","coordinates":[[[122.50000000000001,-4.599999999999966],[122.50000000000001,-3.7666669999998703],[123.26000000000012,-3.7666669999999267],[123.26000000000012,-4.599999999999966],[122.50000000000001,-4.599999999999966]]]}},{"type":"Feature","properties":{"Id":0,"Sheet_ID":"P. Manoei_inset","label":"P. Manoei_inset","call_short":"G8110 S200 .J3","call_num":"G8110 S200 .J3 SHEET 84-85/XXX-XXXI","recid":"dq045rb9387","websiteUrl":"https://purl.stanford.edu/dq045rb9387","title":"二十万分一圖セレベス島","ckey":13897305,"web_map":"","available":"true","iiifUrl":"https://purl.stanford.edu/dq045rb9387/iiif/manifest"},"geometry":{"bbox":[123.01666699999998,-3.6499999999999773,123.18333299999995,-3.483333000000016],"type":"Polygon","coordinates":[[[123.01666699999998,-3.483333000000016],[123.18333299999995,-3.483333000000016],[123.18333299999995,-3.6499999999999773],[123.01666699999998,-3.6499999999999773],[123.01666699999998,-3.483333000000016]]]}}],"name":"index_13897305"}
