{
"type": "FeatureCollection",
"name": "index_map",
"xy_coordinate_resolution": 1e-07,
"features": [
{ "type": "Feature", "properties": { "Id": 0, "Sheet_ID": "8. 松眞浦", "label": "8. 松眞浦", "call_short": "G7902 .C4 1905 .J3", "call_num": "G7902 .C4 1905 .J3 SHEET 8", "recid": "np077bn9168", "websiteUrl": "https://purl.stanford.edu/np077bn9168", "title": "鎮海湾要塞加徳方面一万分一圖", "ckey": 10786226, "available": true, "iiifUrl": "https://purl.stanford.edu/np077bn9168/iiif/manifest" }, "geometry": { "type": "Polygon", "coordinates": [ [ [ 128.652, 34.980556 ], [ 128.7015, 34.980556 ], [ 128.7015, 35.0138893 ], [ 128.652, 35.0138893 ], [ 128.652, 34.980556 ] ] ] } },
{ "type": "Feature", "properties": { "Id": 0, "Sheet_ID": "6. 望峰", "label": "6. 望峰", "call_short": "G7902 .C4 1905 .J3", "call_num": "G7902 .C4 1905 .J3 SHEET 6", "recid": "tg282gy5068", "websiteUrl": "https://purl.stanford.edu/tg282gy5068", "title": "鎮海湾要塞加徳方面一万分一圖", "ckey": 10786226, "available": true, "iiifUrl": "https://purl.stanford.edu/tg282gy5068/iiif/manifest" }, "geometry": { "type": "Polygon", "coordinates": [ [ [ 128.7015, 34.980556 ], [ 128.751, 34.980556 ], [ 128.751, 35.0138893 ], [ 128.7015, 35.0138893 ], [ 128.7015, 34.980556 ] ] ] } },
{ "type": "Feature", "properties": { "Id": 0, "Sheet_ID": "4. 竹嶋", "label": "4. 竹嶋", "call_short": "G7902 .C4 1905 .J3", "call_num": "G7902 .C4 1905 .J3 SHEET 4", "recid": "pm371yq0902", "websiteUrl": "https://purl.stanford.edu/pm371yq0902", "title": "鎮海湾要塞加徳方面一万分一圖", "ckey": 10786226, "available": true, "iiifUrl": "https://purl.stanford.edu/pm371yq0902/iiif/manifest" }, "geometry": { "type": "Polygon", "coordinates": [ [ [ 128.78, 35.02 ], [ 128.76, 35.02 ], [ 128.76, 35.0138893 ], [ 128.751, 35.0138893 ], [ 128.751, 34.980556 ], [ 128.8005, 34.980556 ], [ 128.8005, 35.0138893 ], [ 128.78, 35.0138893 ], [ 128.78, 35.02 ] ] ] } },
{ "type": "Feature", "properties": { "Id": 0, "Sheet_ID": "3. 外洋浦", "label": "3. 外洋浦", "call_short": "G7902 .C4 1905 .J3", "call_num": "G7902 .C4 1905 .J3 SHEET 3", "recid": "bf186jc8599", "websiteUrl": "https://purl.stanford.edu/bf186jc8599", "title": "鎮海湾要塞加徳方面一万分一圖", "ckey": 10786226, "available": true, "iiifUrl": "https://purl.stanford.edu/bf186jc8599/iiif/manifest" }, "geometry": { "type": "Polygon", "coordinates": [ [ [ 128.8005, 34.980556 ], [ 128.85, 34.980556 ], [ 128.85, 35.0138893 ], [ 128.8005, 35.0138893 ], [ 128.8005, 34.980556 ] ] ] } },
{ "type": "Feature", "properties": { "Id": 0, "Sheet_ID": "7. 黄浦", "label": "7. 黄浦", "call_short": "G7902 .C4 1905 .J3", "call_num": "G7902 .C4 1905 .J3 SHEET 7", "recid": "rz579bj8494", "websiteUrl": "https://purl.stanford.edu/rz579bj8494", "title": "鎮海湾要塞加徳方面一万分一圖", "ckey": 10786226, "available": true, "iiifUrl": "https://purl.stanford.edu/rz579bj8494/iiif/manifest" }, "geometry": { "type": "Polygon", "coordinates": [ [ [ 128.652, 35.0138893 ], [ 128.7015, 35.0138893 ], [ 128.7015, 35.0472227 ], [ 128.652, 35.0472227 ], [ 128.652, 35.0138893 ] ] ] } },
{ "type": "Feature", "properties": { "Id": 0, "Sheet_ID": "5. 猪嶋", "label": "5. 猪嶋", "call_short": "G7902 .C4 1905 .J3", "call_num": "G7902 .C4 1905 .J3 SHEET 5", "recid": "kq937vs1100", "websiteUrl": "https://purl.stanford.edu/kq937vs1100", "title": "鎮海湾要塞加徳方面一万分一圖", "ckey": 10786226, "available": true, "iiifUrl": "https://purl.stanford.edu/kq937vs1100/iiif/manifest" }, "geometry": { "type": "Polygon", "coordinates": [ [ [ 128.7015, 35.0138893 ], [ 128.751, 35.0138893 ], [ 128.751, 35.0472227 ], [ 128.7015, 35.0472227 ], [ 128.7015, 35.0138893 ] ] ] } },
{ "type": "Feature", "properties": { "Id": 0, "Sheet_ID": "2. 天城", "label": "2. 天城", "call_short": "G7902 .C4 1905 .J3", "call_num": "G7902 .C4 1905 .J3 SHEET 2", "recid": "vd233ws3022", "websiteUrl": "https://purl.stanford.edu/vd233ws3022", "title": "鎮海湾要塞加徳方面一万分一圖", "ckey": 10786226, "available": true, "iiifUrl": "https://purl.stanford.edu/vd233ws3022/iiif/manifest" }, "geometry": { "type": "Polygon", "coordinates": [ [ [ 128.85, 35.0138893 ], [ 128.85, 35.038 ], [ 128.852, 35.038 ], [ 128.852, 35.0472227 ], [ 128.85, 35.0472227 ], [ 128.8005, 35.0472227 ], [ 128.8005, 35.0138893 ], [ 128.85, 35.0138893 ] ] ] } },
{ "type": "Feature", "properties": { "Id": 0, "Sheet_ID": "1. 加徳", "label": "1. 加徳", "call_short": "G7902 .C4 1905 .J3", "call_num": "G7902 .C4 1905 .J3 SHEET 1", "recid": "ts181gj7766", "websiteUrl": "https://purl.stanford.edu/ts181gj7766", "title": "鎮海湾要塞加徳方面一万分一圖", "ckey": 10786226, "available": true, "iiifUrl": "https://purl.stanford.edu/ts181gj7766/iiif/manifest" }, "geometry": { "type": "Polygon", "coordinates": [ [ [ 128.85, 35.080556 ], [ 128.8005, 35.080556 ], [ 128.8005, 35.057 ], [ 128.795, 35.057 ], [ 128.795, 35.0472227 ], [ 128.8005, 35.0472227 ], [ 128.85, 35.0472227 ], [ 128.852, 35.0472227 ], [ 128.852, 35.055 ], [ 128.85, 35.055 ], [ 128.85, 35.061 ], [ 128.859, 35.061 ], [ 128.859, 35.071 ], [ 128.85, 35.071 ], [ 128.85, 35.080556 ] ] ] } }
]
}
