{
"type": "FeatureCollection",
"name": "index_map",
"xy_coordinate_resolution": 1e-07,
"features": [
{ "type": "Feature", "properties": { "Id": 0, "Sheet_ID": "SHEET 6", "label": "SHEET 6", "call_short": "G7824 .H29 1915 .J3", "call_num": "G7824 .H29 1915 .J3 SHEET 6", "recid": "dr344gp4139", "websiteUrl": "https://purl.stanford.edu/dr344gp4139", "title": "漢陽以西漢水右岸地區", "ckey": 10652362, "available": true, "iiifUrl": "https://purl.stanford.edu/dr344gp4139/iiif/manifest" }, "geometry": { "type": "Polygon", "coordinates": [ [ [ 113.991667, 30.4 ], [ 114.1458335, 30.4 ], [ 114.1458335, 30.4777777 ], [ 113.991667, 30.4777777 ], [ 113.991667, 30.4 ] ] ] } },
{ "type": "Feature", "properties": { "Id": 0, "Sheet_ID": "SHEET 3", "label": "SHEET 3", "call_short": "G7824 .H29 1915 .J3", "call_num": "G7824 .H29 1915 .J3 SHEET 3", "recid": "rw082hc0073", "websiteUrl": "https://purl.stanford.edu/rw082hc0073", "title": "漢陽以西漢水右岸地區", "ckey": 10652362, "available": true, "iiifUrl": "https://purl.stanford.edu/rw082hc0073/iiif/manifest" }, "geometry": { "type": "Polygon", "coordinates": [ [ [ 114.1458335, 30.4 ], [ 114.3, 30.4 ], [ 114.3, 30.4777777 ], [ 114.1458335, 30.4777777 ], [ 114.1458335, 30.4 ] ] ] } },
{ "type": "Feature", "properties": { "Id": 0, "Sheet_ID": "SHEET 5", "label": "SHEET 5", "call_short": "G7824 .H29 1915 .J3", "call_num": "G7824 .H29 1915 .J3 SHEET 5", "recid": "fm072nq9721", "websiteUrl": "https://purl.stanford.edu/fm072nq9721", "title": "漢陽以西漢水右岸地區", "ckey": 10652362, "available": true, "iiifUrl": "https://purl.stanford.edu/fm072nq9721/iiif/manifest" }, "geometry": { "type": "Polygon", "coordinates": [ [ [ 113.991667, 30.4777777 ], [ 114.1458335, 30.4777777 ], [ 114.1458335, 30.5555553 ], [ 113.991667, 30.5555553 ], [ 113.991667, 30.4777777 ] ] ] } },
{ "type": "Feature", "properties": { "Id": 0, "Sheet_ID": "SHEET 2", "label": "SHEET 2", "call_short": "G7824 .H29 1915 .J3", "call_num": "G7824 .H29 1915 .J3 SHEET 2", "recid": "jk857vb5585", "websiteUrl": "https://purl.stanford.edu/jk857vb5585", "title": "漢陽以西漢水右岸地區", "ckey": 10652362, "available": true, "iiifUrl": "https://purl.stanford.edu/jk857vb5585/iiif/manifest" }, "geometry": { "type": "Polygon", "coordinates": [ [ [ 114.1458335, 30.4777777 ], [ 114.3, 30.4777777 ], [ 114.3, 30.5555553 ], [ 114.1458335, 30.5555553 ], [ 114.1458335, 30.4777777 ] ] ] } },
{ "type": "Feature", "properties": { "Id": 0, "Sheet_ID": "SHEET 4", "label": "SHEET 4", "call_short": "G7824 .H29 1915 .J3", "call_num": "G7824 .H29 1915 .J3 SHEET 4", "recid": "vy101qn0918", "websiteUrl": "https://purl.stanford.edu/vy101qn0918", "title": "漢陽以西漢水右岸地區", "ckey": 10652362, "available": true, "iiifUrl": "https://purl.stanford.edu/vy101qn0918/iiif/manifest" }, "geometry": { "type": "Polygon", "coordinates": [ [ [ 113.991667, 30.5555553 ], [ 114.1458335, 30.5555553 ], [ 114.1458335, 30.633333 ], [ 113.991667, 30.633333 ], [ 113.991667, 30.5555553 ] ] ] } },
{ "type": "Feature", "properties": { "Id": 0, "Sheet_ID": "SHEET 1", "label": "SHEET 1", "call_short": "G7824 .H29 1915 .J3", "call_num": "G7824 .H29 1915 .J3 SHEET 1", "recid": "tb154wv2262", "websiteUrl": "https://purl.stanford.edu/tb154wv2262", "title": "漢陽以西漢水右岸地區", "ckey": 10652362, "available": true, "iiifUrl": "https://purl.stanford.edu/tb154wv2262/iiif/manifest" }, "geometry": { "type": "Polygon", "coordinates": [ [ [ 114.1458335, 30.5555553 ], [ 114.3, 30.5555553 ], [ 114.3, 30.633333 ], [ 114.1458335, 30.633333 ], [ 114.1458335, 30.5555553 ] ] ] } }
]
}
