{
"type": "FeatureCollection",
"name": "index_map",
"xy_coordinate_resolution": 1e-07,
"features": [
{ "type": "Feature", "properties": { "Id": 0, "Sheet_ID": "アンガウル島", "label": "アンガウル島", "call_short": "G9427 .A5 S5 .J3", "call_num": "G9427 .A5 S5 .J3", "recid": "xz453pg9930", "websiteUrl": "https://purl.stanford.edu/xz453pg9930", "title": "[アンガウル島]", "ckey": 12714546, "available": true, "iiifUrl": "https://purl.stanford.edu/xz453pg9930/iiif/manifest" }, "geometry": { "type": "Polygon", "coordinates": [ [ [ 134.119444, 6.886111 ], [ 134.155556, 6.886111 ], [ 134.155556, 6.926389 ], [ 134.119444, 6.926389 ], [ 134.119444, 6.886111 ] ] ] } }
]
}
