{
"type": "FeatureCollection",
"name": "index_map",
"xy_coordinate_resolution": 1e-07,
"features": [
{ "type": "Feature", "properties": { "Id": 0, "Sheet_ID": "SHEET D11", "label": "SHEET D11", "call_short": "G7004 .P4 A1 S5 .J3", "call_num": "G7004 .P4 A1 S5 .J3 SHEET D11", "recid": "xm273dd9544", "websiteUrl": "https://purl.stanford.edu/xm273dd9544", "title": "十和田", "ckey": 8930498, "available": true, "iiifUrl": "https://purl.stanford.edu/xm273dd9544/iiif/manifest" }, "geometry": { "type": "Polygon", "coordinates": [ [ [ 141.870833, 46.216667 ], [ 141.9374997, 46.216667 ], [ 141.9374997, 46.2388892 ], [ 141.870833, 46.2388892 ], [ 141.870833, 46.216667 ] ] ] } },
{ "type": "Feature", "properties": { "Id": 0, "Sheet_ID": "SHEET D9", "label": "SHEET D9", "call_short": "G7004 .P4 A1 S5 .J3", "call_num": "G7004 .P4 A1 S5 .J3 SHEET D9", "recid": "mx981fv4027", "websiteUrl": "https://purl.stanford.edu/mx981fv4027", "title": "十和田", "ckey": 8930498, "available": true, "iiifUrl": "https://purl.stanford.edu/mx981fv4027/iiif/manifest" }, "geometry": { "type": "Polygon", "coordinates": [ [ [ 141.870833, 46.2388892 ], [ 141.9374997, 46.2388892 ], [ 141.9374997, 46.2611114 ], [ 141.870833, 46.2611114 ], [ 141.870833, 46.2388892 ] ] ] } },
{ "type": "Feature", "properties": { "Id": 0, "Sheet_ID": "SHEET D10", "label": "SHEET D10", "call_short": "G7004 .P4 A1 S5 .J3", "call_num": "G7004 .P4 A1 S5 .J3 SHEET D10", "recid": "tq532dj3327", "websiteUrl": "https://purl.stanford.edu/tq532dj3327", "title": "十和田", "ckey": 8930498, "available": true, "iiifUrl": "https://purl.stanford.edu/tq532dj3327/iiif/manifest" }, "geometry": { "type": "Polygon", "coordinates": [ [ [ 141.9374997, 46.2388892 ], [ 142.0041663, 46.2388892 ], [ 142.0041663, 46.2611114 ], [ 141.9374997, 46.2611114 ], [ 141.9374997, 46.2388892 ] ] ] } },
{ "type": "Feature", "properties": { "Id": 0, "Sheet_ID": "SHEET D7", "label": "SHEET D7", "call_short": "G7004 .P4 A1 S5 .J3", "call_num": "G7004 .P4 A1 S5 .J3 SHEET D7", "recid": "bh698bm7263", "websiteUrl": "https://purl.stanford.edu/bh698bm7263", "title": "十和田", "ckey": 8930498, "available": true, "iiifUrl": "https://purl.stanford.edu/bh698bm7263/iiif/manifest" }, "geometry": { "type": "Polygon", "coordinates": [ [ [ 141.870833, 46.2611114 ], [ 141.9374997, 46.2611114 ], [ 141.9374997, 46.2833336 ], [ 141.870833, 46.2833336 ], [ 141.870833, 46.2611114 ] ] ] } },
{ "type": "Feature", "properties": { "Id": 0, "Sheet_ID": "SHEET D8", "label": "SHEET D8", "call_short": "G7004 .P4 A1 S5 .J3", "call_num": "G7004 .P4 A1 S5 .J3 SHEET D8", "recid": "hx777nt1723", "websiteUrl": "https://purl.stanford.edu/hx777nt1723", "title": "十和田", "ckey": 8930498, "available": true, "iiifUrl": "https://purl.stanford.edu/hx777nt1723/iiif/manifest" }, "geometry": { "type": "Polygon", "coordinates": [ [ [ 141.9374997, 46.2611114 ], [ 142.0041663, 46.2611114 ], [ 142.0041663, 46.2833336 ], [ 141.9374997, 46.2833336 ], [ 141.9374997, 46.2611114 ] ] ] } },
{ "type": "Feature", "properties": { "Id": 0, "Sheet_ID": "SHEET D4", "label": "SHEET D4", "call_short": "G7004 .P4 A1 S5 .J3", "call_num": "G7004 .P4 A1 S5 .J3 SHEET D4", "recid": "nr154tb6590", "websiteUrl": "https://purl.stanford.edu/nr154tb6590", "title": "十和田", "ckey": 8930498, "available": true, "iiifUrl": "https://purl.stanford.edu/nr154tb6590/iiif/manifest" }, "geometry": { "type": "Polygon", "coordinates": [ [ [ 141.870833, 46.2833336 ], [ 141.9374997, 46.2833336 ], [ 141.9374997, 46.3055558 ], [ 141.870833, 46.3055558 ], [ 141.870833, 46.2833336 ] ] ] } },
{ "type": "Feature", "properties": { "Id": 0, "Sheet_ID": "SHEET D5", "label": "SHEET D5", "call_short": "G7004 .P4 A1 S5 .J3", "call_num": "G7004 .P4 A1 S5 .J3 SHEET D5", "recid": "jx943bw4091", "websiteUrl": "https://purl.stanford.edu/jx943bw4091", "title": "十和田", "ckey": 8930498, "available": true, "iiifUrl": "https://purl.stanford.edu/jx943bw4091/iiif/manifest" }, "geometry": { "type": "Polygon", "coordinates": [ [ [ 141.9374997, 46.2833336 ], [ 142.0041663, 46.2833336 ], [ 142.0041663, 46.3055558 ], [ 141.9374997, 46.3055558 ], [ 141.9374997, 46.2833336 ] ] ] } },
{ "type": "Feature", "properties": { "Id": 0, "Sheet_ID": "SHEET D6", "label": "SHEET D6", "call_short": "G7004 .P4 A1 S5 .J3", "call_num": "G7004 .P4 A1 S5 .J3 SHEET D6", "recid": "yy261vx7058", "websiteUrl": "https://purl.stanford.edu/yy261vx7058", "title": "十和田", "ckey": 8930498, "available": true, "iiifUrl": "https://purl.stanford.edu/yy261vx7058/iiif/manifest" }, "geometry": { "type": "Polygon", "coordinates": [ [ [ 142.0041663, 46.2833336 ], [ 142.070833, 46.2833336 ], [ 142.070833, 46.3055558 ], [ 142.0041663, 46.3055558 ], [ 142.0041663, 46.2833336 ] ] ] } },
{ "type": "Feature", "properties": { "Id": 0, "Sheet_ID": "SHEET D1", "label": "SHEET D1", "call_short": "G7004 .P4 A1 S5 .J3", "call_num": "G7004 .P4 A1 S5 .J3 SHEET D1", "recid": "gp798hc6115", "websiteUrl": "https://purl.stanford.edu/gp798hc6115", "title": "十和田", "ckey": 8930498, "available": true, "iiifUrl": "https://purl.stanford.edu/gp798hc6115/iiif/manifest" }, "geometry": { "type": "Polygon", "coordinates": [ [ [ 141.870833, 46.3055558 ], [ 141.9374997, 46.3055558 ], [ 141.9374997, 46.327778 ], [ 141.870833, 46.327778 ], [ 141.870833, 46.3055558 ] ] ] } },
{ "type": "Feature", "properties": { "Id": 0, "Sheet_ID": "SHEET D2", "label": "SHEET D2", "call_short": "G7004 .P4 A1 S5 .J3", "call_num": "G7004 .P4 A1 S5 .J3 SHEET D2", "recid": "jh147cm1123", "websiteUrl": "https://purl.stanford.edu/jh147cm1123", "title": "十和田", "ckey": 8930498, "available": true, "iiifUrl": "https://purl.stanford.edu/jh147cm1123/iiif/manifest" }, "geometry": { "type": "Polygon", "coordinates": [ [ [ 141.9374997, 46.3055558 ], [ 142.0041663, 46.3055558 ], [ 142.0041663, 46.327778 ], [ 141.9374997, 46.327778 ], [ 141.9374997, 46.3055558 ] ] ] } },
{ "type": "Feature", "properties": { "Id": 0, "Sheet_ID": "SHEET D3", "label": "SHEET D3", "call_short": "G7004 .P4 A1 S5 .J3", "call_num": "G7004 .P4 A1 S5 .J3 SHEET D3", "recid": "st126vj0211", "websiteUrl": "https://purl.stanford.edu/st126vj0211", "title": "十和田", "ckey": 8930498, "available": true, "iiifUrl": "https://purl.stanford.edu/st126vj0211/iiif/manifest" }, "geometry": { "type": "Polygon", "coordinates": [ [ [ 142.0041663, 46.3055558 ], [ 142.070833, 46.3055558 ], [ 142.070833, 46.327778 ], [ 142.0041663, 46.327778 ], [ 142.0041663, 46.3055558 ] ] ] } }
]
}
