{"type":"FeatureCollection","features":[{"type":"Feature","properties":{"Id":0,"Sheet_ID":"27. n/a","label":"27. n/a","call_short":"","call_num":"","recid":"","websiteUrl":"","title":"","ckey":0,"web_map":"","available":"false","iiiUrl":""},"geometry":{"bbox":[105.00000000000001,33.333333,107.5,34.999999800000005],"type":"Polygon","coordinates":[[[105.00000000000001,33.333333],[105.00000000000001,34.999999800000005],[107.5,34.999999800000005],[107.5,33.333333],[105.00000000000001,33.333333]]]}},{"type":"Feature","properties":{"Id":0,"Sheet_ID":"24. 西安","label":"24. 西安","call_short":"","call_num":"","recid":"","websiteUrl":"","title":"","ckey":0,"web_map":"","available":"false","iiiUrl":""},"geometry":{"bbox":[107.5,33.333333,110,34.999999800000005],"type":"Polygon","coordinates":[[[107.5,33.333333],[107.5,34.999999800000005],[110,34.999999800000005],[110,33.333333],[107.5,33.333333]]]}},{"type":"Feature","properties":{"Id":0,"Sheet_ID":"21. 洛陽","label":"21. 洛陽","call_short":"","call_num":"","recid":"","websiteUrl":"","title":"","ckey":0,"web_map":"","available":"false","iiiUrl":""},"geometry":{"bbox":[110,33.333333,112.5,34.999999800000005],"type":"Polygon","coordinates":[[[110,33.333333],[110,34.999999800000005],[112.5,34.999999800000005],[112.5,33.333333],[110,33.333333]]]}},{"type":"Feature","properties":{"Id":0,"Sheet_ID":"17. 開封","label":"17. 開封","call_short":"","call_num":"","recid":"","websiteUrl":"","title":"","ckey":0,"web_map":"","available":"false","iiiUrl":""},"geometry":{"bbox":[112.5,33.333333,115,34.999999800000005],"type":"Polygon","coordinates":[[[112.5,33.333333],[112.5,34.999999800000005],[115,34.999999800000005],[115,33.333333],[112.5,33.333333]]]}},{"type":"Feature","properties":{"Id":0,"Sheet_ID":"13. 徐州","label":"13. 徐州","call_short":"G8720 S500 .J3","call_num":"G8720 S500 .J3 SHEET 13","recid":"cm733gm9228","websiteUrl":"https://purl.stanford.edu/cm733gm9228","title":"北支那給水及衛生兵要地誌概要圖","ckey":12100777,"web_map":"","available":"true","iiiUrl":"https://purl.stanford.edu/cm733gm9228/iiif/manifest"},"geometry":{"bbox":[115,33.333333,117.5,34.999999800000005],"type":"Polygon","coordinates":[[[115,33.333333],[115,34.999999800000005],[117.5,34.999999800000005],[117.5,33.333333],[115,33.333333]]]}},{"type":"Feature","properties":{"Id":0,"Sheet_ID":"9. 淮安","label":"9. 淮安","call_short":"","call_num":"","recid":"","websiteUrl":"","title":"","ckey":0,"web_map":"","available":"false","iiiUrl":""},"geometry":{"bbox":[117.5,33.333333,119.99999999999999,34.999999800000005],"type":"Polygon","coordinates":[[[117.5,33.333333],[117.5,34.999999800000005],[119.99999999999999,34.999999800000005],[119.99999999999999,33.333333],[117.5,33.333333]]]}},{"type":"Feature","properties":{"Id":0,"Sheet_ID":"4. 塩城","label":"4. 塩城","call_short":"","call_num":"","recid":"","websiteUrl":"","title":"","ckey":0,"web_map":"","available":"false","iiiUrl":""},"geometry":{"bbox":[119.99999999999999,33.333333,122.50000000000001,34.999999800000005],"type":"Polygon","coordinates":[[[119.99999999999999,33.333333],[119.99999999999999,34.999999800000005],[122.50000000000001,34.999999800000005],[122.50000000000001,33.333333],[119.99999999999999,33.333333]]]}},{"type":"Feature","properties":{"Id":0,"Sheet_ID":"26. n/a","label":"26. n/a","call_short":"","call_num":"","recid":"","websiteUrl":"","title":"","ckey":0,"web_map":"","available":"false","iiiUrl":""},"geometry":{"bbox":[105.00000000000001,34.999999800000005,107.5,36.666666600000006],"type":"Polygon","coordinates":[[[105.00000000000001,34.999999800000005],[105.00000000000001,36.666666600000006],[107.5,36.666666600000006],[107.5,34.999999800000005],[105.00000000000001,34.999999800000005]]]}},{"type":"Feature","properties":{"Id":0,"Sheet_ID":"23. 延安","label":"23. 延安","call_short":"","call_num":"","recid":"","websiteUrl":"","title":"","ckey":0,"web_map":"","available":"false","iiiUrl":""},"geometry":{"bbox":[107.5,34.999999800000005,110,36.666666600000006],"type":"Polygon","coordinates":[[[107.5,34.999999800000005],[107.5,36.666666600000006],[110,36.666666600000006],[110,34.999999800000005],[107.5,34.999999800000005]]]}},{"type":"Feature","properties":{"Id":0,"Sheet_ID":"20. 平陽","label":"20. 平陽","call_short":"G8720 S500 .J3","call_num":"G8720 S500 .J3 SHEET 20","recid":"bn636qy5840","websiteUrl":"https://purl.stanford.edu/bn636qy5840","title":"北支那給水及衛生兵要地誌概要圖","ckey":12100777,"web_map":"","available":"true","iiiUrl":"https://purl.stanford.edu/bn636qy5840/iiif/manifest"},"geometry":{"bbox":[110,34.999999800000005,112.5,36.666666600000006],"type":"Polygon","coordinates":[[[110,34.999999800000005],[110,36.666666600000006],[112.5,36.666666600000006],[112.5,34.999999800000005],[110,34.999999800000005]]]}},{"type":"Feature","properties":{"Id":0,"Sheet_ID":"16. 彰徳","label":"16. 彰徳","call_short":"","call_num":"","recid":"","websiteUrl":"","title":"","ckey":0,"web_map":"","available":"false","iiiUrl":""},"geometry":{"bbox":[112.5,34.999999800000005,115,36.666666600000006],"type":"Polygon","coordinates":[[[112.5,34.999999800000005],[112.5,36.666666600000006],[115,36.666666600000006],[115,34.999999800000005],[112.5,34.999999800000005]]]}},{"type":"Feature","properties":{"Id":0,"Sheet_ID":"12. 兗州","label":"12. 兗州","call_short":"","call_num":"","recid":"","websiteUrl":"","title":"","ckey":0,"web_map":"","available":"false","iiiUrl":""},"geometry":{"bbox":[115,34.999999800000005,117.5,36.666666600000006],"type":"Polygon","coordinates":[[[115,34.999999800000005],[115,36.666666600000006],[117.5,36.666666600000006],[117.5,34.999999800000005],[115,34.999999800000005]]]}},{"type":"Feature","properties":{"Id":0,"Sheet_ID":"8. 沂州","label":"8. 沂州","call_short":"","call_num":"","recid":"","websiteUrl":"","title":"","ckey":0,"web_map":"","available":"false","iiiUrl":""},"geometry":{"bbox":[117.5,34.999999800000005,119.99999999999999,36.666666600000006],"type":"Polygon","coordinates":[[[117.5,34.999999800000005],[117.5,36.666666600000006],[119.99999999999999,36.666666600000006],[119.99999999999999,34.999999800000005],[117.5,34.999999800000005]]]}},{"type":"Feature","properties":{"Id":0,"Sheet_ID":"3. 青島","label":"3. 青島","call_short":"","call_num":"","recid":"","websiteUrl":"","title":"","ckey":0,"web_map":"","available":"false","iiiUrl":""},"geometry":{"bbox":[119.99999999999999,34.999999800000005,122.50000000000001,36.666666600000006],"type":"Polygon","coordinates":[[[119.99999999999999,34.999999800000005],[119.99999999999999,36.666666600000006],[122.50000000000001,36.666666600000006],[122.50000000000001,34.999999800000005],[119.99999999999999,34.999999800000005]]]}},{"type":"Feature","properties":{"Id":0,"Sheet_ID":"25. n/a","label":"25. n/a","call_short":"","call_num":"","recid":"","websiteUrl":"","title":"","ckey":0,"web_map":"","available":"false","iiiUrl":""},"geometry":{"bbox":[105.00000000000001,36.6666666,107.5,38.3333334],"type":"Polygon","coordinates":[[[105.00000000000001,36.6666666],[105.00000000000001,38.3333334],[107.5,38.3333334],[107.5,36.6666666],[105.00000000000001,36.6666666]]]}},{"type":"Feature","properties":{"Id":0,"Sheet_ID":"22. n/a","label":"22. n/a","call_short":"","call_num":"","recid":"","websiteUrl":"","title":"","ckey":0,"web_map":"","available":"false","iiiUrl":""},"geometry":{"bbox":[107.5,36.6666666,110,38.3333334],"type":"Polygon","coordinates":[[[107.5,36.6666666],[107.5,38.3333334],[110,38.3333334],[110,36.6666666],[107.5,36.6666666]]]}},{"type":"Feature","properties":{"Id":0,"Sheet_ID":"19. 汾陽","label":"19. 汾陽","call_short":"","call_num":"","recid":"","websiteUrl":"","title":"","ckey":0,"web_map":"","available":"false","iiiUrl":""},"geometry":{"bbox":[110,36.6666666,112.5,38.3333334],"type":"Polygon","coordinates":[[[110,36.6666666],[110,38.3333334],[112.5,38.3333334],[112.5,36.6666666],[110,36.6666666]]]}},{"type":"Feature","properties":{"Id":0,"Sheet_ID":"15. 太原","label":"15. 太原","call_short":"","call_num":"","recid":"","websiteUrl":"","title":"","ckey":0,"web_map":"","available":"false","iiiUrl":""},"geometry":{"bbox":[112.5,36.6666666,115,38.3333334],"type":"Polygon","coordinates":[[[112.5,36.6666666],[112.5,38.3333334],[115,38.3333334],[115,36.6666666],[112.5,36.6666666]]]}},{"type":"Feature","properties":{"Id":0,"Sheet_ID":"11. 済南","label":"11. 済南","call_short":"","call_num":"","recid":"","websiteUrl":"","title":"","ckey":0,"web_map":"","available":"false","iiiUrl":""},"geometry":{"bbox":[115,36.6666666,117.5,38.3333334],"type":"Polygon","coordinates":[[[115,36.6666666],[115,38.3333334],[117.5,38.3333334],[117.5,36.6666666],[115,36.6666666]]]}},{"type":"Feature","properties":{"Id":0,"Sheet_ID":"7. 青州","label":"7. 青州","call_short":"","call_num":"","recid":"","websiteUrl":"","title":"","ckey":0,"web_map":"","available":"false","iiiUrl":""},"geometry":{"bbox":[117.5,36.6666666,119.99999999999999,38.3333334],"type":"Polygon","coordinates":[[[117.5,36.6666666],[117.5,38.3333334],[119.99999999999999,38.3333334],[119.99999999999999,36.6666666],[117.5,36.6666666]]]}},{"type":"Feature","properties":{"Id":0,"Sheet_ID":"2. 威海衛","label":"2. 威海衛","call_short":"","call_num":"","recid":"","websiteUrl":"","title":"","ckey":0,"web_map":"","available":"false","iiiUrl":""},"geometry":{"bbox":[119.99999999999999,36.6666666,122.50000000000001,38.3333334],"type":"Polygon","coordinates":[[[119.99999999999999,36.6666666],[119.99999999999999,38.3333334],[122.50000000000001,38.3333334],[122.50000000000001,36.6666666],[119.99999999999999,36.6666666]]]}},{"type":"Feature","properties":{"Id":0,"Sheet_ID":"1. n/a","label":"1. n/a","call_short":"","call_num":"","recid":"","websiteUrl":"","title":"","ckey":0,"web_map":"","available":"false","iiiUrl":""},"geometry":{"bbox":[122.50000000000001,36.6666666,125.00000000000001,38.3333334],"type":"Polygon","coordinates":[[[122.50000000000001,36.6666666],[122.50000000000001,38.3333334],[125.00000000000001,38.3333334],[125.00000000000001,36.6666666],[122.50000000000001,36.6666666]]]}},{"type":"Feature","properties":{"Id":0,"Sheet_ID":"18. 河曲","label":"18. 河曲","call_short":"","call_num":"","recid":"","websiteUrl":"","title":"","ckey":0,"web_map":"","available":"false","iiiUrl":""},"geometry":{"bbox":[110,38.3333334,112.5,40.0000002],"type":"Polygon","coordinates":[[[110,38.3333334],[110,40.0000002],[112.5,40.0000002],[112.5,38.3333334],[110,38.3333334]]]}},{"type":"Feature","properties":{"Id":0,"Sheet_ID":"14. 代州","label":"14. 代州","call_short":"","call_num":"","recid":"","websiteUrl":"","title":"","ckey":0,"web_map":"","available":"false","iiiUrl":""},"geometry":{"bbox":[112.5,38.3333334,115,40.0000002],"type":"Polygon","coordinates":[[[112.5,38.3333334],[112.5,40.0000002],[115,40.0000002],[115,38.3333334],[112.5,38.3333334]]]}},{"type":"Feature","properties":{"Id":0,"Sheet_ID":"10. 北京","label":"10. 北京","call_short":"","call_num":"","recid":"","websiteUrl":"","title":"","ckey":0,"web_map":"","available":"false","iiiUrl":""},"geometry":{"bbox":[115,38.3333334,117.5,40.0000002],"type":"Polygon","coordinates":[[[115,38.3333334],[115,40.0000002],[117.5,40.0000002],[117.5,38.3333334],[115,38.3333334]]]}},{"type":"Feature","properties":{"Id":0,"Sheet_ID":"6. 永平","label":"6. 永平","call_short":"","call_num":"","recid":"","websiteUrl":"","title":"","ckey":0,"web_map":"","available":"false","iiiUrl":""},"geometry":{"bbox":[117.5,38.3333334,119.99999999999999,40.0000002],"type":"Polygon","coordinates":[[[117.5,38.3333334],[117.5,40.0000002],[119.99999999999999,40.0000002],[119.99999999999999,38.3333334],[117.5,38.3333334]]]}},{"type":"Feature","properties":{"Id":0,"Sheet_ID":"5. 承徳","label":"5. 承徳","call_short":"","call_num":"","recid":"","websiteUrl":"","title":"","ckey":0,"web_map":"","available":"false","iiiUrl":""},"geometry":{"bbox":[117.5,40.000000199999995,119.99999999999999,41.666667],"type":"Polygon","coordinates":[[[117.5,40.000000199999995],[117.5,41.666667],[119.99999999999999,41.666667],[119.99999999999999,40.000000199999995],[117.5,40.000000199999995]]]}}],"name":"index_12100777"}
