{"type":"FeatureCollection","features":[{"type":"Feature","properties":{"Id":0,"Sheet_ID":"22. 慶興","label":"22. 慶興","call_short":"G7064 .V56 S100 .J3","call_num":"G7064 .V56 S100 .J3 SHEET 22","recid":"db642rm8367","websiteUrl":"https://purl.stanford.edu/db642rm8367","title":"滿洲十万分一圖浦潮斯徳","ckey":12373348,"web_map":"","available":"true","iiifUrl":"https://purl.stanford.edu/db642rm8367/iiif/manifest"},"geometry":{"bbox":[130,42,131,42.666666500000005],"type":"Polygon","coordinates":[[[130,42],[130,42.666666500000005],[131,42.666666500000005],[131,42],[130,42]]]}},{"type":"Feature","properties":{"Id":0,"Sheet_ID":"17. クドゥーエ","label":"17. クドゥーエ","call_short":"G7064 .V56 S100 .J3","call_num":"G7064 .V56 S100 .J3 SHEET 17","recid":"qk555rh7139","websiteUrl":"https://purl.stanford.edu/qk555rh7139","title":"西伯利十万分一圖 浦潮斯徳","ckey":12373348,"web_map":"","available":"true","iiifUrl":"https://purl.stanford.edu/qk555rh7139/iiif/manifest"},"geometry":{"bbox":[131.0000000000001,42.333333000000096,131.5,42.66666650000013],"type":"Polygon","coordinates":[[[131.0000000000001,42.333333000000096],[131.0000000000001,42.66666650000013],[131.5,42.66666650000013],[131.5,42.333333000000096],[131.0000000000001,42.333333000000096]]]}},{"type":"Feature","properties":{"Id":0,"Sheet_ID":"21. 琿春","label":"21. 琿春","call_short":"","call_num":"","recid":"","websiteUrl":"","title":"","ckey":0,"web_map":"","available":"false","iiifUrl":""},"geometry":{"bbox":[130,42.666666500000005,131,43.33333300000001],"type":"Polygon","coordinates":[[[130,42.666666500000005],[130,43.33333300000001],[131,43.33333300000001],[131,42.666666500000005],[130,42.666666500000005]]]}},{"type":"Feature","properties":{"Id":0,"Sheet_ID":"16. 浦潮斯徳","label":"16. 浦潮斯徳","call_short":"G7064 .V56 S100 .J3","call_num":"G7064 .V56 S100 .J3 SHEET 16","recid":"xw548dj7073","websiteUrl":"https://purl.stanford.edu/xw548dj7073","title":"滿洲及西伯利十万分一圖浦潮斯徳","ckey":12373348,"web_map":"","available":"true","iiifUrl":"https://purl.stanford.edu/xw548dj7073/iiif/manifest"},"geometry":{"bbox":[131,42.666666500000005,132,43.33333300000001],"type":"Polygon","coordinates":[[[131,42.666666500000005],[131,43.33333300000001],[132,43.33333300000001],[132,42.666666500000005],[131,42.666666500000005]]]}},{"type":"Feature","properties":{"Id":0,"Sheet_ID":"11. ロマノーフカ","label":"11. ロマノーフカ","call_short":"G7064 .V56 S100 .J3","call_num":"G7064 .V56 S100 .J3 SHEET 11","recid":"qb455rz5780","websiteUrl":"https://purl.stanford.edu/qb455rz5780","title":"西伯利十万分一圖 浦潮斯徳","ckey":12373348,"web_map":"","available":"true","iiifUrl":"https://purl.stanford.edu/qb455rz5780/iiif/manifest"},"geometry":{"bbox":[132,42.666666500000005,133,43.33333300000001],"type":"Polygon","coordinates":[[[132,42.666666500000005],[132,43.33333300000001],[133,43.33333300000001],[133,42.666666500000005],[132,42.666666500000005]]]}},{"type":"Feature","properties":{"Id":0,"Sheet_ID":"6. ウラジミロフカ","label":"6. ウラジミロフカ","call_short":"G7064 .V56 S100 .J3","call_num":"G7064 .V56 S100 .J3 SHEET 6","recid":"qr408ft1319","websiteUrl":"https://purl.stanford.edu/qr408ft1319","title":"西伯利十万分一圖 浦潮斯徳","ckey":12373348,"web_map":"","available":"true","iiifUrl":"https://purl.stanford.edu/qr408ft1319/iiif/manifest"},"geometry":{"bbox":[133,42.666666500000005,134,43.33333300000001],"type":"Polygon","coordinates":[[[133,42.666666500000005],[133,43.33333300000001],[134,43.33333300000001],[134,42.666666500000005],[133,42.666666500000005]]]}},{"type":"Feature","properties":{"Id":0,"Sheet_ID":"1. ミログラード","label":"1. ミログラード","call_short":"","call_num":"","recid":"","websiteUrl":"","title":"","ckey":0,"web_map":"","available":"false","iiifUrl":""},"geometry":{"bbox":[134,42.666666500000005,135,43.33333300000001],"type":"Polygon","coordinates":[[[134,42.666666500000005],[134,43.33333300000001],[135,43.33333300000001],[135,42.666666500000005],[134,42.666666500000005]]]}}],"name":"index_12373348"}
