{
"type": "FeatureCollection",
"name": "index_map",
"xy_coordinate_resolution": 1e-07,
"features": [
{ "type": "Feature", "properties": { "Id": 0, "Sheet_ID": "18. 英渓", "label": "18. 英渓", "call_short": "G7823 .A5 S50 .J37", "call_num": "G7823 .A5 S50 .J37 SHEET 18", "recid": "wz025nd0939", "websiteUrl": "https://purl.stanford.edu/wz025nd0939", "title": "五万分一中支空中寫眞測量要圖安徽省石埭黟县地方", "ckey": 13900009, "available": true, "iiifUrl": "https://purl.stanford.edu/wz025nd0939/iiif/manifest" }, "geometry": { "type": "Polygon", "coordinates": [ [ [ 117.458333, 29.533333 ], [ 117.683333, 29.533333 ], [ 117.683333, 29.6999997 ], [ 117.458333, 29.6999997 ], [ 117.458333, 29.533333 ] ] ] } },
{ "type": "Feature", "properties": { "Id": 0, "Sheet_ID": "17. 法京", "label": "17. 法京", "call_short": "G7823 .A5 S50 .J37", "call_num": "G7823 .A5 S50 .J37 SHEET 17", "recid": "sd725vc1813", "websiteUrl": "https://purl.stanford.edu/sd725vc1813", "title": "五万分一中支空中寫眞測量要圖安徽省石埭黟县地方", "ckey": 13900009, "available": true, "iiifUrl": "https://purl.stanford.edu/sd725vc1813/iiif/manifest" }, "geometry": { "type": "Polygon", "coordinates": [ [ [ 117.458333, 29.6999997 ], [ 117.683333, 29.6999997 ], [ 117.683333, 29.8666664 ], [ 117.458333, 29.8666664 ], [ 117.458333, 29.6999997 ] ] ] } },
{ "type": "Feature", "properties": { "Id": 0, "Sheet_ID": "11. 祁門縣", "label": "11. 祁門縣", "call_short": "G7823 .A5 S50 .J37", "call_num": "G7823 .A5 S50 .J37 SHEET 11", "recid": "kf925hp8284", "websiteUrl": "https://purl.stanford.edu/kf925hp8284", "title": "五万分一中支空中寫眞測量要圖安徽省石埭黟县地方", "ckey": 13900009, "available": true, "iiifUrl": "https://purl.stanford.edu/kf925hp8284/iiif/manifest" }, "geometry": { "type": "Polygon", "coordinates": [ [ [ 117.683333, 29.6999997 ], [ 117.908333, 29.6999997 ], [ 117.908333, 29.8666664 ], [ 117.683333, 29.8666664 ], [ 117.683333, 29.6999997 ] ] ] } },
{ "type": "Feature", "properties": { "Id": 0, "Sheet_ID": "5. 魚亭", "label": "5. 魚亭", "call_short": "G7823 .A5 S50 .J37", "call_num": "G7823 .A5 S50 .J37 SHEET 5", "recid": "mr148dq1865", "websiteUrl": "https://purl.stanford.edu/mr148dq1865", "title": "五万分一中支空中寫眞測量要圖安徽省石埭黟县地方", "ckey": 13900009, "available": true, "iiifUrl": "https://purl.stanford.edu/mr148dq1865/iiif/manifest" }, "geometry": { "type": "Polygon", "coordinates": [ [ [ 117.908333, 29.6999997 ], [ 118.133333, 29.6999997 ], [ 118.133333, 29.8666664 ], [ 117.908333, 29.8666664 ], [ 117.908333, 29.6999997 ] ] ] } },
{ "type": "Feature", "properties": { "Id": 0, "Sheet_ID": "16. 暦口", "label": "16. 暦口", "call_short": "G7823 .A5 S50 .J37", "call_num": "G7823 .A5 S50 .J37 SHEET 16", "recid": "mb882gm0524", "websiteUrl": "https://purl.stanford.edu/mb882gm0524", "title": "五万分一中支空中寫眞測量要圖安徽省石埭黟县地方", "ckey": 13900009, "available": true, "iiifUrl": "https://purl.stanford.edu/mb882gm0524/iiif/manifest" }, "geometry": { "type": "Polygon", "coordinates": [ [ [ 117.458333, 29.8666664 ], [ 117.683333, 29.8666664 ], [ 117.683333, 30.0333331 ], [ 117.458333, 30.0333331 ], [ 117.458333, 29.8666664 ] ] ] } },
{ "type": "Feature", "properties": { "Id": 0, "Sheet_ID": "10. 苦竹", "label": "10. 苦竹", "call_short": "G7823 .A5 S50 .J37", "call_num": "G7823 .A5 S50 .J37 SHEET 10", "recid": "dx765df5569", "websiteUrl": "https://purl.stanford.edu/dx765df5569", "title": "五万分一中支空中寫眞測量要圖安徽省石埭黟县地方", "ckey": 13900009, "available": true, "iiifUrl": "https://purl.stanford.edu/dx765df5569/iiif/manifest" }, "geometry": { "type": "Polygon", "coordinates": [ [ [ 117.683333, 29.8666664 ], [ 117.908333, 29.8666664 ], [ 117.908333, 30.0333331 ], [ 117.683333, 30.0333331 ], [ 117.683333, 29.8666664 ] ] ] } },
{ "type": "Feature", "properties": { "Id": 0, "Sheet_ID": "4. 黟縣", "label": "4. 黟縣", "call_short": "G7823 .A5 S50 .J37", "call_num": "G7823 .A5 S50 .J37 SHEET 4", "recid": "tp961yk4758", "websiteUrl": "https://purl.stanford.edu/tp961yk4758", "title": "五万分一中支空中寫眞測量要圖安徽省石埭黟县地方", "ckey": 13900009, "available": true, "iiifUrl": "https://purl.stanford.edu/tp961yk4758/iiif/manifest" }, "geometry": { "type": "Polygon", "coordinates": [ [ [ 117.908333, 29.8666664 ], [ 118.133333, 29.8666664 ], [ 118.133333, 30.0333331 ], [ 117.908333, 30.0333331 ], [ 117.908333, 29.8666664 ] ] ] } },
{ "type": "Feature", "properties": { "Id": 0, "Sheet_ID": "15. 葛岡", "label": "15. 葛岡", "call_short": "G7823 .A5 S50 .J37", "call_num": "G7823 .A5 S50 .J37 SHEET 15", "recid": "vf852nv8917", "websiteUrl": "https://purl.stanford.edu/vf852nv8917", "title": "五万分一中支空中寫眞測量要圖安徽省石埭黟县地方", "ckey": 13900009, "available": true, "iiifUrl": "https://purl.stanford.edu/vf852nv8917/iiif/manifest" }, "geometry": { "type": "Polygon", "coordinates": [ [ [ 117.458333, 30.0333331 ], [ 117.683333, 30.0333331 ], [ 117.683333, 30.1999999 ], [ 117.458333, 30.1999999 ], [ 117.458333, 30.0333331 ] ] ] } },
{ "type": "Feature", "properties": { "Id": 0, "Sheet_ID": "9. 美渓口", "label": "9. 美渓口", "call_short": "G7823 .A5 S50 .J37", "call_num": "G7823 .A5 S50 .J37 SHEET 9", "recid": "fs162zw6477", "websiteUrl": "https://purl.stanford.edu/fs162zw6477", "title": "五万分一中支空中寫眞測量要圖安徽省石埭黟县地方", "ckey": 13900009, "available": true, "iiifUrl": "https://purl.stanford.edu/fs162zw6477/iiif/manifest" }, "geometry": { "type": "Polygon", "coordinates": [ [ [ 117.683333, 30.0333331 ], [ 117.908333, 30.0333331 ], [ 117.908333, 30.1999999 ], [ 117.683333, 30.1999999 ], [ 117.683333, 30.0333331 ] ] ] } },
{ "type": "Feature", "properties": { "Id": 0, "Sheet_ID": "3. 高家廟", "label": "3. 高家廟", "call_short": "G7823 .A5 S50 .J37", "call_num": "G7823 .A5 S50 .J37 SHEET 3", "recid": "xd038ms1492", "websiteUrl": "https://purl.stanford.edu/xd038ms1492", "title": "五万分一中支空中寫眞測量要圖安徽省石埭黟县地方", "ckey": 13900009, "available": true, "iiifUrl": "https://purl.stanford.edu/xd038ms1492/iiif/manifest" }, "geometry": { "type": "Polygon", "coordinates": [ [ [ 117.908333, 30.0333331 ], [ 118.133333, 30.0333331 ], [ 118.133333, 30.1999999 ], [ 117.908333, 30.1999999 ], [ 117.908333, 30.0333331 ] ] ] } },
{ "type": "Feature", "properties": { "Id": 0, "Sheet_ID": "1. 楊村", "label": "1. 楊村", "call_short": "G7823 .A5 S50 .J37", "call_num": "G7823 .A5 S50 .J37 SHEET 1", "recid": "kb430cj4694", "websiteUrl": "https://purl.stanford.edu/kb430cj4694", "title": "五万分一中支空中寫眞測量要圖安徽省石埭黟县地方", "ckey": 13900009, "available": true, "iiifUrl": "https://purl.stanford.edu/kb430cj4694/iiif/manifest" }, "geometry": { "type": "Polygon", "coordinates": [ [ [ 118.133333, 30.0333331 ], [ 118.358333, 30.0333331 ], [ 118.358333, 30.1999999 ], [ 118.133333, 30.1999999 ], [ 118.133333, 30.0333331 ] ] ] } },
{ "type": "Feature", "properties": { "Id": 0, "Sheet_ID": "14. 灌口鎮", "label": "14. 灌口鎮", "call_short": "G7823 .A5 S50 .J37", "call_num": "G7823 .A5 S50 .J37 SHEET 14", "recid": "kg910ry9042", "websiteUrl": "https://purl.stanford.edu/kg910ry9042", "title": "五万分一中支空中寫眞測量要圖安徽省石埭黟县地方", "ckey": 13900009, "available": true, "iiifUrl": "https://purl.stanford.edu/kg910ry9042/iiif/manifest" }, "geometry": { "type": "Polygon", "coordinates": [ [ [ 117.458333, 30.1999999 ], [ 117.683333, 30.1999999 ], [ 117.683333, 30.3666666 ], [ 117.458333, 30.3666666 ], [ 117.458333, 30.1999999 ] ] ] } },
{ "type": "Feature", "properties": { "Id": 0, "Sheet_ID": "8. 毛唐村", "label": "8. 毛唐村", "call_short": "G7823 .A5 S50 .J37", "call_num": "G7823 .A5 S50 .J37 SHEET 8", "recid": "fr205rd5362", "websiteUrl": "https://purl.stanford.edu/fr205rd5362", "title": "五万分一中支空中寫眞測量要圖安徽省石埭黟县地方", "ckey": 13900009, "available": true, "iiifUrl": "https://purl.stanford.edu/fr205rd5362/iiif/manifest" }, "geometry": { "type": "Polygon", "coordinates": [ [ [ 117.683333, 30.1999999 ], [ 117.908333, 30.1999999 ], [ 117.908333, 30.3666666 ], [ 117.683333, 30.3666666 ], [ 117.683333, 30.1999999 ] ] ] } },
{ "type": "Feature", "properties": { "Id": 0, "Sheet_ID": "2. 焦村", "label": "2. 焦村", "call_short": "G7823 .A5 S50 .J37", "call_num": "G7823 .A5 S50 .J37 SHEET 2", "recid": "yp318fx0013", "websiteUrl": "https://purl.stanford.edu/yp318fx0013", "title": "五万分一中支空中寫眞測量要圖安徽省石埭黟县地方", "ckey": 13900009, "available": true, "iiifUrl": "https://purl.stanford.edu/yp318fx0013/iiif/manifest" }, "geometry": { "type": "Polygon", "coordinates": [ [ [ 117.908333, 30.1999999 ], [ 118.133333, 30.1999999 ], [ 118.133333, 30.3666666 ], [ 117.908333, 30.3666666 ], [ 117.908333, 30.1999999 ] ] ] } },
{ "type": "Feature", "properties": { "Id": 0, "Sheet_ID": "13. 梅村", "label": "13. 梅村", "call_short": "0", "call_num": "0", "recid": "0", "websiteUrl": "0", "title": "0", "ckey": 0, "available": false, "iiifUrl": "0" }, "geometry": { "type": "Polygon", "coordinates": [ [ [ 117.458333, 30.3666666 ], [ 117.683333, 30.3666666 ], [ 117.683333, 30.5333333 ], [ 117.458333, 30.5333333 ], [ 117.458333, 30.3666666 ] ] ] } },
{ "type": "Feature", "properties": { "Id": 0, "Sheet_ID": "7. 李家店", "label": "7. 李家店", "call_short": "G7823 .A5 S50 .J37", "call_num": "G7823 .A5 S50 .J37 SHEET 7", "recid": "tw968dz3241", "websiteUrl": "https://purl.stanford.edu/tw968dz3241", "title": "五万分一中支空中寫眞測量要圖安徽省石埭黟县地方", "ckey": 13900009, "available": true, "iiifUrl": "https://purl.stanford.edu/tw968dz3241/iiif/manifest" }, "geometry": { "type": "Polygon", "coordinates": [ [ [ 117.683333, 30.3666666 ], [ 117.908333, 30.3666666 ], [ 117.908333, 30.5333333 ], [ 117.683333, 30.5333333 ], [ 117.683333, 30.3666666 ] ] ] } },
{ "type": "Feature", "properties": { "Id": 0, "Sheet_ID": "12. 池州", "label": "12. 池州", "call_short": "G7823 .A5 S50 .J37", "call_num": "G7823 .A5 S50 .J37 SHEET 12", "recid": "cg162gz2858", "websiteUrl": "https://purl.stanford.edu/cg162gz2858", "title": "五万分一中支空中寫眞測量要圖安徽省石埭黟县地方", "ckey": 13900009, "available": true, "iiifUrl": "https://purl.stanford.edu/cg162gz2858/iiif/manifest" }, "geometry": { "type": "Polygon", "coordinates": [ [ [ 117.458333, 30.5333333 ], [ 117.683333, 30.5333333 ], [ 117.683333, 30.7 ], [ 117.458333, 30.7 ], [ 117.458333, 30.5333333 ] ] ] } },
{ "type": "Feature", "properties": { "Id": 0, "Sheet_ID": "6. 五渓橋", "label": "6. 五渓橋", "call_short": "G7823 .A5 S50 .J37", "call_num": "G7823 .A5 S50 .J37 SHEET 6", "recid": "py185tq3586", "websiteUrl": "https://purl.stanford.edu/py185tq3586", "title": "五万分一中支空中寫眞測量要圖安徽省石埭黟县地方", "ckey": 13900009, "available": true, "iiifUrl": "https://purl.stanford.edu/py185tq3586/iiif/manifest" }, "geometry": { "type": "Polygon", "coordinates": [ [ [ 117.683333, 30.5333333 ], [ 117.908333, 30.5333333 ], [ 117.908333, 30.7 ], [ 117.683333, 30.7 ], [ 117.683333, 30.5333333 ] ] ] } }
]
}
