{"type":"FeatureCollection","features":[{"type":"Feature","properties":{"Id":0,"Sheet_ID":"SHEET 2","label":"SHEET 2","call_short":"","call_num":"","recid":"","websiteUrl":"","title":"","ckey":0,"web_map":"","available":"false","iiiUrl":""},"geometry":{"bbox":[115.00000000000013,23.333332999999982,119.99999999999999,25.000000000000057],"type":"Polygon","coordinates":[[[115.00000000000013,23.333332999999982],[115.00000000000013,25.000000000000057],[119.99999999999999,25.000000000000057],[119.99999999999999,23.333332999999982],[115.00000000000013,23.333332999999982]]]}},{"type":"Feature","properties":{"Id":0,"Sheet_ID":"SHEET 1","label":"SHEET 1","call_short":"G7823 .F8 S500 .J3","call_num":"G7823 .F8 S500 .J3 SHEET 1","recid":"wd244js9041","websiteUrl":"https://purl.stanford.edu/wd244js9041","title":"福建省五十万分一圖 兵要地誌圖","ckey":13843538,"web_map":"","available":"true","iiiUrl":"https://purl.stanford.edu/wd244js9041/iiif/manifest"},"geometry":{"bbox":[115,25,119.99999999999999,28.333333000000003],"type":"Polygon","coordinates":[[[115,25],[115,28.333333000000003],[119.99999999999999,28.333333000000003],[119.99999999999999,25],[115,25]]]}}],"name":"index_13843538"}
