{
"type": "FeatureCollection",
"name": "index_map",
"xy_coordinate_resolution": 1e-07,
"features": [
{ "type": "Feature", "properties": { "Id": 0, "Sheet_ID": "琿春 19. 豆満江口", "label": "琿春 19. 豆満江口", "call_short": "0", "call_num": "0", "recid": "0", "websiteUrl": "0", "title": "0", "ckey": 0, "available": false, "iiifUrl": "0" }, "geometry": { "type": "Polygon", "coordinates": [ [ [ 130.5, 42.0 ], [ 131.0, 42.0 ], [ 131.0, 42.3333333 ], [ 130.5, 42.3333333 ], [ 130.5, 42.0 ] ] ] } },
{ "type": "Feature", "properties": { "Id": 0, "Sheet_ID": "琿春 23. 雄基", "label": "琿春 23. 雄基", "call_short": "G7822 .M2 S100 .J4", "call_num": "G7822 .M2 S100 .J4 W2N5-23", "recid": "nc659wv3208", "websiteUrl": "https://purl.stanford.edu/nc659wv3208", "title": "作戦用 地誌圖 満洲十万分一圖", "ckey": 12732138, "available": true, "iiifUrl": "https://purl.stanford.edu/nc659wv3208/iiif/manifest" }, "geometry": { "type": "Polygon", "coordinates": [ [ [ 130.0, 42.3333333 ], [ 130.5, 42.3333333 ], [ 130.5, 42.6666667 ], [ 130.0, 42.6666667 ], [ 130.0, 42.3333333 ] ] ] } },
{ "type": "Feature", "properties": { "Id": 0, "Sheet_ID": "琿春 18. 慶興", "label": "琿春 18. 慶興", "call_short": "G7822 .M2 S100 .J4", "call_num": "G7822 .M2 S100 .J4 W2N5-18", "recid": "dg187xg3572", "websiteUrl": "https://purl.stanford.edu/dg187xg3572", "title": "作戦用 地誌圖 満洲十万分一圖", "ckey": 12732138, "available": true, "iiifUrl": "https://purl.stanford.edu/dg187xg3572/iiif/manifest" }, "geometry": { "type": "Polygon", "coordinates": [ [ [ 130.5, 42.3333333 ], [ 131.0, 42.3333333 ], [ 131.0, 42.6666667 ], [ 130.5, 42.6666667 ], [ 130.5, 42.3333333 ] ] ] } },
{ "type": "Feature", "properties": { "Id": 0, "Sheet_ID": "壹〇ワ173. クドゥーエ", "label": "壹〇ワ173. クドゥーエ", "call_short": "G7822 .M2 S100 .J4", "call_num": "G7822 .M2 S100 .J4 W2N5-13", "recid": "mw674sq7039", "websiteUrl": "https://purl.stanford.edu/mw674sq7039", "title": "作戦用 地誌圖 西伯利十万分一圖", "ckey": 12732138, "available": true, "iiifUrl": "https://purl.stanford.edu/mw674sq7039/iiif/manifest" }, "geometry": { "type": "Polygon", "coordinates": [ [ [ 131.0, 42.3333333 ], [ 131.5, 42.3333333 ], [ 131.5, 42.6666667 ], [ 131.0, 42.6666667 ], [ 131.0, 42.3333333 ] ] ] } },
{ "type": "Feature", "properties": { "Id": 0, "Sheet_ID": "琿春 22. 琿春", "label": "琿春 22. 琿春", "call_short": "G7822 .M2 S100 .J4", "call_num": "G7822 .M2 S100 .J4 W2N5-22", "recid": "nf096vn3701", "websiteUrl": "https://purl.stanford.edu/nf096vn3701", "title": "作戦用 地誌圖 満洲十万分一圖", "ckey": 12732138, "available": true, "iiifUrl": "https://purl.stanford.edu/nf096vn3701/iiif/manifest" }, "geometry": { "type": "Polygon", "coordinates": [ [ [ 130.0, 42.6666667 ], [ 130.5, 42.6666667 ], [ 130.5, 43.0 ], [ 130.0, 43.0 ], [ 130.0, 42.6666667 ] ] ] } },
{ "type": "Feature", "properties": { "Id": 0, "Sheet_ID": "琿春 17. 馬滴達", "label": "琿春 17. 馬滴達", "call_short": "G7822 .M2 S100 .J4", "call_num": "G7822 .M2 S100 .J4 W2N5-17", "recid": "wm819gj8121", "websiteUrl": "https://purl.stanford.edu/wm819gj8121", "title": "作戦用 地誌圖 満洲十万分一圖", "ckey": 12732138, "available": true, "iiifUrl": "https://purl.stanford.edu/wm819gj8121/iiif/manifest" }, "geometry": { "type": "Polygon", "coordinates": [ [ [ 130.5, 42.6666667 ], [ 131.0, 42.6666667 ], [ 131.0, 43.0 ], [ 130.5, 43.0 ], [ 130.5, 42.6666667 ] ] ] } },
{ "type": "Feature", "properties": { "Id": 0, "Sheet_ID": "琿春 12 ED2. 西北溝", "label": "琿春 12 ED2. 西北溝", "call_short": "G7822 .M2 S100 .J4", "call_num": "G7822 .M2 S100 .J4 W2N5-12 ED.2", "recid": "qz167sb5627", "websiteUrl": "https://purl.stanford.edu/qz167sb5627", "title": "作戦用 地誌圖 極東十万分一圖", "ckey": 12732138, "available": true, "iiifUrl": "https://purl.stanford.edu/qz167sb5627/iiif/manifest" }, "geometry": { "type": "Polygon", "coordinates": [ [ [ 131.0, 42.6666667 ], [ 131.5, 42.6666667 ], [ 131.5, 43.0 ], [ 131.0, 43.0 ], [ 131.0, 42.6666667 ] ] ] } },
{ "type": "Feature", "properties": { "Id": 0, "Sheet_ID": "壹〇ワ162. ルスキー島", "label": "壹〇ワ162. ルスキー島", "call_short": "G7822 .M2 S100 .J4", "call_num": "G7822 .M2 S100 .J4 W2N5-7", "recid": "tp278tb3865", "websiteUrl": "https://purl.stanford.edu/tp278tb3865", "title": "作戦用 地誌圖 極東十万分一圖", "ckey": 12732138, "available": true, "iiifUrl": "https://purl.stanford.edu/tp278tb3865/iiif/manifest" }, "geometry": { "type": "Polygon", "coordinates": [ [ [ 131.5, 42.6666667 ], [ 132.0, 42.6666667 ], [ 132.0, 43.0 ], [ 131.5, 43.0 ], [ 131.5, 42.6666667 ] ] ] } },
{ "type": "Feature", "properties": { "Id": 0, "Sheet_ID": "琿春 2. ドォナイ", "label": "琿春 2. ドォナイ", "call_short": "0", "call_num": "0", "recid": "0", "websiteUrl": "0", "title": "0", "ckey": 0, "available": false, "iiifUrl": "0" }, "geometry": { "type": "Polygon", "coordinates": [ [ [ 132.0, 42.6666667 ], [ 132.5, 42.6666667 ], [ 132.5, 43.0 ], [ 132.0, 43.0 ], [ 132.0, 42.6666667 ] ] ] } },
{ "type": "Feature", "properties": { "Id": 0, "Sheet_ID": "[ウラジミロフカ 22. ナホドカ]", "label": "[ウラジミロフカ 22. ナホドカ]", "call_short": "0", "call_num": "0", "recid": "0", "websiteUrl": "0", "title": "0", "ckey": 0, "available": false, "iiifUrl": "0" }, "geometry": { "type": "Polygon", "coordinates": [ [ [ 132.5, 42.6666667 ], [ 133.0, 42.6666667 ], [ 133.0, 43.0 ], [ 132.5, 43.0 ], [ 132.5, 42.6666667 ] ] ] } },
{ "type": "Feature", "properties": { "Id": 0, "Sheet_ID": "ウラジミロフカ 17. ウラジミロフカ", "label": "ウラジミロフカ 17. ウラジミロフカ", "call_short": "G7822 .M2 S100 .J4", "call_num": "G7822 .M2 S100 .J4 W1N5-17", "recid": "wq698mt2165", "websiteUrl": "https://purl.stanford.edu/wq698mt2165", "title": "作戦用 地誌圖 極東十万分一圖", "ckey": 12732138, "available": true, "iiifUrl": "https://purl.stanford.edu/wq698mt2165/iiif/manifest" }, "geometry": { "type": "Polygon", "coordinates": [ [ [ 133.0, 42.6666667 ], [ 133.5, 42.6666667 ], [ 133.5, 43.0 ], [ 133.0, 43.0 ], [ 133.0, 42.6666667 ] ] ] } },
{ "type": "Feature", "properties": { "Id": 0, "Sheet_ID": "琿春 21. 十里坪", "label": "琿春 21. 十里坪", "call_short": "G7822 .M2 S100 .J4", "call_num": "G7822 .M2 S100 .J4 W2N5-21", "recid": "dz563qy9828", "websiteUrl": "https://purl.stanford.edu/dz563qy9828", "title": "作戦用 地誌圖 満洲十万分一圖", "ckey": 12732138, "available": true, "iiifUrl": "https://purl.stanford.edu/dz563qy9828/iiif/manifest" }, "geometry": { "type": "Polygon", "coordinates": [ [ [ 130.0, 43.0 ], [ 130.5, 43.0 ], [ 130.5, 43.3333333 ], [ 130.0, 43.3333333 ], [ 130.0, 43.0 ] ] ] } },
{ "type": "Feature", "properties": { "Id": 0, "Sheet_ID": "琿春 16. 陽金溝", "label": "琿春 16. 陽金溝", "call_short": "G7822 .M2 S100 .J4", "call_num": "G7822 .M2 S100 .J4 W2N5-16", "recid": "fk152wm0744", "websiteUrl": "https://purl.stanford.edu/fk152wm0744", "title": "作戦用 地誌圖 満洲十万分一圖", "ckey": 12732138, "available": true, "iiifUrl": "https://purl.stanford.edu/fk152wm0744/iiif/manifest" }, "geometry": { "type": "Polygon", "coordinates": [ [ [ 130.5, 43.0 ], [ 131.0, 43.0 ], [ 131.0, 43.3333333 ], [ 130.5, 43.3333333 ], [ 130.5, 43.0 ] ] ] } },
{ "type": "Feature", "properties": { "Id": 0, "Sheet_ID": "琿春 11. 東興鎮", "label": "琿春 11. 東興鎮", "call_short": "0", "call_num": "0", "recid": "0", "websiteUrl": "0", "title": "0", "ckey": 0, "available": false, "iiifUrl": "0" }, "geometry": { "type": "Polygon", "coordinates": [ [ [ 131.0, 43.0 ], [ 131.5, 43.0 ], [ 131.5, 43.3333333 ], [ 131.0, 43.3333333 ], [ 131.0, 43.0 ] ] ] } },
{ "type": "Feature", "properties": { "Id": 0, "Sheet_ID": "琿春 6. 浦潮斯徳", "label": "琿春 6. 浦潮斯徳", "call_short": "G7822 .M2 S100 .J4", "call_num": "G7822 .M2 S100 .J4 W2N5-6", "recid": "xj785bh4188", "websiteUrl": "https://purl.stanford.edu/xj785bh4188", "title": "作戦用 地誌圖 極東十万分一圖", "ckey": 12732138, "available": true, "iiifUrl": "https://purl.stanford.edu/xj785bh4188/iiif/manifest" }, "geometry": { "type": "Polygon", "coordinates": [ [ [ 131.5, 43.0 ], [ 132.0, 43.0 ], [ 132.0, 43.3333333 ], [ 131.5, 43.3333333 ], [ 131.5, 43.0 ] ] ] } },
{ "type": "Feature", "properties": { "Id": 0, "Sheet_ID": "琿春 1. シコトーウォ", "label": "琿春 1. シコトーウォ", "call_short": "G7822 .M2 S100 .J4", "call_num": "G7822 .M2 S100 .J4 W2N5-1", "recid": "qv093ss5413", "websiteUrl": "https://purl.stanford.edu/qv093ss5413", "title": "作戦用 地誌圖 極東十万分一圖", "ckey": 12732138, "available": true, "iiifUrl": "https://purl.stanford.edu/qv093ss5413/iiif/manifest" }, "geometry": { "type": "Polygon", "coordinates": [ [ [ 132.0, 43.0 ], [ 132.5, 43.0 ], [ 132.5, 43.3333333 ], [ 132.0, 43.3333333 ], [ 132.0, 43.0 ] ] ] } },
{ "type": "Feature", "properties": { "Id": 0, "Sheet_ID": "ウラジミロフカ 21 ED2. ノーウォネージノ", "label": "ウラジミロフカ 21 ED2. ノーウォネージノ", "call_short": "G7822 .M2 S100 .J4", "call_num": "G7822 .M2 S100 .J4 W1N5-21 ED.2", "recid": "dj879tz4448", "websiteUrl": "https://purl.stanford.edu/dj879tz4448", "title": "作戦用 地誌圖 極東十万分一圖", "ckey": 12732138, "available": true, "iiifUrl": "https://purl.stanford.edu/dj879tz4448/iiif/manifest" }, "geometry": { "type": "Polygon", "coordinates": [ [ [ 132.5, 43.0 ], [ 133.0, 43.0 ], [ 133.0, 43.3333333 ], [ 132.5, 43.3333333 ], [ 132.5, 43.0 ] ] ] } },
{ "type": "Feature", "properties": { "Id": 0, "Sheet_ID": "[ウラジミロフカ 16. 蘇城]", "label": "[ウラジミロフカ 16. 蘇城]", "call_short": "0", "call_num": "0", "recid": "0", "websiteUrl": "0", "title": "0", "ckey": 0, "available": false, "iiifUrl": "0" }, "geometry": { "type": "Polygon", "coordinates": [ [ [ 133.0, 43.0 ], [ 133.5, 43.0 ], [ 133.5, 43.3333333 ], [ 133.0, 43.3333333 ], [ 133.0, 43.0 ] ] ] } },
{ "type": "Feature", "properties": { "Id": 0, "Sheet_ID": "綏芬河 25. 火焼舗", "label": "綏芬河 25. 火焼舗", "call_short": "G7822 .M2 S100 .J4", "call_num": "G7822 .M2 S100 .J4 W2N6-25", "recid": "nq295ss4313", "websiteUrl": "https://purl.stanford.edu/nq295ss4313", "title": "作戦用 地誌圖 満洲十万分一圖", "ckey": 12732138, "available": true, "iiifUrl": "https://purl.stanford.edu/nq295ss4313/iiif/manifest" }, "geometry": { "type": "Polygon", "coordinates": [ [ [ 130.0, 43.3333333 ], [ 130.5, 43.3333333 ], [ 130.5, 43.6666667 ], [ 130.0, 43.6666667 ], [ 130.0, 43.3333333 ] ] ] } },
{ "type": "Feature", "properties": { "Id": 0, "Sheet_ID": "[綏芬河 20. 豊焼]", "label": "[綏芬河 20. 豊焼]", "call_short": "0", "call_num": "0", "recid": "0", "websiteUrl": "0", "title": "0", "ckey": 0, "available": false, "iiifUrl": "0" }, "geometry": { "type": "Polygon", "coordinates": [ [ [ 130.5, 43.3333333 ], [ 131.0, 43.3333333 ], [ 131.0, 43.6666667 ], [ 130.5, 43.6666667 ], [ 130.5, 43.3333333 ] ] ] } },
{ "type": "Feature", "properties": { "Id": 0, "Sheet_ID": "綏芬河 15. 白刀山子", "label": "綏芬河 15. 白刀山子", "call_short": "G7822 .M2 S100 .J4", "call_num": "G7822 .M2 S100 .J4 W2N6-15", "recid": "zb182wn9126", "websiteUrl": "https://purl.stanford.edu/zb182wn9126", "title": "作戦用 地誌圖 満洲十万分一圖", "ckey": 12732138, "available": true, "iiifUrl": "https://purl.stanford.edu/zb182wn9126/iiif/manifest" }, "geometry": { "type": "Polygon", "coordinates": [ [ [ 131.0, 43.3333333 ], [ 131.5, 43.3333333 ], [ 131.5, 43.6666667 ], [ 131.0, 43.6666667 ], [ 131.0, 43.3333333 ] ] ] } },
{ "type": "Feature", "properties": { "Id": 0, "Sheet_ID": "綏芬河 10. ラズドリノーエ", "label": "綏芬河 10. ラズドリノーエ", "call_short": "G7822 .M2 S100 .J4", "call_num": "G7822 .M2 S100 .J4 W2N6-10", "recid": "dv315ck9586", "websiteUrl": "https://purl.stanford.edu/dv315ck9586", "title": "作戦用 地誌圖 極東十万分一圖", "ckey": 12732138, "available": true, "iiifUrl": "https://purl.stanford.edu/dv315ck9586/iiif/manifest" }, "geometry": { "type": "Polygon", "coordinates": [ [ [ 131.5, 43.3333333 ], [ 132.0, 43.3333333 ], [ 132.0, 43.6666667 ], [ 131.5, 43.6666667 ], [ 131.5, 43.3333333 ] ] ] } },
{ "type": "Feature", "properties": { "Id": 0, "Sheet_ID": "綏芬河 5. アルチョム", "label": "綏芬河 5. アルチョム", "call_short": "G7822 .M2 S100 .J4", "call_num": "G7822 .M2 S100 .J4 W2N6-5", "recid": "hw456kg3974", "websiteUrl": "https://purl.stanford.edu/hw456kg3974", "title": "作戦用 地誌圖 極東十万分一圖", "ckey": 12732138, "available": true, "iiifUrl": "https://purl.stanford.edu/hw456kg3974/iiif/manifest" }, "geometry": { "type": "Polygon", "coordinates": [ [ [ 132.0, 43.3333333 ], [ 132.5, 43.3333333 ], [ 132.5, 43.6666667 ], [ 132.0, 43.6666667 ], [ 132.0, 43.3333333 ] ] ] } },
{ "type": "Feature", "properties": { "Id": 0, "Sheet_ID": "[スパスコーエ 25. ノーウォロッシースカヤ]", "label": "[スパスコーエ 25. ノーウォロッシースカヤ]", "call_short": "0", "call_num": "0", "recid": "0", "websiteUrl": "0", "title": "0", "ckey": 0, "available": false, "iiifUrl": "0" }, "geometry": { "type": "Polygon", "coordinates": [ [ [ 132.5, 43.3333333 ], [ 133.0, 43.3333333 ], [ 133.0, 43.6666667 ], [ 132.5, 43.6666667 ], [ 132.5, 43.3333333 ] ] ] } },
{ "type": "Feature", "properties": { "Id": 0, "Sheet_ID": "スパスコーエ 20. セルゲーエフカ", "label": "スパスコーエ 20. セルゲーエフカ", "call_short": "G7822 .M2 S100 .J4", "call_num": "G7822 .M2 S100 .J4 W1N6-20", "recid": "bd569fp0917", "websiteUrl": "https://purl.stanford.edu/bd569fp0917", "title": "作戦用 地誌圖 極東十万分一圖", "ckey": 12732138, "available": true, "iiifUrl": "https://purl.stanford.edu/bd569fp0917/iiif/manifest" }, "geometry": { "type": "Polygon", "coordinates": [ [ [ 133.0, 43.3333333 ], [ 133.5, 43.3333333 ], [ 133.5, 43.6666667 ], [ 133.0, 43.6666667 ], [ 133.0, 43.3333333 ] ] ] } },
{ "type": "Feature", "properties": { "Id": 0, "Sheet_ID": "綏芬河 24. 綏芬大甸子", "label": "綏芬河 24. 綏芬大甸子", "call_short": "G7822 .M2 S100 .J4", "call_num": "G7822 .M2 S100 .J4 W2N6-24", "recid": "bh209ky2363", "websiteUrl": "https://purl.stanford.edu/bh209ky2363", "title": "作戦用 地誌圖 満洲十万分一圖", "ckey": 12732138, "available": true, "iiifUrl": "https://purl.stanford.edu/bh209ky2363/iiif/manifest" }, "geometry": { "type": "Polygon", "coordinates": [ [ [ 130.0, 43.6666667 ], [ 130.5, 43.6666667 ], [ 130.5, 44.0 ], [ 130.0, 44.0 ], [ 130.0, 43.6666667 ] ] ] } },
{ "type": "Feature", "properties": { "Id": 0, "Sheet_ID": "綏芬河 19. 老黒山", "label": "綏芬河 19. 老黒山", "call_short": "G7822 .M2 S100 .J4", "call_num": "G7822 .M2 S100 .J4 W2N6-19", "recid": "wv409yt2735", "websiteUrl": "https://purl.stanford.edu/wv409yt2735", "title": "作戦用 地誌圖 満洲十万分一圖", "ckey": 12732138, "available": true, "iiifUrl": "https://purl.stanford.edu/wv409yt2735/iiif/manifest" }, "geometry": { "type": "Polygon", "coordinates": [ [ [ 130.5, 43.6666667 ], [ 131.0, 43.6666667 ], [ 131.0, 44.0 ], [ 130.5, 44.0 ], [ 130.5, 43.6666667 ] ] ] } },
{ "type": "Feature", "properties": { "Id": 0, "Sheet_ID": "綏芬河 14. 髙安村", "label": "綏芬河 14. 髙安村", "call_short": "G7822 .M2 S100 .J4", "call_num": "G7822 .M2 S100 .J4 W2N6-14", "recid": "sf793zy2461", "websiteUrl": "https://purl.stanford.edu/sf793zy2461", "title": "作戦用 地誌圖 極東十万分一圖", "ckey": 12732138, "available": true, "iiifUrl": "https://purl.stanford.edu/sf793zy2461/iiif/manifest" }, "geometry": { "type": "Polygon", "coordinates": [ [ [ 131.0, 43.6666667 ], [ 131.5, 43.6666667 ], [ 131.5, 44.0 ], [ 131.0, 44.0 ], [ 131.0, 43.6666667 ] ] ] } },
{ "type": "Feature", "properties": { "Id": 0, "Sheet_ID": "[綏芬河 9. ウオロシーロフ]", "label": "[綏芬河 9. ウオロシーロフ]", "call_short": "0", "call_num": "0", "recid": "0", "websiteUrl": "0", "title": "0", "ckey": 0, "available": false, "iiifUrl": "0" }, "geometry": { "type": "Polygon", "coordinates": [ [ [ 131.5, 43.6666667 ], [ 132.0, 43.6666667 ], [ 132.0, 44.0 ], [ 131.5, 44.0 ], [ 131.5, 43.6666667 ] ] ] } },
{ "type": "Feature", "properties": { "Id": 0, "Sheet_ID": "綏芬河 4. オシノーフカ", "label": "綏芬河 4. オシノーフカ", "call_short": "G7822 .M2 S100 .J4", "call_num": "G7822 .M2 S100 .J4 W2N6-4", "recid": "hs923vh6427", "websiteUrl": "https://purl.stanford.edu/hs923vh6427", "title": "作戦用 地誌圖 極東十万分一圖", "ckey": 12732138, "available": true, "iiifUrl": "https://purl.stanford.edu/hs923vh6427/iiif/manifest" }, "geometry": { "type": "Polygon", "coordinates": [ [ [ 132.0, 43.6666667 ], [ 132.5, 43.6666667 ], [ 132.5, 44.0 ], [ 132.0, 44.0 ], [ 132.0, 43.6666667 ] ] ] } },
{ "type": "Feature", "properties": { "Id": 0, "Sheet_ID": "スパスコーエ 24. ロマノフカ", "label": "スパスコーエ 24. ロマノフカ", "call_short": "G7822 .M2 S100 .J4", "call_num": "G7822 .M2 S100 .J4 W1N6-24", "recid": "py835pm4211", "websiteUrl": "https://purl.stanford.edu/py835pm4211", "title": "作戦用 地誌圖 極東十万分一圖", "ckey": 12732138, "available": true, "iiifUrl": "https://purl.stanford.edu/py835pm4211/iiif/manifest" }, "geometry": { "type": "Polygon", "coordinates": [ [ [ 132.5, 43.6666667 ], [ 133.0, 43.6666667 ], [ 133.0, 44.0 ], [ 132.5, 44.0 ], [ 132.5, 43.6666667 ] ] ] } },
{ "type": "Feature", "properties": { "Id": 0, "Sheet_ID": "スパスコーエ 19. アヌチノ", "label": "スパスコーエ 19. アヌチノ", "call_short": "G7822 .M2 S100 .J4", "call_num": "G7822 .M2 S100 .J4 W1N6-19", "recid": "bb603kb0249", "websiteUrl": "https://purl.stanford.edu/bb603kb0249", "title": "作戦用 地誌圖 極東十万分一圖", "ckey": 12732138, "available": true, "iiifUrl": "https://purl.stanford.edu/bb603kb0249/iiif/manifest" }, "geometry": { "type": "Polygon", "coordinates": [ [ [ 133.0, 43.6666667 ], [ 133.5, 43.6666667 ], [ 133.5, 44.0 ], [ 133.0, 44.0 ], [ 133.0, 43.6666667 ] ] ] } },
{ "type": "Feature", "properties": { "Id": 0, "Sheet_ID": "[綏芬河 18. 金廠]", "label": "[綏芬河 18. 金廠]", "call_short": "0", "call_num": "0", "recid": "0", "websiteUrl": "0", "title": "0", "ckey": 0, "available": false, "iiifUrl": "0" }, "geometry": { "type": "Polygon", "coordinates": [ [ [ 130.5, 44.0 ], [ 131.0, 44.0 ], [ 131.0, 44.3333333 ], [ 130.5, 44.3333333 ], [ 130.5, 44.0 ] ] ] } },
{ "type": "Feature", "properties": { "Id": 0, "Sheet_ID": "綏芬河 13. 東寧", "label": "綏芬河 13. 東寧", "call_short": "G7822 .M2 S100 .J4", "call_num": "G7822 .M2 S100 .J4 W2N6-13", "recid": "jv708qk3594", "websiteUrl": "https://purl.stanford.edu/jv708qk3594", "title": "作戦用 地誌圖 極東十万分一圖", "ckey": 12732138, "available": true, "iiifUrl": "https://purl.stanford.edu/jv708qk3594/iiif/manifest" }, "geometry": { "type": "Polygon", "coordinates": [ [ [ 131.0, 44.0 ], [ 131.5, 44.0 ], [ 131.5, 44.3333333 ], [ 131.0, 44.3333333 ], [ 131.0, 44.0 ] ] ] } },
{ "type": "Feature", "properties": { "Id": 0, "Sheet_ID": "綏芬河 8. リポーフツィ", "label": "綏芬河 8. リポーフツィ", "call_short": "G7822 .M2 S100 .J4", "call_num": "G7822 .M2 S100 .J4 W2N6-8", "recid": "tk221tt2999", "websiteUrl": "https://purl.stanford.edu/tk221tt2999", "title": "作戦用 極東十万分一圖", "ckey": 12732138, "available": true, "iiifUrl": "https://purl.stanford.edu/tk221tt2999/iiif/manifest" }, "geometry": { "type": "Polygon", "coordinates": [ [ [ 131.5, 44.0 ], [ 132.0, 44.0 ], [ 132.0, 44.3333333 ], [ 131.5, 44.3333333 ], [ 131.5, 44.0 ] ] ] } },
{ "type": "Feature", "properties": { "Id": 0, "Sheet_ID": "綏芬河 3. マンゾフカ", "label": "綏芬河 3. マンゾフカ", "call_short": "G7822 .M2 S100 .J4", "call_num": "G7822 .M2 S100 .J4 W2N6-3", "recid": "pq724pf5737", "websiteUrl": "https://purl.stanford.edu/pq724pf5737", "title": "作戦用 地誌圖 極東十万分一圖", "ckey": 12732138, "available": true, "iiifUrl": "https://purl.stanford.edu/pq724pf5737/iiif/manifest" }, "geometry": { "type": "Polygon", "coordinates": [ [ [ 132.0, 44.0 ], [ 132.5, 44.0 ], [ 132.5, 44.3333333 ], [ 132.0, 44.3333333 ], [ 132.0, 44.0 ] ] ] } },
{ "type": "Feature", "properties": { "Id": 0, "Sheet_ID": "スパスコーエ 23. ワッシアノフカ", "label": "スパスコーエ 23. ワッシアノフカ", "call_short": "G7822 .M2 S100 .J4", "call_num": "G7822 .M2 S100 .J4 W1N6-23", "recid": "xd407qq2128", "websiteUrl": "https://purl.stanford.edu/xd407qq2128", "title": "作戦用 地誌圖 極東十万分一圖", "ckey": 12732138, "available": true, "iiifUrl": "https://purl.stanford.edu/xd407qq2128/iiif/manifest" }, "geometry": { "type": "Polygon", "coordinates": [ [ [ 132.5, 44.0 ], [ 133.0, 44.0 ], [ 133.0, 44.3333333 ], [ 132.5, 44.3333333 ], [ 132.5, 44.0 ] ] ] } },
{ "type": "Feature", "properties": { "Id": 0, "Sheet_ID": "スパスコーエ 18. スィソエフカ", "label": "スパスコーエ 18. スィソエフカ", "call_short": "G7822 .M2 S100 .J4", "call_num": "G7822 .M2 S100 .J4 W1N6-18", "recid": "yj857mw1733", "websiteUrl": "https://purl.stanford.edu/yj857mw1733", "title": "作戦用 地誌圖 極東十万分一圖", "ckey": 12732138, "available": true, "iiifUrl": "https://purl.stanford.edu/yj857mw1733/iiif/manifest" }, "geometry": { "type": "Polygon", "coordinates": [ [ [ 133.0, 44.0 ], [ 133.5, 44.0 ], [ 133.5, 44.3333333 ], [ 133.0, 44.3333333 ], [ 133.0, 44.0 ] ] ] } },
{ "type": "Feature", "properties": { "Id": 0, "Sheet_ID": "綏芬河 17. 綏陽", "label": "綏芬河 17. 綏陽", "call_short": "G7822 .M2 S100 .J4", "call_num": "G7822 .M2 S100 .J4 W2N6-17", "recid": "bg264xv9815", "websiteUrl": "https://purl.stanford.edu/bg264xv9815", "title": "作戦用 満洲十万分一圖", "ckey": 12732138, "available": true, "iiifUrl": "https://purl.stanford.edu/bg264xv9815/iiif/manifest" }, "geometry": { "type": "Polygon", "coordinates": [ [ [ 130.5, 44.3333333 ], [ 131.0, 44.3333333 ], [ 131.0, 44.6666667 ], [ 130.5, 44.6666667 ], [ 130.5, 44.3333333 ] ] ] } },
{ "type": "Feature", "properties": { "Id": 0, "Sheet_ID": "綏芬河 12. 綏芬河", "label": "綏芬河 12. 綏芬河", "call_short": "G7822 .M2 S100 .J4", "call_num": "G7822 .M2 S100 .J4 W2N6-12", "recid": "kj848qz3668", "websiteUrl": "https://purl.stanford.edu/kj848qz3668", "title": "作戦用 地誌圖 満洲十万分一圖", "ckey": 12732138, "available": true, "iiifUrl": "https://purl.stanford.edu/kj848qz3668/iiif/manifest" }, "geometry": { "type": "Polygon", "coordinates": [ [ [ 131.0, 44.3333333 ], [ 131.5, 44.3333333 ], [ 131.5, 44.6666667 ], [ 131.0, 44.6666667 ], [ 131.0, 44.3333333 ] ] ] } },
{ "type": "Feature", "properties": { "Id": 0, "Sheet_ID": "綏芬河 7 ED2. ジァリコーウォ", "label": "綏芬河 7 ED2. ジァリコーウォ", "call_short": "G7822 .M2 S100 .J4", "call_num": "G7822 .M2 S100 .J4 W2N6-7 ED.2", "recid": "nd873qq3400", "websiteUrl": "https://purl.stanford.edu/nd873qq3400", "title": "作戦用 地誌圖 極東十万分一圖", "ckey": 12732138, "available": true, "iiifUrl": "https://purl.stanford.edu/nd873qq3400/iiif/manifest" }, "geometry": { "type": "Polygon", "coordinates": [ [ [ 131.5, 44.3333333 ], [ 132.0, 44.3333333 ], [ 132.0, 44.6666667 ], [ 131.5, 44.6666667 ], [ 131.5, 44.3333333 ] ] ] } },
{ "type": "Feature", "properties": { "Id": 0, "Sheet_ID": "綏芬河 2. ホロリスコエ", "label": "綏芬河 2. ホロリスコエ", "call_short": "G7822 .M2 S100 .J4", "call_num": "G7822 .M2 S100 .J4 W2N6-2", "recid": "jb025gx9128", "websiteUrl": "https://purl.stanford.edu/jb025gx9128", "title": "作戦用 地誌圖 極東十万分一圖", "ckey": 12732138, "available": true, "iiifUrl": "https://purl.stanford.edu/jb025gx9128/iiif/manifest" }, "geometry": { "type": "Polygon", "coordinates": [ [ [ 132.0, 44.3333333 ], [ 132.5, 44.3333333 ], [ 132.5, 44.6666667 ], [ 132.0, 44.6666667 ], [ 132.0, 44.3333333 ] ] ] } },
{ "type": "Feature", "properties": { "Id": 0, "Sheet_ID": "スパスコーエ 22. スパスク", "label": "スパスコーエ 22. スパスク", "call_short": "G7822 .M2 S100 .J4", "call_num": "G7822 .M2 S100 .J4 W1N6-22", "recid": "vn670nt8013", "websiteUrl": "https://purl.stanford.edu/vn670nt8013", "title": "作戦用 地誌圖 極東十万分一圖", "ckey": 12732138, "available": true, "iiifUrl": "https://purl.stanford.edu/vn670nt8013/iiif/manifest" }, "geometry": { "type": "Polygon", "coordinates": [ [ [ 132.5, 44.3333333 ], [ 133.0, 44.3333333 ], [ 133.0, 44.6666667 ], [ 132.5, 44.6666667 ], [ 132.5, 44.3333333 ] ] ] } },
{ "type": "Feature", "properties": { "Id": 0, "Sheet_ID": "スパスコーエ 17. タチャーノフカ", "label": "スパスコーエ 17. タチャーノフカ", "call_short": "G7822 .M2 S100 .J4", "call_num": "G7822 .M2 S100 .J4 W1N6-17", "recid": "fb327by8025", "websiteUrl": "https://purl.stanford.edu/fb327by8025", "title": "作戦用 地誌圖 極東十万分一圖", "ckey": 12732138, "available": true, "iiifUrl": "https://purl.stanford.edu/fb327by8025/iiif/manifest" }, "geometry": { "type": "Polygon", "coordinates": [ [ [ 133.0, 44.3333333 ], [ 133.5, 44.3333333 ], [ 133.5, 44.6666667 ], [ 133.0, 44.6666667 ], [ 133.0, 44.3333333 ] ] ] } },
{ "type": "Feature", "properties": { "Id": 0, "Sheet_ID": "スパスコーエ 12. ノーウォクラスノヤローウォ", "label": "スパスコーエ 12. ノーウォクラスノヤローウォ", "call_short": "G7822 .M2 S100 .J4", "call_num": "G7822 .M2 S100 .J4 W1N6-12", "recid": "vw205qg5800", "websiteUrl": "https://purl.stanford.edu/vw205qg5800", "title": "作戦用 地誌圖 極東十万分一圖", "ckey": 12732138, "available": true, "iiifUrl": "https://purl.stanford.edu/vw205qg5800/iiif/manifest" }, "geometry": { "type": "Polygon", "coordinates": [ [ [ 133.5, 44.3333333 ], [ 134.0, 44.3333333 ], [ 134.0, 44.6666667 ], [ 133.5, 44.6666667 ], [ 133.5, 44.3333333 ] ] ] } },
{ "type": "Feature", "properties": { "Id": 0, "Sheet_ID": "[綏芬河 16. 八面通]", "label": "[綏芬河 16. 八面通]", "call_short": "0", "call_num": "0", "recid": "0", "websiteUrl": "0", "title": "0", "ckey": 0, "available": false, "iiifUrl": "0" }, "geometry": { "type": "Polygon", "coordinates": [ [ [ 130.5, 44.6666667 ], [ 131.0, 44.6666667 ], [ 131.0, 45.0 ], [ 130.5, 45.0 ], [ 130.5, 44.6666667 ] ] ] } },
{ "type": "Feature", "properties": { "Id": 0, "Sheet_ID": "[綏芬河 11. 金廠溝]", "label": "[綏芬河 11. 金廠溝]", "call_short": "0", "call_num": "0", "recid": "0", "websiteUrl": "0", "title": "0", "ckey": 0, "available": false, "iiifUrl": "0" }, "geometry": { "type": "Polygon", "coordinates": [ [ [ 131.0, 44.6666667 ], [ 131.5, 44.6666667 ], [ 131.5, 45.0 ], [ 131.0, 45.0 ], [ 131.0, 44.6666667 ] ] ] } },
{ "type": "Feature", "properties": { "Id": 0, "Sheet_ID": "綏芬河 6 ED2. イリインスコエ", "label": "綏芬河 6 ED2. イリインスコエ", "call_short": "G7822 .M2 S100 .J4", "call_num": "G7822 .M2 S100 .J4 W2N6-6 ED.2", "recid": "jw479mr9413", "websiteUrl": "https://purl.stanford.edu/jw479mr9413", "title": "作戦用 地誌圖 極東十万分一圖", "ckey": 12732138, "available": true, "iiifUrl": "https://purl.stanford.edu/jw479mr9413/iiif/manifest" }, "geometry": { "type": "Polygon", "coordinates": [ [ [ 131.5, 44.6666667 ], [ 132.0, 44.6666667 ], [ 132.0, 45.0 ], [ 131.5, 45.0 ], [ 131.5, 44.6666667 ] ] ] } },
{ "type": "Feature", "properties": { "Id": 0, "Sheet_ID": "綏芬河 1 ED2. カーメン・ルイボロフ", "label": "綏芬河 1 ED2. カーメン・ルイボロフ", "call_short": "G7822 .M2 S100 .J4", "call_num": "G7822 .M2 S100 .J4 W2N6-1 ED.2", "recid": "ww537vm1449", "websiteUrl": "https://purl.stanford.edu/ww537vm1449", "title": "作戦用 地誌圖 極東十万分一圖", "ckey": 12732138, "available": true, "iiifUrl": "https://purl.stanford.edu/ww537vm1449/iiif/manifest" }, "geometry": { "type": "Polygon", "coordinates": [ [ [ 132.0, 44.6666667 ], [ 132.5, 44.6666667 ], [ 132.5, 45.0 ], [ 132.0, 45.0 ], [ 132.0, 44.6666667 ] ] ] } },
{ "type": "Feature", "properties": { "Id": 0, "Sheet_ID": "スパスコーエ 21. アレクサンロフカ", "label": "スパスコーエ 21. アレクサンロフカ", "call_short": "G7822 .M2 S100 .J4", "call_num": "G7822 .M2 S100 .J4 W1N6-21", "recid": "rk453wd4410", "websiteUrl": "https://purl.stanford.edu/rk453wd4410", "title": "作戦用 地誌圖 極東十万分一圖", "ckey": 12732138, "available": true, "iiifUrl": "https://purl.stanford.edu/rk453wd4410/iiif/manifest" }, "geometry": { "type": "Polygon", "coordinates": [ [ [ 132.5, 44.6666667 ], [ 133.0, 44.6666667 ], [ 133.0, 45.0 ], [ 132.5, 45.0 ], [ 132.5, 44.6666667 ] ] ] } },
{ "type": "Feature", "properties": { "Id": 0, "Sheet_ID": "スパスコーエ 16. ドボスコエ", "label": "スパスコーエ 16. ドボスコエ", "call_short": "G7822 .M2 S100 .J4", "call_num": "G7822 .M2 S100 .J4 W1N6-16", "recid": "cx528cz2069", "websiteUrl": "https://purl.stanford.edu/cx528cz2069", "title": "作戦用 地誌圖 極東十万分一圖", "ckey": 12732138, "available": true, "iiifUrl": "https://purl.stanford.edu/cx528cz2069/iiif/manifest" }, "geometry": { "type": "Polygon", "coordinates": [ [ [ 133.0, 44.6666667 ], [ 133.5, 44.6666667 ], [ 133.5, 45.0 ], [ 133.0, 45.0 ], [ 133.0, 44.6666667 ] ] ] } },
{ "type": "Feature", "properties": { "Id": 0, "Sheet_ID": "[スパスコーエ 11. クルィロフカ]", "label": "[スパスコーエ 11. クルィロフカ]", "call_short": "0", "call_num": "0", "recid": "0", "websiteUrl": "0", "title": "0", "ckey": 0, "available": false, "iiifUrl": "0" }, "geometry": { "type": "Polygon", "coordinates": [ [ [ 133.5, 44.6666667 ], [ 134.0, 44.6666667 ], [ 134.0, 45.0 ], [ 133.5, 45.0 ], [ 133.5, 44.6666667 ] ] ] } },
{ "type": "Feature", "properties": { "Id": 0, "Sheet_ID": "密山 15. 平陽鎮", "label": "密山 15. 平陽鎮", "call_short": "G7822 .M2 S100 .J4", "call_num": "G7822 .M2 S100 .J4 W2N7-15", "recid": "fd124gf0554", "websiteUrl": "https://purl.stanford.edu/fd124gf0554", "title": "作戦用 地誌圖 満洲十万分一圖", "ckey": 12732138, "available": true, "iiifUrl": "https://purl.stanford.edu/fd124gf0554/iiif/manifest" }, "geometry": { "type": "Polygon", "coordinates": [ [ [ 131.0, 45.0 ], [ 131.5, 45.0 ], [ 131.5, 45.3333333 ], [ 131.0, 45.3333333 ], [ 131.0, 45.0 ] ] ] } },
{ "type": "Feature", "properties": { "Id": 0, "Sheet_ID": "密山 10. 半截河", "label": "密山 10. 半截河", "call_short": "0", "call_num": "0", "recid": "0", "websiteUrl": "0", "title": "0", "ckey": 0, "available": false, "iiifUrl": "0" }, "geometry": { "type": "Polygon", "coordinates": [ [ [ 131.5, 45.0 ], [ 132.0, 45.0 ], [ 132.0, 45.3333333 ], [ 131.5, 45.3333333 ], [ 131.5, 45.0 ] ] ] } },
{ "type": "Feature", "properties": { "Id": 0, "Sheet_ID": "密山 5. 當壁鎮", "label": "密山 5. 當壁鎮", "call_short": "G7822 .M2 S100 .J4", "call_num": "G7822 .M2 S100 .J4 W2N7-5", "recid": "cj484kd6277", "websiteUrl": "https://purl.stanford.edu/cj484kd6277", "title": "作戦用 地誌圖 極東十万分一圖", "ckey": 12732138, "available": true, "iiifUrl": "https://purl.stanford.edu/cj484kd6277/iiif/manifest" }, "geometry": { "type": "Polygon", "coordinates": [ [ [ 132.0, 45.0 ], [ 132.5, 45.0 ], [ 132.5, 45.3333333 ], [ 132.0, 45.3333333 ], [ 132.0, 45.0 ] ] ] } },
{ "type": "Feature", "properties": { "Id": 0, "Sheet_ID": "虎林 25. 鳳凰徳", "label": "虎林 25. 鳳凰徳", "call_short": "G7822 .M2 S100 .J4", "call_num": "G7822 .M2 S100 .J4 W1N7-25", "recid": "dk628pw4459", "websiteUrl": "https://purl.stanford.edu/dk628pw4459", "title": "作戦用 地誌圖 極東十万分一圖", "ckey": 12732138, "available": true, "iiifUrl": "https://purl.stanford.edu/dk628pw4459/iiif/manifest" }, "geometry": { "type": "Polygon", "coordinates": [ [ [ 132.5, 45.0 ], [ 133.0, 45.0 ], [ 133.0, 45.3333333 ], [ 132.5, 45.3333333 ], [ 132.5, 45.0 ] ] ] } },
{ "type": "Feature", "properties": { "Id": 0, "Sheet_ID": "虎林 20. 南荒崗", "label": "虎林 20. 南荒崗", "call_short": "G7822 .M2 S100 .J4", "call_num": "G7822 .M2 S100 .J4 W1N7-20", "recid": "yw601dp5813", "websiteUrl": "https://purl.stanford.edu/yw601dp5813", "title": "作戦用 地誌圖 極東十万分一圖", "ckey": 12732138, "available": true, "iiifUrl": "https://purl.stanford.edu/yw601dp5813/iiif/manifest" }, "geometry": { "type": "Polygon", "coordinates": [ [ [ 133.0, 45.0 ], [ 133.5, 45.0 ], [ 133.5, 45.3333333 ], [ 133.0, 45.3333333 ], [ 133.0, 45.0 ] ] ] } },
{ "type": "Feature", "properties": { "Id": 0, "Sheet_ID": "虎林 15. ウスペンカ", "label": "虎林 15. ウスペンカ", "call_short": "G7822 .M2 S100 .J4", "call_num": "G7822 .M2 S100 .J4 W1N7-15", "recid": "zy078yd2645", "websiteUrl": "https://purl.stanford.edu/zy078yd2645", "title": "作戦用 地誌圖 極東十万分一圖", "ckey": 12732138, "available": true, "iiifUrl": "https://purl.stanford.edu/zy078yd2645/iiif/manifest" }, "geometry": { "type": "Polygon", "coordinates": [ [ [ 133.5, 45.0 ], [ 134.0, 45.0 ], [ 134.0, 45.3333333 ], [ 133.5, 45.3333333 ], [ 133.5, 45.0 ] ] ] } },
{ "type": "Feature", "properties": { "Id": 0, "Sheet_ID": "密山 4. 楊木崗", "label": "密山 4. 楊木崗", "call_short": "G7822 .M2 S100 .J4", "call_num": "G7822 .M2 S100 .J4 W2N7-4", "recid": "yp800cg3951", "websiteUrl": "https://purl.stanford.edu/yp800cg3951", "title": "作戦用 地誌圖 満洲十万分一圖", "ckey": 12732138, "available": true, "iiifUrl": "https://purl.stanford.edu/yp800cg3951/iiif/manifest" }, "geometry": { "type": "Polygon", "coordinates": [ [ [ 132.0, 45.3333333 ], [ 132.5, 45.3333333 ], [ 132.5, 45.6666667 ], [ 132.0, 45.6666667 ], [ 132.0, 45.3333333 ] ] ] } },
{ "type": "Feature", "properties": { "Id": 0, "Sheet_ID": "虎林 24. 荒崗", "label": "虎林 24. 荒崗", "call_short": "G7822 .M2 S100 .J4", "call_num": "G7822 .M2 S100 .J4 W1N7-24", "recid": "ft530zb6005", "websiteUrl": "https://purl.stanford.edu/ft530zb6005", "title": "作戦用 地誌圖 極東十万分一圖", "ckey": 12732138, "available": true, "iiifUrl": "https://purl.stanford.edu/ft530zb6005/iiif/manifest" }, "geometry": { "type": "Polygon", "coordinates": [ [ [ 132.5, 45.3333333 ], [ 133.0, 45.3333333 ], [ 133.0, 45.6666667 ], [ 132.5, 45.6666667 ], [ 132.5, 45.3333333 ] ] ] } },
{ "type": "Feature", "properties": { "Id": 0, "Sheet_ID": "虎林 19. 亮子", "label": "虎林 19. 亮子", "call_short": "G7822 .M2 S100 .J4", "call_num": "G7822 .M2 S100 .J4 W1N7-19", "recid": "fw490zm1384", "websiteUrl": "https://purl.stanford.edu/fw490zm1384", "title": "作戦用 地誌圖 極東十万分一圖", "ckey": 12732138, "available": true, "iiifUrl": "https://purl.stanford.edu/fw490zm1384/iiif/manifest" }, "geometry": { "type": "Polygon", "coordinates": [ [ [ 133.0, 45.3333333 ], [ 133.5, 45.3333333 ], [ 133.5, 45.6666667 ], [ 133.0, 45.6666667 ], [ 133.0, 45.3333333 ] ] ] } },
{ "type": "Feature", "properties": { "Id": 0, "Sheet_ID": "虎林 14. パンテレイモノフカ", "label": "虎林 14. パンテレイモノフカ", "call_short": "G7822 .M2 S100 .J4", "call_num": "G7822 .M2 S100 .J4 W1N7-14", "recid": "wd442yb4872", "websiteUrl": "https://purl.stanford.edu/wd442yb4872", "title": "作戦用 地誌圖 極東十万分一圖", "ckey": 12732138, "available": true, "iiifUrl": "https://purl.stanford.edu/wd442yb4872/iiif/manifest" }, "geometry": { "type": "Polygon", "coordinates": [ [ [ 133.5, 45.3333333 ], [ 134.0, 45.3333333 ], [ 134.0, 45.6666667 ], [ 133.5, 45.6666667 ], [ 133.5, 45.3333333 ] ] ] } },
{ "type": "Feature", "properties": { "Id": 0, "Sheet_ID": "密山 3. 楊樹河子", "label": "密山 3. 楊樹河子", "call_short": "G7822 .M2 S100 .J4", "call_num": "G7822 .M2 S100 .J4 W2N7-3", "recid": "dg456fw8466", "websiteUrl": "https://purl.stanford.edu/dg456fw8466", "title": "作戦用 地誌圖 満洲十万分一圖", "ckey": 12732138, "available": true, "iiifUrl": "https://purl.stanford.edu/dg456fw8466/iiif/manifest" }, "geometry": { "type": "Polygon", "coordinates": [ [ [ 132.0, 45.6666667 ], [ 132.5, 45.6666667 ], [ 132.5, 46.0 ], [ 132.0, 46.0 ], [ 132.0, 45.6666667 ] ] ] } },
{ "type": "Feature", "properties": { "Id": 0, "Sheet_ID": "虎林 23. 虎林", "label": "虎林 23. 虎林", "call_short": "G7822 .M2 S100 .J4", "call_num": "G7822 .M2 S100 .J4 W1N7-23", "recid": "xt189ch5907", "websiteUrl": "https://purl.stanford.edu/xt189ch5907", "title": "作戦用 地誌圖 極東十万分一圖", "ckey": 12732138, "available": true, "iiifUrl": "https://purl.stanford.edu/xt189ch5907/iiif/manifest" }, "geometry": { "type": "Polygon", "coordinates": [ [ [ 132.5, 45.6666667 ], [ 133.0, 45.6666667 ], [ 133.0, 46.0 ], [ 132.5, 46.0 ], [ 132.5, 45.6666667 ] ] ] } },
{ "type": "Feature", "properties": { "Id": 0, "Sheet_ID": "虎林 18. 倒木溝", "label": "虎林 18. 倒木溝", "call_short": "G7822 .M2 S100 .J4", "call_num": "G7822 .M2 S100 .J4 W1N7-18", "recid": "rb982dt1369", "websiteUrl": "https://purl.stanford.edu/rb982dt1369", "title": "作戦用 地誌圖 極東十万分一圖", "ckey": 12732138, "available": true, "iiifUrl": "https://purl.stanford.edu/rb982dt1369/iiif/manifest" }, "geometry": { "type": "Polygon", "coordinates": [ [ [ 133.0, 45.6666667 ], [ 133.5, 45.6666667 ], [ 133.5, 46.0 ], [ 133.0, 46.0 ], [ 133.0, 45.6666667 ] ] ] } },
{ "type": "Feature", "properties": { "Id": 0, "Sheet_ID": "虎林 13. 虎頭", "label": "虎林 13. 虎頭", "call_short": "G7822 .M2 S100 .J4", "call_num": "G7822 .M2 S100 .J4 W1N7-13", "recid": "rn189yw7726", "websiteUrl": "https://purl.stanford.edu/rn189yw7726", "title": "作戦用 地誌圖 極東十万分一圖", "ckey": 12732138, "available": true, "iiifUrl": "https://purl.stanford.edu/rn189yw7726/iiif/manifest" }, "geometry": { "type": "Polygon", "coordinates": [ [ [ 133.5, 45.6666667 ], [ 134.0, 45.6666667 ], [ 134.0, 46.0 ], [ 133.5, 46.0 ], [ 133.5, 45.6666667 ] ] ] } },
{ "type": "Feature", "properties": { "Id": 0, "Sheet_ID": "ウラジミロフカ 21. ノーウォネージノ", "label": "ウラジミロフカ 21. ノーウォネージノ", "call_short": "G7822 .M2 S100 .J4", "call_num": "G7822 .M2 S100 .J4 W1N5-21", "recid": "vh778yb0148", "websiteUrl": "https://purl.stanford.edu/vh778yb0148", "title": "作戦用 地誌圖 極東十万分一圖", "ckey": 12732138, "available": true, "iiifUrl": "https://purl.stanford.edu/vh778yb0148/iiif/manifest" }, "geometry": { "type": "Polygon", "coordinates": [ [ [ 132.5, 43.0 ], [ 133.0, 43.0 ], [ 133.0, 43.3333333 ], [ 132.5, 43.3333333 ], [ 132.5, 43.0 ] ] ] } },
{ "type": "Feature", "properties": { "Id": 0, "Sheet_ID": "綏芬河 1. カーメン・ルイボロフ", "label": "綏芬河 1. カーメン・ルイボロフ", "call_short": "G7822 .M2 S100 .J4", "call_num": "G7822 .M2 S100 .J4 W2N6-1", "recid": "yf061wc2044", "websiteUrl": "https://purl.stanford.edu/yf061wc2044", "title": "作戦用 地誌圖 極東十万分一圖", "ckey": 12732138, "available": true, "iiifUrl": "https://purl.stanford.edu/yf061wc2044/iiif/manifest" }, "geometry": { "type": "Polygon", "coordinates": [ [ [ 132.0, 44.6666667 ], [ 132.5, 44.6666667 ], [ 132.5, 45.0 ], [ 132.0, 45.0 ], [ 132.0, 44.6666667 ] ] ] } },
{ "type": "Feature", "properties": { "Id": 0, "Sheet_ID": "綏芬河 6. イリインスコエ", "label": "綏芬河 6. イリインスコエ", "call_short": "G7822 .M2 S100 .J4", "call_num": "G7822 .M2 S100 .J4 W2N6-6", "recid": "yz212bp4380", "websiteUrl": "https://purl.stanford.edu/yz212bp4380", "title": "作戦用 地誌圖 極東十万分一圖", "ckey": 12732138, "available": true, "iiifUrl": "https://purl.stanford.edu/yz212bp4380/iiif/manifest" }, "geometry": { "type": "Polygon", "coordinates": [ [ [ 131.5, 44.6666667 ], [ 132.0, 44.6666667 ], [ 132.0, 45.0 ], [ 131.5, 45.0 ], [ 131.5, 44.6666667 ] ] ] } },
{ "type": "Feature", "properties": { "Id": 0, "Sheet_ID": "綏芬河 7. ジァリコーウォ", "label": "綏芬河 7. ジァリコーウォ", "call_short": "G7822 .M2 S100 .J4", "call_num": "G7822 .M2 S100 .J4 W2N6-7", "recid": "bm394zk0094", "websiteUrl": "https://purl.stanford.edu/bm394zk0094", "title": "作戦用 地誌圖 極東十万分一圖", "ckey": 12732138, "available": true, "iiifUrl": "https://purl.stanford.edu/bm394zk0094/iiif/manifest" }, "geometry": { "type": "Polygon", "coordinates": [ [ [ 131.5, 44.3333333 ], [ 132.0, 44.3333333 ], [ 132.0, 44.6666667 ], [ 131.5, 44.6666667 ], [ 131.5, 44.3333333 ] ] ] } },
{ "type": "Feature", "properties": { "Id": 0, "Sheet_ID": "琿春 12. 西北溝", "label": "琿春 12. 西北溝", "call_short": "G7822 .M2 S100 .J4", "call_num": "G7822 .M2 S100 .J4 W2N5-12", "recid": "qf077fh3388", "websiteUrl": "https://purl.stanford.edu/qf077fh3388", "title": "作戦用 地誌圖 極東十万分一圖", "ckey": 12732138, "available": true, "iiifUrl": "https://purl.stanford.edu/qf077fh3388/iiif/manifest" }, "geometry": { "type": "Polygon", "coordinates": [ [ [ 131.0, 42.6666667 ], [ 131.5, 42.6666667 ], [ 131.5, 43.0 ], [ 131.0, 43.0 ], [ 131.0, 42.6666667 ] ] ] } }
]
}
