{"type":"FeatureCollection","features":[{"type":"Feature","properties":{"Id":0,"Sheet_ID":"SHEET 4","label":"SHEET 4","call_short":"G7323 .P7 S200 .J3","call_num":"G7323 .P7 S200 .J3 SHEET 4","recid":"fh151zs8876","websiteUrl":"https://purl.stanford.edu/fh151zs8876","title":"二十万分一沿海州中部地方圖","ckey":10162481,"web_map":"","available":"true","iiiUrl":"https://purl.stanford.edu/fh151zs8876/iiif/manifest"},"geometry":{"bbox":[134,45,136,46],"type":"Polygon","coordinates":[[[134,45],[134,46],[136,46],[136,45],[134,45]]]}},{"type":"Feature","properties":{"Id":0,"Sheet_ID":"SHEET 3","label":"SHEET 3","call_short":"G7323 .P7 S200 .J3","call_num":"G7323 .P7 S200 .J3 SHEET 3","recid":"vm649rz9092","websiteUrl":"https://purl.stanford.edu/vm649rz9092","title":"二十万分一沿海州中部地方圖","ckey":10162481,"web_map":"","available":"true","iiiUrl":"https://purl.stanford.edu/vm649rz9092/iiif/manifest"},"geometry":{"bbox":[134,46,136,47],"type":"Polygon","coordinates":[[[134,46],[134,47],[136,47],[136,46],[134,46]]]}},{"type":"Feature","properties":{"Id":0,"Sheet_ID":"SHEET 2","label":"SHEET 2","call_short":"G7323 .P7 S200 .J3","call_num":"G7323 .P7 S200 .J3 SHEET 2","recid":"pk729jn1725","websiteUrl":"https://purl.stanford.edu/pk729jn1725","title":"二十万分一沿海州中部地方圖","ckey":10162481,"web_map":"","available":"true","iiiUrl":"https://purl.stanford.edu/pk729jn1725/iiif/manifest"},"geometry":{"bbox":[134.5,47.000000000000114,136.5000000000001,48.000000000000114],"type":"Polygon","coordinates":[[[134.5,47.000000000000114],[134.5,48.000000000000114],[136.5000000000001,48.000000000000114],[136.5000000000001,47.000000000000114],[134.5,47.000000000000114]]]}},{"type":"Feature","properties":{"Id":0,"Sheet_ID":"SHEET 1","label":"SHEET 1","call_short":"G7323 .P7 S200 .J3","call_num":"G7323 .P7 S200 .J3 SHEET 1","recid":"yq735jt9992","websiteUrl":"https://purl.stanford.edu/yq735jt9992","title":"二十万分一沿海州中部地方圖","ckey":10162481,"web_map":"","available":"true","iiiUrl":"https://purl.stanford.edu/yq735jt9992/iiif/manifest"},"geometry":{"bbox":[135,48.00000000000001,136,48.5],"type":"Polygon","coordinates":[[[135,48.00000000000001],[135,48.5],[136,48.5],[136,48.00000000000001],[135,48.00000000000001]]]}}],"name":"index_10162481"}
