{"type":"FeatureCollection","features":[{"type":"Feature","properties":{"Id":0,"Sheet_ID":"SAWOE - EILANDEN","label":"SAWOE - EILANDEN","call_short":"G8072 .S27 1942 .J3","call_num":"G8072 .S27 1942 .J3","recid":"kv237jg1154","websiteUrl":"https://purl.stanford.edu/kv237jg1154","title":"二十万分一圖 サウ諸島","ckey":10531179,"web_map":"","available":"true","iiiUrl":"https://purl.stanford.edu/kv237jg1154/iiif/manifest"},"geometry":{"bbox":[121.25972200000001,-10.839722,122.01805600000002,-10.406389],"type":"Polygon","coordinates":[[[121.25972200000001,-10.839722],[121.25972200000001,-10.406389],[122.01805600000002,-10.406389],[122.01805600000002,-10.839722],[121.25972200000001,-10.839722]]]}}],"name":"index_10531179"}
