{
"type": "FeatureCollection",
"name": "index_map",
"features": [
{ "type": "Feature", "properties": { "Id": 0, "Sheet_ID": "SHEET 44", "label": "SHEET 44", "call_short": "G7823 .J85 S200 .J3", "call_num": "G7823 .J85 S200 .J3 SHEET 44", "recid": "ww272qd9643", "websiteUrl": "https://purl.stanford.edu/ww272qd9643", "title": "清國 [二十万分一圖]", "ckey": 10158755, "web_map": null, "available": true, "iiifUrl": "https://purl.stanford.edu/ww272qd9643/iiif/manifest" }, "geometry": { "type": "Polygon", "coordinates": [ [ [ 119.0, 35.333333 ], [ 120.0, 35.333333 ], [ 120.0, 35.9999997 ], [ 119.0, 35.9999997 ], [ 119.0, 35.333333 ] ] ] } },
{ "type": "Feature", "properties": { "Id": 0, "Sheet_ID": "SHEET 43", "label": "SHEET 43", "call_short": "G7823 .J85 S200 .J3", "call_num": "G7823 .J85 S200 .J3 SHEET 43", "recid": "qk946km5713", "websiteUrl": "https://purl.stanford.edu/qk946km5713", "title": "清國 [二十万分一圖]", "ckey": 10158755, "web_map": null, "available": true, "iiifUrl": "https://purl.stanford.edu/qk946km5713/iiif/manifest" }, "geometry": { "type": "Polygon", "coordinates": [ [ [ 120.0, 35.333333 ], [ 121.0, 35.333333 ], [ 121.0, 35.9999997 ], [ 120.0, 35.9999997 ], [ 120.0, 35.333333 ] ] ] } },
{ "type": "Feature", "properties": { "Id": 0, "Sheet_ID": "SHEET 42", "label": "SHEET 42", "call_short": "G7823 .J85 S200 .J3", "call_num": "G7823 .J85 S200 .J3 SHEET 42", "recid": "xn500mr2817", "websiteUrl": "https://purl.stanford.edu/xn500mr2817", "title": "清國 [二十万分一圖]", "ckey": 10158755, "web_map": null, "available": true, "iiifUrl": "https://purl.stanford.edu/xn500mr2817/iiif/manifest" }, "geometry": { "type": "Polygon", "coordinates": [ [ [ 116.0, 35.9999997 ], [ 117.0, 35.9999997 ], [ 117.0, 36.6666663 ], [ 116.0, 36.6666663 ], [ 116.0, 35.9999997 ] ] ] } },
{ "type": "Feature", "properties": { "Id": 0, "Sheet_ID": "SHEET 41", "label": "SHEET 41", "call_short": "G7823 .J85 S200 .J3", "call_num": "G7823 .J85 S200 .J3 SHEET 41", "recid": "vz567mp4167", "websiteUrl": "https://purl.stanford.edu/vz567mp4167", "title": "清國 [二十万分一圖]", "ckey": 10158755, "web_map": null, "available": true, "iiifUrl": "https://purl.stanford.edu/vz567mp4167/iiif/manifest" }, "geometry": { "type": "Polygon", "coordinates": [ [ [ 117.0, 35.9999997 ], [ 118.0, 35.9999997 ], [ 118.0, 36.6666663 ], [ 117.0, 36.6666663 ], [ 117.0, 35.9999997 ] ] ] } },
{ "type": "Feature", "properties": { "Id": 0, "Sheet_ID": "SHEET 40", "label": "SHEET 40", "call_short": "G7823 .J85 S200 .J3", "call_num": "G7823 .J85 S200 .J3 SHEET 40", "recid": "rp986nv8645", "websiteUrl": "https://purl.stanford.edu/rp986nv8645", "title": "清國 [二十万分一圖]", "ckey": 10158755, "web_map": null, "available": true, "iiifUrl": "https://purl.stanford.edu/rp986nv8645/iiif/manifest" }, "geometry": { "type": "Polygon", "coordinates": [ [ [ 118.0, 35.9999997 ], [ 119.0, 35.9999997 ], [ 119.0, 36.6666663 ], [ 118.0, 36.6666663 ], [ 118.0, 35.9999997 ] ] ] } },
{ "type": "Feature", "properties": { "Id": 0, "Sheet_ID": "SHEET 39", "label": "SHEET 39", "call_short": "G7823 .J85 S200 .J3", "call_num": "G7823 .J85 S200 .J3 SHEET 39", "recid": "mt223cg0398", "websiteUrl": "https://purl.stanford.edu/mt223cg0398", "title": "清國 [二十万分一圖]", "ckey": 10158755, "web_map": null, "available": true, "iiifUrl": "https://purl.stanford.edu/mt223cg0398/iiif/manifest" }, "geometry": { "type": "Polygon", "coordinates": [ [ [ 119.0, 35.9999997 ], [ 120.0, 35.9999997 ], [ 120.0, 36.6666663 ], [ 119.0, 36.6666663 ], [ 119.0, 35.9999997 ] ] ] } },
{ "type": "Feature", "properties": { "Id": 0, "Sheet_ID": "SHEET 38", "label": "SHEET 38", "call_short": "G7823 .J85 S200 .J3", "call_num": "G7823 .J85 S200 .J3 SHEET 38", "recid": "nd146qq2739", "websiteUrl": "https://purl.stanford.edu/nd146qq2739", "title": "清國 [二十万分一圖]", "ckey": 10158755, "web_map": null, "available": true, "iiifUrl": "https://purl.stanford.edu/nd146qq2739/iiif/manifest" }, "geometry": { "type": "Polygon", "coordinates": [ [ [ 120.0, 35.9999997 ], [ 121.0, 35.9999997 ], [ 121.0, 36.6666663 ], [ 120.0, 36.6666663 ], [ 120.0, 35.9999997 ] ] ] } },
{ "type": "Feature", "properties": { "Id": 0, "Sheet_ID": "[SHEET 37]", "label": "[SHEET 37]", "call_short": null, "call_num": null, "recid": null, "websiteUrl": null, "title": null, "ckey": 0, "web_map": null, "available": false, "iiifUrl": null }, "geometry": { "type": "Polygon", "coordinates": [ [ [ 116.0, 36.6666663 ], [ 117.0, 36.6666663 ], [ 117.0, 37.333333 ], [ 116.0, 37.333333 ], [ 116.0, 36.6666663 ] ] ] } },
{ "type": "Feature", "properties": { "Id": 0, "Sheet_ID": "SHEET 36", "label": "SHEET 36", "call_short": "G7823 .J85 S200 .J3", "call_num": "G7823 .J85 S200 .J3 SHEET 36", "recid": "dp131pq2572", "websiteUrl": "https://purl.stanford.edu/dp131pq2572", "title": "清國 [二十万分一圖]", "ckey": 10158755, "web_map": null, "available": true, "iiifUrl": "https://purl.stanford.edu/dp131pq2572/iiif/manifest" }, "geometry": { "type": "Polygon", "coordinates": [ [ [ 117.0, 36.6666663 ], [ 118.0, 36.6666663 ], [ 118.0, 37.333333 ], [ 117.0, 37.333333 ], [ 117.0, 36.6666663 ] ] ] } },
{ "type": "Feature", "properties": { "Id": 0, "Sheet_ID": "SHEET 35", "label": "SHEET 35", "call_short": "G7823 .J85 S200 .J3", "call_num": "G7823 .J85 S200 .J3 SHEET 35", "recid": "zr836gm5172", "websiteUrl": "https://purl.stanford.edu/zr836gm5172", "title": "清國 [二十万分一圖]", "ckey": 10158755, "web_map": null, "available": true, "iiifUrl": "https://purl.stanford.edu/zr836gm5172/iiif/manifest" }, "geometry": { "type": "Polygon", "coordinates": [ [ [ 118.0, 36.6666663 ], [ 119.0, 36.6666663 ], [ 119.0, 37.333333 ], [ 118.0, 37.333333 ], [ 118.0, 36.6666663 ] ] ] } },
{ "type": "Feature", "properties": { "Id": 0, "Sheet_ID": "SHEET 34", "label": "SHEET 34", "call_short": "G7823 .J85 S200 .J3", "call_num": "G7823 .J85 S200 .J3 SHEET 34", "recid": "qf938by5802", "websiteUrl": "https://purl.stanford.edu/qf938by5802", "title": "清國 [二十万分一圖]", "ckey": 10158755, "web_map": null, "available": true, "iiifUrl": "https://purl.stanford.edu/qf938by5802/iiif/manifest" }, "geometry": { "type": "Polygon", "coordinates": [ [ [ 119.0, 36.6666663 ], [ 120.0, 36.6666663 ], [ 120.0, 37.333333 ], [ 119.0, 37.333333 ], [ 119.0, 36.6666663 ] ] ] } },
{ "type": "Feature", "properties": { "Id": 0, "Sheet_ID": "SHEET 33", "label": "SHEET 33", "call_short": "G7823 .J85 S200 .J3", "call_num": "G7823 .J85 S200 .J3 SHEET 33", "recid": "xg932px0134", "websiteUrl": "https://purl.stanford.edu/xg932px0134", "title": "清國 [二十万分一圖]", "ckey": 10158755, "web_map": null, "available": true, "iiifUrl": "https://purl.stanford.edu/xg932px0134/iiif/manifest" }, "geometry": { "type": "Polygon", "coordinates": [ [ [ 120.0, 36.6666663 ], [ 121.0, 36.6666663 ], [ 121.0, 37.333333 ], [ 120.0, 37.333333 ], [ 120.0, 36.6666663 ] ] ] } },
{ "type": "Feature", "properties": { "Id": 0, "Sheet_ID": "SHEET 32", "label": "SHEET 32", "call_short": "G7823 .J85 S200 .J3", "call_num": "G7823 .J85 S200 .J3 SHEET 32", "recid": "wz477wm2465", "websiteUrl": "https://purl.stanford.edu/wz477wm2465", "title": "清國 [二十万分一圖]", "ckey": 10158755, "web_map": null, "available": true, "iiifUrl": "https://purl.stanford.edu/wz477wm2465/iiif/manifest" }, "geometry": { "type": "Polygon", "coordinates": [ [ [ 121.0, 36.6666663 ], [ 122.0, 36.6666663 ], [ 122.0, 37.333333 ], [ 121.0, 37.333333 ], [ 121.0, 36.6666663 ] ] ] } },
{ "type": "Feature", "properties": { "Id": 0, "Sheet_ID": "SHEET 31", "label": "SHEET 31", "call_short": "G7823 .J85 S200 .J3", "call_num": "G7823 .J85 S200 .J3 SHEET 31", "recid": "dp670qs2722", "websiteUrl": "https://purl.stanford.edu/dp670qs2722", "title": "清國 [二十万分一圖]", "ckey": 10158755, "web_map": null, "available": true, "iiifUrl": "https://purl.stanford.edu/dp670qs2722/iiif/manifest" }, "geometry": { "type": "Polygon", "coordinates": [ [ [ 122.0, 36.6666663 ], [ 123.0, 36.6666663 ], [ 123.0, 37.333333 ], [ 122.0, 37.333333 ], [ 122.0, 36.6666663 ] ] ] } },
{ "type": "Feature", "properties": { "Id": 0, "Sheet_ID": "[SHEET 30]", "label": "[SHEET 30]", "call_short": null, "call_num": null, "recid": null, "websiteUrl": null, "title": null, "ckey": 0, "web_map": null, "available": false, "iiifUrl": null }, "geometry": { "type": "Polygon", "coordinates": [ [ [ 116.0, 37.333333 ], [ 117.0, 37.333333 ], [ 117.0, 37.9999997 ], [ 116.0, 37.9999997 ], [ 116.0, 37.333333 ] ] ] } },
{ "type": "Feature", "properties": { "Id": 0, "Sheet_ID": "SHEET 29", "label": "SHEET 29", "call_short": "G7823 .J85 S200 .J3", "call_num": "G7823 .J85 S200 .J3 SHEET 29", "recid": "ys034vw8227", "websiteUrl": "https://purl.stanford.edu/ys034vw8227", "title": "清國 [二十万分一圖]", "ckey": 10158755, "web_map": null, "available": true, "iiifUrl": "https://purl.stanford.edu/ys034vw8227/iiif/manifest" }, "geometry": { "type": "Polygon", "coordinates": [ [ [ 117.0, 37.333333 ], [ 118.0, 37.333333 ], [ 118.0, 37.9999997 ], [ 117.0, 37.9999997 ], [ 117.0, 37.333333 ] ] ] } },
{ "type": "Feature", "properties": { "Id": 0, "Sheet_ID": "SHEET 28", "label": "SHEET 28", "call_short": "G7823 .J85 S200 .J3", "call_num": "G7823 .J85 S200 .J3 SHEET 28", "recid": "mb120fr0550", "websiteUrl": "https://purl.stanford.edu/mb120fr0550", "title": "清國 [二十万分一圖]", "ckey": 10158755, "web_map": null, "available": true, "iiifUrl": "https://purl.stanford.edu/mb120fr0550/iiif/manifest" }, "geometry": { "type": "Polygon", "coordinates": [ [ [ 118.0, 37.333333 ], [ 119.0, 37.333333 ], [ 119.0, 37.9999997 ], [ 118.0, 37.9999997 ], [ 118.0, 37.333333 ] ] ] } },
{ "type": "Feature", "properties": { "Id": 0, "Sheet_ID": "SHEET 27", "label": "SHEET 27", "call_short": "G7823 .J85 S200 .J3", "call_num": "G7823 .J85 S200 .J3 SHEET 27", "recid": "py380xm8317", "websiteUrl": "https://purl.stanford.edu/py380xm8317", "title": "清國 [二十万分一圖]", "ckey": 10158755, "web_map": null, "available": true, "iiifUrl": "https://purl.stanford.edu/py380xm8317/iiif/manifest" }, "geometry": { "type": "Polygon", "coordinates": [ [ [ 119.0, 37.333333 ], [ 120.0, 37.333333 ], [ 120.0, 37.9999997 ], [ 119.0, 37.9999997 ], [ 119.0, 37.333333 ] ] ] } },
{ "type": "Feature", "properties": { "Id": 0, "Sheet_ID": "SHEET 26", "label": "SHEET 26", "call_short": "G7823 .J85 S200 .J3", "call_num": "G7823 .J85 S200 .J3 SHEET 26", "recid": "vn930pj4529", "websiteUrl": "https://purl.stanford.edu/vn930pj4529", "title": "清國 [二十万分一圖]", "ckey": 10158755, "web_map": null, "available": true, "iiifUrl": "https://purl.stanford.edu/vn930pj4529/iiif/manifest" }, "geometry": { "type": "Polygon", "coordinates": [ [ [ 120.0, 37.333333 ], [ 121.0, 37.333333 ], [ 121.0, 37.9999997 ], [ 120.0, 37.9999997 ], [ 120.0, 37.333333 ] ] ] } },
{ "type": "Feature", "properties": { "Id": 0, "Sheet_ID": "SHEET 25", "label": "SHEET 25", "call_short": "G7823 .J85 S200 .J3", "call_num": "G7823 .J85 S200 .J3 SHEET 25", "recid": "bt289gx7933", "websiteUrl": "https://purl.stanford.edu/bt289gx7933", "title": "清國 [二十万分一圖]", "ckey": 10158755, "web_map": null, "available": true, "iiifUrl": "https://purl.stanford.edu/bt289gx7933/iiif/manifest" }, "geometry": { "type": "Polygon", "coordinates": [ [ [ 121.0, 37.333333 ], [ 122.0, 37.333333 ], [ 122.0, 37.9999997 ], [ 121.0, 37.9999997 ], [ 121.0, 37.333333 ] ] ] } },
{ "type": "Feature", "properties": { "Id": 0, "Sheet_ID": "SHEET 24", "label": "SHEET 24", "call_short": "G7823 .J85 S200 .J3", "call_num": "G7823 .J85 S200 .J3 SHEET 24", "recid": "rb446jz6185", "websiteUrl": "https://purl.stanford.edu/rb446jz6185", "title": "清國 [二十万分一圖]", "ckey": 10158755, "web_map": null, "available": true, "iiifUrl": "https://purl.stanford.edu/rb446jz6185/iiif/manifest" }, "geometry": { "type": "Polygon", "coordinates": [ [ [ 122.0, 37.333333 ], [ 123.0, 37.333333 ], [ 123.0, 37.9999997 ], [ 122.0, 37.9999997 ], [ 122.0, 37.333333 ] ] ] } },
{ "type": "Feature", "properties": { "Id": 0, "Sheet_ID": "SHEET 23", "label": "SHEET 23", "call_short": "G7823 .J85 S200 .J3", "call_num": "G7823 .J85 S200 .J3 SHEET 23", "recid": "cg862dr4556", "websiteUrl": "https://purl.stanford.edu/cg862dr4556", "title": "清國 [二十万分一圖]", "ckey": 10158755, "web_map": null, "available": true, "iiifUrl": "https://purl.stanford.edu/cg862dr4556/iiif/manifest" }, "geometry": { "type": "Polygon", "coordinates": [ [ [ 115.0, 37.9999997 ], [ 116.0, 37.9999997 ], [ 116.0, 38.6666663 ], [ 115.0, 38.6666663 ], [ 115.0, 37.9999997 ] ] ] } },
{ "type": "Feature", "properties": { "Id": 0, "Sheet_ID": "[SHEET 22]", "label": "[SHEET 22]", "call_short": null, "call_num": null, "recid": null, "websiteUrl": null, "title": null, "ckey": 0, "web_map": null, "available": false, "iiifUrl": null }, "geometry": { "type": "Polygon", "coordinates": [ [ [ 116.0, 37.9999997 ], [ 117.0, 37.9999997 ], [ 117.0, 38.6666663 ], [ 116.0, 38.6666663 ], [ 116.0, 37.9999997 ] ] ] } },
{ "type": "Feature", "properties": { "Id": 0, "Sheet_ID": "SHEET 21", "label": "SHEET 21", "call_short": "G7823 .J85 S200 .J3", "call_num": "G7823 .J85 S200 .J3 SHEET 21", "recid": "xb491fb1473", "websiteUrl": "https://purl.stanford.edu/xb491fb1473", "title": "清國 [二十万分一圖]", "ckey": 10158755, "web_map": null, "available": true, "iiifUrl": "https://purl.stanford.edu/xb491fb1473/iiif/manifest" }, "geometry": { "type": "Polygon", "coordinates": [ [ [ 117.0, 37.9999997 ], [ 118.0, 37.9999997 ], [ 118.0, 38.6666663 ], [ 117.0, 38.6666663 ], [ 117.0, 37.9999997 ] ] ] } },
{ "type": "Feature", "properties": { "Id": 0, "Sheet_ID": "SHEET 20", "label": "SHEET 20", "call_short": "G7823 .J85 S200 .J3", "call_num": "G7823 .J85 S200 .J3 SHEET 20", "recid": "dt736sp5712", "websiteUrl": "https://purl.stanford.edu/dt736sp5712", "title": "清國 [二十万分一圖]", "ckey": 10158755, "web_map": null, "available": true, "iiifUrl": "https://purl.stanford.edu/dt736sp5712/iiif/manifest" }, "geometry": { "type": "Polygon", "coordinates": [ [ [ 120.0, 37.9999997 ], [ 121.0, 37.9999997 ], [ 121.0, 38.6666663 ], [ 120.0, 38.6666663 ], [ 120.0, 37.9999997 ] ] ] } },
{ "type": "Feature", "properties": { "Id": 0, "Sheet_ID": "SHEET 19", "label": "SHEET 19", "call_short": "G7823 .J85 S200 .J3", "call_num": "G7823 .J85 S200 .J3 SHEET 19", "recid": "rt805cc8952", "websiteUrl": "https://purl.stanford.edu/rt805cc8952", "title": "清國 [二十万分一圖]", "ckey": 10158755, "web_map": null, "available": true, "iiifUrl": "https://purl.stanford.edu/rt805cc8952/iiif/manifest" }, "geometry": { "type": "Polygon", "coordinates": [ [ [ 115.0, 38.6666663 ], [ 116.0, 38.6666663 ], [ 116.0, 39.333333 ], [ 115.0, 39.333333 ], [ 115.0, 38.6666663 ] ] ] } },
{ "type": "Feature", "properties": { "Id": 0, "Sheet_ID": "SHEET 18", "label": "SHEET 18", "call_short": "G7823 .J85 S200 .J3", "call_num": "G7823 .J85 S200 .J3 SHEET 18", "recid": "qc250sh1854", "websiteUrl": "https://purl.stanford.edu/qc250sh1854", "title": "清國 [二十万分一圖]", "ckey": 10158755, "web_map": null, "available": true, "iiifUrl": "https://purl.stanford.edu/qc250sh1854/iiif/manifest" }, "geometry": { "type": "Polygon", "coordinates": [ [ [ 116.0, 38.6666663 ], [ 117.0, 38.6666663 ], [ 117.0, 39.333333 ], [ 116.0, 39.333333 ], [ 116.0, 38.6666663 ] ] ] } },
{ "type": "Feature", "properties": { "Id": 0, "Sheet_ID": "SHEET 17", "label": "SHEET 17", "call_short": "G7823 .J85 S200 .J3", "call_num": "G7823 .J85 S200 .J3 SHEET 17", "recid": "xp288my0762", "websiteUrl": "https://purl.stanford.edu/xp288my0762", "title": "清國 [二十万分一圖]", "ckey": 10158755, "web_map": null, "available": true, "iiifUrl": "https://purl.stanford.edu/xp288my0762/iiif/manifest" }, "geometry": { "type": "Polygon", "coordinates": [ [ [ 117.0, 38.6666663 ], [ 118.0, 38.6666663 ], [ 118.0, 39.333333 ], [ 117.0, 39.333333 ], [ 117.0, 38.6666663 ] ] ] } },
{ "type": "Feature", "properties": { "Id": 0, "Sheet_ID": "SHEET 16", "label": "SHEET 16", "call_short": "G7823 .J85 S200 .J3", "call_num": "G7823 .J85 S200 .J3 SHEET 16", "recid": "nx229wt2886", "websiteUrl": "https://purl.stanford.edu/nx229wt2886", "title": "清國 [二十万分一圖]", "ckey": 10158755, "web_map": null, "available": true, "iiifUrl": "https://purl.stanford.edu/nx229wt2886/iiif/manifest" }, "geometry": { "type": "Polygon", "coordinates": [ [ [ 118.0, 38.6666663 ], [ 119.0, 38.6666663 ], [ 119.0, 39.333333 ], [ 118.0, 39.333333 ], [ 118.0, 38.6666663 ] ] ] } },
{ "type": "Feature", "properties": { "Id": 0, "Sheet_ID": "SHEET 15", "label": "SHEET 15", "call_short": "G7823 .J85 S200 .J3", "call_num": "G7823 .J85 S200 .J3 SHEET 15", "recid": "ky031qg6237", "websiteUrl": "https://purl.stanford.edu/ky031qg6237", "title": "清國 [二十万分一圖]", "ckey": 10158755, "web_map": null, "available": true, "iiifUrl": "https://purl.stanford.edu/ky031qg6237/iiif/manifest" }, "geometry": { "type": "Polygon", "coordinates": [ [ [ 119.0, 38.6666663 ], [ 120.0, 38.6666663 ], [ 120.0, 39.333333 ], [ 119.0, 39.333333 ], [ 119.0, 38.6666663 ] ] ] } },
{ "type": "Feature", "properties": { "Id": 0, "Sheet_ID": "SHEET 14", "label": "SHEET 14", "call_short": "G7823 .J85 S200 .J3", "call_num": "G7823 .J85 S200 .J3 SHEET 14", "recid": "zf234xr1555", "websiteUrl": "https://purl.stanford.edu/zf234xr1555", "title": "清國 [二十万分一圖]", "ckey": 10158755, "web_map": null, "available": true, "iiifUrl": "https://purl.stanford.edu/zf234xr1555/iiif/manifest" }, "geometry": { "type": "Polygon", "coordinates": [ [ [ 115.0, 39.333333 ], [ 116.0, 39.333333 ], [ 116.0, 39.9999997 ], [ 115.0, 39.9999997 ], [ 115.0, 39.333333 ] ] ] } },
{ "type": "Feature", "properties": { "Id": 0, "Sheet_ID": "SHEET 13", "label": "SHEET 13", "call_short": "G7823 .J85 S200 .J3", "call_num": "G7823 .J85 S200 .J3 SHEET 13", "recid": "jr178ws4012", "websiteUrl": "https://purl.stanford.edu/jr178ws4012", "title": "清國 [二十万分一圖]", "ckey": 10158755, "web_map": null, "available": true, "iiifUrl": "https://purl.stanford.edu/jr178ws4012/iiif/manifest" }, "geometry": { "type": "Polygon", "coordinates": [ [ [ 116.0, 39.333333 ], [ 117.0, 39.333333 ], [ 117.0, 39.9999997 ], [ 116.0, 39.9999997 ], [ 116.0, 39.333333 ] ] ] } },
{ "type": "Feature", "properties": { "Id": 0, "Sheet_ID": "SHEET 12", "label": "SHEET 12", "call_short": "G7823 .J85 S200 .J3", "call_num": "G7823 .J85 S200 .J3 SHEET 12", "recid": "tc696tt3165", "websiteUrl": "https://purl.stanford.edu/tc696tt3165", "title": "清國 [二十万分一圖]", "ckey": 10158755, "web_map": null, "available": true, "iiifUrl": "https://purl.stanford.edu/tc696tt3165/iiif/manifest" }, "geometry": { "type": "Polygon", "coordinates": [ [ [ 117.0, 39.333333 ], [ 118.0, 39.333333 ], [ 118.0, 39.9999997 ], [ 117.0, 39.9999997 ], [ 117.0, 39.333333 ] ] ] } },
{ "type": "Feature", "properties": { "Id": 0, "Sheet_ID": "[SHEET 11]", "label": "[SHEET 11]", "call_short": null, "call_num": null, "recid": null, "websiteUrl": null, "title": null, "ckey": 0, "web_map": null, "available": false, "iiifUrl": null }, "geometry": { "type": "Polygon", "coordinates": [ [ [ 118.0, 39.333333 ], [ 119.0, 39.333333 ], [ 119.0, 39.9999997 ], [ 118.0, 39.9999997 ], [ 118.0, 39.333333 ] ] ] } },
{ "type": "Feature", "properties": { "Id": 0, "Sheet_ID": "SHEET 10", "label": "SHEET 10", "call_short": "G7823 .J85 S200 .J3", "call_num": "G7823 .J85 S200 .J3 SHEET 10", "recid": "qk885km3416", "websiteUrl": "https://purl.stanford.edu/qk885km3416", "title": "清國 [二十万分一圖]", "ckey": 10158755, "web_map": null, "available": true, "iiifUrl": "https://purl.stanford.edu/qk885km3416/iiif/manifest" }, "geometry": { "type": "Polygon", "coordinates": [ [ [ 119.0, 39.333333 ], [ 120.0, 39.333333 ], [ 120.0, 39.9999997 ], [ 119.0, 39.9999997 ], [ 119.0, 39.333333 ] ] ] } },
{ "type": "Feature", "properties": { "Id": 0, "Sheet_ID": "[SHEET 9]", "label": "[SHEET 9]", "call_short": null, "call_num": null, "recid": null, "websiteUrl": null, "title": null, "ckey": 0, "web_map": null, "available": false, "iiifUrl": null }, "geometry": { "type": "Polygon", "coordinates": [ [ [ 115.0, 39.9999997 ], [ 116.0, 39.9999997 ], [ 116.0, 40.6666663 ], [ 115.0, 40.6666663 ], [ 115.0, 39.9999997 ] ] ] } },
{ "type": "Feature", "properties": { "Id": 0, "Sheet_ID": "[SHEET 8]", "label": "[SHEET 8]", "call_short": null, "call_num": null, "recid": null, "websiteUrl": null, "title": null, "ckey": 0, "web_map": null, "available": false, "iiifUrl": null }, "geometry": { "type": "Polygon", "coordinates": [ [ [ 116.0, 39.9999997 ], [ 117.0, 39.9999997 ], [ 117.0, 40.6666663 ], [ 116.0, 40.6666663 ], [ 116.0, 39.9999997 ] ] ] } },
{ "type": "Feature", "properties": { "Id": 0, "Sheet_ID": "SHEET 7", "label": "SHEET 7", "call_short": "G7823 .J85 S200 .J3", "call_num": "G7823 .J85 S200 .J3 SHEET 7", "recid": "kc856pj4603", "websiteUrl": "https://purl.stanford.edu/kc856pj4603", "title": "清國 [二十万分一圖]", "ckey": 10158755, "web_map": null, "available": true, "iiifUrl": "https://purl.stanford.edu/kc856pj4603/iiif/manifest" }, "geometry": { "type": "Polygon", "coordinates": [ [ [ 117.0, 39.9999997 ], [ 118.0, 39.9999997 ], [ 118.0, 40.6666663 ], [ 117.0, 40.6666663 ], [ 117.0, 39.9999997 ] ] ] } },
{ "type": "Feature", "properties": { "Id": 0, "Sheet_ID": "SHEET 6", "label": "SHEET 6", "call_short": "G7823 .J85 S200 .J3", "call_num": "G7823 .J85 S200 .J3 SHEET 6", "recid": "gn234nc3177", "websiteUrl": "https://purl.stanford.edu/gn234nc3177", "title": "清國 [二十万分一圖]", "ckey": 10158755, "web_map": null, "available": true, "iiifUrl": "https://purl.stanford.edu/gn234nc3177/iiif/manifest" }, "geometry": { "type": "Polygon", "coordinates": [ [ [ 118.0, 39.9999997 ], [ 119.0, 39.9999997 ], [ 119.0, 40.6666663 ], [ 118.0, 40.6666663 ], [ 118.0, 39.9999997 ] ] ] } },
{ "type": "Feature", "properties": { "Id": 0, "Sheet_ID": "SHEET 5", "label": "SHEET 5", "call_short": "G7823 .J85 S200 .J3", "call_num": "G7823 .J85 S200 .J3 SHEET 5", "recid": "hp597dv0816", "websiteUrl": "https://purl.stanford.edu/hp597dv0816", "title": "清國 [二十万分一圖]", "ckey": 10158755, "web_map": null, "available": true, "iiifUrl": "https://purl.stanford.edu/hp597dv0816/iiif/manifest" }, "geometry": { "type": "Polygon", "coordinates": [ [ [ 119.0, 39.9999997 ], [ 120.0, 39.9999997 ], [ 120.0, 40.6666663 ], [ 119.0, 40.6666663 ], [ 119.0, 39.9999997 ] ] ] } },
{ "type": "Feature", "properties": { "Id": 0, "Sheet_ID": "SHEET 4", "label": "SHEET 4", "call_short": "G7823 .J85 S200 .J3", "call_num": "G7823 .J85 S200 .J3 SHEET 4", "recid": "sh179mk0827", "websiteUrl": "https://purl.stanford.edu/sh179mk0827", "title": "清國 [二十万分一圖]", "ckey": 10158755, "web_map": null, "available": true, "iiifUrl": "https://purl.stanford.edu/sh179mk0827/iiif/manifest" }, "geometry": { "type": "Polygon", "coordinates": [ [ [ 116.0, 40.6666663 ], [ 117.0, 40.6666663 ], [ 117.0, 41.333333 ], [ 116.0, 41.333333 ], [ 116.0, 40.6666663 ] ] ] } },
{ "type": "Feature", "properties": { "Id": 0, "Sheet_ID": "SHEET 3", "label": "SHEET 3", "call_short": "G7823 .J85 S200 .J3", "call_num": "G7823 .J85 S200 .J3 SHEET 3", "recid": "vs513sj9292", "websiteUrl": "https://purl.stanford.edu/vs513sj9292", "title": "清國 [二十万分一圖]", "ckey": 10158755, "web_map": null, "available": true, "iiifUrl": "https://purl.stanford.edu/vs513sj9292/iiif/manifest" }, "geometry": { "type": "Polygon", "coordinates": [ [ [ 117.0, 40.6666663 ], [ 118.0, 40.6666663 ], [ 118.0, 41.333333 ], [ 117.0, 41.333333 ], [ 117.0, 40.6666663 ] ] ] } },
{ "type": "Feature", "properties": { "Id": 0, "Sheet_ID": "SHEET 2", "label": "SHEET 2", "call_short": "G7823 .J85 S200 .J3", "call_num": "G7823 .J85 S200 .J3 SHEET 2", "recid": "ts341kp4590", "websiteUrl": "https://purl.stanford.edu/ts341kp4590", "title": "清國 [二十万分一圖]", "ckey": 10158755, "web_map": null, "available": true, "iiifUrl": "https://purl.stanford.edu/ts341kp4590/iiif/manifest" }, "geometry": { "type": "Polygon", "coordinates": [ [ [ 118.0, 40.6666663 ], [ 119.0, 40.6666663 ], [ 119.0, 41.333333 ], [ 118.0, 41.333333 ], [ 118.0, 40.6666663 ] ] ] } },
{ "type": "Feature", "properties": { "Id": 0, "Sheet_ID": "SHEET 1", "label": "SHEET 1", "call_short": "G7823 .J85 S200 .J3", "call_num": "G7823 .J85 S200 .J3 SHEET 1", "recid": "qp438cq2169", "websiteUrl": "https://purl.stanford.edu/qp438cq2169", "title": "清國 [二十万分一圖]", "ckey": 10158755, "web_map": null, "available": true, "iiifUrl": "https://purl.stanford.edu/qp438cq2169/iiif/manifest" }, "geometry": { "type": "Polygon", "coordinates": [ [ [ 119.0, 40.6666663 ], [ 120.0, 40.6666663 ], [ 120.0, 41.333333 ], [ 119.0, 41.333333 ], [ 119.0, 40.6666663 ] ] ] } }
]
}
