{
"type": "FeatureCollection",
"name": "index_map",
"features": [
{ "type": "Feature", "properties": { "Id": 0, "Sheet_ID": "ブラウン島 概況", "label": "ブラウン島 概況", "call_short": "G9460 SVAR .J3", "call_num": "G9460 SVAR .J3 1-1", "recid": "zw062rr5074", "websiteUrl": "https://purl.stanford.edu/zw062rr5074", "title": "十万分一圖マーシャル諸島", "ckey": 10550749, "available": true, "iiifUrl": "https://purl.stanford.edu/zw062rr5074/iiif/manifest" }, "geometry": { "type": "Polygon", "coordinates": [ [ [ 162.05, 11.283333 ], [ 162.425, 11.283333 ], [ 162.425, 11.75 ], [ 162.05, 11.75 ], [ 162.05, 11.283333 ] ] ] } },
{ "type": "Feature", "properties": { "Id": 0, "Sheet_ID": "ウジラン島", "label": "ウジラン島", "call_short": "G9460 SVAR .J3", "call_num": "G9460 SVAR .J3 1-2", "recid": "mn566ch3492", "websiteUrl": "https://purl.stanford.edu/mn566ch3492", "title": "十万分一圖マーシャル諸島", "ckey": 10550749, "available": true, "iiifUrl": "https://purl.stanford.edu/mn566ch3492/iiif/manifest" }, "geometry": { "type": "Polygon", "coordinates": [ [ [ 160.666667, 9.633333 ], [ 161.133333, 9.633333 ], [ 161.133333, 10.0 ], [ 160.666667, 10.0 ], [ 160.666667, 9.633333 ] ] ] } },
{ "type": "Feature", "properties": { "Id": 0, "Sheet_ID": "ピキンニ島", "label": "ピキンニ島", "call_short": "G9460 SVAR .J3", "call_num": "G9460 SVAR .J3 1-3", "recid": "nm758rh6130", "websiteUrl": "https://purl.stanford.edu/nm758rh6130", "title": "十万分一圖マーシャル諸島", "ckey": 10550749, "available": true, "iiifUrl": "https://purl.stanford.edu/nm758rh6130/iiif/manifest" }, "geometry": { "type": "Polygon", "coordinates": [ [ [ 165.133333, 11.416667 ], [ 165.583333, 11.416667 ], [ 165.583333, 11.75 ], [ 165.133333, 11.75 ], [ 165.133333, 11.416667 ] ] ] } },
{ "type": "Feature", "properties": { "Id": 0, "Sheet_ID": "ロンギリック島", "label": "ロンギリック島", "call_short": "G9460 SVAR .J3", "call_num": "G9460 SVAR .J3 1-4", "recid": "zt901bm6503", "websiteUrl": "https://purl.stanford.edu/zt901bm6503", "title": "十万分一圖マーシャル諸島", "ckey": 10550749, "available": true, "iiifUrl": "https://purl.stanford.edu/zt901bm6503/iiif/manifest" }, "geometry": { "type": "Polygon", "coordinates": [ [ [ 167.216667, 11.166667 ], [ 167.666667, 11.166667 ], [ 167.666667, 11.5 ], [ 167.216667, 11.5 ], [ 167.216667, 11.166667 ] ] ] } },
{ "type": "Feature", "properties": { "Id": 0, "Sheet_ID": "ロンゴラップ島 概況", "label": "ロンゴラップ島 概況", "call_short": "G9460 SVAR .J3", "call_num": "G9460 SVAR .J3 1-5", "recid": "nn005yb8470", "websiteUrl": "https://purl.stanford.edu/nn005yb8470", "title": "十万分一圖マーシャル諸島", "ckey": 10550749, "available": true, "iiifUrl": "https://purl.stanford.edu/nn005yb8470/iiif/manifest" }, "geometry": { "type": "Polygon", "coordinates": [ [ [ 166.25, 11.0 ], [ 167.116667, 11.0 ], [ 167.116667, 11.583333 ], [ 166.25, 11.583333 ], [ 166.25, 11.0 ] ] ] } },
{ "type": "Feature", "properties": { "Id": 0, "Sheet_ID": "アイリギンアエ島 概況", "label": "アイリギンアエ島 概況", "call_short": "G9460 SVAR .J3", "call_num": "G9460 SVAR .J3 1-6", "recid": "tj607fy7147", "websiteUrl": "https://purl.stanford.edu/tj607fy7147", "title": "十万分一圖マーシャル諸島", "ckey": 10550749, "available": true, "iiifUrl": "https://purl.stanford.edu/tj607fy7147/iiif/manifest" }, "geometry": { "type": "Polygon", "coordinates": [ [ [ 166.25, 11.0 ], [ 166.616667, 11.0 ], [ 166.616667, 11.266667 ], [ 166.25, 11.266667 ], [ 166.25, 11.0 ] ] ] } },
{ "type": "Feature", "properties": { "Id": 0, "Sheet_ID": "ウォット島 概況", "label": "ウォット島 概況", "call_short": "G9460 SVAR .J3", "call_num": "G9460 SVAR .J3 1-7", "recid": "mv630hb3199", "websiteUrl": "https://purl.stanford.edu/mv630hb3199", "title": "十万分一圖マーシャル諸島", "ckey": 10550749, "available": true, "iiifUrl": "https://purl.stanford.edu/mv630hb3199/iiif/manifest" }, "geometry": { "type": "Polygon", "coordinates": [ [ [ 165.841667, 10.0 ], [ 166.091667, 10.0 ], [ 166.091667, 10.208333 ], [ 165.841667, 10.208333 ], [ 165.841667, 10.0 ] ] ] } },
{ "type": "Feature", "properties": { "Id": 0, "Sheet_ID": "ウジャエ島 概況", "label": "ウジャエ島 概況", "call_short": "G9460 SVAR .J3", "call_num": "G9460 SVAR .J3 1-8", "recid": "jd552sx6966", "websiteUrl": "https://purl.stanford.edu/jd552sx6966", "title": "十万分一圖マーシャル諸島", "ckey": 10550749, "available": true, "iiifUrl": "https://purl.stanford.edu/jd552sx6966/iiif/manifest" }, "geometry": { "type": "Polygon", "coordinates": [ [ [ 165.483333, 8.866667 ], [ 165.833333, 8.866667 ], [ 165.833333, 9.333333 ], [ 165.483333, 9.333333 ], [ 165.483333, 8.866667 ] ] ] } },
{ "type": "Feature", "properties": { "Id": 0, "Sheet_ID": "ラエ島 概況", "label": "ラエ島 概況", "call_short": "G9460 SVAR .J3", "call_num": "G9460 SVAR .J3 1-9", "recid": "bs473kx3256", "websiteUrl": "https://purl.stanford.edu/bs473kx3256", "title": "十万分一圖マーシャル諸島", "ckey": 10550749, "available": true, "iiifUrl": "https://purl.stanford.edu/bs473kx3256/iiif/manifest" }, "geometry": { "type": "Polygon", "coordinates": [ [ [ 166.083333, 8.75 ], [ 166.383333, 8.75 ], [ 166.3833332, 9.083333 ], [ 166.083333, 9.083333 ], [ 166.083333, 8.75 ] ] ] } },
{ "type": "Feature", "properties": { "Id": 0, "Sheet_ID": "クェジェリン環島 概況", "label": "クェジェリン環島 概況", "call_short": "G9460 SVAR .J3", "call_num": "G9460 SVAR .J3 1-10", "recid": "dd268kw8129", "websiteUrl": "https://purl.stanford.edu/dd268kw8129", "title": "十万分一圖マーシャル諸島", "ckey": 10550749, "available": true, "iiifUrl": "https://purl.stanford.edu/dd268kw8129/iiif/manifest" }, "geometry": { "type": "Polygon", "coordinates": [ [ [ 166.75, 8.666667 ], [ 167.833333, 8.666667 ], [ 167.833333, 9.45 ], [ 166.75, 9.45 ], [ 166.75, 8.666667 ] ] ] } },
{ "type": "Feature", "properties": { "Id": 0, "Sheet_ID": "クエジェリン錨地及附近 (分圖 79)", "label": "クエジェリン錨地及附近 (分圖 79)", "call_short": "G9460 SVAR .J3", "call_num": "G9460 SVAR .J3 1-10A", "recid": "xp543qn4623", "websiteUrl": "https://purl.stanford.edu/xp543qn4623", "title": "十万分一圖マーシャル諸島", "ckey": 10550749, "available": true, "iiifUrl": "https://purl.stanford.edu/xp543qn4623/iiif/manifest" }, "geometry": { "type": "Polygon", "coordinates": [ [ [ 167.65, 8.683333 ], [ 167.8, 8.683333 ], [ 167.8, 8.816667 ], [ 167.65, 8.816667 ], [ 167.65, 8.683333 ] ] ] } },
{ "type": "Feature", "properties": { "Id": 0, "Sheet_ID": "ルオット島錨地及附近 (分圖 80)", "label": "ルオット島錨地及附近 (分圖 80)", "call_short": "G9460 SVAR .J3", "call_num": "G9460 SVAR .J3 1-10B", "recid": "kn292sk3914", "websiteUrl": "https://purl.stanford.edu/kn292sk3914", "title": "十万分一圖マーシャル諸島", "ckey": 10550749, "available": true, "iiifUrl": "https://purl.stanford.edu/kn292sk3914/iiif/manifest" }, "geometry": { "type": "Polygon", "coordinates": [ [ [ 167.4, 9.3 ], [ 167.566667, 9.3 ], [ 167.566667, 9.433333 ], [ 167.4, 9.433333 ], [ 167.4, 9.3 ] ] ] } },
{ "type": "Feature", "properties": { "Id": 0, "Sheet_ID": "エリップ島 概況", "label": "エリップ島 概況", "call_short": "G9460 SVAR .J3", "call_num": "G9460 SVAR .J3 1-11", "recid": "ky718sv1789", "websiteUrl": "https://purl.stanford.edu/ky718sv1789", "title": "十万分一圖マーシャル諸島", "ckey": 10550749, "available": true, "iiifUrl": "https://purl.stanford.edu/ky718sv1789/iiif/manifest" }, "geometry": { "type": "Polygon", "coordinates": [ [ [ 167.358333, 8.291667 ], [ 167.425, 8.291667 ], [ 167.425, 8.3375 ], [ 167.358333, 8.3375 ], [ 167.358333, 8.291667 ] ] ] } },
{ "type": "Feature", "properties": { "Id": 0, "Sheet_ID": "ナモ島", "label": "ナモ島", "call_short": "G9460 SVAR .J3", "call_num": "G9460 SVAR .J3 1-12", "recid": "yf709pf5593", "websiteUrl": "https://purl.stanford.edu/yf709pf5593", "title": "十万分一圖マーシャル諸島", "ckey": 10550749, "available": true, "iiifUrl": "https://purl.stanford.edu/yf709pf5593/iiif/manifest" }, "geometry": { "type": "Polygon", "coordinates": [ [ [ 167.95, 7.7 ], [ 168.341667, 7.7 ], [ 168.341667, 8.25 ], [ 167.95, 8.25 ], [ 167.95, 7.7 ] ] ] } },
{ "type": "Feature", "properties": { "Id": 0, "Sheet_ID": "アイリングラプラプ島 概況", "label": "アイリングラプラプ島 概況", "call_short": "G9460 SVAR .J3", "call_num": "G9460 SVAR .J3 1-14", "recid": "fj609jh4957", "websiteUrl": "https://purl.stanford.edu/fj609jh4957", "title": "十万分一圖マーシャル諸島", "ckey": 10550749, "available": true, "iiifUrl": "https://purl.stanford.edu/fj609jh4957/iiif/manifest" }, "geometry": { "type": "Polygon", "coordinates": [ [ [ 168.5, 7.166667 ], [ 169.0, 7.166667 ], [ 169.0, 7.833333 ], [ 168.5, 7.833333 ], [ 168.5, 7.166667 ] ] ] } },
{ "type": "Feature", "properties": { "Id": 0, "Sheet_ID": "ヤルート島 概況", "label": "ヤルート島 概況", "call_short": "G9460 SVAR .J3", "call_num": "G9460 SVAR .J3 1-15", "recid": "vf636tm4608", "websiteUrl": "https://purl.stanford.edu/vf636tm4608", "title": "十万分一圖マーシャル諸島", "ckey": 10550749, "available": true, "iiifUrl": "https://purl.stanford.edu/vf636tm4608/iiif/manifest" }, "geometry": { "type": "Polygon", "coordinates": [ [ [ 169.366667, 5.75 ], [ 169.833333, 5.75 ], [ 169.833333, 6.333333 ], [ 169.366667, 6.333333 ], [ 169.366667, 5.75 ] ] ] } },
{ "type": "Feature", "properties": { "Id": 0, "Sheet_ID": "キリー島", "label": "キリー島", "call_short": "G9460 SVAR .J3", "call_num": "G9460 SVAR .J3 1-16", "recid": "vh249wh3873", "websiteUrl": "https://purl.stanford.edu/vh249wh3873", "title": "十万分一圖マーシャル諸島", "ckey": 10550749, "available": true, "iiifUrl": "https://purl.stanford.edu/vh249wh3873/iiif/manifest" }, "geometry": { "type": "Polygon", "coordinates": [ [ [ 169.095833, 5.629167 ], [ 169.145833, 5.629167 ], [ 169.145833, 5.6625 ], [ 169.095833, 5.6625 ], [ 169.095833, 5.629167 ] ] ] } },
{ "type": "Feature", "properties": { "Id": 0, "Sheet_ID": "ナムリック島", "label": "ナムリック島", "call_short": "G9460 SVAR .J3", "call_num": "G9460 SVAR .J3 1-16", "recid": "vh249wh3873", "websiteUrl": "https://purl.stanford.edu/vh249wh3873", "title": "十万分一圖マーシャル諸島", "ckey": 10550749, "available": true, "iiifUrl": "https://purl.stanford.edu/vh249wh3873/iiif/manifest" }, "geometry": { "type": "Polygon", "coordinates": [ [ [ 168.066667, 5.566667 ], [ 168.15, 5.566667 ], [ 168.15, 5.666667 ], [ 168.066667, 5.666667 ], [ 168.066667, 5.566667 ] ] ] } },
{ "type": "Feature", "properties": { "Id": 0, "Sheet_ID": "エポン島", "label": "エポン島", "call_short": "G9460 SVAR .J3", "call_num": "G9460 SVAR .J3 1-19", "recid": "hp190xg7133", "websiteUrl": "https://purl.stanford.edu/hp190xg7133", "title": "十万分一圖マーシャル諸島", "ckey": 10550749, "available": true, "iiifUrl": "https://purl.stanford.edu/hp190xg7133/iiif/manifest" }, "geometry": { "type": "Polygon", "coordinates": [ [ [ 168.5, 4.466667 ], [ 168.916667, 4.466667 ], [ 168.916667, 4.783333 ], [ 168.5, 4.783333 ], [ 168.5, 4.466667 ] ] ] } },
{ "type": "Feature", "properties": { "Id": 0, "Sheet_ID": "ポカアック島 概況 / ピカール島 概況", "label": "ポカアック島 概況 / ピカール島 概況", "call_short": "G9460 SVAR .J3", "call_num": "G9460 SVAR .J3 2-1", "recid": "sg038xs2781", "websiteUrl": "https://purl.stanford.edu/sg038xs2781", "title": "十万分一圖マーシャル諸島", "ckey": 10550749, "available": true, "iiifUrl": "https://purl.stanford.edu/sg038xs2781/iiif/manifest" }, "geometry": { "type": "Polygon", "coordinates": [ [ [ 168.833333, 12.05 ], [ 170.208333, 12.05 ], [ 170.208333, 14.75 ], [ 168.833333, 14.75 ], [ 168.833333, 12.05 ] ] ] } },
{ "type": "Feature", "properties": { "Id": 0, "Sheet_ID": "ピカール島", "label": "ピカール島", "call_short": "G9460 SVAR .J3", "call_num": "G9460 SVAR .J3 2-3", "recid": "bn471rv1045", "websiteUrl": "https://purl.stanford.edu/bn471rv1045", "title": "十万分一圖マーシャル諸島", "ckey": 10550749, "available": true, "iiifUrl": "https://purl.stanford.edu/bn471rv1045/iiif/manifest" }, "geometry": { "type": "Polygon", "coordinates": [ [ [ 170.0, 12.05 ], [ 170.208333, 12.05 ], [ 170.208333, 12.333333 ], [ 170.0, 12.333333 ], [ 170.0, 12.05 ] ] ] } },
{ "type": "Feature", "properties": { "Id": 0, "Sheet_ID": "ポカアック島 概況", "label": "ポカアック島 概況", "call_short": "G9460 SVAR .J3", "call_num": "G9460 SVAR .J3 2-2", "recid": "by388qm2974", "websiteUrl": "https://purl.stanford.edu/by388qm2974", "title": "十万分一圖マーシャル諸島", "ckey": 10550749, "available": true, "iiifUrl": "https://purl.stanford.edu/by388qm2974/iiif/manifest" }, "geometry": { "type": "Polygon", "coordinates": [ [ [ 168.833333, 14.5 ], [ 169.083333, 14.5 ], [ 169.083333, 14.75 ], [ 168.833333, 14.75 ], [ 168.833333, 14.5 ] ] ] } },
{ "type": "Feature", "properties": { "Id": 0, "Sheet_ID": "ウートロック島及タケ島", "label": "ウートロック島及タケ島", "call_short": "G9460 SVAR .J3", "call_num": "G9460 SVAR .J3 2-4", "recid": "fk812mq7264", "websiteUrl": "https://purl.stanford.edu/fk812mq7264", "title": "十万分一圖マーシャル諸島", "ckey": 10550749, "available": true, "iiifUrl": "https://purl.stanford.edu/fk812mq7264/iiif/manifest" }, "geometry": { "type": "Polygon", "coordinates": [ [ [ 169.5, 11.05 ], [ 169.916667, 11.05 ], [ 169.916667, 11.366667 ], [ 169.5, 11.366667 ], [ 169.5, 11.05 ] ] ] } },
{ "type": "Feature", "properties": { "Id": 0, "Sheet_ID": "メヂチ島 概況", "label": "メヂチ島 概況", "call_short": "G9460 SVAR .J3", "call_num": "G9460 SVAR .J3 2-5", "recid": "kz403kt0769", "websiteUrl": "https://purl.stanford.edu/kz403kt0769", "title": "十万分一圖マーシャル諸島", "ckey": 10550749, "available": true, "iiifUrl": "https://purl.stanford.edu/kz403kt0769/iiif/manifest" }, "geometry": { "type": "Polygon", "coordinates": [ [ [ 170.833333, 10.2 ], [ 170.958333, 10.2 ], [ 170.958333, 10.325 ], [ 170.833333, 10.325 ], [ 170.833333, 10.2 ] ] ] } },
{ "type": "Feature", "properties": { "Id": 0, "Sheet_ID": "アイルック島及チェモ島 概況", "label": "アイルック島及チェモ島 概況", "call_short": "G9460 SVAR .J3", "call_num": "G9460 SVAR .J3 2-6 ED.2", "recid": "zr052yp2988", "websiteUrl": "https://purl.stanford.edu/zr052yp2988", "title": "十万分一圖マーシャル諸島", "ckey": 10550749, "available": true, "iiifUrl": "https://purl.stanford.edu/zr052yp2988/iiif/manifest" }, "geometry": { "type": "Polygon", "coordinates": [ [ [ 169.5, 10.05 ], [ 170.083333, 10.05 ], [ 170.083333, 10.541667 ], [ 169.5, 10.541667 ], [ 169.5, 10.05 ] ] ] } },
{ "type": "Feature", "properties": { "Id": 0, "Sheet_ID": "リキエップ島", "label": "リキエップ島", "call_short": "G9460 SVAR .J3", "call_num": "G9460 SVAR .J3 2-8", "recid": "jc713ry5887", "websiteUrl": "https://purl.stanford.edu/jc713ry5887", "title": "十万分一圖マーシャル諸島", "ckey": 10550749, "available": true, "iiifUrl": "https://purl.stanford.edu/jc713ry5887/iiif/manifest" }, "geometry": { "type": "Polygon", "coordinates": [ [ [ 168.958333, 9.75 ], [ 169.375, 9.75 ], [ 169.375, 10.066667 ], [ 168.958333, 10.066667 ], [ 168.958333, 9.75 ] ] ] } },
{ "type": "Feature", "properties": { "Id": 0, "Sheet_ID": "ウォッチェ環島及エルクップ環島 概況", "label": "ウォッチェ環島及エルクップ環島 概況", "call_short": "G9460 SVAR .J3", "call_num": "G9460 SVAR .J3 2-9", "recid": "dv862hd1144", "websiteUrl": "https://purl.stanford.edu/dv862hd1144", "title": "十万分一圖マーシャル諸島", "ckey": 10550749, "available": true, "iiifUrl": "https://purl.stanford.edu/dv862hd1144/iiif/manifest" }, "geometry": { "type": "Polygon", "coordinates": [ [ [ 169.783333, 8.966667 ], [ 170.283333, 8.966667 ], [ 170.283333, 9.666667 ], [ 169.783333, 9.666667 ], [ 169.783333, 8.966667 ] ] ] } },
{ "type": "Feature", "properties": { "Id": 0, "Sheet_ID": "ウォッチェ島東部 (分圖 97)", "label": "ウォッチェ島東部 (分圖 97)", "call_short": "G9460 SVAR .J3", "call_num": "G9460 SVAR .J3 2-9A", "recid": "yp677ys1112", "websiteUrl": "https://purl.stanford.edu/yp677ys1112", "title": "十万分一圖マーシャル諸島", "ckey": 10550749, "available": true, "iiifUrl": "https://purl.stanford.edu/yp677ys1112/iiif/manifest" }, "geometry": { "type": "Polygon", "coordinates": [ [ [ 170.133333, 9.383333 ], [ 170.283333, 9.383333 ], [ 170.283333, 9.533333 ], [ 170.133333, 9.533333 ], [ 170.133333, 9.383333 ] ] ] } },
{ "type": "Feature", "properties": { "Id": 0, "Sheet_ID": "マロエラップ島及アウル島 概況", "label": "マロエラップ島及アウル島 概況", "call_short": "G9460 SVAR .J3", "call_num": "G9460 SVAR .J3 2-10", "recid": "rz816tq4817", "websiteUrl": "https://purl.stanford.edu/rz816tq4817", "title": "十万分一圖マーシャル諸島", "ckey": 10550749, "available": true, "iiifUrl": "https://purl.stanford.edu/rz816tq4817/iiif/manifest" }, "geometry": { "type": "Polygon", "coordinates": [ [ [ 170.75, 8.083333 ], [ 171.333333, 8.083333 ], [ 171.333333, 8.933333 ], [ 170.75, 8.933333 ], [ 170.75, 8.083333 ] ] ] } },
{ "type": "Feature", "properties": { "Id": 0, "Sheet_ID": "タロア島 (分圖)", "label": "タロア島 (分圖)", "call_short": "G9460 SVAR .J3", "call_num": "G9460 SVAR .J3 2-10A", "recid": "cb615js2036", "websiteUrl": "https://purl.stanford.edu/cb615js2036", "title": "十万分一圖マーシャル諸島", "ckey": 10550749, "available": true, "iiifUrl": "https://purl.stanford.edu/cb615js2036/iiif/manifest" }, "geometry": { "type": "Polygon", "coordinates": [ [ [ 171.083333, 8.566667 ], [ 171.25, 8.566667 ], [ 171.25, 8.755556 ], [ 171.083333, 8.755556 ], [ 171.083333, 8.566667 ] ] ] } },
{ "type": "Feature", "properties": { "Id": 0, "Sheet_ID": "カベン島 (分圖)", "label": "カベン島 (分圖)", "call_short": "G9460 SVAR .J3", "call_num": "G9460 SVAR .J3 2-10A", "recid": "cb615js2036", "websiteUrl": "https://purl.stanford.edu/cb615js2036", "title": "十万分一圖マーシャル諸島", "ckey": 10550749, "available": true, "iiifUrl": "https://purl.stanford.edu/cb615js2036/iiif/manifest" }, "geometry": { "type": "Polygon", "coordinates": [ [ [ 170.816667, 8.85 ], [ 170.916667, 8.85 ], [ 170.916667, 8.916667 ], [ 170.816667, 8.916667 ], [ 170.816667, 8.85 ] ] ] } },
{ "type": "Feature", "properties": { "Id": 0, "Sheet_ID": "メジュロ島", "label": "メジュロ島", "call_short": "G9460 SVAR .J3", "call_num": "G9460 SVAR .J3 2-12", "recid": "ry106wk0517", "websiteUrl": "https://purl.stanford.edu/ry106wk0517", "title": "十万分一圖マーシャル諸島", "ckey": 10550749, "available": true, "iiifUrl": "https://purl.stanford.edu/ry106wk0517/iiif/manifest" }, "geometry": { "type": "Polygon", "coordinates": [ [ [ 171.0, 7.0 ], [ 171.416667, 7.0 ], [ 171.416667, 7.283333 ], [ 171.0, 7.283333 ], [ 171.0, 7.0 ] ] ] } },
{ "type": "Feature", "properties": { "Id": 0, "Sheet_ID": "アルノ島", "label": "アルノ島", "call_short": "G9460 SVAR .J3", "call_num": "G9460 SVAR .J3 2-13", "recid": "dx850gm6227", "websiteUrl": "https://purl.stanford.edu/dx850gm6227", "title": "十万分一圖マーシャル諸島", "ckey": 10550749, "available": true, "iiifUrl": "https://purl.stanford.edu/dx850gm6227/iiif/manifest" }, "geometry": { "type": "Polygon", "coordinates": [ [ [ 171.5, 6.916667 ], [ 171.958333, 6.916667 ], [ 171.958333, 7.333333 ], [ 171.5, 7.333333 ], [ 171.5, 6.916667 ] ] ] } },
{ "type": "Feature", "properties": { "Id": 0, "Sheet_ID": "ミレ島", "label": "ミレ島", "call_short": null, "call_num": null, "recid": null, "websiteUrl": null, "title": null, "ckey": 0, "available": false, "iiifUrl": null }, "geometry": { "type": "Polygon", "coordinates": [ [ [ 171.7, 5.95 ], [ 172.15, 5.95 ], [ 172.15, 6.283333 ], [ 171.7, 6.283333 ], [ 171.7, 5.95 ] ] ] } },
{ "type": "Feature", "properties": { "Id": 0, "Sheet_ID": "ミレ島北西部及諸水道 (分圖)", "label": "ミレ島北西部及諸水道 (分圖)", "call_short": "G9460 SVAR .J3", "call_num": "G9460 SVAR .J3 2-14A", "recid": "pk485db0819", "websiteUrl": "https://purl.stanford.edu/pk485db0819", "title": "十万分一圖マーシャル諸島", "ckey": 10550749, "available": true, "iiifUrl": "https://purl.stanford.edu/pk485db0819/iiif/manifest" }, "geometry": { "type": "Polygon", "coordinates": [ [ [ 171.7, 6.05 ], [ 171.833333, 6.05 ], [ 171.833333, 6.166667 ], [ 171.7, 6.166667 ], [ 171.7, 6.05 ] ] ] } },
{ "type": "Feature", "properties": { "Id": 0, "Sheet_ID": "ナーリキリック島", "label": "ナーリキリック島", "call_short": null, "call_num": null, "recid": null, "websiteUrl": null, "title": null, "ckey": 0, "available": false, "iiifUrl": null }, "geometry": { "type": "Polygon", "coordinates": [ [ [ 172.125, 5.866667 ], [ 172.175, 5.866667 ], [ 172.175, 5.95 ], [ 172.125, 5.95 ], [ 172.125, 5.866667 ] ] ] } },
{ "type": "Feature", "properties": { "Id": 0, "Sheet_ID": "ウジラン島 概況", "label": "ウジラン島 概況", "call_short": "G9460 SVAR .J3", "call_num": "G9460 SVAR .J3 1-2 ED.2", "recid": "sq504rz9508", "websiteUrl": "https://purl.stanford.edu/sq504rz9508", "title": "十万分一圖マーシャル諸島", "ckey": 10550749, "available": true, "iiifUrl": "https://purl.stanford.edu/sq504rz9508/iiif/manifest" }, "geometry": { "type": "Polygon", "coordinates": [ [ [ 160.666667, 9.633333 ], [ 161.133333, 9.633333 ], [ 161.133333, 10.0 ], [ 160.666667, 10.0 ], [ 160.666667, 9.633333 ] ] ] } },
{ "type": "Feature", "properties": { "Id": 0, "Sheet_ID": "ピキンニ島 概況", "label": "ピキンニ島 概況", "call_short": "G9460 SVAR .J3", "call_num": "G9460 SVAR .J3 1-3 ED.2", "recid": "fv421yj7090", "websiteUrl": "https://purl.stanford.edu/fv421yj7090", "title": "十万分一圖マーシャル諸島", "ckey": 10550749, "available": true, "iiifUrl": "https://purl.stanford.edu/fv421yj7090/iiif/manifest" }, "geometry": { "type": "Polygon", "coordinates": [ [ [ 165.133333, 11.416667 ], [ 165.583333, 11.416667 ], [ 165.583333, 11.75 ], [ 165.133333, 11.75 ], [ 165.133333, 11.416667 ] ] ] } },
{ "type": "Feature", "properties": { "Id": 0, "Sheet_ID": "ロンギリック島 概況", "label": "ロンギリック島 概況", "call_short": "G9460 SVAR .J3", "call_num": "G9460 SVAR .J3 1-4 ED.2", "recid": "pn556yh4096", "websiteUrl": "https://purl.stanford.edu/pn556yh4096", "title": "十万分一圖マーシャル諸島", "ckey": 10550749, "available": true, "iiifUrl": "https://purl.stanford.edu/pn556yh4096/iiif/manifest" }, "geometry": { "type": "Polygon", "coordinates": [ [ [ 167.216667, 11.166667 ], [ 167.666667, 11.166667 ], [ 167.666667, 11.5 ], [ 167.216667, 11.5 ], [ 167.216667, 11.166667 ] ] ] } },
{ "type": "Feature", "properties": { "Id": 0, "Sheet_ID": "ナモ島 概況", "label": "ナモ島 概況", "call_short": "G9460 SVAR .J3", "call_num": "G9460 SVAR .J3 1-12 ED.2", "recid": "nb711gj8981", "websiteUrl": "https://purl.stanford.edu/nb711gj8981", "title": "十万分一圖マーシャル諸島", "ckey": 10550749, "available": true, "iiifUrl": "https://purl.stanford.edu/nb711gj8981/iiif/manifest" }, "geometry": { "type": "Polygon", "coordinates": [ [ [ 167.95, 7.7 ], [ 168.341667, 7.7 ], [ 168.341667, 8.25 ], [ 167.95, 8.25 ], [ 167.95, 7.7 ] ] ] } },
{ "type": "Feature", "properties": { "Id": 0, "Sheet_ID": "キリー島 概況", "label": "キリー島 概況", "call_short": "G9460 SVAR .J3", "call_num": "G9460 SVAR .J3 1-17", "recid": "sn077gn1505", "websiteUrl": "https://purl.stanford.edu/sn077gn1505", "title": "十万分一圖マーシャル諸島", "ckey": 10550749, "available": true, "iiifUrl": "https://purl.stanford.edu/sn077gn1505/iiif/manifest" }, "geometry": { "type": "Polygon", "coordinates": [ [ [ 169.095833, 5.629167 ], [ 169.145833, 5.629167 ], [ 169.145833, 5.6625 ], [ 169.095833, 5.6625 ], [ 169.095833, 5.629167 ] ] ] } },
{ "type": "Feature", "properties": { "Id": 0, "Sheet_ID": "ナムリック島 概況", "label": "ナムリック島 概況", "call_short": "G9460 SVAR .J3", "call_num": "G9460 SVAR .J3 1-18", "recid": "dj496xh6845", "websiteUrl": "https://purl.stanford.edu/dj496xh6845", "title": "十万分一圖マーシャル諸島", "ckey": 10550749, "available": true, "iiifUrl": "https://purl.stanford.edu/dj496xh6845/iiif/manifest" }, "geometry": { "type": "Polygon", "coordinates": [ [ [ 168.066667, 5.566667 ], [ 168.15, 5.566667 ], [ 168.15, 5.666667 ], [ 168.066667, 5.666667 ], [ 168.066667, 5.566667 ] ] ] } },
{ "type": "Feature", "properties": { "Id": 0, "Sheet_ID": "エポン島 概況", "label": "エポン島 概況", "call_short": "G9460 SVAR .J3", "call_num": "G9460 SVAR .J3 1-19 ED.2", "recid": "nz987nx0986", "websiteUrl": "https://purl.stanford.edu/nz987nx0986", "title": "十万分一圖マーシャル諸島", "ckey": 10550749, "available": true, "iiifUrl": "https://purl.stanford.edu/nz987nx0986/iiif/manifest" }, "geometry": { "type": "Polygon", "coordinates": [ [ [ 168.5, 4.466667 ], [ 168.916667, 4.466667 ], [ 168.916667, 4.783333 ], [ 168.5, 4.783333 ], [ 168.5, 4.466667 ] ] ] } },
{ "type": "Feature", "properties": { "Id": 0, "Sheet_ID": "ウートロック島及タケ島 概況", "label": "ウートロック島及タケ島 概況", "call_short": "G9460 SVAR .J3", "call_num": "G9460 SVAR .J3 2-4 ED.2", "recid": "ww693zz3136", "websiteUrl": "https://purl.stanford.edu/ww693zz3136", "title": "十万分一圖マーシャル諸島", "ckey": 10550749, "available": true, "iiifUrl": "https://purl.stanford.edu/ww693zz3136/iiif/manifest" }, "geometry": { "type": "Polygon", "coordinates": [ [ [ 169.5, 11.05 ], [ 169.916667, 11.05 ], [ 169.916667, 11.366667 ], [ 169.5, 11.366667 ], [ 169.5, 11.05 ] ] ] } },
{ "type": "Feature", "properties": { "Id": 0, "Sheet_ID": "アイルック島", "label": "アイルック島", "call_short": "G9460 SVAR .J3", "call_num": "G9460 SVAR .J3 2-6", "recid": "xk103fd7409", "websiteUrl": "https://purl.stanford.edu/xk103fd7409", "title": "十万分一圖マーシャル諸島", "ckey": 10550749, "available": true, "iiifUrl": "https://purl.stanford.edu/xk103fd7409/iiif/manifest" }, "geometry": { "type": "Polygon", "coordinates": [ [ [ 169.766667, 10.125 ], [ 170.083333, 10.125 ], [ 170.083333, 10.541667 ], [ 169.766667, 10.541667 ], [ 169.766667, 10.125 ] ] ] } },
{ "type": "Feature", "properties": { "Id": 0, "Sheet_ID": "リキエップ島 概況", "label": "リキエップ島 概況", "call_short": "G9460 SVAR .J3", "call_num": "G9460 SVAR .J3 2-8 ED.2", "recid": "vx863nq2376", "websiteUrl": "https://purl.stanford.edu/vx863nq2376", "title": "十万分一圖マーシャル諸島", "ckey": 10550749, "available": true, "iiifUrl": "https://purl.stanford.edu/vx863nq2376/iiif/manifest" }, "geometry": { "type": "Polygon", "coordinates": [ [ [ 168.958333, 9.75 ], [ 169.375, 9.75 ], [ 169.375, 10.066667 ], [ 168.958333, 10.066667 ], [ 168.958333, 9.75 ] ] ] } },
{ "type": "Feature", "properties": { "Id": 0, "Sheet_ID": "アルノ島 概況", "label": "アルノ島 概況", "call_short": "G9460 SVAR .J3", "call_num": "G9460 SVAR .J3 2-13 ED.2", "recid": "zg938sw6985", "websiteUrl": "https://purl.stanford.edu/zg938sw6985", "title": "十万分一圖マーシャル諸島", "ckey": 10550749, "available": true, "iiifUrl": "https://purl.stanford.edu/zg938sw6985/iiif/manifest" }, "geometry": { "type": "Polygon", "coordinates": [ [ [ 171.5, 6.916667 ], [ 171.958333, 6.916667 ], [ 171.958333, 7.333333 ], [ 171.5, 7.333333 ], [ 171.5, 6.916667 ] ] ] } }
]
}
