{
"type": "FeatureCollection",
"name": "index_map",
"xy_coordinate_resolution": 1e-07,
"features": [
{ "type": "Feature", "properties": { "Id": 0, "Sheet_ID": "21. 金剛橋", "label": "21. 金剛橋", "call_short": "0", "call_num": "0", "recid": "0", "websiteUrl": "0", "title": "0", "ckey": 0, "available": false, "iiifUrl": "0" }, "geometry": { "type": "Polygon", "coordinates": [ [ [ 116.783333, 29.1416667 ], [ 117.008333, 29.1416667 ], [ 117.008333, 29.3083334 ], [ 116.783333, 29.3083334 ], [ 116.783333, 29.1416667 ] ] ] } },
{ "type": "Feature", "properties": { "Id": 0, "Sheet_ID": "14. 景徳鎮", "label": "14. 景徳鎮", "call_short": "0", "call_num": "0", "recid": "0", "websiteUrl": "0", "title": "0", "ckey": 0, "available": false, "iiifUrl": "0" }, "geometry": { "type": "Polygon", "coordinates": [ [ [ 117.008333, 29.1416667 ], [ 117.233333, 29.1416667 ], [ 117.233333, 29.3083334 ], [ 117.008333, 29.3083334 ], [ 117.008333, 29.1416667 ] ] ] } },
{ "type": "Feature", "properties": { "Id": 0, "Sheet_ID": "7. 湘湖街", "label": "7. 湘湖街", "call_short": "G7824 .J525 S50 .J3", "call_num": "G7824 .J525 S50 .J3 SHEET 7", "recid": "rg437yt2480", "websiteUrl": "https://purl.stanford.edu/rg437yt2480", "title": "中支那五万分一安徽江西省境東流景德鎮地方", "ckey": 13899454, "available": true, "iiifUrl": "https://purl.stanford.edu/rg437yt2480/iiif/manifest" }, "geometry": { "type": "Polygon", "coordinates": [ [ [ 117.233333, 29.1416667 ], [ 117.458333, 29.1416667 ], [ 117.458333, 29.3083334 ], [ 117.233333, 29.3083334 ], [ 117.233333, 29.1416667 ] ] ] } },
{ "type": "Feature", "properties": { "Id": 0, "Sheet_ID": "20. 小源", "label": "20. 小源", "call_short": "0", "call_num": "0", "recid": "0", "websiteUrl": "0", "title": "0", "ckey": 0, "available": false, "iiifUrl": "0" }, "geometry": { "type": "Polygon", "coordinates": [ [ [ 116.783333, 29.3083334 ], [ 117.008333, 29.3083334 ], [ 117.008333, 29.4750001 ], [ 116.783333, 29.4750001 ], [ 116.783333, 29.3083334 ] ] ] } },
{ "type": "Feature", "properties": { "Id": 0, "Sheet_ID": "13. 南坑橋", "label": "13. 南坑橋", "call_short": "G7824 .J525 S50 .J3", "call_num": "G7824 .J525 S50 .J3 SHEET 13", "recid": "yn994cr8391", "websiteUrl": "https://purl.stanford.edu/yn994cr8391", "title": "中支那五万分一安徽江西省境東流景德鎮地方", "ckey": 13899454, "available": true, "iiifUrl": "https://purl.stanford.edu/yn994cr8391/iiif/manifest" }, "geometry": { "type": "Polygon", "coordinates": [ [ [ 117.008333, 29.3083334 ], [ 117.233333, 29.3083334 ], [ 117.233333, 29.4750001 ], [ 117.008333, 29.4750001 ], [ 117.008333, 29.3083334 ] ] ] } },
{ "type": "Feature", "properties": { "Id": 0, "Sheet_ID": "6. 小兎港", "label": "6. 小兎港", "call_short": "0", "call_num": "0", "recid": "0", "websiteUrl": "0", "title": "0", "ckey": 0, "available": false, "iiifUrl": "0" }, "geometry": { "type": "Polygon", "coordinates": [ [ [ 117.233333, 29.3083334 ], [ 117.458333, 29.3083334 ], [ 117.458333, 29.4750001 ], [ 117.233333, 29.4750001 ], [ 117.233333, 29.3083334 ] ] ] } },
{ "type": "Feature", "properties": { "Id": 0, "Sheet_ID": "19. 黄泥埧", "label": "19. 黄泥埧", "call_short": "G7824 .J525 S50 .J3", "call_num": "G7824 .J525 S50 .J3 SHEET 19", "recid": "mh805ms7747", "websiteUrl": "https://purl.stanford.edu/mh805ms7747", "title": "中支那五万分一安徽江西省境東流景德鎮地方", "ckey": 13899454, "available": true, "iiifUrl": "https://purl.stanford.edu/mh805ms7747/iiif/manifest" }, "geometry": { "type": "Polygon", "coordinates": [ [ [ 116.783333, 29.4750001 ], [ 117.008333, 29.4750001 ], [ 117.008333, 29.6416668 ], [ 116.783333, 29.6416668 ], [ 116.783333, 29.4750001 ] ] ] } },
{ "type": "Feature", "properties": { "Id": 0, "Sheet_ID": "12. 朗渓", "label": "12. 朗渓", "call_short": "G7824 .J525 S50 .J3", "call_num": "G7824 .J525 S50 .J3 SHEET 12", "recid": "gk705qd6906", "websiteUrl": "https://purl.stanford.edu/gk705qd6906", "title": "中支那五万分一安徽江西省境東流景德鎮地方", "ckey": 13899454, "available": true, "iiifUrl": "https://purl.stanford.edu/gk705qd6906/iiif/manifest" }, "geometry": { "type": "Polygon", "coordinates": [ [ [ 117.008333, 29.4750001 ], [ 117.233333, 29.4750001 ], [ 117.233333, 29.6416668 ], [ 117.008333, 29.6416668 ], [ 117.008333, 29.4750001 ] ] ] } },
{ "type": "Feature", "properties": { "Id": 0, "Sheet_ID": "5. 流口", "label": "5. 流口", "call_short": "G7824 .J525 S50 .J3", "call_num": "G7824 .J525 S50 .J3 SHEET 5", "recid": "rx194rd7682", "websiteUrl": "https://purl.stanford.edu/rx194rd7682", "title": "中支那五万分一安徽江西省境東流景德鎮地方", "ckey": 13899454, "available": true, "iiifUrl": "https://purl.stanford.edu/rx194rd7682/iiif/manifest" }, "geometry": { "type": "Polygon", "coordinates": [ [ [ 117.233333, 29.4750001 ], [ 117.458333, 29.4750001 ], [ 117.458333, 29.6416668 ], [ 117.233333, 29.6416668 ], [ 117.233333, 29.4750001 ] ] ] } },
{ "type": "Feature", "properties": { "Id": 0, "Sheet_ID": "18. 黎痕", "label": "18. 黎痕", "call_short": "0", "call_num": "0", "recid": "0", "websiteUrl": "0", "title": "0", "ckey": 0, "available": false, "iiifUrl": "0" }, "geometry": { "type": "Polygon", "coordinates": [ [ [ 116.783333, 29.6416668 ], [ 117.008333, 29.6416668 ], [ 117.008333, 29.8083335 ], [ 116.783333, 29.8083335 ], [ 116.783333, 29.6416668 ] ] ] } },
{ "type": "Feature", "properties": { "Id": 0, "Sheet_ID": "11. 大湖村", "label": "11. 大湖村", "call_short": "0", "call_num": "0", "recid": "0", "websiteUrl": "0", "title": "0", "ckey": 0, "available": false, "iiifUrl": "0" }, "geometry": { "type": "Polygon", "coordinates": [ [ [ 117.008333, 29.6416668 ], [ 117.233333, 29.6416668 ], [ 117.233333, 29.8083335 ], [ 117.008333, 29.8083335 ], [ 117.008333, 29.6416668 ] ] ] } },
{ "type": "Feature", "properties": { "Id": 0, "Sheet_ID": "4. 大江村", "label": "4. 大江村", "call_short": "0", "call_num": "0", "recid": "0", "websiteUrl": "0", "title": "0", "ckey": 0, "available": false, "iiifUrl": "0" }, "geometry": { "type": "Polygon", "coordinates": [ [ [ 117.233333, 29.6416668 ], [ 117.458333, 29.6416668 ], [ 117.458333, 29.8083335 ], [ 117.233333, 29.8083335 ], [ 117.233333, 29.6416668 ] ] ] } },
{ "type": "Feature", "properties": { "Id": 0, "Sheet_ID": "17. 花園檀", "label": "17. 花園檀", "call_short": "0", "call_num": "0", "recid": "0", "websiteUrl": "0", "title": "0", "ckey": 0, "available": false, "iiifUrl": "0" }, "geometry": { "type": "Polygon", "coordinates": [ [ [ 116.783333, 29.8083335 ], [ 117.008333, 29.8083335 ], [ 117.008333, 29.9750002 ], [ 116.783333, 29.9750002 ], [ 116.783333, 29.8083335 ] ] ] } },
{ "type": "Feature", "properties": { "Id": 0, "Sheet_ID": "10. 磻村", "label": "10. 磻村", "call_short": "0", "call_num": "0", "recid": "0", "websiteUrl": "0", "title": "0", "ckey": 0, "available": false, "iiifUrl": "0" }, "geometry": { "type": "Polygon", "coordinates": [ [ [ 117.008333, 29.8083335 ], [ 117.233333, 29.8083335 ], [ 117.233333, 29.9750002 ], [ 117.008333, 29.9750002 ], [ 117.008333, 29.8083335 ] ] ] } },
{ "type": "Feature", "properties": { "Id": 0, "Sheet_ID": "3. n/a", "label": "3. n/a", "call_short": "0", "call_num": "0", "recid": "0", "websiteUrl": "0", "title": "0", "ckey": 0, "available": false, "iiifUrl": "0" }, "geometry": { "type": "Polygon", "coordinates": [ [ [ 117.233333, 29.8083335 ], [ 117.458333, 29.8083335 ], [ 117.458333, 29.9750002 ], [ 117.233333, 29.9750002 ], [ 117.233333, 29.8083335 ] ] ] } },
{ "type": "Feature", "properties": { "Id": 0, "Sheet_ID": "23. 望江縣", "label": "23. 望江縣", "call_short": "G7824 .J525 S50 .J3", "call_num": "G7824 .J525 S50 .J3 SHEET 23", "recid": "ww373dr7880", "websiteUrl": "https://purl.stanford.edu/ww373dr7880", "title": "中支那五万分一安徽江西省境東流景德鎮地方", "ckey": 13899454, "available": true, "iiifUrl": "https://purl.stanford.edu/ww373dr7880/iiif/manifest" }, "geometry": { "type": "Polygon", "coordinates": [ [ [ 116.558333, 29.9750002 ], [ 116.783333, 29.9750002 ], [ 116.783333, 30.141667 ], [ 116.558333, 30.141667 ], [ 116.558333, 29.9750002 ] ] ] } },
{ "type": "Feature", "properties": { "Id": 0, "Sheet_ID": "16. 下隅畈", "label": "16. 下隅畈", "call_short": "G7824 .J525 S50 .J3", "call_num": "G7824 .J525 S50 .J3 SHEET 16", "recid": "fj460dz2749", "websiteUrl": "https://purl.stanford.edu/fj460dz2749", "title": "中支那五万分一安徽江西省境東流景德鎮地方", "ckey": 13899454, "available": true, "iiifUrl": "https://purl.stanford.edu/fj460dz2749/iiif/manifest" }, "geometry": { "type": "Polygon", "coordinates": [ [ [ 116.783333, 29.9750002 ], [ 117.008333, 29.9750002 ], [ 117.008333, 30.141667 ], [ 116.783333, 30.141667 ], [ 116.783333, 29.9750002 ] ] ] } },
{ "type": "Feature", "properties": { "Id": 0, "Sheet_ID": "9. 秋浦縣", "label": "9. 秋浦縣", "call_short": "0", "call_num": "0", "recid": "0", "websiteUrl": "0", "title": "0", "ckey": 0, "available": false, "iiifUrl": "0" }, "geometry": { "type": "Polygon", "coordinates": [ [ [ 117.008333, 29.9750002 ], [ 117.233333, 29.9750002 ], [ 117.233333, 30.141667 ], [ 117.008333, 30.141667 ], [ 117.008333, 29.9750002 ] ] ] } },
{ "type": "Feature", "properties": { "Id": 0, "Sheet_ID": "2. n/a", "label": "2. n/a", "call_short": "0", "call_num": "0", "recid": "0", "websiteUrl": "0", "title": "0", "ckey": 0, "available": false, "iiifUrl": "0" }, "geometry": { "type": "Polygon", "coordinates": [ [ [ 117.233333, 29.9750002 ], [ 117.458333, 29.9750002 ], [ 117.458333, 30.141667 ], [ 117.233333, 30.141667 ], [ 117.233333, 29.9750002 ] ] ] } },
{ "type": "Feature", "properties": { "Id": 0, "Sheet_ID": "22. 涼泉鎮", "label": "22. 涼泉鎮", "call_short": "G7824 .J525 S50 .J3", "call_num": "G7824 .J525 S50 .J3 SHEET 22", "recid": "vy831qw1726", "websiteUrl": "https://purl.stanford.edu/vy831qw1726", "title": "中支那五万分一安徽江西省境東流景德鎮地方", "ckey": 13899454, "available": true, "iiifUrl": "https://purl.stanford.edu/vy831qw1726/iiif/manifest" }, "geometry": { "type": "Polygon", "coordinates": [ [ [ 116.558333, 30.141667 ], [ 116.783333, 30.141667 ], [ 116.783333, 30.3083337 ], [ 116.558333, 30.3083337 ], [ 116.558333, 30.141667 ] ] ] } },
{ "type": "Feature", "properties": { "Id": 0, "Sheet_ID": "15. 東流", "label": "15. 東流", "call_short": "G7824 .J525 S50 .J3", "call_num": "G7824 .J525 S50 .J3 SHEET 15", "recid": "mz173pr3375", "websiteUrl": "https://purl.stanford.edu/mz173pr3375", "title": "中支那五万分一安徽江西省境東流景德鎮地方", "ckey": 13899454, "available": true, "iiifUrl": "https://purl.stanford.edu/mz173pr3375/iiif/manifest" }, "geometry": { "type": "Polygon", "coordinates": [ [ [ 116.783333, 30.141667 ], [ 117.008333, 30.141667 ], [ 117.008333, 30.3083337 ], [ 116.783333, 30.3083337 ], [ 116.783333, 30.141667 ] ] ] } },
{ "type": "Feature", "properties": { "Id": 0, "Sheet_ID": "8. 張渓鎮", "label": "8. 張渓鎮", "call_short": "0", "call_num": "0", "recid": "0", "websiteUrl": "0", "title": "0", "ckey": 0, "available": false, "iiifUrl": "0" }, "geometry": { "type": "Polygon", "coordinates": [ [ [ 117.008333, 30.141667 ], [ 117.233333, 30.141667 ], [ 117.233333, 30.3083337 ], [ 117.008333, 30.3083337 ], [ 117.008333, 30.141667 ] ] ] } },
{ "type": "Feature", "properties": { "Id": 0, "Sheet_ID": "1. n/a", "label": "1. n/a", "call_short": "0", "call_num": "0", "recid": "0", "websiteUrl": "0", "title": "0", "ckey": 0, "available": false, "iiifUrl": "0" }, "geometry": { "type": "Polygon", "coordinates": [ [ [ 117.233333, 30.141667 ], [ 117.458333, 30.141667 ], [ 117.458333, 30.3083337 ], [ 117.233333, 30.3083337 ], [ 117.233333, 30.141667 ] ] ] } }
]
}
