{"type":"FeatureCollection","features":[{"type":"Feature","properties":{"Id":0,"Sheet_ID":"幌筵島 -1","label":"幌筵島 -1","call_short":"G7340 S50 .J3","call_num":"G7340 S50 .J3 SHEET 1-1","recid":"hc182yn7914","websiteUrl":"https://purl.stanford.edu/hc182yn7914","title":"五万分一千島列島陸海編合圖","ckey":10429478,"web_map":"","available":"true","iiifUrl":"https://purl.stanford.edu/hc182yn7914/iiif/manifest"},"geometry":{"bbox":[156.07500000000016,50.43333300000006,156.57500000000005,50.89166700000004],"type":"Polygon","coordinates":[[[156.07500000000016,50.43333300000006],[156.07500000000016,50.89166700000004],[156.57500000000005,50.89166700000004],[156.57500000000005,50.43333300000006],[156.07500000000016,50.43333300000006]]]}},{"type":"Feature","properties":{"Id":0,"Sheet_ID":"幌筵島 -3","label":"幌筵島 -3","call_short":"","call_num":"","recid":"","websiteUrl":"","title":"","ckey":0,"web_map":"","available":"false","iiifUrl":""},"geometry":{"bbox":[155.41666699999996,50.43333300000006,156.07500000000016,50.93333300000012],"type":"Polygon","coordinates":[[[156.07500000000016,50.43333300000006],[155.41666699999996,50.43333300000006],[155.41666699999996,50.93333300000012],[156.07500000000016,50.93333300000012],[156.07500000000016,50.43333300000006]]]}},{"type":"Feature","properties":{"Id":0,"Sheet_ID":"幌筵島 -2","label":"幌筵島 -2","call_short":"G7340 S50 .J3","call_num":"G7340 S50 .J3 SHEET 1-2","recid":"hb041xc2159","websiteUrl":"https://purl.stanford.edu/hb041xc2159","title":"五万分一千島列島陸海編合圖","ckey":10429478,"web_map":"","available":"true","iiifUrl":"https://purl.stanford.edu/hb041xc2159/iiif/manifest"},"geometry":{"bbox":[155.83333300000004,50.066666999999995,156.22500000000014,50.43333300000006],"type":"Polygon","coordinates":[[[155.83333300000004,50.43333300000006],[156.22500000000014,50.43333300000006],[156.22500000000014,50.066666999999995],[155.83333300000004,50.066666999999995],[155.83333300000004,50.43333300000006]]]}},{"type":"Feature","properties":{"Id":0,"Sheet_ID":"幌筵島 -4","label":"幌筵島 -4","call_short":"G7340 S50 .J3","call_num":"G7340 S50 .J3 SHEET 1-4","recid":"zm865sy6726","websiteUrl":"https://purl.stanford.edu/zm865sy6726","title":"五万分一千島列島陸海編合圖","ckey":10429478,"web_map":"","available":"true","iiifUrl":"https://purl.stanford.edu/zm865sy6726/iiif/manifest"},"geometry":{"bbox":[155.33333300000004,49.975000000000136,155.83333300000004,50.43333300000006],"type":"Polygon","coordinates":[[[155.83333300000004,50.43333300000006],[155.83333300000004,49.975000000000136],[155.33333300000004,49.975000000000136],[155.33333300000004,50.43333300000006],[155.83333300000004,50.43333300000006]]]}},{"type":"Feature","properties":{"Id":0,"Sheet_ID":"幌筵島 -5","label":"幌筵島 -5","call_short":"G7340 S50 .J3","call_num":"G7340 S50 .J3 SHEET 1-5","recid":"km023mq8164","websiteUrl":"https://purl.stanford.edu/km023mq8164","title":"五万分一千島列島陸海編合圖","ckey":10429478,"web_map":"","available":"true","iiifUrl":"https://purl.stanford.edu/km023mq8164/iiif/manifest"},"geometry":{"bbox":[154.9458330000001,49.975000000000136,155.33333300000004,50.35416700000013],"type":"Polygon","coordinates":[[[154.9458330000001,50.35416700000013],[155.33333300000004,50.35416700000013],[155.33333300000004,49.975000000000136],[154.9458330000001,49.975000000000136],[154.9458330000001,50.35416700000013]]]}},{"type":"Feature","properties":{"Id":0,"Sheet_ID":"温禰古丹島","label":"温禰古丹島","call_short":"G7340 S50 .J3","call_num":"G7340 S50 .J3 SHEET 2","recid":"yb252hx7083","websiteUrl":"https://purl.stanford.edu/yb252hx7083","title":"五万分一千島列島陸海編合圖","ckey":10429478,"web_map":"","available":"true","iiifUrl":"https://purl.stanford.edu/yb252hx7083/iiif/manifest"},"geometry":{"bbox":[154.32500000000016,49.033333000000084,154.93333300000006,49.975000000000136],"type":"Polygon","coordinates":[[[154.32500000000016,49.033333000000084],[154.32500000000016,49.975000000000136],[154.93333300000006,49.975000000000136],[154.93333300000006,49.033333000000084],[154.32500000000016,49.033333000000084]]]}},{"type":"Feature","properties":{"Id":0,"Sheet_ID":"羅處和島及宇志知島","label":"羅處和島及宇志知島","call_short":"G7340 S50 .J3","call_num":"G7340 S50 .J3 SHEET 4","recid":"pw576rn0277","websiteUrl":"https://purl.stanford.edu/pw576rn0277","title":"五万分一千島列島陸海編合圖","ckey":10429478,"web_map":"","available":"true","iiifUrl":"https://purl.stanford.edu/pw576rn0277/iiif/manifest"},"geometry":{"bbox":[152.30000000000007,47.275000000000034,153.33333300000007,48.33333299999998],"type":"Polygon","coordinates":[[[152.30000000000007,47.275000000000034],[152.30000000000007,48.33333299999998],[153.33333300000007,48.33333299999998],[153.33333300000007,47.275000000000034],[152.30000000000007,47.275000000000034]]]}},{"type":"Feature","properties":{"Id":0,"Sheet_ID":"新知島 -1","label":"新知島 -1","call_short":"G7340 S50 .J3","call_num":"G7340 S50 .J3 SHEET 5-1","recid":"pg598vf7612","websiteUrl":"https://purl.stanford.edu/pg598vf7612","title":"五万分一千島列島陸海編合圖","ckey":10429478,"web_map":"","available":"true","iiifUrl":"https://purl.stanford.edu/pg598vf7612/iiif/manifest"},"geometry":{"bbox":[151.79999999999995,47.000000000000114,152.35000000000014,47.23333347000005],"type":"Polygon","coordinates":[[[151.79999999999995,47.000000000000114],[151.79999999999995,47.23333347000005],[152.35000000000014,47.233333000000016],[152.35000000000014,47.000000000000114],[151.79999999999995,47.000000000000114]]]}},{"type":"Feature","properties":{"Id":0,"Sheet_ID":"新知島 -2","label":"新知島 -2","call_short":"G7340 S50 .J3","call_num":"G7340 S50 .J3 SHEET 5-2","recid":"cp683fy0597","websiteUrl":"https://purl.stanford.edu/cp683fy0597","title":"五万分一千島列島陸海編合圖","ckey":10429478,"web_map":"","available":"true","iiifUrl":"https://purl.stanford.edu/cp683fy0597/iiif/manifest"},"geometry":{"bbox":[151.67499999999995,46.75,152.21666700000014,47.000000000000114],"type":"Polygon","coordinates":[[[151.67499999999995,47.000000000000114],[152.21666700000014,47.000000000000114],[152.21666700000014,46.75],[151.67499999999995,46.75],[151.67499999999995,47.000000000000114]]]}},{"type":"Feature","properties":{"Id":0,"Sheet_ID":"得撫島 -1","label":"得撫島 -1","call_short":"","call_num":"","recid":"","websiteUrl":"","title":"","ckey":0,"web_map":"","available":"false","iiifUrl":""},"geometry":{"bbox":[150.3750000000001,46.08333300000004,150.66666700000007,46.250000000000114],"type":"Polygon","coordinates":[[[150.66666700000007,46.250000000000114],[150.66666700000007,46.08333300000004],[150.3750000000001,46.08333300000004],[150.3750000000001,46.250000000000114],[150.66666700000007,46.250000000000114]]]}},{"type":"Feature","properties":{"Id":0,"Sheet_ID":"得撫島 -2","label":"得撫島 -2","call_short":"G7340 S50 .J3","call_num":"G7340 S50 .J3 SHEET 6-2","recid":"qf653xp2071","websiteUrl":"https://purl.stanford.edu/qf653xp2071","title":"五万分一千島列島陸海編合圖","ckey":10429478,"web_map":"","available":"true","iiifUrl":"https://purl.stanford.edu/qf653xp2071/iiif/manifest"},"geometry":{"bbox":[149.70000000000005,45.93333300000006,150.3750000000001,46.250000000000114],"type":"Polygon","coordinates":[[[149.70000000000005,46.250000000000114],[150.3750000000001,46.250000000000114],[150.3750000000001,45.93333300000006],[149.70000000000005,45.93333300000006],[149.70000000000005,46.250000000000114]]]}},{"type":"Feature","properties":{"Id":0,"Sheet_ID":"得撫島 -3","label":"得撫島 -3","call_short":"G7340 S50 .J3","call_num":"G7340 S50 .J3 SHEET 6-3","recid":"fw952hk5327","websiteUrl":"https://purl.stanford.edu/fw952hk5327","title":"五万分一千島列島陸海編合圖","ckey":10429478,"web_map":"","available":"true","iiifUrl":"https://purl.stanford.edu/fw952hk5327/iiif/manifest"},"geometry":{"bbox":[149.6916670000002,45.616667000000064,150.33333300000015,45.93333300000006],"type":"Polygon","coordinates":[[[149.6916670000002,45.616667000000064],[149.6916670000002,45.93333300000006],[150.33333300000015,45.93333300000006],[150.33333300000015,45.616667000000064],[149.6916670000002,45.616667000000064]]]}},{"type":"Feature","properties":{"Id":0,"Sheet_ID":"得撫島 -4","label":"得撫島 -4","call_short":"G7340 S50 .J3","call_num":"G7340 S50 .J3 SHEET 6-4","recid":"sk906mp8324","websiteUrl":"https://purl.stanford.edu/sk906mp8324","title":"五万分一千島列島陸海編合圖","ckey":10429478,"web_map":"","available":"true","iiifUrl":"https://purl.stanford.edu/sk906mp8324/iiif/manifest"},"geometry":{"bbox":[149.34166700000014,45.550000000000125,149.6916670000002,45.93333300000006],"type":"Polygon","coordinates":[[[149.6916670000002,45.550000000000125],[149.34166700000014,45.550000000000125],[149.34166700000014,45.93333300000006],[149.6916670000002,45.93333300000006],[149.6916670000002,45.550000000000125]]]}},{"type":"Feature","properties":{"Id":0,"Sheet_ID":"得撫島 -2 分圖: 知理保以島、武魯頓島","label":"得撫島 -2 分圖: 知理保以島、武魯頓島","call_short":"G7340 S50 .J3","call_num":"G7340 S50 .J3 SHEET 6-2","recid":"qf653xp2071","websiteUrl":"https://purl.stanford.edu/qf653xp2071","title":"五万分一千島列島陸海編合圖","ckey":10429478,"web_map":"","available":"true","iiifUrl":"https://purl.stanford.edu/qf653xp2071/iiif/manifest"},"geometry":{"bbox":[150.66666700000007,46.41666699999996,150.96666700000003,46.78333300000003],"type":"Polygon","coordinates":[[[150.66666700000007,46.78333300000003],[150.96666700000003,46.78333300000003],[150.96666700000003,46.41666699999996],[150.66666700000007,46.41666699999996],[150.66666700000007,46.78333300000003]]]}},{"type":"Feature","properties":{"Id":0,"Sheet_ID":"擇捉島 -1","label":"擇捉島 -1","call_short":"","call_num":"","recid":"","websiteUrl":"","title":"","ckey":0,"web_map":"","available":"false","iiifUrl":""},"geometry":{"bbox":[148.58333300000015,45.250000000000114,149.0000000000001,45.66666700000013],"type":"Polygon","coordinates":[[[149.0000000000001,45.250000000000114],[148.58333300000015,45.250000000000114],[148.58333300000015,45.66666700000013],[149.0000000000001,45.66666700000013],[149.0000000000001,45.250000000000114]]]}},{"type":"Feature","properties":{"Id":0,"Sheet_ID":"擇捉島 -2","label":"擇捉島 -2","call_short":"G7340 S50 .J3","call_num":"G7340 S50 .J3 SHEET 7-2","recid":"vy217kz0252","websiteUrl":"https://purl.stanford.edu/vy217kz0252","title":"五万分一千島列島陸海編合圖","ckey":10429478,"web_map":"","available":"true","iiifUrl":"https://purl.stanford.edu/vy217kz0252/iiif/manifest"},"geometry":{"bbox":[148.16666699999996,45.083333000000096,148.58333300000015,45.50000000000006],"type":"Polygon","coordinates":[[[148.58333300000015,45.083333000000096],[148.16666699999996,45.083333000000096],[148.16666699999996,45.50000000000006],[148.58333300000015,45.50000000000006],[148.58333300000015,45.083333000000096]]]}},{"type":"Feature","properties":{"Id":0,"Sheet_ID":"擇捉島 -3","label":"擇捉島 -3","call_short":"G7340 S50 .J3","call_num":"G7340 S50 .J3 SHEET 7-3","recid":"nk442hy0346","websiteUrl":"https://purl.stanford.edu/nk442hy0346","title":"五万分一千島列島陸海編合圖","ckey":10429478,"web_map":"","available":"true","iiifUrl":"https://purl.stanford.edu/nk442hy0346/iiif/manifest"},"geometry":{"bbox":[147.83333300000004,45.41666700000002,148.16666699999996,45.58333299999998],"type":"Polygon","coordinates":[[[147.83333300000004,45.41666700000002],[147.83333300000004,45.58333299999998],[148.16666699999996,45.58333299999998],[148.16666699999996,45.41666700000002],[147.83333300000004,45.41666700000002]]]}},{"type":"Feature","properties":{"Id":0,"Sheet_ID":"擇捉島 -4","label":"擇捉島 -4","call_short":"G7340 S50 .J3","call_num":"G7340 S50 .J3 SHEET 7-4","recid":"hb691zk3905","websiteUrl":"https://purl.stanford.edu/hb691zk3905","title":"五万分一千島列島陸海編合圖","ckey":10429478,"web_map":"","available":"true","iiifUrl":"https://purl.stanford.edu/hb691zk3905/iiif/manifest"},"geometry":{"bbox":[147.75,45,148.16666699999996,45.41666700000002],"type":"Polygon","coordinates":[[[147.75,45.41666700000002],[148.16666699999996,45.41666700000002],[148.16666699999996,45],[147.75,45],[147.75,45.41666700000002]]]}},{"type":"Feature","properties":{"Id":0,"Sheet_ID":"擇捉島 -5","label":"擇捉島 -5","call_short":"G7340 S50 .J3","call_num":"G7340 S50 .J3 SHEET 7-5","recid":"cp945kw7066","websiteUrl":"https://purl.stanford.edu/cp945kw7066","title":"五万分一千島列島陸海編合圖","ckey":10429478,"web_map":"","available":"true","iiifUrl":"https://purl.stanford.edu/cp945kw7066/iiif/manifest"},"geometry":{"bbox":[147.666667,44.833332999999925,148.0000000000001,45],"type":"Polygon","coordinates":[[[147.666667,44.833332999999925],[147.666667,45],[148.0000000000001,45],[148.0000000000001,44.833332999999925],[147.666667,44.833332999999925]]]}},{"type":"Feature","properties":{"Id":0,"Sheet_ID":"擇捉島 -6","label":"擇捉島 -6","call_short":"","call_num":"","recid":"","websiteUrl":"","title":"","ckey":0,"web_map":"","available":"false","iiifUrl":""},"geometry":{"bbox":[147.41666699999996,45,147.75,45.250000000000114],"type":"Polygon","coordinates":[[[147.75,45.250000000000114],[147.75,45],[147.41666699999996,45],[147.41666699999996,45.250000000000114],[147.75,45.250000000000114]]]}},{"type":"Feature","properties":{"Id":0,"Sheet_ID":"擇捉島 -7","label":"擇捉島 -7","call_short":"G7340 S50 .J3","call_num":"G7340 S50 .J3 SHEET 7-7","recid":"qr935rr3209","websiteUrl":"https://purl.stanford.edu/qr935rr3209","title":"五万分一千島列島陸海編合圖","ckey":10429478,"web_map":"","available":"true","iiifUrl":"https://purl.stanford.edu/qr935rr3209/iiif/manifest"},"geometry":{"bbox":[147.25000000000014,44.58333299999998,147.666667,45],"type":"Polygon","coordinates":[[[147.666667,44.58333299999998],[147.25000000000014,44.58333299999998],[147.25000000000014,45],[147.666667,45],[147.666667,44.58333299999998]]]}},{"type":"Feature","properties":{"Id":0,"Sheet_ID":"擇捉島 -8","label":"擇捉島 -8","call_short":"G7340 S50 .J3","call_num":"G7340 S50 .J3 SHEET 7-8","recid":"wj037jm9192","websiteUrl":"https://purl.stanford.edu/wj037jm9192","title":"五万分一千島列島陸海編合圖","ckey":10429478,"web_map":"","available":"true","iiifUrl":"https://purl.stanford.edu/wj037jm9192/iiif/manifest"},"geometry":{"bbox":[146.83333300000004,44.41666700000002,147.25000000000014,44.833332999999925],"type":"Polygon","coordinates":[[[146.83333300000004,44.41666700000002],[146.83333300000004,44.833332999999925],[147.25000000000014,44.833332999999925],[147.25000000000014,44.41666700000002],[146.83333300000004,44.41666700000002]]]}},{"type":"Feature","properties":{"Id":0,"Sheet_ID":"國後島 -1","label":"國後島 -1","call_short":"G7340 S50 .J3","call_num":"G7340 S50 .J3 SHEET 8-1","recid":"ys529mm5455","websiteUrl":"https://purl.stanford.edu/ys529mm5455","title":"五万分一千島列島陸海編合圖","ckey":10429478,"web_map":"","available":"true","iiifUrl":"https://purl.stanford.edu/ys529mm5455/iiif/manifest"},"geometry":{"bbox":[146.2500000000001,44.24999999999994,146.60000000000002,44.58333299999998],"type":"Polygon","coordinates":[[[146.2500000000001,44.24999999999994],[146.2500000000001,44.58333299999998],[146.60000000000002,44.58333299999998],[146.60000000000002,44.24999999999994],[146.2500000000001,44.24999999999994]]]}},{"type":"Feature","properties":{"Id":0,"Sheet_ID":"國後島 -2","label":"國後島 -2","call_short":"","call_num":"","recid":"","websiteUrl":"","title":"","ckey":0,"web_map":"","available":"false","iiifUrl":""},"geometry":{"bbox":[145.79999999999995,44.166667000000075,146.2500000000001,44.58333299999998],"type":"Polygon","coordinates":[[[146.2500000000001,44.166667000000075],[145.79999999999995,44.166667000000075],[145.79999999999995,44.58333299999998],[146.2500000000001,44.58333299999998],[146.2500000000001,44.166667000000075]]]}},{"type":"Feature","properties":{"Id":0,"Sheet_ID":"國後島 -3","label":"國後島 -3","call_short":"G7340 S50 .J3","call_num":"G7340 S50 .J3 SHEET 8-3","recid":"tn698vz0972","websiteUrl":"https://purl.stanford.edu/tn698vz0972","title":"五万分一千島列島陸海編合圖","ckey":10429478,"web_map":"","available":"true","iiifUrl":"https://purl.stanford.edu/tn698vz0972/iiif/manifest"},"geometry":{"bbox":[145.75,43.83333299999998,146.08333300000004,44.166667000000075],"type":"Polygon","coordinates":[[[146.08333300000004,44.166667000000075],[146.08333300000004,43.83333299999998],[145.75,43.83333299999998],[145.75,44.166667000000075],[146.08333300000004,44.166667000000075]]]}},{"type":"Feature","properties":{"Id":0,"Sheet_ID":"國後島 -4","label":"國後島 -4","call_short":"G7340 S50 .J3","call_num":"G7340 S50 .J3 SHEET 8-4","recid":"xf435vm2849","websiteUrl":"https://purl.stanford.edu/xf435vm2849","title":"五万分一千島列島陸海編合圖","ckey":10429478,"web_map":"","available":"true","iiifUrl":"https://purl.stanford.edu/xf435vm2849/iiif/manifest"},"geometry":{"bbox":[145.33333300000004,43.64999999999992,145.75,44.11666700000001],"type":"Polygon","coordinates":[[[145.33333300000004,44.11666700000001],[145.75,44.11666700000001],[145.75,43.64999999999992],[145.33333300000004,43.64999999999992],[145.33333300000004,44.11666700000001]]]}},{"type":"Feature","properties":{"Id":0,"Sheet_ID":"多樂島及志發島","label":"多樂島及志發島","call_short":"G7340 S50 .J3","call_num":"G7340 S50 .J3 SHEET 9","recid":"yh832kg9640","websiteUrl":"https://purl.stanford.edu/yh832kg9640","title":"五万分一千島列島陸海編合圖","ckey":10429478,"web_map":"","available":"true","iiifUrl":"https://purl.stanford.edu/yh832kg9640/iiif/manifest"},"geometry":{"bbox":[145.85000000000005,43.350000000000136,146.5000000000001,43.66666700000002],"type":"Polygon","coordinates":[[[145.85000000000005,43.66666700000002],[146.5000000000001,43.66666700000002],[146.5000000000001,43.350000000000136],[145.85000000000005,43.350000000000136],[145.85000000000005,43.66666700000002]]]}},{"type":"Feature","properties":{"Id":0,"Sheet_ID":"捨子古丹島及越渇磨島","label":"捨子古丹島及越渇磨島","call_short":"","call_num":"","recid":"","websiteUrl":"","title":"","ckey":0,"web_map":"","available":"false","iiifUrl":""},"geometry":{"bbox":[153.41666700000007,48.5,154.2500000000001,49.000000000000114],"type":"Polygon","coordinates":[[[153.41666700000007,48.5],[153.41666700000007,49.000000000000114],[154.2500000000001,49.000000000000114],[154.2500000000001,48.5],[153.41666700000007,48.5]]]}}],"name":"index_10429478"}
