{
"type": "FeatureCollection",
"name": "index_map",
"features": [
{ "type": "Feature", "properties": { "Id": 0, "Sheet_ID": "SHEET 4", "label": "SHEET 4", "call_short": "G7322 .K4 1937 .J3", "call_num": "G7322 .K4 1937 .J3 SHEET 4", "recid": "wt826gw5474", "websiteUrl": "https://purl.stanford.edu/wt826gw5474", "title": "烏蘇里州 興凱湖南方地區", "ckey": 9680622, "available": true, "iiifUrl": "https://purl.stanford.edu/wt826gw5474/iiif/manifest" }, "geometry": { "type": "Polygon", "coordinates": [ [ [ 131.5, 43.331667 ], [ 132.4, 43.331667 ], [ 132.4, 44.1658335 ], [ 131.5, 44.1658335 ], [ 131.5, 43.331667 ] ] ] } },
{ "type": "Feature", "properties": { "Id": 0, "Sheet_ID": "SHEET 2", "label": "SHEET 2", "call_short": "G7322 .K4 1937 .J3", "call_num": "G7322 .K4 1937 .J3 SHEET 2", "recid": "vv313sm2287", "websiteUrl": "https://purl.stanford.edu/vv313sm2287", "title": "烏蘇里州 興凱湖南方地區", "ckey": 9680622, "available": true, "iiifUrl": "https://purl.stanford.edu/vv313sm2287/iiif/manifest" }, "geometry": { "type": "Polygon", "coordinates": [ [ [ 132.4, 43.331667 ], [ 133.3, 43.331667 ], [ 133.3, 44.1658335 ], [ 132.4, 44.1658335 ], [ 132.4, 43.331667 ] ] ] } },
{ "type": "Feature", "properties": { "Id": 0, "Sheet_ID": "SHEET 3", "label": "SHEET 3", "call_short": "G7322 .K4 1937 .J3", "call_num": "G7322 .K4 1937 .J3 SHEET 3", "recid": "vr431dc9873", "websiteUrl": "https://purl.stanford.edu/vr431dc9873", "title": "烏蘇里州 興凱湖南方地區", "ckey": 9680622, "available": true, "iiifUrl": "https://purl.stanford.edu/vr431dc9873/iiif/manifest" }, "geometry": { "type": "Polygon", "coordinates": [ [ [ 131.5, 44.1658335 ], [ 132.4, 44.1658335 ], [ 132.4, 45.0 ], [ 131.5, 45.0 ], [ 131.5, 44.1658335 ] ] ] } },
{ "type": "Feature", "properties": { "Id": 0, "Sheet_ID": "SHEET 1", "label": "SHEET 1", "call_short": "G7322 .K4 1937 .J3", "call_num": "G7322 .K4 1937 .J3 SHEET 1", "recid": "rg889rk2827", "websiteUrl": "https://purl.stanford.edu/rg889rk2827", "title": "烏蘇里州 興凱湖南方地區", "ckey": 9680622, "available": true, "iiifUrl": "https://purl.stanford.edu/rg889rk2827/iiif/manifest" }, "geometry": { "type": "Polygon", "coordinates": [ [ [ 132.4, 44.1658335 ], [ 133.3, 44.1658335 ], [ 133.3, 45.0 ], [ 132.4, 45.0 ], [ 132.4, 44.1658335 ] ] ] } }
]
}
