{"type":"FeatureCollection","features":[{"type":"Feature","properties":{"Id":0,"Sheet_ID":"128-57. 延壽","label":"128-57. 延壽","call_short":"G7800 S200 .J4","call_num":"G7800 S200 .J4 128-57","recid":"hp617fy8506","websiteUrl":"https://purl.stanford.edu/hp617fy8506","title":"満洲及西伯利兵要二十万分一圖","ckey":10648459,"web_map":"","available":"true","iiifUrl":"https://purl.stanford.edu/hp617fy8506/iiif/manifest"},"geometry":{"bbox":[127.50000000000001,45.333333,128.5,45.99999966666667],"type":"Polygon","coordinates":[[[127.50000000000001,45.333333],[127.50000000000001,45.99999966666667],[128.5,45.99999966666667],[128.5,45.333333],[127.50000000000001,45.333333]]]}},{"type":"Feature","properties":{"Id":0,"Sheet_ID":"129-57. 通河","label":"129-57. 通河","call_short":"G7800 S200 .J4","call_num":"G7800 S200 .J4 129-57","recid":"qy526cd1971","websiteUrl":"https://purl.stanford.edu/qy526cd1971","title":"満洲及西伯利兵要二十万分一圖","ckey":10648459,"web_map":"","available":"true","iiifUrl":"https://purl.stanford.edu/qy526cd1971/iiif/manifest"},"geometry":{"bbox":[128.5,45.333333,129.5,45.99999966666667],"type":"Polygon","coordinates":[[[128.5,45.333333],[128.5,45.99999966666667],[129.5,45.99999966666667],[129.5,45.333333],[128.5,45.333333]]]}},{"type":"Feature","properties":{"Id":0,"Sheet_ID":"128-56. 鳳山","label":"128-56. 鳳山","call_short":"G7800 S200 .J4","call_num":"G7800 S200 .J4 128-56","recid":"nb815jj6440","websiteUrl":"https://purl.stanford.edu/nb815jj6440","title":"満洲及西伯利兵要二十万分一圖","ckey":10648459,"web_map":"","available":"true","iiifUrl":"https://purl.stanford.edu/nb815jj6440/iiif/manifest"},"geometry":{"bbox":[127.50000000000001,45.99999966666667,128.5,46.66666633333333],"type":"Polygon","coordinates":[[[127.50000000000001,45.99999966666667],[127.50000000000001,46.66666633333333],[128.5,46.66666633333333],[128.5,45.99999966666667],[127.50000000000001,45.99999966666667]]]}},{"type":"Feature","properties":{"Id":0,"Sheet_ID":"128-55. 鐡驪","label":"128-55. 鐡驪","call_short":"G7800 S200 .J4","call_num":"G7800 S200 .J4 128-55","recid":"jy648rw3726","websiteUrl":"https://purl.stanford.edu/jy648rw3726","title":"満洲及西伯利兵要二十万分一圖","ckey":10648459,"web_map":"","available":"true","iiifUrl":"https://purl.stanford.edu/jy648rw3726/iiif/manifest"},"geometry":{"bbox":[127.50000000000001,46.66666633333334,128.5,47.333333],"type":"Polygon","coordinates":[[[127.50000000000001,46.66666633333334],[127.50000000000001,47.333333],[128.5,47.333333],[128.5,46.66666633333334],[127.50000000000001,46.66666633333334]]]}},{"type":"Feature","properties":{"Id":0,"Sheet_ID":"124-55. 昻昻渓","label":"124-55. 昻昻渓","call_short":"G7800 S200 .J4","call_num":"G7800 S200 .J4 124-55","recid":"bg074hh8049","websiteUrl":"https://purl.stanford.edu/bg074hh8049","title":"満洲及西伯利兵要二十万分一圖","ckey":10648459,"web_map":"","available":"true","iiifUrl":"https://purl.stanford.edu/bg074hh8049/iiif/manifest"},"geometry":{"bbox":[123.5,46.66666633333341,124.49999999999999,47.33333299999998],"type":"Polygon","coordinates":[[[123.5,46.66666633333341],[123.5,47.33333299999998],[124.49999999999999,47.33333299999998],[124.49999999999999,46.66666633333341],[123.5,46.66666633333341]]]}},{"type":"Feature","properties":{"Id":0,"Sheet_ID":"123-57. 白城子","label":"123-57. 白城子","call_short":"G7800 S200 .J4","call_num":"G7800 S200 .J4 123-57","recid":"br134zb5038","websiteUrl":"https://purl.stanford.edu/br134zb5038","title":"満洲及西伯利兵要二十万分一圖","ckey":10648459,"web_map":"","available":"true","iiifUrl":"https://purl.stanford.edu/br134zb5038/iiif/manifest"},"geometry":{"bbox":[122.50000000000001,45.33333300000004,123.5,45.99999966666678],"type":"Polygon","coordinates":[[[122.50000000000001,45.33333300000004],[122.50000000000001,45.99999966666678],[123.5,45.99999966666678],[123.5,45.33333300000004],[122.50000000000001,45.33333300000004]]]}}],"name":"index_10648459"}
