{
"type": "FeatureCollection",
"name": "index_map",
"features": [
{ "type": "Feature", "properties": { "Id": 0, "Sheet_ID": "5. Markham", "label": "5. Markham", "call_short": "G8160 S250 .J3", "call_num": "G8160 S250 .J3 NO.5", "recid": "ns225gy7512", "websiteUrl": "https://purl.stanford.edu/ns225gy7512", "title": "東部ニューギニア「フォン」半島及「マダン」地區兵要地誌資料圖", "ckey": 10293361, "web_map": null, "available": true, "iiifUrl": "https://purl.stanford.edu/ns225gy7512/iiif/manifest" }, "geometry": { "type": "Polygon", "coordinates": [ [ [ 145.5, -7.0 ], [ 147.0, -7.0 ], [ 147.0, -6.0 ], [ 145.5, -6.0 ], [ 145.5, -7.0 ] ] ] } },
{ "type": "Feature", "properties": { "Id": 0, "Sheet_ID": "2. Lae", "label": "2. Lae", "call_short": null, "call_num": null, "recid": null, "websiteUrl": null, "title": null, "ckey": 0, "web_map": null, "available": false, "iiifUrl": null }, "geometry": { "type": "Polygon", "coordinates": [ [ [ 147.0, -7.0 ], [ 148.5, -7.0 ], [ 148.5, -6.0 ], [ 147.0, -6.0 ], [ 147.0, -7.0 ] ] ] } },
{ "type": "Feature", "properties": { "Id": 0, "Sheet_ID": "8. Ramu", "label": "8. Ramu", "call_short": "G8160 S250 .J3", "call_num": "G8160 S250 .J3 NO.8", "recid": "nk427tg4151", "websiteUrl": "https://purl.stanford.edu/nk427tg4151", "title": "東部ニューギニア「フォン」半島及「マダン」地區兵要地誌資料圖", "ckey": 10293361, "web_map": null, "available": true, "iiifUrl": "https://purl.stanford.edu/nk427tg4151/iiif/manifest" }, "geometry": { "type": "Polygon", "coordinates": [ [ [ 144.0, -6.0 ], [ 145.5, -6.0 ], [ 145.5, -5.0 ], [ 144.0, -5.0 ], [ 144.0, -6.0 ] ] ] } },
{ "type": "Feature", "properties": { "Id": 0, "Sheet_ID": "4. Madang", "label": "4. Madang", "call_short": null, "call_num": null, "recid": null, "websiteUrl": null, "title": null, "ckey": 0, "web_map": null, "available": false, "iiifUrl": null }, "geometry": { "type": "Polygon", "coordinates": [ [ [ 145.5, -6.0 ], [ 147.0, -6.0 ], [ 147.0, -5.0 ], [ 145.5, -5.0 ], [ 145.5, -6.0 ] ] ] } },
{ "type": "Feature", "properties": { "Id": 0, "Sheet_ID": "1. Sio", "label": "1. Sio", "call_short": null, "call_num": null, "recid": null, "websiteUrl": null, "title": null, "ckey": 0, "web_map": null, "available": false, "iiifUrl": null }, "geometry": { "type": "Polygon", "coordinates": [ [ [ 147.0, -6.0 ], [ 148.5, -6.0 ], [ 148.5, -5.0 ], [ 147.0, -5.0 ], [ 147.0, -6.0 ] ] ] } },
{ "type": "Feature", "properties": { "Id": 0, "Sheet_ID": "7. Bogia", "label": "7. Bogia", "call_short": null, "call_num": null, "recid": null, "websiteUrl": null, "title": null, "ckey": 0, "web_map": null, "available": false, "iiifUrl": null }, "geometry": { "type": "Polygon", "coordinates": [ [ [ 144.0, -5.0 ], [ 145.5, -5.0 ], [ 145.5, -4.0 ], [ 144.0, -4.0 ], [ 144.0, -5.0 ] ] ] } },
{ "type": "Feature", "properties": { "Id": 0, "Sheet_ID": "3. Karkar", "label": "3. Karkar", "call_short": null, "call_num": null, "recid": null, "websiteUrl": null, "title": null, "ckey": 0, "web_map": null, "available": false, "iiifUrl": null }, "geometry": { "type": "Polygon", "coordinates": [ [ [ 145.5, -5.0 ], [ 147.0, -5.0 ], [ 147.0, -4.0 ], [ 145.5, -4.0 ], [ 145.5, -5.0 ] ] ] } },
{ "type": "Feature", "properties": { "Id": 0, "Sheet_ID": "6. Sepik", "label": "6. Sepik", "call_short": null, "call_num": null, "recid": null, "websiteUrl": null, "title": null, "ckey": 0, "web_map": null, "available": false, "iiifUrl": null }, "geometry": { "type": "Polygon", "coordinates": [ [ [ 144.0, -4.0 ], [ 145.5, -4.0 ], [ 145.5, -3.0 ], [ 144.0, -3.0 ], [ 144.0, -4.0 ] ] ] } }
]
}
