{
"type": "FeatureCollection",
"name": "index_map",
"features": [
{ "type": "Feature", "properties": { "Id": 0, "Sheet_ID": "SHEET 32", "label": "SHEET 32", "call_short": "G8101 .D2 S100 .J3", "call_num": "G8101 .D2 S100 .J3 SHEET 32", "recid": "xt455mp9269", "websiteUrl": "https://purl.stanford.edu/xt455mp9269", "title": "十万分一蘭領ボルネオ バリックパパン附近", "ckey": 10425308, "available": true, "iiifUrl": "https://purl.stanford.edu/xt455mp9269/iiif/manifest" }, "geometry": { "type": "Polygon", "coordinates": [ [ [ 117.4875, -0.675 ], [ 117.820833, -0.675 ], [ 117.820833, -0.341667 ], [ 117.4875, -0.341667 ], [ 117.4875, -0.675 ] ] ] } }
]
}
