{
"type": "FeatureCollection",
"name": "index_map",
"features": [
{ "type": "Feature", "properties": { "Id": 0, "Sheet_ID": "福州 16. 洪堂", "Shape_Leng": 0.83333333407, "Shape_Area": 0.04166666672, "available": false, "call_num": null, "call_short": null, "ckey": 0, "iiifUrl": null, "label": "福州 16. 洪堂", "recid": null, "title": null, "web_map": null, "websiteUrl": null }, "geometry": { "type": "Polygon", "coordinates": [ [ [ 119.0, 26.0 ], [ 119.25, 26.0 ], [ 119.25, 26.1666667 ], [ 119.0, 26.1666667 ], [ 119.0, 26.0 ] ] ] } },
{ "type": "Feature", "properties": { "Id": 0, "Sheet_ID": "福州 12. 福州", "Shape_Leng": 0.83333333226999995, "Shape_Area": 0.04166666658, "available": true, "call_num": "G7821 .R1 1906 .J3 SHEET A12", "call_short": "G7821 .R1 1906 .J3", "ckey": 12370331, "iiifUrl": "https://purl.stanford.edu/rg396tm2790/iiif/manifest", "label": "福州 12. 福州", "recid": "rg396tm2790", "title": "東亞五万分一圖", "web_map": null, "websiteUrl": "https://purl.stanford.edu/rg396tm2790" }, "geometry": { "type": "Polygon", "coordinates": [ [ [ 119.25, 26.0 ], [ 119.5, 26.0 ], [ 119.5, 26.1666667 ], [ 119.25, 26.1666667 ], [ 119.25, 26.0 ] ] ] } },
{ "type": "Feature", "properties": { "Id": 0, "Sheet_ID": "福州 8. 閩江口", "Shape_Leng": 0.83333333407, "Shape_Area": 0.04166666673, "available": true, "call_num": "G7821 .R1 1906 .J3 SHEET A8", "call_short": "G7821 .R1 1906 .J3", "ckey": 12370331, "iiifUrl": "https://purl.stanford.edu/zc537pt9969/iiif/manifest", "label": "福州 8. 閩江口", "recid": "zc537pt9969", "title": "東亞五万分一圖", "web_map": null, "websiteUrl": "https://purl.stanford.edu/zc537pt9969" }, "geometry": { "type": "Polygon", "coordinates": [ [ [ 119.5, 26.0 ], [ 119.75, 26.0 ], [ 119.75, 26.1666667 ], [ 119.5, 26.1666667 ], [ 119.5, 26.0 ] ] ] } },
{ "type": "Feature", "properties": { "Id": 0, "Sheet_ID": "福州 4. 馬祖山", "Shape_Leng": 0.83333333407, "Shape_Area": 0.04166666672, "available": false, "call_num": null, "call_short": null, "ckey": 0, "iiifUrl": null, "label": "福州 4. 馬祖山", "recid": null, "title": null, "web_map": null, "websiteUrl": null }, "geometry": { "type": "Polygon", "coordinates": [ [ [ 119.75, 26.0 ], [ 120.0, 26.0 ], [ 120.0, 26.1666667 ], [ 119.75, 26.1666667 ], [ 119.75, 26.0 ] ] ] } },
{ "type": "Feature", "properties": { "Id": 0, "Sheet_ID": "福州 11. 岩角", "Shape_Leng": 0.83333333226999995, "Shape_Area": 0.04166666658, "available": true, "call_num": "G7821 .R1 1906 .J3 SHEET A11", "call_short": "G7821 .R1 1906 .J3", "ckey": 12370331, "iiifUrl": "https://purl.stanford.edu/ft997gh3696/iiif/manifest", "label": "福州 11. 岩角", "recid": "ft997gh3696", "title": "東亞五万分一圖", "web_map": null, "websiteUrl": "https://purl.stanford.edu/ft997gh3696" }, "geometry": { "type": "Polygon", "coordinates": [ [ [ 119.25, 26.1666667 ], [ 119.5, 26.1666667 ], [ 119.5, 26.3333333 ], [ 119.25, 26.3333333 ], [ 119.25, 26.1666667 ] ] ] } },
{ "type": "Feature", "properties": { "Id": 0, "Sheet_ID": "福州 7. 連江", "Shape_Leng": 0.83333333407, "Shape_Area": 0.04166666673, "available": true, "call_num": "G7821 .R1 1906 .J3 SHEET A7", "call_short": "G7821 .R1 1906 .J3", "ckey": 12370331, "iiifUrl": "https://purl.stanford.edu/gg681jb6947/iiif/manifest", "label": "福州 7. 連江", "recid": "gg681jb6947", "title": "東亞五万分一圖", "web_map": null, "websiteUrl": "https://purl.stanford.edu/gg681jb6947" }, "geometry": { "type": "Polygon", "coordinates": [ [ [ 119.5, 26.1666667 ], [ 119.75, 26.1666667 ], [ 119.75, 26.3333333 ], [ 119.5, 26.3333333 ], [ 119.5, 26.1666667 ] ] ] } },
{ "type": "Feature", "properties": { "Id": 0, "Sheet_ID": "福州 3. 定海", "Shape_Leng": 0.83333333407, "Shape_Area": 0.04166666672, "available": false, "call_num": null, "call_short": null, "ckey": 0, "iiifUrl": null, "label": "福州 3. 定海", "recid": null, "title": null, "web_map": null, "websiteUrl": null }, "geometry": { "type": "Polygon", "coordinates": [ [ [ 119.75, 26.1666667 ], [ 120.0, 26.1666667 ], [ 120.0, 26.3333333 ], [ 119.75, 26.3333333 ], [ 119.75, 26.1666667 ] ] ] } },
{ "type": "Feature", "properties": { "Id": 0, "Sheet_ID": "福州 6. 羅源", "Shape_Leng": 0.83333333407, "Shape_Area": 0.04166666673, "available": false, "call_num": null, "call_short": null, "ckey": 0, "iiifUrl": null, "label": "福州 6. 羅源", "recid": null, "title": null, "web_map": null, "websiteUrl": null }, "geometry": { "type": "Polygon", "coordinates": [ [ [ 119.5, 26.3333333 ], [ 119.75, 26.3333333 ], [ 119.75, 26.5 ], [ 119.5, 26.5 ], [ 119.5, 26.3333333 ] ] ] } },
{ "type": "Feature", "properties": { "Id": 0, "Sheet_ID": "福州 2.", "Shape_Leng": 0.83333333407, "Shape_Area": 0.04166666672, "available": false, "call_num": null, "call_short": null, "ckey": 0, "iiifUrl": null, "label": "福州 2.", "recid": null, "title": null, "web_map": null, "websiteUrl": null }, "geometry": { "type": "Polygon", "coordinates": [ [ [ 119.75, 26.3333333 ], [ 120.0, 26.3333333 ], [ 120.0, 26.5 ], [ 119.75, 26.5 ], [ 119.75, 26.3333333 ] ] ] } },
{ "type": "Feature", "properties": { "Id": 0, "Sheet_ID": "興化 16. 興化", "Shape_Leng": 0.83333350133999995, "Shape_Area": 0.04166668763, "available": true, "call_num": "G7821 .R1 1906 .J3 SHEET B16", "call_short": "G7821 .R1 1906 .J3", "ckey": 12370331, "iiifUrl": "https://purl.stanford.edu/sp171hk5201/iiif/manifest", "label": "興化 16. 興化", "recid": "sp171hk5201", "title": "東亞五万分一圖", "web_map": null, "websiteUrl": "https://purl.stanford.edu/sp171hk5201" }, "geometry": { "type": "Polygon", "coordinates": [ [ [ 119.0, 25.333333 ], [ 119.25, 25.333333 ], [ 119.25, 25.4999998 ], [ 119.0, 25.4999998 ], [ 119.0, 25.333333 ] ] ] } },
{ "type": "Feature", "properties": { "Id": 0, "Sheet_ID": "興化 12. 小麥嶼", "Shape_Leng": 0.83333349954000002, "Shape_Area": 0.04166668748, "available": true, "call_num": "G7821 .R1 1906 .J3 SHEET B12", "call_short": "G7821 .R1 1906 .J3", "ckey": 12370331, "iiifUrl": "https://purl.stanford.edu/xw130bb8052/iiif/manifest", "label": "興化 12. 小麥嶼", "recid": "xw130bb8052", "title": "東亞五万分一圖", "web_map": null, "websiteUrl": "https://purl.stanford.edu/xw130bb8052" }, "geometry": { "type": "Polygon", "coordinates": [ [ [ 119.25, 25.333333 ], [ 119.5, 25.333333 ], [ 119.5, 25.4999998 ], [ 119.25, 25.4999998 ], [ 119.25, 25.333333 ] ] ] } },
{ "type": "Feature", "properties": { "Id": 0, "Sheet_ID": "興化 8. 高山市", "Shape_Leng": 0.83333350133999995, "Shape_Area": 0.04166668763, "available": true, "call_num": "G7821 .R1 1906 .J3 SHEET B8", "call_short": "G7821 .R1 1906 .J3", "ckey": 12370331, "iiifUrl": "https://purl.stanford.edu/mw591pt3443/iiif/manifest", "label": "興化 8. 高山市", "recid": "mw591pt3443", "title": "東亞五万分一圖", "web_map": null, "websiteUrl": "https://purl.stanford.edu/mw591pt3443" }, "geometry": { "type": "Polygon", "coordinates": [ [ [ 119.5, 25.333333 ], [ 119.75, 25.333333 ], [ 119.75, 25.4999998 ], [ 119.5, 25.4999998 ], [ 119.5, 25.333333 ] ] ] } },
{ "type": "Feature", "properties": { "Id": 0, "Sheet_ID": "興化 15. 江口", "Shape_Leng": 0.83333349954000002, "Shape_Area": 0.04166668741, "available": true, "call_num": "G7821 .R1 1906 .J3 SHEET B15", "call_short": "G7821 .R1 1906 .J3", "ckey": 12370331, "iiifUrl": "https://purl.stanford.edu/th186kr3022/iiif/manifest", "label": "興化 15. 江口", "recid": "th186kr3022", "title": "東亞五万分一圖", "web_map": null, "websiteUrl": "https://purl.stanford.edu/th186kr3022" }, "geometry": { "type": "Polygon", "coordinates": [ [ [ 119.0, 25.4999998 ], [ 119.25, 25.4999998 ], [ 119.25, 25.6666665 ], [ 119.0, 25.6666665 ], [ 119.0, 25.4999998 ] ] ] } },
{ "type": "Feature", "properties": { "Id": 0, "Sheet_ID": "興化 11. 漁溪", "Shape_Leng": 0.83333349773999998, "Shape_Area": 0.04166668726, "available": true, "call_num": "G7821 .R1 1906 .J3 SHEET B11", "call_short": "G7821 .R1 1906 .J3", "ckey": 12370331, "iiifUrl": "https://purl.stanford.edu/bt173pk7119/iiif/manifest", "label": "興化 11. 漁溪", "recid": "bt173pk7119", "title": "東亞五万分一圖", "web_map": null, "websiteUrl": "https://purl.stanford.edu/bt173pk7119" }, "geometry": { "type": "Polygon", "coordinates": [ [ [ 119.25, 25.4999998 ], [ 119.5, 25.4999998 ], [ 119.5, 25.6666665 ], [ 119.25, 25.6666665 ], [ 119.25, 25.4999998 ] ] ] } },
{ "type": "Feature", "properties": { "Id": 0, "Sheet_ID": "興化 7. 嶼頭嶌", "Shape_Leng": 0.83333349954000002, "Shape_Area": 0.04166668741, "available": true, "call_num": "G7821 .R1 1906 .J3 SHEET B7", "call_short": "G7821 .R1 1906 .J3", "ckey": 12370331, "iiifUrl": "https://purl.stanford.edu/mp489wh9403/iiif/manifest", "label": "興化 7. 嶼頭嶌", "recid": "mp489wh9403", "title": "東亞五万分一圖", "web_map": null, "websiteUrl": "https://purl.stanford.edu/mp489wh9403" }, "geometry": { "type": "Polygon", "coordinates": [ [ [ 119.5, 25.4999998 ], [ 119.75, 25.4999998 ], [ 119.75, 25.6666665 ], [ 119.5, 25.6666665 ], [ 119.5, 25.4999998 ] ] ] } },
{ "type": "Feature", "properties": { "Id": 0, "Sheet_ID": "興化 14. 香山", "Shape_Leng": 0.83333350133999995, "Shape_Area": 0.04166668763, "available": true, "call_num": "G7821 .R1 1906 .J3 SHEET B14", "call_short": "G7821 .R1 1906 .J3", "ckey": 12370331, "iiifUrl": "https://purl.stanford.edu/hn403xd1473/iiif/manifest", "label": "興化 14. 香山", "recid": "hn403xd1473", "title": "東亞五万分一圖", "web_map": null, "websiteUrl": "https://purl.stanford.edu/hn403xd1473" }, "geometry": { "type": "Polygon", "coordinates": [ [ [ 119.0, 25.6666665 ], [ 119.25, 25.6666665 ], [ 119.25, 25.8333333 ], [ 119.0, 25.8333333 ], [ 119.0, 25.6666665 ] ] ] } },
{ "type": "Feature", "properties": { "Id": 0, "Sheet_ID": "興化 10. 福清", "Shape_Leng": 0.83333349954000002, "Shape_Area": 0.04166668748, "available": true, "call_num": "G7821 .R1 1906 .J3 SHEET B10", "call_short": "G7821 .R1 1906 .J3", "ckey": 12370331, "iiifUrl": "https://purl.stanford.edu/zb503qs5231/iiif/manifest", "label": "興化 10. 福清", "recid": "zb503qs5231", "title": "東亞五万分一圖", "web_map": null, "websiteUrl": "https://purl.stanford.edu/zb503qs5231" }, "geometry": { "type": "Polygon", "coordinates": [ [ [ 119.25, 25.6666665 ], [ 119.5, 25.6666665 ], [ 119.5, 25.8333333 ], [ 119.25, 25.8333333 ], [ 119.25, 25.6666665 ] ] ] } },
{ "type": "Feature", "properties": { "Id": 0, "Sheet_ID": "興化 6. 牛角山", "Shape_Leng": 0.83333350133999995, "Shape_Area": 0.04166668763, "available": false, "call_num": null, "call_short": null, "ckey": 0, "iiifUrl": null, "label": "興化 6. 牛角山", "recid": null, "title": null, "web_map": null, "websiteUrl": null }, "geometry": { "type": "Polygon", "coordinates": [ [ [ 119.5, 25.6666665 ], [ 119.75, 25.6666665 ], [ 119.75, 25.8333333 ], [ 119.5, 25.8333333 ], [ 119.5, 25.6666665 ] ] ] } },
{ "type": "Feature", "properties": { "Id": 0, "Sheet_ID": "興化 13. 南嶼", "Shape_Leng": 0.83333350133999995, "Shape_Area": 0.04166668763, "available": true, "call_num": "G7821 .R1 1906 .J3 SHEET B13", "call_short": "G7821 .R1 1906 .J3", "ckey": 12370331, "iiifUrl": "https://purl.stanford.edu/hs213gn9652/iiif/manifest", "label": "興化 13. 南嶼", "recid": "hs213gn9652", "title": "東亞五万分一圖", "web_map": null, "websiteUrl": "https://purl.stanford.edu/hs213gn9652" }, "geometry": { "type": "Polygon", "coordinates": [ [ [ 119.0, 25.8333333 ], [ 119.25, 25.8333333 ], [ 119.25, 26.0 ], [ 119.0, 26.0 ], [ 119.0, 25.8333333 ] ] ] } },
{ "type": "Feature", "properties": { "Id": 0, "Sheet_ID": "興化 9. 長樂", "Shape_Leng": 0.83333349954000002, "Shape_Area": 0.04166668748, "available": true, "call_num": "G7821 .R1 1906 .J3 SHEET B9", "call_short": "G7821 .R1 1906 .J3", "ckey": 12370331, "iiifUrl": "https://purl.stanford.edu/zt461qg7919/iiif/manifest", "label": "興化 9. 長樂", "recid": "zt461qg7919", "title": "東亞五万分一圖", "web_map": null, "websiteUrl": "https://purl.stanford.edu/zt461qg7919" }, "geometry": { "type": "Polygon", "coordinates": [ [ [ 119.25, 25.8333333 ], [ 119.5, 25.8333333 ], [ 119.5, 26.0 ], [ 119.25, 26.0 ], [ 119.25, 25.8333333 ] ] ] } },
{ "type": "Feature", "properties": { "Id": 0, "Sheet_ID": "興化 5. 金峰街", "Shape_Leng": 0.83333350133999995, "Shape_Area": 0.04166668763, "available": true, "call_num": "G7821 .R1 1906 .J3 SHEET B5", "call_short": "G7821 .R1 1906 .J3", "ckey": 12370331, "iiifUrl": "https://purl.stanford.edu/gc171pj9929/iiif/manifest", "label": "興化 5. 金峰街", "recid": "gc171pj9929", "title": "東亞五万分一圖", "web_map": null, "websiteUrl": "https://purl.stanford.edu/gc171pj9929" }, "geometry": { "type": "Polygon", "coordinates": [ [ [ 119.5, 25.8333333 ], [ 119.75, 25.8333333 ], [ 119.75, 26.0 ], [ 119.5, 26.0 ], [ 119.5, 25.8333333 ] ] ] } },
{ "type": "Feature", "properties": { "Id": 0, "Sheet_ID": "南日嶋 15. 小岞", "Shape_Leng": 0.83333333407, "Shape_Area": 0.04166666672, "available": true, "call_num": "G7821 .R1 1906 .J3 SHEET C15", "call_short": "G7821 .R1 1906 .J3", "ckey": 12370331, "iiifUrl": "https://purl.stanford.edu/dr322xv9612/iiif/manifest", "label": "南日嶋 15. 小岞", "recid": "dr322xv9612", "title": "東亞五万分一圖", "web_map": null, "websiteUrl": "https://purl.stanford.edu/dr322xv9612" }, "geometry": { "type": "Polygon", "coordinates": [ [ [ 119.0, 24.833333 ], [ 119.25, 24.833333 ], [ 119.25, 24.9999997 ], [ 119.0, 24.9999997 ], [ 119.0, 24.833333 ] ] ] } },
{ "type": "Feature", "properties": { "Id": 0, "Sheet_ID": "南日嶋 14. 莆禧城", "Shape_Leng": 0.83333333407, "Shape_Area": 0.04166666672, "available": true, "call_num": "G7821 .R1 1906 .J3 SHEET C14", "call_short": "G7821 .R1 1906 .J3", "ckey": 12370331, "iiifUrl": "https://purl.stanford.edu/bp373mc6104/iiif/manifest", "label": "南日嶋 14. 莆禧城", "recid": "bp373mc6104", "title": "東亞五万分一圖", "web_map": null, "websiteUrl": "https://purl.stanford.edu/bp373mc6104" }, "geometry": { "type": "Polygon", "coordinates": [ [ [ 119.0, 24.9999997 ], [ 119.25, 24.9999997 ], [ 119.25, 25.1666663 ], [ 119.0, 25.1666663 ], [ 119.0, 24.9999997 ] ] ] } },
{ "type": "Feature", "properties": { "Id": 0, "Sheet_ID": "南日嶋 13. 笏石", "Shape_Leng": 0.83333333407, "Shape_Area": 0.04166666672, "available": true, "call_num": "G7821 .R1 1906 .J3 SHEET C13", "call_short": "G7821 .R1 1906 .J3", "ckey": 12370331, "iiifUrl": "https://purl.stanford.edu/kd191wh8658/iiif/manifest", "label": "南日嶋 13. 笏石", "recid": "kd191wh8658", "title": "東亞五万分一圖", "web_map": null, "websiteUrl": "https://purl.stanford.edu/kd191wh8658" }, "geometry": { "type": "Polygon", "coordinates": [ [ [ 119.0, 25.1666663 ], [ 119.25, 25.1666663 ], [ 119.25, 25.333333 ], [ 119.0, 25.333333 ], [ 119.0, 25.1666663 ] ] ] } },
{ "type": "Feature", "properties": { "Id": 0, "Sheet_ID": "南日嶋 9. 平海", "Shape_Leng": 0.83333333226999995, "Shape_Area": 0.04166666658, "available": true, "call_num": "G7821 .R1 1906 .J3 SHEET C9", "call_short": "G7821 .R1 1906 .J3", "ckey": 12370331, "iiifUrl": "https://purl.stanford.edu/bm904nn1997/iiif/manifest", "label": "南日嶋 9. 平海", "recid": "bm904nn1997", "title": "東亞五万分一圖", "web_map": null, "websiteUrl": "https://purl.stanford.edu/bm904nn1997" }, "geometry": { "type": "Polygon", "coordinates": [ [ [ 119.25, 25.1666663 ], [ 119.5, 25.1666663 ], [ 119.5, 25.333333 ], [ 119.25, 25.333333 ], [ 119.25, 25.1666663 ] ] ] } },
{ "type": "Feature", "properties": { "Id": 0, "Sheet_ID": "徳化 4. 賴溪", "Shape_Leng": 0.83333399955999998, "Shape_Area": 0.04166674999, "available": true, "call_num": "G7821 .R1 1906 .J3 SHEET D4", "call_short": "G7821 .R1 1906 .J3", "ckey": 12370331, "iiifUrl": "https://purl.stanford.edu/kd302qb2766/iiif/manifest", "label": "徳化 4. 賴溪", "recid": "kd302qb2766", "title": "東亞五万分一圖", "web_map": null, "websiteUrl": "https://purl.stanford.edu/kd302qb2766" }, "geometry": { "type": "Polygon", "coordinates": [ [ [ 118.75, 25.333333 ], [ 119.0, 25.333333 ], [ 119.0, 25.5 ], [ 118.75, 25.5 ], [ 118.75, 25.333333 ] ] ] } },
{ "type": "Feature", "properties": { "Id": 0, "Sheet_ID": "泉州 16. 同安", "Shape_Leng": 0.83333300132, "Shape_Area": 0.04166662513, "available": true, "call_num": "G7821 .R1 1906 .J3 SHEET E16", "call_short": "G7821 .R1 1906 .J3", "ckey": 12370331, "iiifUrl": "https://purl.stanford.edu/gq469yg4870/iiif/manifest", "label": "泉州 16. 同安", "recid": "gq469yg4870", "title": "東亞五万分一圖", "web_map": null, "websiteUrl": "https://purl.stanford.edu/gq469yg4870" }, "geometry": { "type": "Polygon", "coordinates": [ [ [ 118.0, 24.666667 ], [ 118.25, 24.666667 ], [ 118.25, 24.8333335 ], [ 118.0, 24.8333335 ], [ 118.0, 24.666667 ] ] ] } },
{ "type": "Feature", "properties": { "Id": 0, "Sheet_ID": "泉州 12. 安海", "Shape_Leng": 0.83333299951999995, "Shape_Area": 0.04166662498, "available": true, "call_num": "G7821 .R1 1906 .J3 SHEET E12", "call_short": "G7821 .R1 1906 .J3", "ckey": 12370331, "iiifUrl": "https://purl.stanford.edu/hp824tn9184/iiif/manifest", "label": "泉州 12. 安海", "recid": "hp824tn9184", "title": "東亞五万分一圖", "web_map": null, "websiteUrl": "https://purl.stanford.edu/hp824tn9184" }, "geometry": { "type": "Polygon", "coordinates": [ [ [ 118.25, 24.666667 ], [ 118.5, 24.666667 ], [ 118.5, 24.8333335 ], [ 118.25, 24.8333335 ], [ 118.25, 24.666667 ] ] ] } },
{ "type": "Feature", "properties": { "Id": 0, "Sheet_ID": "泉州 8. 永寗", "Shape_Leng": 0.83333300132, "Shape_Area": 0.04166662513, "available": true, "call_num": "G7821 .R1 1906 .J3 SHEET E8", "call_short": "G7821 .R1 1906 .J3", "ckey": 12370331, "iiifUrl": "https://purl.stanford.edu/wq187wg6269/iiif/manifest", "label": "泉州 8. 永寗", "recid": "wq187wg6269", "title": "東亞五万分一圖", "web_map": null, "websiteUrl": "https://purl.stanford.edu/wq187wg6269" }, "geometry": { "type": "Polygon", "coordinates": [ [ [ 118.5, 24.666667 ], [ 118.75, 24.666667 ], [ 118.75, 24.8333335 ], [ 118.5, 24.8333335 ], [ 118.5, 24.666667 ] ] ] } },
{ "type": "Feature", "properties": { "Id": 0, "Sheet_ID": "泉州 4. 祥芝", "Shape_Leng": 0.83333299951999995, "Shape_Area": 0.04166662498, "available": true, "call_num": "G7821 .R1 1906 .J3 SHEET E4", "call_short": "G7821 .R1 1906 .J3", "ckey": 12370331, "iiifUrl": "https://purl.stanford.edu/mt065hb0778/iiif/manifest", "label": "泉州 4. 祥芝", "recid": "mt065hb0778", "title": "東亞五万分一圖", "web_map": null, "websiteUrl": "https://purl.stanford.edu/mt065hb0778" }, "geometry": { "type": "Polygon", "coordinates": [ [ [ 118.75, 24.666667 ], [ 119.0, 24.666667 ], [ 119.0, 24.8333335 ], [ 118.75, 24.8333335 ], [ 118.75, 24.666667 ] ] ] } },
{ "type": "Feature", "properties": { "Id": 0, "Sheet_ID": "泉州 11. 尾溪", "Shape_Leng": 0.83333299772000002, "Shape_Area": 0.04166662476, "available": true, "call_num": "G7821 .R1 1906 .J3 SHEET E11", "call_short": "G7821 .R1 1906 .J3", "ckey": 12370331, "iiifUrl": "https://purl.stanford.edu/yv803rm5110/iiif/manifest", "label": "泉州 11. 尾溪", "recid": "yv803rm5110", "title": "東亞五万分一圖", "web_map": null, "websiteUrl": "https://purl.stanford.edu/yv803rm5110" }, "geometry": { "type": "Polygon", "coordinates": [ [ [ 118.25, 24.8333335 ], [ 118.5, 24.8333335 ], [ 118.5, 25.0 ], [ 118.25, 25.0 ], [ 118.25, 24.8333335 ] ] ] } },
{ "type": "Feature", "properties": { "Id": 0, "Sheet_ID": "泉州 7. 泉州", "Shape_Leng": 0.83333299951999995, "Shape_Area": 0.04166662491, "available": true, "call_num": "G7821 .R1 1906 .J3 SHEET E7", "call_short": "G7821 .R1 1906 .J3", "ckey": 12370331, "iiifUrl": "https://purl.stanford.edu/wp560gr7171/iiif/manifest", "label": "泉州 7. 泉州", "recid": "wp560gr7171", "title": "東亞五万分一圖", "web_map": null, "websiteUrl": "https://purl.stanford.edu/wp560gr7171" }, "geometry": { "type": "Polygon", "coordinates": [ [ [ 118.5, 24.8333335 ], [ 118.75, 24.8333335 ], [ 118.75, 25.0 ], [ 118.5, 25.0 ], [ 118.5, 24.8333335 ] ] ] } },
{ "type": "Feature", "properties": { "Id": 0, "Sheet_ID": "泉州 3. 崇武", "Shape_Leng": 0.83333299772000002, "Shape_Area": 0.04166662476, "available": true, "call_num": "G7821 .R1 1906 .J3 SHEET E3", "call_short": "G7821 .R1 1906 .J3", "ckey": 12370331, "iiifUrl": "https://purl.stanford.edu/yj244ng8912/iiif/manifest", "label": "泉州 3. 崇武", "recid": "yj244ng8912", "title": "東亞五万分一圖", "web_map": null, "websiteUrl": "https://purl.stanford.edu/yj244ng8912" }, "geometry": { "type": "Polygon", "coordinates": [ [ [ 118.75, 24.8333335 ], [ 119.0, 24.8333335 ], [ 119.0, 25.0 ], [ 118.75, 25.0 ], [ 118.75, 24.8333335 ] ] ] } },
{ "type": "Feature", "properties": { "Id": 0, "Sheet_ID": "泉州 6. 洪頼街", "Shape_Leng": 0.83333300132, "Shape_Area": 0.04166662513, "available": true, "call_num": "G7821 .R1 1906 .J3 SHEET E6", "call_short": "G7821 .R1 1906 .J3", "ckey": 12370331, "iiifUrl": "https://purl.stanford.edu/qn722xb5018/iiif/manifest", "label": "泉州 6. 洪頼街", "recid": "qn722xb5018", "title": "東亞五万分一圖", "web_map": null, "websiteUrl": "https://purl.stanford.edu/qn722xb5018" }, "geometry": { "type": "Polygon", "coordinates": [ [ [ 118.5, 25.0 ], [ 118.75, 25.0 ], [ 118.75, 25.1666665 ], [ 118.5, 25.1666665 ], [ 118.5, 25.0 ] ] ] } },
{ "type": "Feature", "properties": { "Id": 0, "Sheet_ID": "泉州 2. 恵安", "Shape_Leng": 0.83333299951999995, "Shape_Area": 0.04166662498, "available": true, "call_num": "G7821 .R1 1906 .J3 SHEET E2", "call_short": "G7821 .R1 1906 .J3", "ckey": 12370331, "iiifUrl": "https://purl.stanford.edu/tg913sg7332/iiif/manifest", "label": "泉州 2. 恵安", "recid": "tg913sg7332", "title": "東亞五万分一圖", "web_map": null, "websiteUrl": "https://purl.stanford.edu/tg913sg7332" }, "geometry": { "type": "Polygon", "coordinates": [ [ [ 118.75, 25.0 ], [ 119.0, 25.0 ], [ 119.0, 25.1666665 ], [ 118.75, 25.1666665 ], [ 118.75, 25.0 ] ] ] } },
{ "type": "Feature", "properties": { "Id": 0, "Sheet_ID": "泉州 1. 楓亭", "Shape_Leng": 0.83333299951999995, "Shape_Area": 0.04166662498, "available": true, "call_num": "G7821 .R1 1906 .J3 SHEET E1", "call_short": "G7821 .R1 1906 .J3", "ckey": 12370331, "iiifUrl": "https://purl.stanford.edu/bd625bj7284/iiif/manifest", "label": "泉州 1. 楓亭", "recid": "bd625bj7284", "title": "東亞五万分一圖", "web_map": null, "websiteUrl": "https://purl.stanford.edu/bd625bj7284" }, "geometry": { "type": "Polygon", "coordinates": [ [ [ 118.75, 25.1666665 ], [ 119.0, 25.1666665 ], [ 119.0, 25.333333 ], [ 118.75, 25.333333 ], [ 118.75, 25.1666665 ] ] ] } },
{ "type": "Feature", "properties": { "Id": 0, "Sheet_ID": "廈門 15. 鎮海城", "Shape_Leng": 0.83333333407, "Shape_Area": 0.04166666672, "available": true, "call_num": "G7821 .R1 1906 .J3 SHEET F15", "call_short": "G7821 .R1 1906 .J3", "ckey": 12370331, "iiifUrl": "https://purl.stanford.edu/sc391hr1470/iiif/manifest", "label": "廈門 15. 鎮海城", "recid": "sc391hr1470", "title": "東亞五万分一圖", "web_map": null, "websiteUrl": "https://purl.stanford.edu/sc391hr1470" }, "geometry": { "type": "Polygon", "coordinates": [ [ [ 118.0, 24.166667 ], [ 118.25, 24.166667 ], [ 118.25, 24.3333337 ], [ 118.0, 24.3333337 ], [ 118.0, 24.166667 ] ] ] } },
{ "type": "Feature", "properties": { "Id": 0, "Sheet_ID": "廈門 14. 廈門", "Shape_Leng": 0.83333333407, "Shape_Area": 0.04166666672, "available": true, "call_num": "G7821 .R1 1906 .J3 SHEET F14", "call_short": "G7821 .R1 1906 .J3", "ckey": 12370331, "iiifUrl": "https://purl.stanford.edu/sk423nm9013/iiif/manifest", "label": "廈門 14. 廈門", "recid": "sk423nm9013", "title": "東亞五万分一圖", "web_map": null, "websiteUrl": "https://purl.stanford.edu/sk423nm9013" }, "geometry": { "type": "Polygon", "coordinates": [ [ [ 118.0, 24.3333337 ], [ 118.25, 24.3333337 ], [ 118.25, 24.5000003 ], [ 118.0, 24.5000003 ], [ 118.0, 24.3333337 ] ] ] } },
{ "type": "Feature", "properties": { "Id": 0, "Sheet_ID": "廈門 10. 金門島", "Shape_Leng": 0.83333333226999995, "Shape_Area": 0.04166666658, "available": true, "call_num": "G7821 .R1 1906 .J3 SHEET F10", "call_short": "G7821 .R1 1906 .J3", "ckey": 12370331, "iiifUrl": "https://purl.stanford.edu/vh792fd0891/iiif/manifest", "label": "廈門 10. 金門島", "recid": "vh792fd0891", "title": "東亞五万分一圖", "web_map": null, "websiteUrl": "https://purl.stanford.edu/vh792fd0891" }, "geometry": { "type": "Polygon", "coordinates": [ [ [ 118.25, 24.3333337 ], [ 118.5, 24.3333337 ], [ 118.5, 24.5000003 ], [ 118.25, 24.5000003 ], [ 118.25, 24.3333337 ] ] ] } },
{ "type": "Feature", "properties": { "Id": 0, "Sheet_ID": "廈門 13. 劉五店", "Shape_Leng": 0.83333333407, "Shape_Area": 0.04166666672, "available": false, "call_num": null, "call_short": null, "ckey": 0, "iiifUrl": null, "label": "廈門 13. 劉五店", "recid": null, "title": null, "web_map": null, "websiteUrl": null }, "geometry": { "type": "Polygon", "coordinates": [ [ [ 118.0, 24.5000003 ], [ 118.25, 24.5000003 ], [ 118.25, 24.666667 ], [ 118.0, 24.666667 ], [ 118.0, 24.5000003 ] ] ] } },
{ "type": "Feature", "properties": { "Id": 0, "Sheet_ID": "廈門 9. 石井", "Shape_Leng": 0.83333333226999995, "Shape_Area": 0.04166666658, "available": true, "call_num": "G7821 .R1 1906 .J3 SHEET F9", "call_short": "G7821 .R1 1906 .J3", "ckey": 12370331, "iiifUrl": "https://purl.stanford.edu/gc994hb2862/iiif/manifest", "label": "廈門 9. 石井", "recid": "gc994hb2862", "title": "東亞五万分一圖", "web_map": null, "websiteUrl": "https://purl.stanford.edu/gc994hb2862" }, "geometry": { "type": "Polygon", "coordinates": [ [ [ 118.25, 24.5000003 ], [ 118.5, 24.5000003 ], [ 118.5, 24.666667 ], [ 118.25, 24.666667 ], [ 118.25, 24.5000003 ] ] ] } },
{ "type": "Feature", "properties": { "Id": 0, "Sheet_ID": "廈門 5. 深滬", "Shape_Leng": 0.83333333407, "Shape_Area": 0.04166666672, "available": false, "call_num": null, "call_short": null, "ckey": 0, "iiifUrl": null, "label": "廈門 5. 深滬", "recid": null, "title": null, "web_map": null, "websiteUrl": null }, "geometry": { "type": "Polygon", "coordinates": [ [ [ 118.5, 24.5000003 ], [ 118.75, 24.5000003 ], [ 118.75, 24.666667 ], [ 118.5, 24.666667 ], [ 118.5, 24.5000003 ] ] ] } },
{ "type": "Feature", "properties": { "Id": 0, "Sheet_ID": "龍岩 8. 豐山", "Shape_Leng": 0.83333200126999996, "Shape_Area": 0.04166650013, "available": true, "call_num": "G7821 .R1 1906 .J3 SHEET G8", "call_short": "G7821 .R1 1906 .J3", "ckey": 12370331, "iiifUrl": "https://purl.stanford.edu/dv919tt0510/iiif/manifest", "label": "龍岩 8. 豐山", "recid": "dv919tt0510", "title": "東亞五万分一圖", "web_map": null, "websiteUrl": "https://purl.stanford.edu/dv919tt0510" }, "geometry": { "type": "Polygon", "coordinates": [ [ [ 117.5, 24.666667 ], [ 117.75, 24.666667 ], [ 117.75, 24.833333 ], [ 117.5, 24.833333 ], [ 117.5, 24.666667 ] ] ] } },
{ "type": "Feature", "properties": { "Id": 0, "Sheet_ID": "龍岩 4. 山重", "Shape_Leng": 0.83333199947000003, "Shape_Area": 0.04166649998, "available": true, "call_num": "G7821 .R1 1906 .J3 SHEET G4", "call_short": "G7821 .R1 1906 .J3", "ckey": 12370331, "iiifUrl": "https://purl.stanford.edu/qm711mf8685/iiif/manifest", "label": "龍岩 4. 山重", "recid": "qm711mf8685", "title": "東亞五万分一圖", "web_map": null, "websiteUrl": "https://purl.stanford.edu/qm711mf8685" }, "geometry": { "type": "Polygon", "coordinates": [ [ [ 117.75, 24.666667 ], [ 118.0, 24.666667 ], [ 118.0, 24.833333 ], [ 117.75, 24.833333 ], [ 117.75, 24.666667 ] ] ] } },
{ "type": "Feature", "properties": { "Id": 0, "Sheet_ID": "漳州 12. 盤陀", "Shape_Leng": 0.83333350133999995, "Shape_Area": 0.04166668763, "available": true, "call_num": "G7821 .R1 1906 .J3 SHEET H12", "call_short": "G7821 .R1 1906 .J3", "ckey": 12370331, "iiifUrl": "https://purl.stanford.edu/dx516fp5842/iiif/manifest", "label": "漳州 12. 盤陀", "recid": "dx516fp5842", "title": "東亞五万分一圖", "web_map": null, "websiteUrl": "https://purl.stanford.edu/dx516fp5842" }, "geometry": { "type": "Polygon", "coordinates": [ [ [ 117.25, 24.0 ], [ 117.5, 24.0 ], [ 117.5, 24.1666668 ], [ 117.25, 24.1666668 ], [ 117.25, 24.0 ] ] ] } },
{ "type": "Feature", "properties": { "Id": 0, "Sheet_ID": "漳州 8. 漳浦", "Shape_Leng": 0.83333350133999995, "Shape_Area": 0.04166668763, "available": true, "call_num": "G7821 .R1 1906 .J3 SHEET H8", "call_short": "G7821 .R1 1906 .J3", "ckey": 12370331, "iiifUrl": "https://purl.stanford.edu/wv428jp9398/iiif/manifest", "label": "漳州 8. 漳浦", "recid": "wv428jp9398", "title": "東亞五万分一圖", "web_map": null, "websiteUrl": "https://purl.stanford.edu/wv428jp9398" }, "geometry": { "type": "Polygon", "coordinates": [ [ [ 117.5, 24.0 ], [ 117.75, 24.0 ], [ 117.75, 24.1666668 ], [ 117.5, 24.1666668 ], [ 117.5, 24.0 ] ] ] } },
{ "type": "Feature", "properties": { "Id": 0, "Sheet_ID": "漳州 4. 赤湖", "Shape_Leng": 0.83333349954000002, "Shape_Area": 0.04166668748, "available": true, "call_num": "G7821 .R1 1906 .J3 SHEET H4", "call_short": "G7821 .R1 1906 .J3", "ckey": 12370331, "iiifUrl": "https://purl.stanford.edu/kf145yb9194/iiif/manifest", "label": "漳州 4. 赤湖", "recid": "kf145yb9194", "title": "東亞五万分一圖", "web_map": null, "websiteUrl": "https://purl.stanford.edu/kf145yb9194" }, "geometry": { "type": "Polygon", "coordinates": [ [ [ 117.75, 24.0 ], [ 118.0, 24.0 ], [ 118.0, 24.1666668 ], [ 117.75, 24.1666668 ], [ 117.75, 24.0 ] ] ] } },
{ "type": "Feature", "properties": { "Id": 0, "Sheet_ID": "漳州 7. 赤頭嶺", "Shape_Leng": 0.83333350133999995, "Shape_Area": 0.04166668763, "available": true, "call_num": "G7821 .R1 1906 .J3 SHEET H7", "call_short": "G7821 .R1 1906 .J3", "ckey": 12370331, "iiifUrl": "https://purl.stanford.edu/jv020js8110/iiif/manifest", "label": "漳州 7. 赤頭嶺", "recid": "jv020js8110", "title": "東亞五万分一圖", "web_map": null, "websiteUrl": "https://purl.stanford.edu/jv020js8110" }, "geometry": { "type": "Polygon", "coordinates": [ [ [ 117.5, 24.1666668 ], [ 117.75, 24.1666668 ], [ 117.75, 24.3333335 ], [ 117.5, 24.3333335 ], [ 117.5, 24.1666668 ] ] ] } },
{ "type": "Feature", "properties": { "Id": 0, "Sheet_ID": "漳州 3. 浮南橋", "Shape_Leng": 0.83333349954000002, "Shape_Area": 0.04166668748, "available": true, "call_num": "G7821 .R1 1906 .J3 SHEET H3", "call_short": "G7821 .R1 1906 .J3", "ckey": 12370331, "iiifUrl": "https://purl.stanford.edu/hj119hw4116/iiif/manifest", "label": "漳州 3. 浮南橋", "recid": "hj119hw4116", "title": "東亞五万分一圖", "web_map": null, "websiteUrl": "https://purl.stanford.edu/hj119hw4116" }, "geometry": { "type": "Polygon", "coordinates": [ [ [ 117.75, 24.1666668 ], [ 118.0, 24.1666668 ], [ 118.0, 24.3333335 ], [ 117.75, 24.3333335 ], [ 117.75, 24.1666668 ] ] ] } },
{ "type": "Feature", "properties": { "Id": 0, "Sheet_ID": "漳州 6. 九龍嶺", "Shape_Leng": 0.83333349954000002, "Shape_Area": 0.04166668741, "available": true, "call_num": "G7821 .R1 1906 .J3 SHEET H6", "call_short": "G7821 .R1 1906 .J3", "ckey": 12370331, "iiifUrl": "https://purl.stanford.edu/pm989zq0848/iiif/manifest", "label": "漳州 6. 九龍嶺", "recid": "pm989zq0848", "title": "東亞五万分一圖", "web_map": null, "websiteUrl": "https://purl.stanford.edu/pm989zq0848" }, "geometry": { "type": "Polygon", "coordinates": [ [ [ 117.5, 24.3333335 ], [ 117.75, 24.3333335 ], [ 117.75, 24.5000002 ], [ 117.5, 24.5000002 ], [ 117.5, 24.3333335 ] ] ] } },
{ "type": "Feature", "properties": { "Id": 0, "Sheet_ID": "漳州 2. 海澄", "Shape_Leng": 0.83333349773999998, "Shape_Area": 0.04166668726, "available": true, "call_num": "G7821 .R1 1906 .J3 SHEET H2", "call_short": "G7821 .R1 1906 .J3", "ckey": 12370331, "iiifUrl": "https://purl.stanford.edu/fp079kb7706/iiif/manifest", "label": "漳州 2. 海澄", "recid": "fp079kb7706", "title": "東亞五万分一圖", "web_map": null, "websiteUrl": "https://purl.stanford.edu/fp079kb7706" }, "geometry": { "type": "Polygon", "coordinates": [ [ [ 117.75, 24.3333335 ], [ 118.0, 24.3333335 ], [ 118.0, 24.5000002 ], [ 117.75, 24.5000002 ], [ 117.75, 24.3333335 ] ] ] } },
{ "type": "Feature", "properties": { "Id": 0, "Sheet_ID": "漳州 5. 漳州", "Shape_Leng": 0.83333350133999995, "Shape_Area": 0.04166668763, "available": true, "call_num": "G7821 .R1 1906 .J3 SHEET H5", "call_short": "G7821 .R1 1906 .J3", "ckey": 12370331, "iiifUrl": "https://purl.stanford.edu/jc710zd8190/iiif/manifest", "label": "漳州 5. 漳州", "recid": "jc710zd8190", "title": "東亞五万分一圖", "web_map": null, "websiteUrl": "https://purl.stanford.edu/jc710zd8190" }, "geometry": { "type": "Polygon", "coordinates": [ [ [ 117.5, 24.5000002 ], [ 117.75, 24.5000002 ], [ 117.75, 24.666667 ], [ 117.5, 24.666667 ], [ 117.5, 24.5000002 ] ] ] } },
{ "type": "Feature", "properties": { "Id": 0, "Sheet_ID": "漳州 1. 長泰", "Shape_Leng": 0.83333349954000002, "Shape_Area": 0.04166668748, "available": true, "call_num": "G7821 .R1 1906 .J3 SHEET H1", "call_short": "G7821 .R1 1906 .J3", "ckey": 12370331, "iiifUrl": "https://purl.stanford.edu/rd558xb3630/iiif/manifest", "label": "漳州 1. 長泰", "recid": "rd558xb3630", "title": "東亞五万分一圖", "web_map": null, "websiteUrl": "https://purl.stanford.edu/rd558xb3630" }, "geometry": { "type": "Polygon", "coordinates": [ [ [ 117.75, 24.5000002 ], [ 118.0, 24.5000002 ], [ 118.0, 24.666667 ], [ 117.75, 24.666667 ], [ 117.75, 24.5000002 ] ] ] } },
{ "type": "Feature", "properties": { "Id": 0, "Sheet_ID": "詔安 5. 六鰲", "Shape_Leng": 0.83333399955999998, "Shape_Area": 0.04166674991, "available": true, "call_num": "G7821 .R1 1906 .J3 SHEET I5", "call_short": "G7821 .R1 1906 .J3", "ckey": 12370331, "iiifUrl": "https://purl.stanford.edu/sh681cr8469/iiif/manifest", "label": "詔安 5. 六鰲", "recid": "sh681cr8469", "title": "東亞五万分一圖", "web_map": null, "websiteUrl": "https://purl.stanford.edu/sh681cr8469" }, "geometry": { "type": "Polygon", "coordinates": [ [ [ 117.5, 23.833333 ], [ 117.75, 23.833333 ], [ 117.75, 24.0 ], [ 117.5, 24.0 ], [ 117.5, 23.833333 ] ] ] } },
{ "type": "Feature", "properties": { "Id": 0, "Sheet_ID": "詔安 1. 大澳", "Shape_Leng": 0.83333399776999995, "Shape_Area": 0.04166674976, "available": true, "call_num": "G7821 .R1 1906 .J3 SHEET I1", "call_short": "G7821 .R1 1906 .J3", "ckey": 12370331, "iiifUrl": "https://purl.stanford.edu/ss702fz9693/iiif/manifest", "label": "詔安 1. 大澳", "recid": "ss702fz9693", "title": "東亞五万分一圖", "web_map": null, "websiteUrl": "https://purl.stanford.edu/ss702fz9693" }, "geometry": { "type": "Polygon", "coordinates": [ [ [ 117.75, 23.833333 ], [ 118.0, 23.833333 ], [ 118.0, 24.0 ], [ 117.75, 24.0 ], [ 117.75, 23.833333 ] ] ] } }
]
}
