{"type":"FeatureCollection","features":[{"type":"Feature","properties":{"Id":0,"Sheet_ID":"テレッサ島","label":"テレッサ島","call_short":"G7653 .A5 1944 .J3","call_num":"G7653 .A5 1944 .J3","recid":"nb118vh0116","websiteUrl":"https://purl.stanford.edu/nb118vh0116","title":"五万分一ニコバル諸島陸海編合圖","ckey":12271001,"web_map":"","available":"true","iiifUrl":"https://purl.stanford.edu/nb118vh0116/iiif/manifest"},"geometry":{"bbox":[92.933333,8.133333,93.266667,8.6],"type":"Polygon","coordinates":[[[92.933333,8.133333],[92.933333,8.6],[93.266667,8.6],[93.266667,8.133333],[92.933333,8.133333]]]}},{"type":"Feature","properties":{"Id":0,"Sheet_ID":"ティランチョン島","label":"ティランチョン島","call_short":"G7653 .A5 1944 .J3","call_num":"G7653 .A5 1944 .J3","recid":"nb118vh0116","websiteUrl":"https://purl.stanford.edu/nb118vh0116","title":"五万分一ニコバル諸島陸海編合圖","ckey":12271001,"web_map":"","available":"true","iiifUrl":"https://purl.stanford.edu/nb118vh0116/iiif/manifest"},"geometry":{"bbox":[93.55000000000001,8.333333000000096,93.66666700000002,8.625000000000057],"type":"Polygon","coordinates":[[[93.55000000000001,8.333333000000096],[93.55000000000001,8.625000000000057],[93.66666700000002,8.625000000000057],[93.66666700000002,8.333333000000096],[93.55000000000001,8.333333000000096]]]}},{"type":"Feature","properties":{"Id":0,"Sheet_ID":"カーニコバル島、バティマルヴ島","label":"カーニコバル島、バティマルヴ島","call_short":"","call_num":"","recid":"","websiteUrl":"","title":"","ckey":0,"web_map":"","available":"false","iiifUrl":""},"geometry":{"bbox":[92.70000000000005,8.799999999999955,92.86666700000006,9.26666700000004],"type":"Polygon","coordinates":[[[92.70000000000005,8.799999999999955],[92.70000000000005,9.26666700000004],[92.86666700000006,9.26666700000004],[92.86666700000006,8.799999999999955],[92.70000000000005,8.799999999999955]]]}},{"type":"Feature","properties":{"Id":0,"Sheet_ID":"カモルタ島、ナンカウリ島","label":"カモルタ島、ナンカウリ島","call_short":"","call_num":"","recid":"","websiteUrl":"","title":"","ckey":0,"web_map":"","available":"false","iiifUrl":""},"geometry":{"bbox":[93.30000000000007,7.862500000000125,93.60833300000013,8.24166700000012],"type":"Polygon","coordinates":[[[93.30000000000007,7.862500000000125],[93.30000000000007,8.24166700000012],[93.60833300000013,8.24166700000012],[93.60833300000013,7.862500000000125],[93.30000000000007,7.862500000000125]]]}},{"type":"Feature","properties":{"Id":0,"Sheet_ID":"ミロエ島、小ニコバル島","label":"ミロエ島、小ニコバル島","call_short":"","call_num":"","recid":"","websiteUrl":"","title":"","ckey":0,"web_map":"","available":"false","iiifUrl":""},"geometry":{"bbox":[93.51666699999998,7.1999999999999895,93.90000000000009,7.533333000000028],"type":"Polygon","coordinates":[[[93.51666699999998,7.1999999999999895],[93.51666699999998,7.533333000000028],[93.90000000000009,7.533333000000028],[93.90000000000009,7.1999999999999895],[93.51666699999998,7.1999999999999895]]]}},{"type":"Feature","properties":{"Id":0,"Sheet_ID":"大ニコバル島","label":"大ニコバル島","call_short":"","call_num":"","recid":"","websiteUrl":"","title":"","ckey":0,"web_map":"","available":"false","iiifUrl":""},"geometry":{"bbox":[93.6333330000001,6.7166669999999735,93.96666700000003,7.1999999999999895],"type":"Polygon","coordinates":[[[93.6333330000001,7.1999999999999895],[93.96666700000003,7.1999999999999895],[93.96666700000003,6.7166669999999735],[93.6333330000001,6.7166669999999735],[93.6333330000001,7.1999999999999895]]]}}],"name":"index_12271001"}
