{
"type": "FeatureCollection",
"name": "index_map",
"xy_coordinate_resolution": 1e-07,
"features": [
{ "type": "Feature", "properties": { "Id": 0, "Shee_ID": "壹〇ワ184. 豆満江口", "label": "壹〇ワ184. 豆満江口", "call_short": "G7400 S100 .J3", "call_num": "G7400 S100 .J3 10WA184", "recid": "dm829cy3858", "websiteUrl": "https://purl.stanford.edu/dm829cy3858", "title": "十万分一地誌圖_西伯利十万分一圖", "ckey": 10766459, "available": true, "iiifUrl": "https://purl.stanford.edu/dm829cy3858/iiif/manifest" }, "geometry": { "type": "Polygon", "coordinates": [ [ [ 130.5, 42.0 ], [ 131.0, 42.0 ], [ 131.0, 42.3333333 ], [ 130.5, 42.3333333 ], [ 130.5, 42.0 ] ] ] } },
{ "type": "Feature", "properties": { "Id": 0, "Shee_ID": "雄基", "label": "雄基", "call_short": "0", "call_num": "0", "recid": "0", "websiteUrl": "0", "title": "0", "ckey": 0, "available": false, "iiifUrl": "0" }, "geometry": { "type": "Polygon", "coordinates": [ [ [ 130.0, 42.3333333 ], [ 130.5, 42.3333333 ], [ 130.5, 42.6666666 ], [ 130.0, 42.6666666 ], [ 130.0, 42.3333333 ] ] ] } },
{ "type": "Feature", "properties": { "Id": 0, "Shee_ID": "慶興", "label": "慶興", "call_short": "0", "call_num": "0", "recid": "0", "websiteUrl": "0", "title": "0", "ckey": 0, "available": false, "iiifUrl": "0" }, "geometry": { "type": "Polygon", "coordinates": [ [ [ 130.5, 42.3333333 ], [ 131.0, 42.3333333 ], [ 131.0, 42.6666666 ], [ 130.5, 42.6666666 ], [ 130.5, 42.3333333 ] ] ] } },
{ "type": "Feature", "properties": { "Id": 0, "Shee_ID": "クドゥーエ", "label": "クドゥーエ", "call_short": "0", "call_num": "0", "recid": "0", "websiteUrl": "0", "title": "0", "ckey": 0, "available": false, "iiifUrl": "0" }, "geometry": { "type": "Polygon", "coordinates": [ [ [ 131.0, 42.3333333 ], [ 131.5, 42.3333333 ], [ 131.5, 42.6666666 ], [ 131.0, 42.6666666 ], [ 131.0, 42.3333333 ] ] ] } },
{ "type": "Feature", "properties": { "Id": 0, "Shee_ID": "琿春", "label": "琿春", "call_short": "0", "call_num": "0", "recid": "0", "websiteUrl": "0", "title": "0", "ckey": 0, "available": false, "iiifUrl": "0" }, "geometry": { "type": "Polygon", "coordinates": [ [ [ 130.0, 42.6666666 ], [ 130.5, 42.6666666 ], [ 130.5, 43.0 ], [ 130.0, 43.0 ], [ 130.0, 42.6666666 ] ] ] } },
{ "type": "Feature", "properties": { "Id": 0, "Shee_ID": "馬滴達", "label": "馬滴達", "call_short": "0", "call_num": "0", "recid": "0", "websiteUrl": "0", "title": "0", "ckey": 0, "available": false, "iiifUrl": "0" }, "geometry": { "type": "Polygon", "coordinates": [ [ [ 130.5, 42.6666666 ], [ 131.0, 42.6666666 ], [ 131.0, 43.0 ], [ 130.5, 43.0 ], [ 130.5, 42.6666666 ] ] ] } },
{ "type": "Feature", "properties": { "Id": 0, "Shee_ID": "西北溝", "label": "西北溝", "call_short": "0", "call_num": "0", "recid": "0", "websiteUrl": "0", "title": "0", "ckey": 0, "available": false, "iiifUrl": "0" }, "geometry": { "type": "Polygon", "coordinates": [ [ [ 131.0, 42.6666666 ], [ 131.5, 42.6666666 ], [ 131.5, 43.0 ], [ 131.0, 43.0 ], [ 131.0, 42.6666666 ] ] ] } },
{ "type": "Feature", "properties": { "Id": 0, "Shee_ID": "ルスキー島", "label": "ルスキー島", "call_short": "0", "call_num": "0", "recid": "0", "websiteUrl": "0", "title": "0", "ckey": 0, "available": false, "iiifUrl": "0" }, "geometry": { "type": "Polygon", "coordinates": [ [ [ 131.5, 42.6666666 ], [ 132.0, 42.6666666 ], [ 132.0, 43.0 ], [ 131.5, 43.0 ], [ 131.5, 42.6666666 ] ] ] } },
{ "type": "Feature", "properties": { "Id": 0, "Shee_ID": "壹〇ワ152. ドゥナイ", "label": "壹〇ワ152. ドゥナイ", "call_short": "G7400 S100 .J3", "call_num": "G7400 S100 .J3 10WA152", "recid": "wt908bx5987", "websiteUrl": "https://purl.stanford.edu/wt908bx5987", "title": "十万分一地誌圖_西伯利十万分一圖", "ckey": 10766459, "available": true, "iiifUrl": "https://purl.stanford.edu/wt908bx5987/iiif/manifest" }, "geometry": { "type": "Polygon", "coordinates": [ [ [ 132.0, 42.6666666 ], [ 132.5, 42.6666666 ], [ 132.5, 43.0 ], [ 132.0, 43.0 ], [ 132.0, 42.6666666 ] ] ] } },
{ "type": "Feature", "properties": { "Id": 0, "Shee_ID": "壹〇ワ142. ナホドカ", "label": "壹〇ワ142. ナホドカ", "call_short": "G7400 S100 .J3", "call_num": "G7400 S100 .J3 10WA142", "recid": "zw284wq3162", "websiteUrl": "https://purl.stanford.edu/zw284wq3162", "title": "十万分一地誌圖_西伯利十万分一圖", "ckey": 10766459, "available": true, "iiifUrl": "https://purl.stanford.edu/zw284wq3162/iiif/manifest" }, "geometry": { "type": "Polygon", "coordinates": [ [ [ 132.5, 42.6666666 ], [ 133.0, 42.6666666 ], [ 133.0, 43.0 ], [ 132.5, 43.0 ], [ 132.5, 42.6666666 ] ] ] } },
{ "type": "Feature", "properties": { "Id": 0, "Shee_ID": "壹〇ワ132. ウラジミロフカ", "label": "壹〇ワ132. ウラジミロフカ", "call_short": "G7400 S100 .J3", "call_num": "G7400 S100 .J3 10WA132", "recid": "xg449hy4707", "websiteUrl": "https://purl.stanford.edu/xg449hy4707", "title": "十万分一地誌圖_西伯利十万分一圖", "ckey": 10766459, "available": true, "iiifUrl": "https://purl.stanford.edu/xg449hy4707/iiif/manifest" }, "geometry": { "type": "Polygon", "coordinates": [ [ [ 133.0, 42.6666666 ], [ 133.5, 42.6666666 ], [ 133.5, 43.0 ], [ 133.0, 43.0 ], [ 133.0, 42.6666666 ] ] ] } },
{ "type": "Feature", "properties": { "Id": 0, "Shee_ID": "十里坪", "label": "十里坪", "call_short": "0", "call_num": "0", "recid": "0", "websiteUrl": "0", "title": "0", "ckey": 0, "available": false, "iiifUrl": "0" }, "geometry": { "type": "Polygon", "coordinates": [ [ [ 130.0, 43.0 ], [ 130.5, 43.0 ], [ 130.5, 43.3333333 ], [ 130.0, 43.3333333 ], [ 130.0, 43.0 ] ] ] } },
{ "type": "Feature", "properties": { "Id": 0, "Shee_ID": "陽金溝", "label": "陽金溝", "call_short": "0", "call_num": "0", "recid": "0", "websiteUrl": "0", "title": "0", "ckey": 0, "available": false, "iiifUrl": "0" }, "geometry": { "type": "Polygon", "coordinates": [ [ [ 130.5, 43.0 ], [ 131.0, 43.0 ], [ 131.0, 43.3333333 ], [ 130.5, 43.3333333 ], [ 130.5, 43.0 ] ] ] } },
{ "type": "Feature", "properties": { "Id": 0, "Shee_ID": "東興鎮", "label": "東興鎮", "call_short": "0", "call_num": "0", "recid": "0", "websiteUrl": "0", "title": "0", "ckey": 0, "available": false, "iiifUrl": "0" }, "geometry": { "type": "Polygon", "coordinates": [ [ [ 131.0, 43.0 ], [ 131.5, 43.0 ], [ 131.5, 43.3333333 ], [ 131.0, 43.3333333 ], [ 131.0, 43.0 ] ] ] } },
{ "type": "Feature", "properties": { "Id": 0, "Shee_ID": "壹〇ワ161. 浦潮斯德", "label": "壹〇ワ161. 浦潮斯德", "call_short": "G7400 S100 .J3", "call_num": "G7400 S100 .J3 10WA161", "recid": "fw477ry3091", "websiteUrl": "https://purl.stanford.edu/fw477ry3091", "title": "十万分一地誌圖_西伯利十万分一圖", "ckey": 10766459, "available": true, "iiifUrl": "https://purl.stanford.edu/fw477ry3091/iiif/manifest" }, "geometry": { "type": "Polygon", "coordinates": [ [ [ 131.5, 43.0 ], [ 132.0, 43.0 ], [ 132.0, 43.3333333 ], [ 131.5, 43.3333333 ], [ 131.5, 43.0 ] ] ] } },
{ "type": "Feature", "properties": { "Id": 0, "Shee_ID": "シコトーウォ", "label": "シコトーウォ", "call_short": "0", "call_num": "0", "recid": "0", "websiteUrl": "0", "title": "0", "ckey": 0, "available": false, "iiifUrl": "0" }, "geometry": { "type": "Polygon", "coordinates": [ [ [ 132.0, 43.0 ], [ 132.5, 43.0 ], [ 132.5, 43.3333333 ], [ 132.0, 43.3333333 ], [ 132.0, 43.0 ] ] ] } },
{ "type": "Feature", "properties": { "Id": 0, "Shee_ID": "壹〇ワ141. ノーウォネージノ", "label": "壹〇ワ141. ノーウォネージノ", "call_short": "G7400 S100 .J3", "call_num": "G7400 S100 .J3 10WA141", "recid": "zx374rr3925", "websiteUrl": "https://purl.stanford.edu/zx374rr3925", "title": "十万分一地誌圖_西伯利十万分一圖", "ckey": 10766459, "available": true, "iiifUrl": "https://purl.stanford.edu/zx374rr3925/iiif/manifest" }, "geometry": { "type": "Polygon", "coordinates": [ [ [ 132.5, 43.0 ], [ 133.0, 43.0 ], [ 133.0, 43.3333333 ], [ 132.5, 43.3333333 ], [ 132.5, 43.0 ] ] ] } },
{ "type": "Feature", "properties": { "Id": 0, "Shee_ID": "壹〇ワ131. スーチャン", "label": "壹〇ワ131. スーチャン", "call_short": "G7400 S100 .J3", "call_num": "G7400 S100 .J3 10WA131", "recid": "pw765fr5016", "websiteUrl": "https://purl.stanford.edu/pw765fr5016", "title": "十万分一地誌圖_西伯利十万分一圖", "ckey": 10766459, "available": true, "iiifUrl": "https://purl.stanford.edu/pw765fr5016/iiif/manifest" }, "geometry": { "type": "Polygon", "coordinates": [ [ [ 133.0, 43.0 ], [ 133.5, 43.0 ], [ 133.5, 43.3333333 ], [ 133.0, 43.3333333 ], [ 133.0, 43.0 ] ] ] } },
{ "type": "Feature", "properties": { "Id": 0, "Shee_ID": "火焼舗", "label": "火焼舗", "call_short": "0", "call_num": "0", "recid": "0", "websiteUrl": "0", "title": "0", "ckey": 0, "available": false, "iiifUrl": "0" }, "geometry": { "type": "Polygon", "coordinates": [ [ [ 130.0, 43.3333333 ], [ 130.5, 43.3333333 ], [ 130.5, 43.6666666 ], [ 130.0, 43.6666666 ], [ 130.0, 43.3333333 ] ] ] } },
{ "type": "Feature", "properties": { "Id": 0, "Shee_ID": "壹〇カ190. 豐焼", "label": "壹〇カ190. 豐焼", "call_short": "G7400 S100 .J3", "call_num": "G7400 S100 .J3 10KA190", "recid": "xf193ph0860", "websiteUrl": "https://purl.stanford.edu/xf193ph0860", "title": "十万分一地誌圖_満洲十万分一圖", "ckey": 10766459, "available": true, "iiifUrl": "https://purl.stanford.edu/xf193ph0860/iiif/manifest" }, "geometry": { "type": "Polygon", "coordinates": [ [ [ 130.5, 43.3333333 ], [ 131.0, 43.3333333 ], [ 131.0, 43.6666666 ], [ 130.5, 43.6666666 ], [ 130.5, 43.3333333 ] ] ] } },
{ "type": "Feature", "properties": { "Id": 0, "Shee_ID": "白刀山子", "label": "白刀山子", "call_short": "0", "call_num": "0", "recid": "0", "websiteUrl": "0", "title": "0", "ckey": 0, "available": false, "iiifUrl": "0" }, "geometry": { "type": "Polygon", "coordinates": [ [ [ 131.0, 43.3333333 ], [ 131.5, 43.3333333 ], [ 131.5, 43.6666666 ], [ 131.0, 43.6666666 ], [ 131.0, 43.3333333 ] ] ] } },
{ "type": "Feature", "properties": { "Id": 0, "Shee_ID": "壹〇カ170. ラズドリノーエ", "label": "壹〇カ170. ラズドリノーエ", "call_short": "G7400 S100 .J3", "call_num": "G7400 S100 .J3 10KA170", "recid": "sp470pm8980", "websiteUrl": "https://purl.stanford.edu/sp470pm8980", "title": "十万分一地誌圖_西伯利十万分一圖", "ckey": 10766459, "available": true, "iiifUrl": "https://purl.stanford.edu/sp470pm8980/iiif/manifest" }, "geometry": { "type": "Polygon", "coordinates": [ [ [ 131.5, 43.3333333 ], [ 132.0, 43.3333333 ], [ 132.0, 43.6666666 ], [ 131.5, 43.6666666 ], [ 131.5, 43.3333333 ] ] ] } },
{ "type": "Feature", "properties": { "Id": 0, "Shee_ID": "アルチョム", "label": "アルチョム", "call_short": "0", "call_num": "0", "recid": "0", "websiteUrl": "0", "title": "0", "ckey": 0, "available": false, "iiifUrl": "0" }, "geometry": { "type": "Polygon", "coordinates": [ [ [ 132.0, 43.3333333 ], [ 132.5, 43.3333333 ], [ 132.5, 43.6666666 ], [ 132.0, 43.6666666 ], [ 132.0, 43.3333333 ] ] ] } },
{ "type": "Feature", "properties": { "Id": 0, "Shee_ID": "壹〇カ150. ノーウォウォロッシースカヤ", "label": "壹〇カ150. ノーウォウォロッシースカヤ", "call_short": "G7400 S100 .J3", "call_num": "G7400 S100 .J3 10KA150", "recid": "zq626yj1313", "websiteUrl": "https://purl.stanford.edu/zq626yj1313", "title": "十万分一地誌圖_西伯利十万分一圖", "ckey": 10766459, "available": true, "iiifUrl": "https://purl.stanford.edu/zq626yj1313/iiif/manifest" }, "geometry": { "type": "Polygon", "coordinates": [ [ [ 132.5, 43.3333333 ], [ 133.0, 43.3333333 ], [ 133.0, 43.6666666 ], [ 132.5, 43.6666666 ], [ 132.5, 43.3333333 ] ] ] } },
{ "type": "Feature", "properties": { "Id": 0, "Shee_ID": "セルゲーエフカ", "label": "セルゲーエフカ", "call_short": "0", "call_num": "0", "recid": "0", "websiteUrl": "0", "title": "0", "ckey": 0, "available": false, "iiifUrl": "0" }, "geometry": { "type": "Polygon", "coordinates": [ [ [ 133.0, 43.3333333 ], [ 133.5, 43.3333333 ], [ 133.5, 43.6666666 ], [ 133.0, 43.6666666 ], [ 133.0, 43.3333333 ] ] ] } },
{ "type": "Feature", "properties": { "Id": 0, "Shee_ID": "羅子溝", "label": "羅子溝", "call_short": "0", "call_num": "0", "recid": "0", "websiteUrl": "0", "title": "0", "ckey": 0, "available": false, "iiifUrl": "0" }, "geometry": { "type": "Polygon", "coordinates": [ [ [ 130.0, 43.6666666 ], [ 130.5, 43.6666666 ], [ 130.5, 43.9999999 ], [ 130.0, 43.9999999 ], [ 130.0, 43.6666666 ] ] ] } },
{ "type": "Feature", "properties": { "Id": 0, "Shee_ID": "老黒山", "label": "老黒山", "call_short": "0", "call_num": "0", "recid": "0", "websiteUrl": "0", "title": "0", "ckey": 0, "available": false, "iiifUrl": "0" }, "geometry": { "type": "Polygon", "coordinates": [ [ [ 130.5, 43.6666666 ], [ 131.0, 43.6666666 ], [ 131.0, 43.9999999 ], [ 130.5, 43.9999999 ], [ 130.5, 43.6666666 ] ] ] } },
{ "type": "Feature", "properties": { "Id": 0, "Shee_ID": "高安村", "label": "高安村", "call_short": "0", "call_num": "0", "recid": "0", "websiteUrl": "0", "title": "0", "ckey": 0, "available": false, "iiifUrl": "0" }, "geometry": { "type": "Polygon", "coordinates": [ [ [ 131.0, 43.6666666 ], [ 131.5, 43.6666666 ], [ 131.5, 43.9999999 ], [ 131.0, 43.9999999 ], [ 131.0, 43.6666666 ] ] ] } },
{ "type": "Feature", "properties": { "Id": 0, "Shee_ID": "壹〇カ169. ウオロシーロフ", "label": "壹〇カ169. ウオロシーロフ", "call_short": "G7400 S100 .J3", "call_num": "G7400 S100 .J3 10KA169", "recid": "wd463xm4343", "websiteUrl": "https://purl.stanford.edu/wd463xm4343", "title": "十万分一地誌圖_西伯利十万分一圖", "ckey": 10766459, "available": true, "iiifUrl": "https://purl.stanford.edu/wd463xm4343/iiif/manifest" }, "geometry": { "type": "Polygon", "coordinates": [ [ [ 131.5, 43.6666666 ], [ 132.0, 43.6666666 ], [ 132.0, 43.9999999 ], [ 131.5, 43.9999999 ], [ 131.5, 43.6666666 ] ] ] } },
{ "type": "Feature", "properties": { "Id": 0, "Shee_ID": "オシノーフカ", "label": "オシノーフカ", "call_short": "0", "call_num": "0", "recid": "0", "websiteUrl": "0", "title": "0", "ckey": 0, "available": false, "iiifUrl": "0" }, "geometry": { "type": "Polygon", "coordinates": [ [ [ 132.0, 43.6666666 ], [ 132.5, 43.6666666 ], [ 132.5, 43.9999999 ], [ 132.0, 43.9999999 ], [ 132.0, 43.6666666 ] ] ] } },
{ "type": "Feature", "properties": { "Id": 0, "Shee_ID": "ロマノフカ", "label": "ロマノフカ", "call_short": "0", "call_num": "0", "recid": "0", "websiteUrl": "0", "title": "0", "ckey": 0, "available": false, "iiifUrl": "0" }, "geometry": { "type": "Polygon", "coordinates": [ [ [ 132.5, 43.6666666 ], [ 133.0, 43.6666666 ], [ 133.0, 43.9999999 ], [ 132.5, 43.9999999 ], [ 132.5, 43.6666666 ] ] ] } },
{ "type": "Feature", "properties": { "Id": 0, "Shee_ID": "アヌチノ", "label": "アヌチノ", "call_short": "0", "call_num": "0", "recid": "0", "websiteUrl": "0", "title": "0", "ckey": 0, "available": false, "iiifUrl": "0" }, "geometry": { "type": "Polygon", "coordinates": [ [ [ 133.0, 43.6666666 ], [ 133.5, 43.6666666 ], [ 133.5, 43.9999999 ], [ 133.0, 43.9999999 ], [ 133.0, 43.6666666 ] ] ] } },
{ "type": "Feature", "properties": { "Id": 0, "Shee_ID": "壹〇カ198. 堿廠", "label": "壹〇カ198. 堿廠", "call_short": "G7400 S100 .J3", "call_num": "G7400 S100 .J3 10KA198", "recid": "tp001nx2532", "websiteUrl": "https://purl.stanford.edu/tp001nx2532", "title": "十万分一地誌圖_満洲十万分一圖", "ckey": 10766459, "available": true, "iiifUrl": "https://purl.stanford.edu/tp001nx2532/iiif/manifest" }, "geometry": { "type": "Polygon", "coordinates": [ [ [ 130.0, 43.9999999 ], [ 130.5, 43.9999999 ], [ 130.5, 44.3333332 ], [ 130.0, 44.3333332 ], [ 130.0, 43.9999999 ] ] ] } },
{ "type": "Feature", "properties": { "Id": 0, "Shee_ID": "壹〇カ188. 金廠", "label": "壹〇カ188. 金廠", "call_short": "G7400 S100 .J3", "call_num": "G7400 S100 .J3 10KA188", "recid": "tf802hf2902", "websiteUrl": "https://purl.stanford.edu/tf802hf2902", "title": "十万分一地誌圖_満洲十万分一圖", "ckey": 10766459, "available": true, "iiifUrl": "https://purl.stanford.edu/tf802hf2902/iiif/manifest" }, "geometry": { "type": "Polygon", "coordinates": [ [ [ 130.5, 43.9999999 ], [ 131.0, 43.9999999 ], [ 131.0, 44.3333332 ], [ 130.5, 44.3333332 ], [ 130.5, 43.9999999 ] ] ] } },
{ "type": "Feature", "properties": { "Id": 0, "Shee_ID": "東寧", "label": "東寧", "call_short": "0", "call_num": "0", "recid": "0", "websiteUrl": "0", "title": "0", "ckey": 0, "available": false, "iiifUrl": "0" }, "geometry": { "type": "Polygon", "coordinates": [ [ [ 131.0, 43.9999999 ], [ 131.5, 43.9999999 ], [ 131.5, 44.3333332 ], [ 131.0, 44.3333332 ], [ 131.0, 43.9999999 ] ] ] } },
{ "type": "Feature", "properties": { "Id": 0, "Shee_ID": "壹〇カ168. リポーフツィ", "label": "壹〇カ168. リポーフツィ", "call_short": "G7400 S100 .J3", "call_num": "G7400 S100 .J3 10KA168", "recid": "fg337gx4970", "websiteUrl": "https://purl.stanford.edu/fg337gx4970", "title": "十万分一地誌圖_西伯利十万分一圖", "ckey": 10766459, "available": true, "iiifUrl": "https://purl.stanford.edu/fg337gx4970/iiif/manifest" }, "geometry": { "type": "Polygon", "coordinates": [ [ [ 131.5, 43.9999999 ], [ 132.0, 43.9999999 ], [ 132.0, 44.3333332 ], [ 131.5, 44.3333332 ], [ 131.5, 43.9999999 ] ] ] } },
{ "type": "Feature", "properties": { "Id": 0, "Shee_ID": "マンゾフカ", "label": "マンゾフカ", "call_short": "0", "call_num": "0", "recid": "0", "websiteUrl": "0", "title": "0", "ckey": 0, "available": false, "iiifUrl": "0" }, "geometry": { "type": "Polygon", "coordinates": [ [ [ 132.0, 43.9999999 ], [ 132.5, 43.9999999 ], [ 132.5, 44.3333332 ], [ 132.0, 44.3333332 ], [ 132.0, 43.9999999 ] ] ] } },
{ "type": "Feature", "properties": { "Id": 0, "Shee_ID": "ワッシアノフカ", "label": "ワッシアノフカ", "call_short": "0", "call_num": "0", "recid": "0", "websiteUrl": "0", "title": "0", "ckey": 0, "available": false, "iiifUrl": "0" }, "geometry": { "type": "Polygon", "coordinates": [ [ [ 132.5, 43.9999999 ], [ 133.0, 43.9999999 ], [ 133.0, 44.3333332 ], [ 132.5, 44.3333332 ], [ 132.5, 43.9999999 ] ] ] } },
{ "type": "Feature", "properties": { "Id": 0, "Shee_ID": "壹〇カ138. スィソフカ", "label": "壹〇カ138. スィソフカ", "call_short": "G7400 S100 .J3", "call_num": "G7400 S100 .J3 10KA138", "recid": "jn948br1700", "websiteUrl": "https://purl.stanford.edu/jn948br1700", "title": "十万分一地誌圖_西伯利十万分一圖", "ckey": 10766459, "available": true, "iiifUrl": "https://purl.stanford.edu/jn948br1700/iiif/manifest" }, "geometry": { "type": "Polygon", "coordinates": [ [ [ 133.0, 43.9999999 ], [ 133.5, 43.9999999 ], [ 133.5, 44.3333332 ], [ 133.0, 44.3333332 ], [ 133.0, 43.9999999 ] ] ] } },
{ "type": "Feature", "properties": { "Id": 0, "Shee_ID": "フルマノフカ北方", "label": "フルマノフカ北方", "call_short": "0", "call_num": "0", "recid": "0", "websiteUrl": "0", "title": "0", "ckey": 0, "available": false, "iiifUrl": "0" }, "geometry": { "type": "Polygon", "coordinates": [ [ [ 134.5, 43.9999999 ], [ 135.0, 43.9999999 ], [ 135.0, 44.3333332 ], [ 134.5, 44.3333332 ], [ 134.5, 43.9999999 ] ] ] } },
{ "type": "Feature", "properties": { "Id": 0, "Shee_ID": "壹〇カ197. 穆棱", "label": "壹〇カ197. 穆棱", "call_short": "G7400 S100 .J3", "call_num": "G7400 S100 .J3 10KA197", "recid": "cd928ph4168", "websiteUrl": "https://purl.stanford.edu/cd928ph4168", "title": "十万分一地誌圖_満洲十万分一圖", "ckey": 10766459, "available": true, "iiifUrl": "https://purl.stanford.edu/cd928ph4168/iiif/manifest" }, "geometry": { "type": "Polygon", "coordinates": [ [ [ 130.0, 44.3333332 ], [ 130.5, 44.3333332 ], [ 130.5, 44.6666665 ], [ 130.0, 44.6666665 ], [ 130.0, 44.3333332 ] ] ] } },
{ "type": "Feature", "properties": { "Id": 0, "Shee_ID": "壹〇カ187. 綏陽", "label": "壹〇カ187. 綏陽", "call_short": "G7400 S100 .J3", "call_num": "G7400 S100 .J3 10KA187", "recid": "rc196vk3886", "websiteUrl": "https://purl.stanford.edu/rc196vk3886", "title": "十万分一地誌圖_満洲十万分一圖", "ckey": 10766459, "available": true, "iiifUrl": "https://purl.stanford.edu/rc196vk3886/iiif/manifest" }, "geometry": { "type": "Polygon", "coordinates": [ [ [ 130.5, 44.3333332 ], [ 131.0, 44.3333332 ], [ 131.0, 44.6666665 ], [ 130.5, 44.6666665 ], [ 130.5, 44.3333332 ] ] ] } },
{ "type": "Feature", "properties": { "Id": 0, "Shee_ID": "綏芬河", "label": "綏芬河", "call_short": "0", "call_num": "0", "recid": "0", "websiteUrl": "0", "title": "0", "ckey": 0, "available": false, "iiifUrl": "0" }, "geometry": { "type": "Polygon", "coordinates": [ [ [ 131.0, 44.3333332 ], [ 131.5, 44.3333332 ], [ 131.5, 44.6666665 ], [ 131.0, 44.6666665 ], [ 131.0, 44.3333332 ] ] ] } },
{ "type": "Feature", "properties": { "Id": 0, "Shee_ID": "壹〇カ167. ジァリコーウォ", "label": "壹〇カ167. ジァリコーウォ", "call_short": "G7400 S100 .J3", "call_num": "G7400 S100 .J3 10KA167", "recid": "ry858cs3117", "websiteUrl": "https://purl.stanford.edu/ry858cs3117", "title": "十万分一地誌圖_西伯利十万分一圖", "ckey": 10766459, "available": true, "iiifUrl": "https://purl.stanford.edu/ry858cs3117/iiif/manifest" }, "geometry": { "type": "Polygon", "coordinates": [ [ [ 131.5, 44.3333332 ], [ 132.0, 44.3333332 ], [ 132.0, 44.6666665 ], [ 131.5, 44.6666665 ], [ 131.5, 44.3333332 ] ] ] } },
{ "type": "Feature", "properties": { "Id": 0, "Shee_ID": "ホロリスコエ", "label": "ホロリスコエ", "call_short": "0", "call_num": "0", "recid": "0", "websiteUrl": "0", "title": "0", "ckey": 0, "available": false, "iiifUrl": "0" }, "geometry": { "type": "Polygon", "coordinates": [ [ [ 132.0, 44.3333332 ], [ 132.5, 44.3333332 ], [ 132.5, 44.6666665 ], [ 132.0, 44.6666665 ], [ 132.0, 44.3333332 ] ] ] } },
{ "type": "Feature", "properties": { "Id": 0, "Shee_ID": "壹〇カ147. スパスク", "label": "壹〇カ147. スパスク", "call_short": "G7400 S100 .J3", "call_num": "G7400 S100 .J3 10KA147", "recid": "yy785tc3509", "websiteUrl": "https://purl.stanford.edu/yy785tc3509", "title": "十万分一地誌圖_西伯利十万分一圖", "ckey": 10766459, "available": true, "iiifUrl": "https://purl.stanford.edu/yy785tc3509/iiif/manifest" }, "geometry": { "type": "Polygon", "coordinates": [ [ [ 132.5, 44.3333332 ], [ 133.0, 44.3333332 ], [ 133.0, 44.6666665 ], [ 132.5, 44.6666665 ], [ 132.5, 44.3333332 ] ] ] } },
{ "type": "Feature", "properties": { "Id": 0, "Shee_ID": "壹〇カ137. タチャーノフカ", "label": "壹〇カ137. タチャーノフカ", "call_short": "G7400 S100 .J3", "call_num": "G7400 S100 .J3 10KA137", "recid": "xn234pw4857", "websiteUrl": "https://purl.stanford.edu/xn234pw4857", "title": "十万分一地誌圖_西伯利十万分一圖", "ckey": 10766459, "available": true, "iiifUrl": "https://purl.stanford.edu/xn234pw4857/iiif/manifest" }, "geometry": { "type": "Polygon", "coordinates": [ [ [ 133.0, 44.3333332 ], [ 133.5, 44.3333332 ], [ 133.5, 44.6666665 ], [ 133.0, 44.6666665 ], [ 133.0, 44.3333332 ] ] ] } },
{ "type": "Feature", "properties": { "Id": 0, "Shee_ID": "ノーヴォクラスノヤローヴォ", "label": "ノーヴォクラスノヤローヴォ", "call_short": "0", "call_num": "0", "recid": "0", "websiteUrl": "0", "title": "0", "ckey": 0, "available": false, "iiifUrl": "0" }, "geometry": { "type": "Polygon", "coordinates": [ [ [ 133.5, 44.3333332 ], [ 134.0, 44.3333332 ], [ 134.0, 44.6666665 ], [ 133.5, 44.6666665 ], [ 133.5, 44.3333332 ] ] ] } },
{ "type": "Feature", "properties": { "Id": 0, "Shee_ID": "壹〇カ117. コクシァロフカ", "label": "壹〇カ117. コクシァロフカ", "call_short": "G7400 S100 .J3", "call_num": "G7400 S100 .J3 10KA117", "recid": "cd743vy4824", "websiteUrl": "https://purl.stanford.edu/cd743vy4824", "title": "十万分一地誌圖_西伯利十万分一圖", "ckey": 10766459, "available": true, "iiifUrl": "https://purl.stanford.edu/cd743vy4824/iiif/manifest" }, "geometry": { "type": "Polygon", "coordinates": [ [ [ 134.0, 44.3333332 ], [ 134.5, 44.3333332 ], [ 134.5, 44.6666665 ], [ 134.0, 44.6666665 ], [ 134.0, 44.3333332 ] ] ] } },
{ "type": "Feature", "properties": { "Id": 0, "Shee_ID": "壹〇カ107. スハノフカ", "label": "壹〇カ107. スハノフカ", "call_short": "G7400 S100 .J3", "call_num": "G7400 S100 .J3 10KA107", "recid": "cq514vy2999", "websiteUrl": "https://purl.stanford.edu/cq514vy2999", "title": "十万分一地誌圖_西伯利十万分一圖", "ckey": 10766459, "available": true, "iiifUrl": "https://purl.stanford.edu/cq514vy2999/iiif/manifest" }, "geometry": { "type": "Polygon", "coordinates": [ [ [ 134.5, 44.3333332 ], [ 135.0, 44.3333332 ], [ 135.0, 44.6666665 ], [ 134.5, 44.6666665 ], [ 134.5, 44.3333332 ] ] ] } },
{ "type": "Feature", "properties": { "Id": 0, "Shee_ID": "壹〇カ196. 下城子", "label": "壹〇カ196. 下城子", "call_short": "G7400 S100 .J3", "call_num": "G7400 S100 .J3 10KA196", "recid": "bz081vz6996", "websiteUrl": "https://purl.stanford.edu/bz081vz6996", "title": "十万分一地誌圖_満洲十万分一圖", "ckey": 10766459, "available": true, "iiifUrl": "https://purl.stanford.edu/bz081vz6996/iiif/manifest" }, "geometry": { "type": "Polygon", "coordinates": [ [ [ 130.0, 44.6666665 ], [ 130.5, 44.6666665 ], [ 130.5, 44.9999999 ], [ 130.0, 44.9999999 ], [ 130.0, 44.6666665 ] ] ] } },
{ "type": "Feature", "properties": { "Id": 0, "Shee_ID": "壹〇カ186. 八面通", "label": "壹〇カ186. 八面通", "call_short": "G7400 S100 .J3", "call_num": "G7400 S100 .J3 10KA186", "recid": "yq121cz6351", "websiteUrl": "https://purl.stanford.edu/yq121cz6351", "title": "十万分一地誌圖_満洲十万分一圖", "ckey": 10766459, "available": true, "iiifUrl": "https://purl.stanford.edu/yq121cz6351/iiif/manifest" }, "geometry": { "type": "Polygon", "coordinates": [ [ [ 130.5, 44.6666665 ], [ 131.0, 44.6666665 ], [ 131.0, 44.9999999 ], [ 130.5, 44.9999999 ], [ 130.5, 44.6666665 ] ] ] } },
{ "type": "Feature", "properties": { "Id": 0, "Shee_ID": "壹〇カ176. 金廠溝", "label": "壹〇カ176. 金廠溝", "call_short": "G7400 S100 .J3", "call_num": "G7400 S100 .J3 10KA176", "recid": "qr689qh2575", "websiteUrl": "https://purl.stanford.edu/qr689qh2575", "title": "十万分一地誌圖_満洲十万分一圖", "ckey": 10766459, "available": true, "iiifUrl": "https://purl.stanford.edu/qr689qh2575/iiif/manifest" }, "geometry": { "type": "Polygon", "coordinates": [ [ [ 131.0, 44.6666665 ], [ 131.5, 44.6666665 ], [ 131.5, 44.9999999 ], [ 131.0, 44.9999999 ], [ 131.0, 44.6666665 ] ] ] } },
{ "type": "Feature", "properties": { "Id": 0, "Shee_ID": "イリインスコエ", "label": "イリインスコエ", "call_short": "0", "call_num": "0", "recid": "0", "websiteUrl": "0", "title": "0", "ckey": 0, "available": false, "iiifUrl": "0" }, "geometry": { "type": "Polygon", "coordinates": [ [ [ 131.5, 44.6666665 ], [ 132.0, 44.6666665 ], [ 132.0, 44.9999999 ], [ 131.5, 44.9999999 ], [ 131.5, 44.6666665 ] ] ] } },
{ "type": "Feature", "properties": { "Id": 0, "Shee_ID": "カーメンルイボロフ", "label": "カーメンルイボロフ", "call_short": "0", "call_num": "0", "recid": "0", "websiteUrl": "0", "title": "0", "ckey": 0, "available": false, "iiifUrl": "0" }, "geometry": { "type": "Polygon", "coordinates": [ [ [ 132.0, 44.6666665 ], [ 132.5, 44.6666665 ], [ 132.5, 44.9999999 ], [ 132.0, 44.9999999 ], [ 132.0, 44.6666665 ] ] ] } },
{ "type": "Feature", "properties": { "Id": 0, "Shee_ID": "アレクサンドロフスコエ", "label": "アレクサンドロフスコエ", "call_short": "0", "call_num": "0", "recid": "0", "websiteUrl": "0", "title": "0", "ckey": 0, "available": false, "iiifUrl": "0" }, "geometry": { "type": "Polygon", "coordinates": [ [ [ 132.5, 44.6666665 ], [ 133.0, 44.6666665 ], [ 133.0, 44.9999999 ], [ 132.5, 44.9999999 ], [ 132.5, 44.6666665 ] ] ] } },
{ "type": "Feature", "properties": { "Id": 0, "Shee_ID": "壹〇カ136. ドボスコエ", "label": "壹〇カ136. ドボスコエ", "call_short": "G7400 S100 .J3", "call_num": "G7400 S100 .J3 10KA136", "recid": "wc532fc7839", "websiteUrl": "https://purl.stanford.edu/wc532fc7839", "title": "十万分一地誌圖_西伯利十万分一圖", "ckey": 10766459, "available": true, "iiifUrl": "https://purl.stanford.edu/wc532fc7839/iiif/manifest" }, "geometry": { "type": "Polygon", "coordinates": [ [ [ 133.0, 44.6666665 ], [ 133.5, 44.6666665 ], [ 133.5, 44.9999999 ], [ 133.0, 44.9999999 ], [ 133.0, 44.6666665 ] ] ] } },
{ "type": "Feature", "properties": { "Id": 0, "Shee_ID": "壹〇カ126. クルィロフカ", "label": "壹〇カ126. クルィロフカ", "call_short": "G7400 S100 .J3", "call_num": "G7400 S100 .J3 10KA126", "recid": "mx112zh9341", "websiteUrl": "https://purl.stanford.edu/mx112zh9341", "title": "十万分一地誌圖_西伯利十万分一圖", "ckey": 10766459, "available": true, "iiifUrl": "https://purl.stanford.edu/mx112zh9341/iiif/manifest" }, "geometry": { "type": "Polygon", "coordinates": [ [ [ 133.5, 44.6666665 ], [ 134.0, 44.6666665 ], [ 134.0, 44.9999999 ], [ 133.5, 44.9999999 ], [ 133.5, 44.6666665 ] ] ] } },
{ "type": "Feature", "properties": { "Id": 0, "Shee_ID": "壹〇カ116. リズグー山", "label": "壹〇カ116. リズグー山", "call_short": "G7400 S100 .J3", "call_num": "G7400 S100 .J3 10KA116", "recid": "xb764tp5041", "websiteUrl": "https://purl.stanford.edu/xb764tp5041", "title": "十万分一地誌圖_西伯利十万分一圖", "ckey": 10766459, "available": true, "iiifUrl": "https://purl.stanford.edu/xb764tp5041/iiif/manifest" }, "geometry": { "type": "Polygon", "coordinates": [ [ [ 134.0, 44.6666665 ], [ 134.5, 44.6666665 ], [ 134.5, 44.9999999 ], [ 134.0, 44.9999999 ], [ 134.0, 44.6666665 ] ] ] } },
{ "type": "Feature", "properties": { "Id": 0, "Shee_ID": "壹〇カ106. オクライナ", "label": "壹〇カ106. オクライナ", "call_short": "G7400 S100 .J3", "call_num": "G7400 S100 .J3 10KA106", "recid": "gy831pr7312", "websiteUrl": "https://purl.stanford.edu/gy831pr7312", "title": "十万分一地誌圖_西伯利十万分一圖", "ckey": 10766459, "available": true, "iiifUrl": "https://purl.stanford.edu/gy831pr7312/iiif/manifest" }, "geometry": { "type": "Polygon", "coordinates": [ [ [ 134.5, 44.6666665 ], [ 135.0, 44.6666665 ], [ 135.0, 44.9999999 ], [ 134.5, 44.9999999 ], [ 134.5, 44.6666665 ] ] ] } },
{ "type": "Feature", "properties": { "Id": 0, "Shee_ID": "壹〇カ195. 林口", "label": "壹〇カ195. 林口", "call_short": "G7400 S100 .J3", "call_num": "G7400 S100 .J3 10KA195", "recid": "xg266tf1708", "websiteUrl": "https://purl.stanford.edu/xg266tf1708", "title": "十万分一地誌圖_満洲十万分一圖", "ckey": 10766459, "available": true, "iiifUrl": "https://purl.stanford.edu/xg266tf1708/iiif/manifest" }, "geometry": { "type": "Polygon", "coordinates": [ [ [ 130.0, 44.9999999 ], [ 130.5, 44.9999999 ], [ 130.5, 45.3333332 ], [ 130.0, 45.3333332 ], [ 130.0, 44.9999999 ] ] ] } },
{ "type": "Feature", "properties": { "Id": 0, "Shee_ID": "壹〇カ185. 梨樹鎭", "label": "壹〇カ185. 梨樹鎭", "call_short": "G7400 S100 .J3", "call_num": "G7400 S100 .J3 10KA185", "recid": "dg672bf0890", "websiteUrl": "https://purl.stanford.edu/dg672bf0890", "title": "十万分一地誌圖_満洲十万分一圖", "ckey": 10766459, "available": true, "iiifUrl": "https://purl.stanford.edu/dg672bf0890/iiif/manifest" }, "geometry": { "type": "Polygon", "coordinates": [ [ [ 130.5, 44.9999999 ], [ 131.0, 44.9999999 ], [ 131.0, 45.3333332 ], [ 130.5, 45.3333332 ], [ 130.5, 44.9999999 ] ] ] } },
{ "type": "Feature", "properties": { "Id": 0, "Shee_ID": "平陽鎮", "label": "平陽鎮", "call_short": "0", "call_num": "0", "recid": "0", "websiteUrl": "0", "title": "0", "ckey": 0, "available": false, "iiifUrl": "0" }, "geometry": { "type": "Polygon", "coordinates": [ [ [ 131.0, 44.9999999 ], [ 131.5, 44.9999999 ], [ 131.5, 45.3333332 ], [ 131.0, 45.3333332 ], [ 131.0, 44.9999999 ] ] ] } },
{ "type": "Feature", "properties": { "Id": 0, "Shee_ID": "半截河", "label": "半截河", "call_short": "0", "call_num": "0", "recid": "0", "websiteUrl": "0", "title": "0", "ckey": 0, "available": false, "iiifUrl": "0" }, "geometry": { "type": "Polygon", "coordinates": [ [ [ 131.5, 44.9999999 ], [ 132.0, 44.9999999 ], [ 132.0, 45.3333332 ], [ 131.5, 45.3333332 ], [ 131.5, 44.9999999 ] ] ] } },
{ "type": "Feature", "properties": { "Id": 0, "Shee_ID": "當壁鎮", "label": "當壁鎮", "call_short": "0", "call_num": "0", "recid": "0", "websiteUrl": "0", "title": "0", "ckey": 0, "available": false, "iiifUrl": "0" }, "geometry": { "type": "Polygon", "coordinates": [ [ [ 132.0, 44.9999999 ], [ 132.5, 44.9999999 ], [ 132.5, 45.3333332 ], [ 132.0, 45.3333332 ], [ 132.0, 44.9999999 ] ] ] } },
{ "type": "Feature", "properties": { "Id": 0, "Shee_ID": "鳳凰徳", "label": "鳳凰徳", "call_short": "0", "call_num": "0", "recid": "0", "websiteUrl": "0", "title": "0", "ckey": 0, "available": false, "iiifUrl": "0" }, "geometry": { "type": "Polygon", "coordinates": [ [ [ 132.5, 44.9999999 ], [ 133.0, 44.9999999 ], [ 133.0, 45.3333332 ], [ 132.5, 45.3333332 ], [ 132.5, 44.9999999 ] ] ] } },
{ "type": "Feature", "properties": { "Id": 0, "Shee_ID": "南荒崗", "label": "南荒崗", "call_short": "0", "call_num": "0", "recid": "0", "websiteUrl": "0", "title": "0", "ckey": 0, "available": false, "iiifUrl": "0" }, "geometry": { "type": "Polygon", "coordinates": [ [ [ 133.0, 44.9999999 ], [ 133.5, 44.9999999 ], [ 133.5, 45.3333332 ], [ 133.0, 45.3333332 ], [ 133.0, 44.9999999 ] ] ] } },
{ "type": "Feature", "properties": { "Id": 0, "Shee_ID": "壹〇カ125. ウスペンカ", "label": "壹〇カ125. ウスペンカ", "call_short": "G7400 S100 .J3", "call_num": "G7400 S100 .J3 10KA125", "recid": "qj704hp9603", "websiteUrl": "https://purl.stanford.edu/qj704hp9603", "title": "十万分一地誌圖_西伯利十万分一圖", "ckey": 10766459, "available": true, "iiifUrl": "https://purl.stanford.edu/qj704hp9603/iiif/manifest" }, "geometry": { "type": "Polygon", "coordinates": [ [ [ 133.5, 44.9999999 ], [ 134.0, 44.9999999 ], [ 134.0, 45.3333332 ], [ 133.5, 45.3333332 ], [ 133.5, 44.9999999 ] ] ] } },
{ "type": "Feature", "properties": { "Id": 0, "Shee_ID": "壹〇カ115. ファンヂャーン", "label": "壹〇カ115. ファンヂャーン", "call_short": "G7400 S100 .J3", "call_num": "G7400 S100 .J3 10KA115", "recid": "mc846fh1056", "websiteUrl": "https://purl.stanford.edu/mc846fh1056", "title": "十万分一地誌圖_西伯利十万分一圖", "ckey": 10766459, "available": true, "iiifUrl": "https://purl.stanford.edu/mc846fh1056/iiif/manifest" }, "geometry": { "type": "Polygon", "coordinates": [ [ [ 134.0, 44.9999999 ], [ 134.5, 44.9999999 ], [ 134.5, 45.3333332 ], [ 134.0, 45.3333332 ], [ 134.0, 44.9999999 ] ] ] } },
{ "type": "Feature", "properties": { "Id": 0, "Shee_ID": "壹〇カ105. マルトィノワコリャナ", "label": "壹〇カ105. マルトィノワコリャナ", "call_short": "G7400 S100 .J3", "call_num": "G7400 S100 .J3 10KA105", "recid": "vw284jq8870", "websiteUrl": "https://purl.stanford.edu/vw284jq8870", "title": "十万分一地誌圖_西伯利十万分一圖", "ckey": 10766459, "available": true, "iiifUrl": "https://purl.stanford.edu/vw284jq8870/iiif/manifest" }, "geometry": { "type": "Polygon", "coordinates": [ [ [ 134.5, 44.9999999 ], [ 135.0, 44.9999999 ], [ 135.0, 45.3333332 ], [ 134.5, 45.3333332 ], [ 134.5, 44.9999999 ] ] ] } },
{ "type": "Feature", "properties": { "Id": 0, "Shee_ID": "古城鎮", "label": "古城鎮", "call_short": "0", "call_num": "0", "recid": "0", "websiteUrl": "0", "title": "0", "ckey": 0, "available": false, "iiifUrl": "0" }, "geometry": { "type": "Polygon", "coordinates": [ [ [ 130.0, 45.3333332 ], [ 130.5, 45.3333332 ], [ 130.5, 45.6666665 ], [ 130.0, 45.6666665 ], [ 130.0, 45.3333332 ] ] ] } },
{ "type": "Feature", "properties": { "Id": 0, "Shee_ID": "壹〇カ184. 滴道河", "label": "壹〇カ184. 滴道河", "call_short": "G7400 S100 .J3", "call_num": "G7400 S100 .J3 10KA184", "recid": "gd446td0346", "websiteUrl": "https://purl.stanford.edu/gd446td0346", "title": "十万分一地誌圖_満洲十万分一圖", "ckey": 10766459, "available": true, "iiifUrl": "https://purl.stanford.edu/gd446td0346/iiif/manifest" }, "geometry": { "type": "Polygon", "coordinates": [ [ [ 130.5, 45.3333332 ], [ 131.0, 45.3333332 ], [ 131.0, 45.6666665 ], [ 130.5, 45.6666665 ], [ 130.5, 45.3333332 ] ] ] } },
{ "type": "Feature", "properties": { "Id": 0, "Shee_ID": "壹〇カ174. 城子河", "label": "壹〇カ174. 城子河", "call_short": "G7400 S100 .J3", "call_num": "G7400 S100 .J3 10KA174", "recid": "gq088bf6728", "websiteUrl": "https://purl.stanford.edu/gq088bf6728", "title": "十万分一地誌圖_満洲十万分一圖", "ckey": 10766459, "available": true, "iiifUrl": "https://purl.stanford.edu/gq088bf6728/iiif/manifest" }, "geometry": { "type": "Polygon", "coordinates": [ [ [ 131.0, 45.3333332 ], [ 131.5, 45.3333332 ], [ 131.5, 45.6666665 ], [ 131.0, 45.6666665 ], [ 131.0, 45.3333332 ] ] ] } },
{ "type": "Feature", "properties": { "Id": 0, "Shee_ID": "壹〇カ164. 蜜山", "label": "壹〇カ164. 蜜山", "call_short": "G7400 S100 .J3", "call_num": "G7400 S100 .J3 10KA164", "recid": "cg880wf3484", "websiteUrl": "https://purl.stanford.edu/cg880wf3484", "title": "十万分一地誌圖_満洲十万分一圖", "ckey": 10766459, "available": true, "iiifUrl": "https://purl.stanford.edu/cg880wf3484/iiif/manifest" }, "geometry": { "type": "Polygon", "coordinates": [ [ [ 131.5, 45.3333332 ], [ 132.0, 45.3333332 ], [ 132.0, 45.6666665 ], [ 131.5, 45.6666665 ], [ 131.5, 45.3333332 ] ] ] } },
{ "type": "Feature", "properties": { "Id": 0, "Shee_ID": "楊木崗", "label": "楊木崗", "call_short": "0", "call_num": "0", "recid": "0", "websiteUrl": "0", "title": "0", "ckey": 0, "available": false, "iiifUrl": "0" }, "geometry": { "type": "Polygon", "coordinates": [ [ [ 132.0, 45.3333332 ], [ 132.5, 45.3333332 ], [ 132.5, 45.6666665 ], [ 132.0, 45.6666665 ], [ 132.0, 45.3333332 ] ] ] } },
{ "type": "Feature", "properties": { "Id": 0, "Shee_ID": "荒崗", "label": "荒崗", "call_short": "0", "call_num": "0", "recid": "0", "websiteUrl": "0", "title": "0", "ckey": 0, "available": false, "iiifUrl": "0" }, "geometry": { "type": "Polygon", "coordinates": [ [ [ 132.5, 45.3333332 ], [ 133.0, 45.3333332 ], [ 133.0, 45.6666665 ], [ 132.5, 45.6666665 ], [ 132.5, 45.3333332 ] ] ] } },
{ "type": "Feature", "properties": { "Id": 0, "Shee_ID": "亮子", "label": "亮子", "call_short": "0", "call_num": "0", "recid": "0", "websiteUrl": "0", "title": "0", "ckey": 0, "available": false, "iiifUrl": "0" }, "geometry": { "type": "Polygon", "coordinates": [ [ [ 133.0, 45.3333332 ], [ 133.5, 45.3333332 ], [ 133.5, 45.6666665 ], [ 133.0, 45.6666665 ], [ 133.0, 45.3333332 ] ] ] } },
{ "type": "Feature", "properties": { "Id": 0, "Shee_ID": "壹〇カ124. パンテレイモノフカ", "label": "壹〇カ124. パンテレイモノフカ", "call_short": "G7400 S100 .J3", "call_num": "G7400 S100 .J3 10KA124", "recid": "vw924ns7438", "websiteUrl": "https://purl.stanford.edu/vw924ns7438", "title": "十万分一地誌圖_西伯利十万分一圖", "ckey": 10766459, "available": true, "iiifUrl": "https://purl.stanford.edu/vw924ns7438/iiif/manifest" }, "geometry": { "type": "Polygon", "coordinates": [ [ [ 133.5, 45.3333332 ], [ 134.0, 45.3333332 ], [ 134.0, 45.6666665 ], [ 133.5, 45.6666665 ], [ 133.5, 45.3333332 ] ] ] } },
{ "type": "Feature", "properties": { "Id": 0, "Shee_ID": "壹〇カ114. ラキットノエ", "label": "壹〇カ114. ラキットノエ", "call_short": "G7400 S100 .J3", "call_num": "G7400 S100 .J3 10KA114", "recid": "fr842tx7577", "websiteUrl": "https://purl.stanford.edu/fr842tx7577", "title": "十万分一地誌圖_西伯利十万分一圖", "ckey": 10766459, "available": true, "iiifUrl": "https://purl.stanford.edu/fr842tx7577/iiif/manifest" }, "geometry": { "type": "Polygon", "coordinates": [ [ [ 134.0, 45.3333332 ], [ 134.5, 45.3333332 ], [ 134.5, 45.6666665 ], [ 134.0, 45.6666665 ], [ 134.0, 45.3333332 ] ] ] } },
{ "type": "Feature", "properties": { "Id": 0, "Shee_ID": "壹〇カ104. クリドフカ", "label": "壹〇カ104. クリドフカ", "call_short": "G7400 S100 .J3", "call_num": "G7400 S100 .J3 10KA104", "recid": "ch859mg9773", "websiteUrl": "https://purl.stanford.edu/ch859mg9773", "title": "十万分一地誌圖_西伯利十万分一圖", "ckey": 10766459, "available": true, "iiifUrl": "https://purl.stanford.edu/ch859mg9773/iiif/manifest" }, "geometry": { "type": "Polygon", "coordinates": [ [ [ 134.5, 45.3333332 ], [ 135.0, 45.3333332 ], [ 135.0, 45.6666665 ], [ 134.5, 45.6666665 ], [ 134.5, 45.3333332 ] ] ] } },
{ "type": "Feature", "properties": { "Id": 0, "Shee_ID": "黒背", "label": "黒背", "call_short": "0", "call_num": "0", "recid": "0", "websiteUrl": "0", "title": "0", "ckey": 0, "available": false, "iiifUrl": "0" }, "geometry": { "type": "Polygon", "coordinates": [ [ [ 130.0, 45.6666665 ], [ 130.5, 45.6666665 ], [ 130.5, 45.9999998 ], [ 130.0, 45.9999998 ], [ 130.0, 45.6666665 ] ] ] } },
{ "type": "Feature", "properties": { "Id": 0, "Shee_ID": "楊樹河子", "label": "楊樹河子", "call_short": "0", "call_num": "0", "recid": "0", "websiteUrl": "0", "title": "0", "ckey": 0, "available": false, "iiifUrl": "0" }, "geometry": { "type": "Polygon", "coordinates": [ [ [ 132.0, 45.6666665 ], [ 132.5, 45.6666665 ], [ 132.5, 45.9999998 ], [ 132.0, 45.9999998 ], [ 132.0, 45.6666665 ] ] ] } },
{ "type": "Feature", "properties": { "Id": 0, "Shee_ID": "虎林", "label": "虎林", "call_short": "0", "call_num": "0", "recid": "0", "websiteUrl": "0", "title": "0", "ckey": 0, "available": false, "iiifUrl": "0" }, "geometry": { "type": "Polygon", "coordinates": [ [ [ 132.5, 45.6666665 ], [ 133.0, 45.6666665 ], [ 133.0, 45.9999998 ], [ 132.5, 45.9999998 ], [ 132.5, 45.6666665 ] ] ] } },
{ "type": "Feature", "properties": { "Id": 0, "Shee_ID": "倒木溝", "label": "倒木溝", "call_short": "0", "call_num": "0", "recid": "0", "websiteUrl": "0", "title": "0", "ckey": 0, "available": false, "iiifUrl": "0" }, "geometry": { "type": "Polygon", "coordinates": [ [ [ 133.0, 45.6666665 ], [ 133.5, 45.6666665 ], [ 133.5, 45.9999998 ], [ 133.0, 45.9999998 ], [ 133.0, 45.6666665 ] ] ] } },
{ "type": "Feature", "properties": { "Id": 0, "Shee_ID": "虎頭", "label": "虎頭", "call_short": "0", "call_num": "0", "recid": "0", "websiteUrl": "0", "title": "0", "ckey": 0, "available": false, "iiifUrl": "0" }, "geometry": { "type": "Polygon", "coordinates": [ [ [ 133.5, 45.6666665 ], [ 134.0, 45.6666665 ], [ 134.0, 45.9999998 ], [ 133.5, 45.9999998 ], [ 133.5, 45.6666665 ] ] ] } },
{ "type": "Feature", "properties": { "Id": 0, "Shee_ID": "壹〇カ113. タワラーザ山", "label": "壹〇カ113. タワラーザ山", "call_short": "G7400 S100 .J3", "call_num": "G7400 S100 .J3 10KA113", "recid": "px388gr0311", "websiteUrl": "https://purl.stanford.edu/px388gr0311", "title": "十万分一地誌圖_西伯利十万分一圖", "ckey": 10766459, "available": true, "iiifUrl": "https://purl.stanford.edu/px388gr0311/iiif/manifest" }, "geometry": { "type": "Polygon", "coordinates": [ [ [ 134.0, 45.6666665 ], [ 134.5, 45.6666665 ], [ 134.5, 45.9999998 ], [ 134.0, 45.9999998 ], [ 134.0, 45.6666665 ] ] ] } },
{ "type": "Feature", "properties": { "Id": 0, "Shee_ID": "壹〇カ103. イワノヴィチ", "label": "壹〇カ103. イワノヴィチ", "call_short": "G7400 S100 .J3", "call_num": "G7400 S100 .J3 10KA103", "recid": "yz934gs5299", "websiteUrl": "https://purl.stanford.edu/yz934gs5299", "title": "十万分一地誌圖_西伯利十万分一圖", "ckey": 10766459, "available": true, "iiifUrl": "https://purl.stanford.edu/yz934gs5299/iiif/manifest" }, "geometry": { "type": "Polygon", "coordinates": [ [ [ 134.5, 45.6666665 ], [ 135.0, 45.6666665 ], [ 135.0, 45.9999998 ], [ 134.5, 45.9999998 ], [ 134.5, 45.6666665 ] ] ] } },
{ "type": "Feature", "properties": { "Id": 0, "Shee_ID": "三道崗", "label": "三道崗", "call_short": "0", "call_num": "0", "recid": "0", "websiteUrl": "0", "title": "0", "ckey": 0, "available": false, "iiifUrl": "0" }, "geometry": { "type": "Polygon", "coordinates": [ [ [ 130.0, 45.9999998 ], [ 130.5, 45.9999998 ], [ 130.5, 46.3333331 ], [ 130.0, 46.3333331 ], [ 130.0, 45.9999998 ] ] ] } },
{ "type": "Feature", "properties": { "Id": 0, "Shee_ID": "壹〇カ152. 賓清南部", "label": "壹〇カ152. 賓清南部", "call_short": "G7400 S100 .J3", "call_num": "G7400 S100 .J3 10KA152", "recid": "bg356kk5201", "websiteUrl": "https://purl.stanford.edu/bg356kk5201", "title": "十万分一地誌圖_満洲十万分一圖", "ckey": 10766459, "available": true, "iiifUrl": "https://purl.stanford.edu/bg356kk5201/iiif/manifest" }, "geometry": { "type": "Polygon", "coordinates": [ [ [ 132.0, 45.9999998 ], [ 132.5, 45.9999998 ], [ 132.5, 46.3333331 ], [ 132.0, 46.3333331 ], [ 132.0, 45.9999998 ] ] ] } },
{ "type": "Feature", "properties": { "Id": 0, "Shee_ID": "壹〇カ142. 哈嗎通河上流", "label": "壹〇カ142. 哈嗎通河上流", "call_short": "G7400 S100 .J3", "call_num": "G7400 S100 .J3 10KA142", "recid": "tt923yz5608", "websiteUrl": "https://purl.stanford.edu/tt923yz5608", "title": "十万分一地誌圖_満洲十万分一圖", "ckey": 10766459, "available": true, "iiifUrl": "https://purl.stanford.edu/tt923yz5608/iiif/manifest" }, "geometry": { "type": "Polygon", "coordinates": [ [ [ 132.5, 45.9999998 ], [ 133.0, 45.9999998 ], [ 133.0, 46.3333331 ], [ 132.5, 46.3333331 ], [ 132.5, 45.9999998 ] ] ] } },
{ "type": "Feature", "properties": { "Id": 0, "Shee_ID": "壹〇カ132. 馬鞍山", "label": "壹〇カ132. 馬鞍山", "call_short": "G7400 S100 .J3", "call_num": "G7400 S100 .J3 10KA132", "recid": "yz765rm4357", "websiteUrl": "https://purl.stanford.edu/yz765rm4357", "title": "十万分一地誌圖_満洲十万分一圖", "ckey": 10766459, "available": true, "iiifUrl": "https://purl.stanford.edu/yz765rm4357/iiif/manifest" }, "geometry": { "type": "Polygon", "coordinates": [ [ [ 133.0, 45.9999998 ], [ 133.5, 45.9999998 ], [ 133.5, 46.3333331 ], [ 133.0, 46.3333331 ], [ 133.0, 45.9999998 ] ] ] } },
{ "type": "Feature", "properties": { "Id": 0, "Shee_ID": "壹〇カ122. 穆和村", "label": "壹〇カ122. 穆和村", "call_short": "G7400 S100 .J3", "call_num": "G7400 S100 .J3 10KA122", "recid": "jd821yf1294", "websiteUrl": "https://purl.stanford.edu/jd821yf1294", "title": "十万分一地誌圖_極東十万分一圖", "ckey": 10766459, "available": true, "iiifUrl": "https://purl.stanford.edu/jd821yf1294/iiif/manifest" }, "geometry": { "type": "Polygon", "coordinates": [ [ [ 133.5, 45.9999998 ], [ 134.0, 45.9999998 ], [ 134.0, 46.3333331 ], [ 133.5, 46.3333331 ], [ 133.5, 45.9999998 ] ] ] } },
{ "type": "Feature", "properties": { "Id": 0, "Shee_ID": "壹〇カ112. トチーリナヤ山", "label": "壹〇カ112. トチーリナヤ山", "call_short": "G7400 S100 .J3", "call_num": "G7400 S100 .J3 10KA112", "recid": "fs845pf8577", "websiteUrl": "https://purl.stanford.edu/fs845pf8577", "title": "十万分一地誌圖_西伯利十万分一圖", "ckey": 10766459, "available": true, "iiifUrl": "https://purl.stanford.edu/fs845pf8577/iiif/manifest" }, "geometry": { "type": "Polygon", "coordinates": [ [ [ 134.0, 45.9999998 ], [ 134.5, 45.9999998 ], [ 134.5, 46.3333331 ], [ 134.0, 46.3333331 ], [ 134.0, 45.9999998 ] ] ] } },
{ "type": "Feature", "properties": { "Id": 0, "Shee_ID": "壹〇カ102. ビシェヘドゥサ山", "label": "壹〇カ102. ビシェヘドゥサ山", "call_short": "G7400 S100 .J3", "call_num": "G7400 S100 .J3 10KA102", "recid": "mt707gf2408", "websiteUrl": "https://purl.stanford.edu/mt707gf2408", "title": "十万分一地誌圖_西伯利十万分一圖", "ckey": 10766459, "available": true, "iiifUrl": "https://purl.stanford.edu/mt707gf2408/iiif/manifest" }, "geometry": { "type": "Polygon", "coordinates": [ [ [ 134.5, 45.9999998 ], [ 135.0, 45.9999998 ], [ 135.0, 46.3333331 ], [ 134.5, 46.3333331 ], [ 134.5, 45.9999998 ] ] ] } },
{ "type": "Feature", "properties": { "Id": 0, "Shee_ID": "土龍山", "label": "土龍山", "call_short": "0", "call_num": "0", "recid": "0", "websiteUrl": "0", "title": "0", "ckey": 0, "available": false, "iiifUrl": "0" }, "geometry": { "type": "Polygon", "coordinates": [ [ [ 130.0, 46.3333331 ], [ 130.5, 46.3333331 ], [ 130.5, 46.6666665 ], [ 130.0, 46.6666665 ], [ 130.0, 46.3333331 ] ] ] } },
{ "type": "Feature", "properties": { "Id": 0, "Shee_ID": "壹〇カ151. 賓清北部", "label": "壹〇カ151. 賓清北部", "call_short": "G7400 S100 .J3", "call_num": "G7400 S100 .J3 10KA151", "recid": "hf724gx3793", "websiteUrl": "https://purl.stanford.edu/hf724gx3793", "title": "十万分一地誌圖_満洲十万分一圖", "ckey": 10766459, "available": true, "iiifUrl": "https://purl.stanford.edu/hf724gx3793/iiif/manifest" }, "geometry": { "type": "Polygon", "coordinates": [ [ [ 132.0, 46.3333331 ], [ 132.5, 46.3333331 ], [ 132.5, 46.6666665 ], [ 132.0, 46.6666665 ], [ 132.0, 46.3333331 ] ] ] } },
{ "type": "Feature", "properties": { "Id": 0, "Shee_ID": "壹〇カ141. 哈嗎通河", "label": "壹〇カ141. 哈嗎通河", "call_short": "G7400 S100 .J3", "call_num": "G7400 S100 .J3 10KA141", "recid": "bm104qd6331", "websiteUrl": "https://purl.stanford.edu/bm104qd6331", "title": "十万分一地誌圖_満洲十万分一圖", "ckey": 10766459, "available": true, "iiifUrl": "https://purl.stanford.edu/bm104qd6331/iiif/manifest" }, "geometry": { "type": "Polygon", "coordinates": [ [ [ 132.5, 46.3333331 ], [ 133.0, 46.3333331 ], [ 133.0, 46.6666665 ], [ 132.5, 46.6666665 ], [ 132.5, 46.3333331 ] ] ] } },
{ "type": "Feature", "properties": { "Id": 0, "Shee_ID": "壹〇カ131. 大和鎭", "label": "壹〇カ131. 大和鎭", "call_short": "G7400 S100 .J3", "call_num": "G7400 S100 .J3 10KA131", "recid": "kd685dp3654", "websiteUrl": "https://purl.stanford.edu/kd685dp3654", "title": "十万分一地誌圖_満洲十万分一圖", "ckey": 10766459, "available": true, "iiifUrl": "https://purl.stanford.edu/kd685dp3654/iiif/manifest" }, "geometry": { "type": "Polygon", "coordinates": [ [ [ 133.0, 46.3333331 ], [ 133.5, 46.3333331 ], [ 133.5, 46.6666665 ], [ 133.0, 46.6666665 ], [ 133.0, 46.3333331 ] ] ] } },
{ "type": "Feature", "properties": { "Id": 0, "Shee_ID": "壹〇カ121. 獨木河", "label": "壹〇カ121. 獨木河", "call_short": "G7400 S100 .J3", "call_num": "G7400 S100 .J3 10KA121", "recid": "cg029wf1019", "websiteUrl": "https://purl.stanford.edu/cg029wf1019", "title": "十万分一地誌圖_満洲十万分一圖", "ckey": 10766459, "available": true, "iiifUrl": "https://purl.stanford.edu/cg029wf1019/iiif/manifest" }, "geometry": { "type": "Polygon", "coordinates": [ [ [ 133.5, 46.3333331 ], [ 134.0, 46.3333331 ], [ 134.0, 46.6666665 ], [ 133.5, 46.6666665 ], [ 133.5, 46.3333331 ] ] ] } },
{ "type": "Feature", "properties": { "Id": 0, "Shee_ID": "壹〇カ111. ブルリット驛", "label": "壹〇カ111. ブルリット驛", "call_short": "G7400 S100 .J3", "call_num": "G7400 S100 .J3 10KA111", "recid": "bs048dg1401", "websiteUrl": "https://purl.stanford.edu/bs048dg1401", "title": "十万分一地誌圖_極東十万分一圖", "ckey": 10766459, "available": true, "iiifUrl": "https://purl.stanford.edu/bs048dg1401/iiif/manifest" }, "geometry": { "type": "Polygon", "coordinates": [ [ [ 134.0, 46.3333331 ], [ 134.5, 46.3333331 ], [ 134.5, 46.6666665 ], [ 134.0, 46.6666665 ], [ 134.0, 46.3333331 ] ] ] } },
{ "type": "Feature", "properties": { "Id": 0, "Shee_ID": "壹〇カ101. チォムルィンザ山", "label": "壹〇カ101. チォムルィンザ山", "call_short": "G7400 S100 .J3", "call_num": "G7400 S100 .J3 10KA101", "recid": "vc787vs4926", "websiteUrl": "https://purl.stanford.edu/vc787vs4926", "title": "十万分一地誌圖_西伯利十万分一圖", "ckey": 10766459, "available": true, "iiifUrl": "https://purl.stanford.edu/vc787vs4926/iiif/manifest" }, "geometry": { "type": "Polygon", "coordinates": [ [ [ 134.5, 46.3333331 ], [ 135.0, 46.3333331 ], [ 135.0, 46.6666665 ], [ 134.5, 46.6666665 ], [ 134.5, 46.3333331 ] ] ] } },
{ "type": "Feature", "properties": { "Id": 0, "Shee_ID": "壹〇ヨ160. 三道林子", "label": "壹〇ヨ160. 三道林子", "call_short": "G7400 S100 .J3", "call_num": "G7400 S100 .J3 10YO160", "recid": "bx782hn8724", "websiteUrl": "https://purl.stanford.edu/bx782hn8724", "title": "十万分一地誌圖_満洲十万分一圖", "ckey": 10766459, "available": true, "iiifUrl": "https://purl.stanford.edu/bx782hn8724/iiif/manifest" }, "geometry": { "type": "Polygon", "coordinates": [ [ [ 132.0, 46.6666665 ], [ 132.5, 46.6666665 ], [ 132.5, 46.9999998 ], [ 132.0, 46.9999998 ], [ 132.0, 46.6666665 ] ] ] } },
{ "type": "Feature", "properties": { "Id": 0, "Shee_ID": "長山屯南", "label": "長山屯南", "call_short": "0", "call_num": "0", "recid": "0", "websiteUrl": "0", "title": "0", "ckey": 0, "available": false, "iiifUrl": "0" }, "geometry": { "type": "Polygon", "coordinates": [ [ [ 132.5, 46.6666665 ], [ 133.0, 46.6666665 ], [ 133.0, 46.9999998 ], [ 132.5, 46.9999998 ], [ 132.5, 46.6666665 ] ] ] } },
{ "type": "Feature", "properties": { "Id": 0, "Shee_ID": "壹〇ヨ140. 花磊子", "label": "壹〇ヨ140. 花磊子", "call_short": "G7400 S100 .J3", "call_num": "G7400 S100 .J3 10YO140", "recid": "zc562kr3263", "websiteUrl": "https://purl.stanford.edu/zc562kr3263", "title": "十万分一地誌圖_満洲十万分一圖", "ckey": 10766459, "available": true, "iiifUrl": "https://purl.stanford.edu/zc562kr3263/iiif/manifest" }, "geometry": { "type": "Polygon", "coordinates": [ [ [ 133.0, 46.6666665 ], [ 133.5, 46.6666665 ], [ 133.5, 46.9999998 ], [ 133.0, 46.9999998 ], [ 133.0, 46.6666665 ] ] ] } },
{ "type": "Feature", "properties": { "Id": 0, "Shee_ID": "壹〇ヨ130. 關門咀子", "label": "壹〇ヨ130. 關門咀子", "call_short": "G7400 S100 .J3", "call_num": "G7400 S100 .J3 10YO130", "recid": "tm902zk5910", "websiteUrl": "https://purl.stanford.edu/tm902zk5910", "title": "十万分一地誌圖_満洲十万分一圖", "ckey": 10766459, "available": true, "iiifUrl": "https://purl.stanford.edu/tm902zk5910/iiif/manifest" }, "geometry": { "type": "Polygon", "coordinates": [ [ [ 133.5, 46.6666665 ], [ 134.0, 46.6666665 ], [ 134.0, 46.9999998 ], [ 133.5, 46.9999998 ], [ 133.5, 46.6666665 ] ] ] } },
{ "type": "Feature", "properties": { "Id": 0, "Shee_ID": "壹〇ヨ120. 饒河", "label": "壹〇ヨ120. 饒河", "call_short": "G7400 S100 .J3", "call_num": "G7400 S100 .J3 10YO120", "recid": "jh903tz2885", "websiteUrl": "https://purl.stanford.edu/jh903tz2885", "title": "十万分一地誌圖_西伯利十万分一圖", "ckey": 10766459, "available": true, "iiifUrl": "https://purl.stanford.edu/jh903tz2885/iiif/manifest" }, "geometry": { "type": "Polygon", "coordinates": [ [ [ 134.0, 46.6666665 ], [ 134.5, 46.6666665 ], [ 134.5, 46.9999998 ], [ 134.0, 46.9999998 ], [ 134.0, 46.6666665 ] ] ] } },
{ "type": "Feature", "properties": { "Id": 0, "Shee_ID": "壹〇ヨ110. モホワーヤ河", "label": "壹〇ヨ110. モホワーヤ河", "call_short": "G7400 S100 .J3", "call_num": "G7400 S100 .J3 10YO110", "recid": "xk427dj7930", "websiteUrl": "https://purl.stanford.edu/xk427dj7930", "title": "十万分一地誌圖_西伯利十万分一圖", "ckey": 10766459, "available": true, "iiifUrl": "https://purl.stanford.edu/xk427dj7930/iiif/manifest" }, "geometry": { "type": "Polygon", "coordinates": [ [ [ 134.5, 46.6666665 ], [ 135.0, 46.6666665 ], [ 135.0, 46.9999998 ], [ 134.5, 46.9999998 ], [ 134.5, 46.6666665 ] ] ] } },
{ "type": "Feature", "properties": { "Id": 0, "Shee_ID": "富錦", "label": "富錦", "call_short": "0", "call_num": "0", "recid": "0", "websiteUrl": "0", "title": "0", "ckey": 0, "available": false, "iiifUrl": "0" }, "geometry": { "type": "Polygon", "coordinates": [ [ [ 132.0, 46.9999998 ], [ 132.5, 46.9999998 ], [ 132.5, 47.3333331 ], [ 132.0, 47.3333331 ], [ 132.0, 46.9999998 ] ] ] } },
{ "type": "Feature", "properties": { "Id": 0, "Shee_ID": "壹〇ヨ149. 長山屯", "label": "壹〇ヨ149. 長山屯", "call_short": "G7400 S100 .J3", "call_num": "G7400 S100 .J3 10YO149", "recid": "sx322kx5021", "websiteUrl": "https://purl.stanford.edu/sx322kx5021", "title": "十万分一地誌圖_満洲十万分一圖", "ckey": 10766459, "available": true, "iiifUrl": "https://purl.stanford.edu/sx322kx5021/iiif/manifest" }, "geometry": { "type": "Polygon", "coordinates": [ [ [ 132.5, 46.9999998 ], [ 133.0, 46.9999998 ], [ 133.0, 47.3333331 ], [ 132.5, 47.3333331 ], [ 132.5, 46.9999998 ] ] ] } },
{ "type": "Feature", "properties": { "Id": 0, "Shee_ID": "壹〇ヨ139. 小根菜咀子", "label": "壹〇ヨ139. 小根菜咀子", "call_short": "G7400 S100 .J3", "call_num": "G7400 S100 .J3 10YO139", "recid": "kv334bt5135", "websiteUrl": "https://purl.stanford.edu/kv334bt5135", "title": "十万分一地誌圖_満洲十万分一圖", "ckey": 10766459, "available": true, "iiifUrl": "https://purl.stanford.edu/kv334bt5135/iiif/manifest" }, "geometry": { "type": "Polygon", "coordinates": [ [ [ 133.0, 46.9999998 ], [ 133.5, 46.9999998 ], [ 133.5, 47.3333331 ], [ 133.0, 47.3333331 ], [ 133.0, 46.9999998 ] ] ] } },
{ "type": "Feature", "properties": { "Id": 0, "Shee_ID": "壹〇ヨ129. 小佳河", "label": "壹〇ヨ129. 小佳河", "call_short": "G7400 S100 .J3", "call_num": "G7400 S100 .J3 10YO129", "recid": "jt706bv8054", "websiteUrl": "https://purl.stanford.edu/jt706bv8054", "title": "十万分一地誌圖_満洲十万分一圖", "ckey": 10766459, "available": true, "iiifUrl": "https://purl.stanford.edu/jt706bv8054/iiif/manifest" }, "geometry": { "type": "Polygon", "coordinates": [ [ [ 133.5, 46.9999998 ], [ 134.0, 46.9999998 ], [ 134.0, 47.3333331 ], [ 133.5, 47.3333331 ], [ 133.5, 46.9999998 ] ] ] } },
{ "type": "Feature", "properties": { "Id": 0, "Shee_ID": "新興屯", "label": "新興屯", "call_short": "0", "call_num": "0", "recid": "0", "websiteUrl": "0", "title": "0", "ckey": 0, "available": false, "iiifUrl": "0" }, "geometry": { "type": "Polygon", "coordinates": [ [ [ 134.0, 46.9999998 ], [ 134.5, 46.9999998 ], [ 134.5, 47.3333331 ], [ 134.0, 47.3333331 ], [ 134.0, 46.9999998 ] ] ] } },
{ "type": "Feature", "properties": { "Id": 0, "Shee_ID": "壹〇ヨ109. セベンチーハ高地", "label": "壹〇ヨ109. セベンチーハ高地", "call_short": "G7400 S100 .J3", "call_num": "G7400 S100 .J3 10YO109", "recid": "mf308kr6280", "websiteUrl": "https://purl.stanford.edu/mf308kr6280", "title": "十万分一地誌圖_西伯利十万分一圖", "ckey": 10766459, "available": true, "iiifUrl": "https://purl.stanford.edu/mf308kr6280/iiif/manifest" }, "geometry": { "type": "Polygon", "coordinates": [ [ [ 134.5, 46.9999998 ], [ 135.0, 46.9999998 ], [ 135.0, 47.3333331 ], [ 134.5, 47.3333331 ], [ 134.5, 46.9999998 ] ] ] } },
{ "type": "Feature", "properties": { "Id": 0, "Shee_ID": "アナスタセーフカ", "label": "アナスタセーフカ", "call_short": "0", "call_num": "0", "recid": "0", "websiteUrl": "0", "title": "0", "ckey": 0, "available": false, "iiifUrl": "0" }, "geometry": { "type": "Polygon", "coordinates": [ [ [ 135.5, 48.333333 ], [ 136.0, 48.333333 ], [ 136.0, 48.6666664 ], [ 135.5, 48.6666664 ], [ 135.5, 48.333333 ] ] ] } },
{ "type": "Feature", "properties": { "Id": 0, "Shee_ID": "壹〇ヨ154. ビラ", "label": "壹〇ヨ154. ビラ", "call_short": "G7400 S100 .J3", "call_num": "G7400 S100 .J3 10YO154", "recid": "rd904nx1934", "websiteUrl": "https://purl.stanford.edu/rd904nx1934", "title": "十万分一地誌圖_西伯利十万分一圖", "ckey": 10766459, "available": true, "iiifUrl": "https://purl.stanford.edu/rd904nx1934/iiif/manifest" }, "geometry": { "type": "Polygon", "coordinates": [ [ [ 132.0, 48.6666664 ], [ 132.5, 48.6666664 ], [ 132.5, 48.9999997 ], [ 132.0, 48.9999997 ], [ 132.0, 48.6666664 ] ] ] } },
{ "type": "Feature", "properties": { "Id": 0, "Shee_ID": "壹〇ヨ144. ビロビヂァン", "label": "壹〇ヨ144. ビロビヂァン", "call_short": "G7400 S100 .J3", "call_num": "G7400 S100 .J3 10YO144", "recid": "pg909qj1536", "websiteUrl": "https://purl.stanford.edu/pg909qj1536", "title": "十万分一地誌圖_西伯利十万分一圖", "ckey": 10766459, "available": true, "iiifUrl": "https://purl.stanford.edu/pg909qj1536/iiif/manifest" }, "geometry": { "type": "Polygon", "coordinates": [ [ [ 132.5, 48.6666664 ], [ 133.0, 48.6666664 ], [ 133.0, 48.9999997 ], [ 132.5, 48.9999997 ], [ 132.5, 48.6666664 ] ] ] } },
{ "type": "Feature", "properties": { "Id": 0, "Shee_ID": "壹〇ヨ134. イクーラ", "label": "壹〇ヨ134. イクーラ", "call_short": "G7400 S100 .J3", "call_num": "G7400 S100 .J3 10YO134", "recid": "zh545gn5386", "websiteUrl": "https://purl.stanford.edu/zh545gn5386", "title": "十万分一地誌圖_西伯利十万分一圖", "ckey": 10766459, "available": true, "iiifUrl": "https://purl.stanford.edu/zh545gn5386/iiif/manifest" }, "geometry": { "type": "Polygon", "coordinates": [ [ [ 133.0, 48.6666664 ], [ 133.5, 48.6666664 ], [ 133.5, 48.9999997 ], [ 133.0, 48.9999997 ], [ 133.0, 48.6666664 ] ] ] } },
{ "type": "Feature", "properties": { "Id": 0, "Shee_ID": "壹〇ヨ124. テキーン", "label": "壹〇ヨ124. テキーン", "call_short": "G7400 S100 .J3", "call_num": "G7400 S100 .J3 10YO124", "recid": "zm458xc1366", "websiteUrl": "https://purl.stanford.edu/zm458xc1366", "title": "十万分一地誌圖_西伯利十万分一圖", "ckey": 10766459, "available": true, "iiifUrl": "https://purl.stanford.edu/zm458xc1366/iiif/manifest" }, "geometry": { "type": "Polygon", "coordinates": [ [ [ 133.5, 48.6666664 ], [ 134.0, 48.6666664 ], [ 134.0, 48.9999997 ], [ 133.5, 48.9999997 ], [ 133.5, 48.6666664 ] ] ] } },
{ "type": "Feature", "properties": { "Id": 0, "Shee_ID": "壹〇ヨ114. ハトゥール", "label": "壹〇ヨ114. ハトゥール", "call_short": "G7400 S100 .J3", "call_num": "G7400 S100 .J3 10YO114", "recid": "xr764ry1145", "websiteUrl": "https://purl.stanford.edu/xr764ry1145", "title": "十万分一地誌圖_西伯利十万分一圖", "ckey": 10766459, "available": true, "iiifUrl": "https://purl.stanford.edu/xr764ry1145/iiif/manifest" }, "geometry": { "type": "Polygon", "coordinates": [ [ [ 134.0, 48.6666664 ], [ 134.5, 48.6666664 ], [ 134.5, 48.9999997 ], [ 134.0, 48.9999997 ], [ 134.0, 48.6666664 ] ] ] } },
{ "type": "Feature", "properties": { "Id": 0, "Shee_ID": "壹〇ヨ104. チルキー山", "label": "壹〇ヨ104. チルキー山", "call_short": "G7400 S100 .J3", "call_num": "G7400 S100 .J3 10YO104", "recid": "st412bf6774", "websiteUrl": "https://purl.stanford.edu/st412bf6774", "title": "十万分一地誌圖_西伯利十万分一圖", "ckey": 10766459, "available": true, "iiifUrl": "https://purl.stanford.edu/st412bf6774/iiif/manifest" }, "geometry": { "type": "Polygon", "coordinates": [ [ [ 134.5, 48.6666664 ], [ 135.0, 48.6666664 ], [ 135.0, 48.9999997 ], [ 134.5, 48.9999997 ], [ 134.5, 48.6666664 ] ] ] } },
{ "type": "Feature", "properties": { "Id": 0, "Shee_ID": "九ヨ194. ハバロフスク北部", "label": "九ヨ194. ハバロフスク北部", "call_short": "G7400 S100 .J3", "call_num": "G7400 S100 .J3 9YO194", "recid": "my995tg6449", "websiteUrl": "https://purl.stanford.edu/my995tg6449", "title": "十万分一地誌圖_西伯利十万分一圖", "ckey": 10766459, "available": true, "iiifUrl": "https://purl.stanford.edu/my995tg6449/iiif/manifest" }, "geometry": { "type": "Polygon", "coordinates": [ [ [ 135.0, 48.6666664 ], [ 135.5, 48.6666664 ], [ 135.5, 48.9999997 ], [ 135.0, 48.9999997 ], [ 135.0, 48.6666664 ] ] ] } },
{ "type": "Feature", "properties": { "Id": 0, "Shee_ID": "九ヨ184. ウヤツコエ", "label": "九ヨ184. ウヤツコエ", "call_short": "G7400 S100 .J3", "call_num": "G7400 S100 .J3 9YO184", "recid": "dz525sj2074", "websiteUrl": "https://purl.stanford.edu/dz525sj2074", "title": "十万分一地誌圖_西伯利十万分一圖", "ckey": 10766459, "available": true, "iiifUrl": "https://purl.stanford.edu/dz525sj2074/iiif/manifest" }, "geometry": { "type": "Polygon", "coordinates": [ [ [ 135.5, 48.6666664 ], [ 136.0, 48.6666664 ], [ 136.0, 48.9999997 ], [ 135.5, 48.9999997 ], [ 135.5, 48.6666664 ] ] ] } },
{ "type": "Feature", "properties": { "Id": 0, "Shee_ID": "壹〇ヨ143. サグドィビラ河源", "label": "壹〇ヨ143. サグドィビラ河源", "call_short": "G7400 S100 .J3", "call_num": "G7400 S100 .J3 10YO143", "recid": "yj250mv4631", "websiteUrl": "https://purl.stanford.edu/yj250mv4631", "title": "十万分一地誌圖_西伯利十万分一圖", "ckey": 10766459, "available": true, "iiifUrl": "https://purl.stanford.edu/yj250mv4631/iiif/manifest" }, "geometry": { "type": "Polygon", "coordinates": [ [ [ 132.5, 48.9999997 ], [ 133.0, 48.9999997 ], [ 133.0, 49.333333 ], [ 132.5, 49.333333 ], [ 132.5, 48.9999997 ] ] ] } },
{ "type": "Feature", "properties": { "Id": 0, "Shee_ID": "クパードィ", "label": "クパードィ", "call_short": "0", "call_num": "0", "recid": "0", "websiteUrl": "0", "title": "0", "ckey": 0, "available": false, "iiifUrl": "0" }, "geometry": { "type": "Polygon", "coordinates": [ [ [ 133.0, 48.9999997 ], [ 133.5, 48.9999997 ], [ 133.5, 49.333333 ], [ 133.0, 49.333333 ], [ 133.0, 48.9999997 ] ] ] } },
{ "type": "Feature", "properties": { "Id": 0, "Shee_ID": "壹〇ヨ123. クゥカン河", "label": "壹〇ヨ123. クゥカン河", "call_short": "G7400 S100 .J3", "call_num": "G7400 S100 .J3 10YO123", "recid": "vt063vy4734", "websiteUrl": "https://purl.stanford.edu/vt063vy4734", "title": "十万分一地誌圖_西伯利十万分一圖", "ckey": 10766459, "available": true, "iiifUrl": "https://purl.stanford.edu/vt063vy4734/iiif/manifest" }, "geometry": { "type": "Polygon", "coordinates": [ [ [ 133.5, 48.9999997 ], [ 134.0, 48.9999997 ], [ 134.0, 49.333333 ], [ 133.5, 49.333333 ], [ 133.5, 48.9999997 ] ] ] } },
{ "type": "Feature", "properties": { "Id": 0, "Shee_ID": "壹〇ヨ113. グラマフター", "label": "壹〇ヨ113. グラマフター", "call_short": "G7400 S100 .J3", "call_num": "G7400 S100 .J3 10YO113", "recid": "jz966mm6543", "websiteUrl": "https://purl.stanford.edu/jz966mm6543", "title": "十万分一地誌圖_西伯利十万分一圖", "ckey": 10766459, "available": true, "iiifUrl": "https://purl.stanford.edu/jz966mm6543/iiif/manifest" }, "geometry": { "type": "Polygon", "coordinates": [ [ [ 134.0, 48.9999997 ], [ 134.5, 48.9999997 ], [ 134.5, 49.333333 ], [ 134.0, 49.333333 ], [ 134.0, 48.9999997 ] ] ] } },
{ "type": "Feature", "properties": { "Id": 0, "Shee_ID": "壹〇ヨ103. ダガ河", "label": "壹〇ヨ103. ダガ河", "call_short": "G7400 S100 .J3", "call_num": "G7400 S100 .J3 10YO103", "recid": "bp448gw4926", "websiteUrl": "https://purl.stanford.edu/bp448gw4926", "title": "十万分一地誌圖_西伯利十万分一圖", "ckey": 10766459, "available": true, "iiifUrl": "https://purl.stanford.edu/bp448gw4926/iiif/manifest" }, "geometry": { "type": "Polygon", "coordinates": [ [ [ 134.5, 48.9999997 ], [ 135.0, 48.9999997 ], [ 135.0, 49.333333 ], [ 134.5, 49.333333 ], [ 134.5, 48.9999997 ] ] ] } },
{ "type": "Feature", "properties": { "Id": 0, "Shee_ID": "九ヨ193. 二十三號", "label": "九ヨ193. 二十三號", "call_short": "G7400 S100 .J3", "call_num": "G7400 S100 .J3 9YO193", "recid": "hd938py3932", "websiteUrl": "https://purl.stanford.edu/hd938py3932", "title": "十万分一地誌圖_西伯利十万分一圖", "ckey": 10766459, "available": true, "iiifUrl": "https://purl.stanford.edu/hd938py3932/iiif/manifest" }, "geometry": { "type": "Polygon", "coordinates": [ [ [ 135.0, 48.9999997 ], [ 135.5, 48.9999997 ], [ 135.5, 49.333333 ], [ 135.0, 49.333333 ], [ 135.0, 48.9999997 ] ] ] } },
{ "type": "Feature", "properties": { "Id": 0, "Shee_ID": "九ヨ183. 十八號", "label": "九ヨ183. 十八號", "call_short": "G7400 S100 .J3", "call_num": "G7400 S100 .J3 9YO183", "recid": "mz421fb9666", "websiteUrl": "https://purl.stanford.edu/mz421fb9666", "title": "十万分一地誌圖_西伯利十万分一圖", "ckey": 10766459, "available": true, "iiifUrl": "https://purl.stanford.edu/mz421fb9666/iiif/manifest" }, "geometry": { "type": "Polygon", "coordinates": [ [ [ 135.5, 48.9999997 ], [ 136.0, 48.9999997 ], [ 136.0, 49.333333 ], [ 135.5, 49.333333 ], [ 135.5, 48.9999997 ] ] ] } }
]
}
