{
"type": "FeatureCollection",
"name": "index_map",
"xy_coordinate_resolution": 1e-07,
"features": [
{ "type": "Feature", "properties": { "Id": 0, "Sheet_ID": "SHEET 20", "label": "SHEET 20", "call_short": "G7004 .S54 A1 S5 .J3", "call_num": "G7004 .S54 A1 S5 .J3 SHEET 20", "recid": "qx247nj0060", "websiteUrl": "https://purl.stanford.edu/qx247nj0060", "title": "南名好", "ckey": 8930509, "available": true, "iiifUrl": "https://purl.stanford.edu/qx247nj0060/iiif/manifest" }, "geometry": { "type": "Polygon", "coordinates": [ [ [ 141.8708336, 46.327778 ], [ 141.9375002, 46.327778 ], [ 141.9375002, 46.3500002 ], [ 141.8708336, 46.3500002 ], [ 141.8708336, 46.327778 ] ] ] } },
{ "type": "Feature", "properties": { "Id": 0, "Sheet_ID": "SHEET 21", "label": "SHEET 21", "call_short": "G7004 .S54 A1 S5 .J3", "call_num": "G7004 .S54 A1 S5 .J3 SHEET 21", "recid": "xy380qg9954", "websiteUrl": "https://purl.stanford.edu/xy380qg9954", "title": "南名好", "ckey": 8930509, "available": true, "iiifUrl": "https://purl.stanford.edu/xy380qg9954/iiif/manifest" }, "geometry": { "type": "Polygon", "coordinates": [ [ [ 141.9375002, 46.327778 ], [ 142.0041668, 46.327778 ], [ 142.0041668, 46.3500002 ], [ 141.9375002, 46.3500002 ], [ 141.9375002, 46.327778 ] ] ] } },
{ "type": "Feature", "properties": { "Id": 0, "Sheet_ID": "SHEET 22", "label": "SHEET 22", "call_short": "G7004 .S54 A1 S5 .J3", "call_num": "G7004 .S54 A1 S5 .J3 SHEET 22", "recid": "zd955jf1869", "websiteUrl": "https://purl.stanford.edu/zd955jf1869", "title": "南名好", "ckey": 8930509, "available": true, "iiifUrl": "https://purl.stanford.edu/zd955jf1869/iiif/manifest" }, "geometry": { "type": "Polygon", "coordinates": [ [ [ 142.0041668, 46.327778 ], [ 142.0708334, 46.327778 ], [ 142.0708334, 46.3500002 ], [ 142.0041668, 46.3500002 ], [ 142.0041668, 46.327778 ] ] ] } },
{ "type": "Feature", "properties": { "Id": 0, "Sheet_ID": "SHEET 23", "label": "SHEET 23", "call_short": "G7004 .S54 A1 S5 .J3", "call_num": "G7004 .S54 A1 S5 .J3 SHEET 23", "recid": "xm811bs0305", "websiteUrl": "https://purl.stanford.edu/xm811bs0305", "title": "南名好", "ckey": 8930509, "available": true, "iiifUrl": "https://purl.stanford.edu/xm811bs0305/iiif/manifest" }, "geometry": { "type": "Polygon", "coordinates": [ [ [ 142.0708334, 46.327778 ], [ 142.1375, 46.327778 ], [ 142.1375, 46.3500002 ], [ 142.0708334, 46.3500002 ], [ 142.0708334, 46.327778 ] ] ] } },
{ "type": "Feature", "properties": { "Id": 0, "Sheet_ID": "SHEET 15", "label": "SHEET 15", "call_short": "G7004 .S54 A1 S5 .J3", "call_num": "G7004 .S54 A1 S5 .J3 SHEET 15", "recid": "qr732qf0983", "websiteUrl": "https://purl.stanford.edu/qr732qf0983", "title": "南名好", "ckey": 8930509, "available": true, "iiifUrl": "https://purl.stanford.edu/qr732qf0983/iiif/manifest" }, "geometry": { "type": "Polygon", "coordinates": [ [ [ 141.804167, 46.3500002 ], [ 141.8708336, 46.3500002 ], [ 141.8708336, 46.3722224 ], [ 141.804167, 46.3722224 ], [ 141.804167, 46.3500002 ] ] ] } },
{ "type": "Feature", "properties": { "Id": 0, "Sheet_ID": "SHEET 16", "label": "SHEET 16", "call_short": "G7004 .S54 A1 S5 .J3", "call_num": "G7004 .S54 A1 S5 .J3 SHEET 16", "recid": "kc510hb4996", "websiteUrl": "https://purl.stanford.edu/kc510hb4996", "title": "南名好", "ckey": 8930509, "available": true, "iiifUrl": "https://purl.stanford.edu/kc510hb4996/iiif/manifest" }, "geometry": { "type": "Polygon", "coordinates": [ [ [ 141.8708336, 46.3500002 ], [ 141.9375002, 46.3500002 ], [ 141.9375002, 46.3722224 ], [ 141.8708336, 46.3722224 ], [ 141.8708336, 46.3500002 ] ] ] } },
{ "type": "Feature", "properties": { "Id": 0, "Sheet_ID": "SHEET 17", "label": "SHEET 17", "call_short": "G7004 .S54 A1 S5 .J3", "call_num": "G7004 .S54 A1 S5 .J3 SHEET 17", "recid": "nv817vk1864", "websiteUrl": "https://purl.stanford.edu/nv817vk1864", "title": "南名好", "ckey": 8930509, "available": true, "iiifUrl": "https://purl.stanford.edu/nv817vk1864/iiif/manifest" }, "geometry": { "type": "Polygon", "coordinates": [ [ [ 141.9375002, 46.3500002 ], [ 142.0041668, 46.3500002 ], [ 142.0041668, 46.3722224 ], [ 141.9375002, 46.3722224 ], [ 141.9375002, 46.3500002 ] ] ] } },
{ "type": "Feature", "properties": { "Id": 0, "Sheet_ID": "SHEET 18", "label": "SHEET 18", "call_short": "G7004 .S54 A1 S5 .J3", "call_num": "G7004 .S54 A1 S5 .J3 SHEET 18", "recid": "tx059sc4651", "websiteUrl": "https://purl.stanford.edu/tx059sc4651", "title": "南名好", "ckey": 8930509, "available": true, "iiifUrl": "https://purl.stanford.edu/tx059sc4651/iiif/manifest" }, "geometry": { "type": "Polygon", "coordinates": [ [ [ 142.0041668, 46.3500002 ], [ 142.0708334, 46.3500002 ], [ 142.0708334, 46.3722224 ], [ 142.0041668, 46.3722224 ], [ 142.0041668, 46.3500002 ] ] ] } },
{ "type": "Feature", "properties": { "Id": 0, "Sheet_ID": "SHEET 19", "label": "SHEET 19", "call_short": "G7004 .S54 A1 S5 .J3", "call_num": "G7004 .S54 A1 S5 .J3 SHEET 19", "recid": "dr457pj1923", "websiteUrl": "https://purl.stanford.edu/dr457pj1923", "title": "南名好", "ckey": 8930509, "available": true, "iiifUrl": "https://purl.stanford.edu/dr457pj1923/iiif/manifest" }, "geometry": { "type": "Polygon", "coordinates": [ [ [ 142.0708334, 46.3500002 ], [ 142.1375, 46.3500002 ], [ 142.1375, 46.3722224 ], [ 142.0708334, 46.3722224 ], [ 142.0708334, 46.3500002 ] ] ] } },
{ "type": "Feature", "properties": { "Id": 0, "Sheet_ID": "SHEET 10", "label": "SHEET 10", "call_short": "G7004 .S54 A1 S5 .J3", "call_num": "G7004 .S54 A1 S5 .J3 SHEET 10", "recid": "nd710yf4484", "websiteUrl": "https://purl.stanford.edu/nd710yf4484", "title": "南名好", "ckey": 8930509, "available": true, "iiifUrl": "https://purl.stanford.edu/nd710yf4484/iiif/manifest" }, "geometry": { "type": "Polygon", "coordinates": [ [ [ 141.804167, 46.3722224 ], [ 141.8708336, 46.3722224 ], [ 141.8708336, 46.3944446 ], [ 141.804167, 46.3944446 ], [ 141.804167, 46.3722224 ] ] ] } },
{ "type": "Feature", "properties": { "Id": 0, "Sheet_ID": "SHEET 11", "label": "SHEET 11", "call_short": "G7004 .S54 A1 S5 .J3", "call_num": "G7004 .S54 A1 S5 .J3 SHEET 11", "recid": "ff075zz3679", "websiteUrl": "https://purl.stanford.edu/ff075zz3679", "title": "南名好", "ckey": 8930509, "available": true, "iiifUrl": "https://purl.stanford.edu/ff075zz3679/iiif/manifest" }, "geometry": { "type": "Polygon", "coordinates": [ [ [ 141.8708336, 46.3722224 ], [ 141.9375002, 46.3722224 ], [ 141.9375002, 46.3944446 ], [ 141.8708336, 46.3944446 ], [ 141.8708336, 46.3722224 ] ] ] } },
{ "type": "Feature", "properties": { "Id": 0, "Sheet_ID": "SHEET 12", "label": "SHEET 12", "call_short": "G7004 .S54 A1 S5 .J3", "call_num": "G7004 .S54 A1 S5 .J3 SHEET 12", "recid": "nz309kf3758", "websiteUrl": "https://purl.stanford.edu/nz309kf3758", "title": "南名好", "ckey": 8930509, "available": true, "iiifUrl": "https://purl.stanford.edu/nz309kf3758/iiif/manifest" }, "geometry": { "type": "Polygon", "coordinates": [ [ [ 141.9375002, 46.3722224 ], [ 142.0041668, 46.3722224 ], [ 142.0041668, 46.3944446 ], [ 141.9375002, 46.3944446 ], [ 141.9375002, 46.3722224 ] ] ] } },
{ "type": "Feature", "properties": { "Id": 0, "Sheet_ID": "SHEET 13", "label": "SHEET 13", "call_short": "G7004 .S54 A1 S5 .J3", "call_num": "G7004 .S54 A1 S5 .J3 SHEET 13", "recid": "pf909zm5901", "websiteUrl": "https://purl.stanford.edu/pf909zm5901", "title": "南名好", "ckey": 8930509, "available": true, "iiifUrl": "https://purl.stanford.edu/pf909zm5901/iiif/manifest" }, "geometry": { "type": "Polygon", "coordinates": [ [ [ 142.0041668, 46.3722224 ], [ 142.0708334, 46.3722224 ], [ 142.0708334, 46.3944446 ], [ 142.0041668, 46.3944446 ], [ 142.0041668, 46.3722224 ] ] ] } },
{ "type": "Feature", "properties": { "Id": 0, "Sheet_ID": "SHEET 14", "label": "SHEET 14", "call_short": "G7004 .S54 A1 S5 .J3", "call_num": "G7004 .S54 A1 S5 .J3 SHEET 14", "recid": "zz523dq8766", "websiteUrl": "https://purl.stanford.edu/zz523dq8766", "title": "南名好", "ckey": 8930509, "available": true, "iiifUrl": "https://purl.stanford.edu/zz523dq8766/iiif/manifest" }, "geometry": { "type": "Polygon", "coordinates": [ [ [ 142.0708334, 46.3722224 ], [ 142.1375, 46.3722224 ], [ 142.1375, 46.3944446 ], [ 142.0708334, 46.3944446 ], [ 142.0708334, 46.3722224 ] ] ] } },
{ "type": "Feature", "properties": { "Id": 0, "Sheet_ID": "SHEET 5", "label": "SHEET 5", "call_short": "G7004 .S54 A1 S5 .J3", "call_num": "G7004 .S54 A1 S5 .J3 SHEET 5", "recid": "pf288vn2417", "websiteUrl": "https://purl.stanford.edu/pf288vn2417", "title": "南名好", "ckey": 8930509, "available": true, "iiifUrl": "https://purl.stanford.edu/pf288vn2417/iiif/manifest" }, "geometry": { "type": "Polygon", "coordinates": [ [ [ 141.804167, 46.3944446 ], [ 141.8708336, 46.3944446 ], [ 141.8708336, 46.4166668 ], [ 141.804167, 46.4166668 ], [ 141.804167, 46.3944446 ] ] ] } },
{ "type": "Feature", "properties": { "Id": 0, "Sheet_ID": "SHEET 6", "label": "SHEET 6", "call_short": "G7004 .S54 A1 S5 .J3", "call_num": "G7004 .S54 A1 S5 .J3 SHEET 6", "recid": "hs316ns4147", "websiteUrl": "https://purl.stanford.edu/hs316ns4147", "title": "南名好", "ckey": 8930509, "available": true, "iiifUrl": "https://purl.stanford.edu/hs316ns4147/iiif/manifest" }, "geometry": { "type": "Polygon", "coordinates": [ [ [ 141.8708336, 46.3944446 ], [ 141.9375002, 46.3944446 ], [ 141.9375002, 46.4166668 ], [ 141.8708336, 46.4166668 ], [ 141.8708336, 46.3944446 ] ] ] } },
{ "type": "Feature", "properties": { "Id": 0, "Sheet_ID": "SHEET 7", "label": "SHEET 7", "call_short": "G7004 .S54 A1 S5 .J3", "call_num": "G7004 .S54 A1 S5 .J3 SHEET 7", "recid": "kn736gd8605", "websiteUrl": "https://purl.stanford.edu/kn736gd8605", "title": "南名好", "ckey": 8930509, "available": true, "iiifUrl": "https://purl.stanford.edu/kn736gd8605/iiif/manifest" }, "geometry": { "type": "Polygon", "coordinates": [ [ [ 141.9375002, 46.3944446 ], [ 142.0041668, 46.3944446 ], [ 142.0041668, 46.4166668 ], [ 141.9375002, 46.4166668 ], [ 141.9375002, 46.3944446 ] ] ] } },
{ "type": "Feature", "properties": { "Id": 0, "Sheet_ID": "SHEET 8", "label": "SHEET 8", "call_short": "G7004 .S54 A1 S5 .J3", "call_num": "G7004 .S54 A1 S5 .J3 SHEET 8", "recid": "sg714jr3980", "websiteUrl": "https://purl.stanford.edu/sg714jr3980", "title": "南名好", "ckey": 8930509, "available": true, "iiifUrl": "https://purl.stanford.edu/sg714jr3980/iiif/manifest" }, "geometry": { "type": "Polygon", "coordinates": [ [ [ 142.0041668, 46.3944446 ], [ 142.0708334, 46.3944446 ], [ 142.0708334, 46.4166668 ], [ 142.0041668, 46.4166668 ], [ 142.0041668, 46.3944446 ] ] ] } },
{ "type": "Feature", "properties": { "Id": 0, "Sheet_ID": "SHEET 9", "label": "SHEET 9", "call_short": "G7004 .S54 A1 S5 .J3", "call_num": "G7004 .S54 A1 S5 .J3 SHEET 9", "recid": "wy380yz9959", "websiteUrl": "https://purl.stanford.edu/wy380yz9959", "title": "南名好", "ckey": 8930509, "available": true, "iiifUrl": "https://purl.stanford.edu/wy380yz9959/iiif/manifest" }, "geometry": { "type": "Polygon", "coordinates": [ [ [ 142.0708334, 46.3944446 ], [ 142.1375, 46.3944446 ], [ 142.1375, 46.4166668 ], [ 142.0708334, 46.4166668 ], [ 142.0708334, 46.3944446 ] ] ] } },
{ "type": "Feature", "properties": { "Id": 0, "Sheet_ID": "SHEET 1", "label": "SHEET 1", "call_short": "G7004 .S54 A1 S5 .J3", "call_num": "G7004 .S54 A1 S5 .J3 SHEET 1", "recid": "wm235cb5018", "websiteUrl": "https://purl.stanford.edu/wm235cb5018", "title": "南名好", "ckey": 8930509, "available": true, "iiifUrl": "https://purl.stanford.edu/wm235cb5018/iiif/manifest" }, "geometry": { "type": "Polygon", "coordinates": [ [ [ 141.804167, 46.4166668 ], [ 141.8708336, 46.4166668 ], [ 141.8708336, 46.438889 ], [ 141.804167, 46.438889 ], [ 141.804167, 46.4166668 ] ] ] } },
{ "type": "Feature", "properties": { "Id": 0, "Sheet_ID": "SHEET 2", "label": "SHEET 2", "call_short": "G7004 .S54 A1 S5 .J3", "call_num": "G7004 .S54 A1 S5 .J3 SHEET 2", "recid": "ff097bm8404", "websiteUrl": "https://purl.stanford.edu/ff097bm8404", "title": "南名好", "ckey": 8930509, "available": true, "iiifUrl": "https://purl.stanford.edu/ff097bm8404/iiif/manifest" }, "geometry": { "type": "Polygon", "coordinates": [ [ [ 141.8708336, 46.4166668 ], [ 141.9375002, 46.4166668 ], [ 141.9375002, 46.438889 ], [ 141.8708336, 46.438889 ], [ 141.8708336, 46.4166668 ] ] ] } },
{ "type": "Feature", "properties": { "Id": 0, "Sheet_ID": "SHEET 3", "label": "SHEET 3", "call_short": "G7004 .S54 A1 S5 .J3", "call_num": "G7004 .S54 A1 S5 .J3 SHEET 3", "recid": "dd716nk7992", "websiteUrl": "https://purl.stanford.edu/dd716nk7992", "title": "南名好", "ckey": 8930509, "available": true, "iiifUrl": "https://purl.stanford.edu/dd716nk7992/iiif/manifest" }, "geometry": { "type": "Polygon", "coordinates": [ [ [ 141.9375002, 46.4166668 ], [ 142.0041668, 46.4166668 ], [ 142.0041668, 46.438889 ], [ 141.9375002, 46.438889 ], [ 141.9375002, 46.4166668 ] ] ] } },
{ "type": "Feature", "properties": { "Id": 0, "Sheet_ID": "SHEET 4", "label": "SHEET 4", "call_short": "G7004 .S54 A1 S5 .J3", "call_num": "G7004 .S54 A1 S5 .J3 SHEET 4", "recid": "xm205yk4047", "websiteUrl": "https://purl.stanford.edu/xm205yk4047", "title": "南名好", "ckey": 8930509, "available": true, "iiifUrl": "https://purl.stanford.edu/xm205yk4047/iiif/manifest" }, "geometry": { "type": "Polygon", "coordinates": [ [ [ 142.0041668, 46.4166668 ], [ 142.0708334, 46.4166668 ], [ 142.0708334, 46.438889 ], [ 142.0041668, 46.438889 ], [ 142.0041668, 46.4166668 ] ] ] } }
]
}
