{
"type": "FeatureCollection",
"name": "index_map",
"features": [
{ "type": "Feature", "properties": { "Id": 0, "Sheet_ID": "19號. 老鐵山", "label": "19號. 老鐵山", "call_short": null, "call_num": null, "recid": null, "websiteUrl": null, "title": null, "ckey": 0, "available": false, "iiifUrl": null }, "geometry": { "type": "Polygon", "coordinates": [ [ [ 121.125, 38.666667 ], [ 121.25, 38.666667 ], [ 121.25, 38.7500002 ], [ 121.125, 38.7500002 ], [ 121.125, 38.666667 ] ] ] } },
{ "type": "Feature", "properties": { "Id": 0, "Sheet_ID": "22號. 羊頭窪", "label": "22號. 羊頭窪", "call_short": null, "call_num": null, "recid": null, "websiteUrl": null, "title": null, "ckey": 0, "available": false, "iiifUrl": null }, "geometry": { "type": "Polygon", "coordinates": [ [ [ 121.0, 38.7500002 ], [ 121.125, 38.7500002 ], [ 121.125, 38.8333334 ], [ 121.0, 38.8333334 ], [ 121.0, 38.7500002 ] ] ] } },
{ "type": "Feature", "properties": { "Id": 0, "Sheet_ID": "18號. 旅順西部", "label": "18號. 旅順西部", "call_short": "G7824 .D3 S25 .J3", "call_num": "G7824 .D3 S25 .J3 SHEET 18", "recid": "cm071gb2353", "websiteUrl": "https://purl.stanford.edu/cm071gb2353", "title": "二万五千分一地形圖 大連及旅順近傍", "ckey": 13901783, "available": true, "iiifUrl": "https://purl.stanford.edu/cm071gb2353/iiif/manifest" }, "geometry": { "type": "Polygon", "coordinates": [ [ [ 121.125, 38.7500002 ], [ 121.25, 38.7500002 ], [ 121.25, 38.8333334 ], [ 121.125, 38.8333334 ], [ 121.125, 38.7500002 ] ] ] } },
{ "type": "Feature", "properties": { "Id": 0, "Sheet_ID": "14號. 旅順東部", "label": "14號. 旅順東部", "call_short": null, "call_num": null, "recid": null, "websiteUrl": null, "title": null, "ckey": 0, "available": false, "iiifUrl": null }, "geometry": { "type": "Polygon", "coordinates": [ [ [ 121.25, 38.7500002 ], [ 121.375, 38.7500002 ], [ 121.375, 38.8333334 ], [ 121.25, 38.8333334 ], [ 121.25, 38.7500002 ] ] ] } },
{ "type": "Feature", "properties": { "Id": 0, "Sheet_ID": "10號. 小平島", "label": "10號. 小平島", "call_short": null, "call_num": null, "recid": null, "websiteUrl": null, "title": null, "ckey": 0, "available": false, "iiifUrl": null }, "geometry": { "type": "Polygon", "coordinates": [ [ [ 121.375, 38.7500002 ], [ 121.5, 38.7500002 ], [ 121.5, 38.8333334 ], [ 121.375, 38.8333334 ], [ 121.375, 38.7500002 ] ] ] } },
{ "type": "Feature", "properties": { "Id": 0, "Sheet_ID": "21號. 雙嶋", "label": "21號. 雙嶋", "call_short": null, "call_num": null, "recid": null, "websiteUrl": null, "title": null, "ckey": 0, "available": false, "iiifUrl": null }, "geometry": { "type": "Polygon", "coordinates": [ [ [ 121.0, 38.8333334 ], [ 121.125, 38.8333334 ], [ 121.125, 38.9166666 ], [ 121.0, 38.9166666 ], [ 121.0, 38.8333334 ] ] ] } },
{ "type": "Feature", "properties": { "Id": 0, "Sheet_ID": "17號. 水師營", "label": "17號. 水師營", "call_short": "G7824 .D3 S25 .J3", "call_num": "G7824 .D3 S25 .J3 SHEET 17", "recid": "vv158ws7228", "websiteUrl": "https://purl.stanford.edu/vv158ws7228", "title": "二万五千分一地形圖 大連及旅順近傍", "ckey": 13901783, "available": true, "iiifUrl": "https://purl.stanford.edu/vv158ws7228/iiif/manifest" }, "geometry": { "type": "Polygon", "coordinates": [ [ [ 121.125, 38.8333334 ], [ 121.25, 38.8333334 ], [ 121.25, 38.9166666 ], [ 121.125, 38.9166666 ], [ 121.125, 38.8333334 ] ] ] } },
{ "type": "Feature", "properties": { "Id": 0, "Sheet_ID": "13號. 龍頭", "label": "13號. 龍頭", "call_short": "G7824 .D3 S25 .J3", "call_num": "G7824 .D3 S25 .J3 SHEET 13", "recid": "pv487bj0568", "websiteUrl": "https://purl.stanford.edu/pv487bj0568", "title": "二万五千分一地形圖 大連及旅順近傍", "ckey": 13901783, "available": true, "iiifUrl": "https://purl.stanford.edu/pv487bj0568/iiif/manifest" }, "geometry": { "type": "Polygon", "coordinates": [ [ [ 121.25, 38.8333334 ], [ 121.375, 38.8333334 ], [ 121.375, 38.9166666 ], [ 121.25, 38.9166666 ], [ 121.25, 38.8333334 ] ] ] } },
{ "type": "Feature", "properties": { "Id": 0, "Sheet_ID": "9號. 黄泥川", "label": "9號. 黄泥川", "call_short": null, "call_num": null, "recid": null, "websiteUrl": null, "title": null, "ckey": 0, "available": false, "iiifUrl": null }, "geometry": { "type": "Polygon", "coordinates": [ [ [ 121.375, 38.8333334 ], [ 121.5, 38.8333334 ], [ 121.5, 38.9166666 ], [ 121.375, 38.9166666 ], [ 121.375, 38.8333334 ] ] ] } },
{ "type": "Feature", "properties": { "Id": 0, "Sheet_ID": "6號.", "label": "6號.", "call_short": null, "call_num": null, "recid": null, "websiteUrl": null, "title": null, "ckey": 0, "available": false, "iiifUrl": null }, "geometry": { "type": "Polygon", "coordinates": [ [ [ 121.5, 38.8333334 ], [ 121.625, 38.8333334 ], [ 121.625, 38.9166666 ], [ 121.5, 38.9166666 ], [ 121.5, 38.8333334 ] ] ] } },
{ "type": "Feature", "properties": { "Id": 0, "Sheet_ID": "3號.", "label": "3號.", "call_short": null, "call_num": null, "recid": null, "websiteUrl": null, "title": null, "ckey": 0, "available": false, "iiifUrl": null }, "geometry": { "type": "Polygon", "coordinates": [ [ [ 121.625, 38.8333334 ], [ 121.75, 38.8333334 ], [ 121.75, 38.9166666 ], [ 121.625, 38.9166666 ], [ 121.625, 38.8333334 ] ] ] } },
{ "type": "Feature", "properties": { "Id": 0, "Sheet_ID": "20號. 艾子口及蟒島", "label": "20號. 艾子口及蟒島", "call_short": null, "call_num": null, "recid": null, "websiteUrl": null, "title": null, "ckey": 0, "available": false, "iiifUrl": null }, "geometry": { "type": "Polygon", "coordinates": [ [ [ 121.0, 38.9166666 ], [ 121.125, 38.9166666 ], [ 121.125, 38.9999998 ], [ 121.0, 38.9999998 ], [ 121.0, 38.9166666 ] ] ] } },
{ "type": "Feature", "properties": { "Id": 0, "Sheet_ID": "16號. 大潮口", "label": "16號. 大潮口", "call_short": "G7824 .D3 S25 .J3", "call_num": "G7824 .D3 S25 .J3 SHEET 16", "recid": "gj689qv9254", "websiteUrl": "https://purl.stanford.edu/gj689qv9254", "title": "二万五千分一地形圖 大連及旅順近傍", "ckey": 13901783, "available": true, "iiifUrl": "https://purl.stanford.edu/gj689qv9254/iiif/manifest" }, "geometry": { "type": "Polygon", "coordinates": [ [ [ 121.125, 38.9166666 ], [ 121.25, 38.9166666 ], [ 121.25, 38.9999998 ], [ 121.125, 38.9999998 ], [ 121.125, 38.9166666 ] ] ] } },
{ "type": "Feature", "properties": { "Id": 0, "Sheet_ID": "12號. 長嶺子", "label": "12號. 長嶺子", "call_short": "G7824 .D3 S25 .J3", "call_num": "G7824 .D3 S25 .J3 SHEET 12", "recid": "bx160cd8827", "websiteUrl": "https://purl.stanford.edu/bx160cd8827", "title": "二万五千分一地形圖 大連及旅順近傍", "ckey": 13901783, "available": true, "iiifUrl": "https://purl.stanford.edu/bx160cd8827/iiif/manifest" }, "geometry": { "type": "Polygon", "coordinates": [ [ [ 121.25, 38.9166666 ], [ 121.375, 38.9166666 ], [ 121.375, 38.9999998 ], [ 121.25, 38.9999998 ], [ 121.25, 38.9166666 ] ] ] } },
{ "type": "Feature", "properties": { "Id": 0, "Sheet_ID": "8號. 盆溝", "label": "8號. 盆溝", "call_short": null, "call_num": null, "recid": null, "websiteUrl": null, "title": null, "ckey": 0, "available": false, "iiifUrl": null }, "geometry": { "type": "Polygon", "coordinates": [ [ [ 121.375, 38.9166666 ], [ 121.5, 38.9166666 ], [ 121.5, 38.9999998 ], [ 121.375, 38.9999998 ], [ 121.375, 38.9166666 ] ] ] } },
{ "type": "Feature", "properties": { "Id": 0, "Sheet_ID": "5號.", "label": "5號.", "call_short": null, "call_num": null, "recid": null, "websiteUrl": null, "title": null, "ckey": 0, "available": false, "iiifUrl": null }, "geometry": { "type": "Polygon", "coordinates": [ [ [ 121.5, 38.9166666 ], [ 121.625, 38.9166666 ], [ 121.625, 38.9999998 ], [ 121.5, 38.9999998 ], [ 121.5, 38.9166666 ] ] ] } },
{ "type": "Feature", "properties": { "Id": 0, "Sheet_ID": "2號.", "label": "2號.", "call_short": null, "call_num": null, "recid": null, "websiteUrl": null, "title": null, "ckey": 0, "available": false, "iiifUrl": null }, "geometry": { "type": "Polygon", "coordinates": [ [ [ 121.625, 38.9166666 ], [ 121.75, 38.9166666 ], [ 121.75, 38.9999998 ], [ 121.625, 38.9999998 ], [ 121.625, 38.9166666 ] ] ] } },
{ "type": "Feature", "properties": { "Id": 0, "Sheet_ID": "15號.  猪嶋", "label": "15號.  猪嶋", "call_short": null, "call_num": null, "recid": null, "websiteUrl": null, "title": null, "ckey": 0, "available": false, "iiifUrl": null }, "geometry": { "type": "Polygon", "coordinates": [ [ [ 121.125, 39.166667 ], [ 121.125, 39.083333 ], [ 121.25, 39.083333 ], [ 121.25, 39.166667 ], [ 121.125, 39.166667 ] ] ] } },
{ "type": "Feature", "properties": { "Id": 0, "Sheet_ID": "11號. 黄龍尾", "label": "11號. 黄龍尾", "call_short": null, "call_num": null, "recid": null, "websiteUrl": null, "title": null, "ckey": 0, "available": false, "iiifUrl": null }, "geometry": { "type": "Polygon", "coordinates": [ [ [ 121.25, 38.9999998 ], [ 121.375, 38.9999998 ], [ 121.375, 39.083333 ], [ 121.25, 39.083333 ], [ 121.25, 38.9999998 ] ] ] } },
{ "type": "Feature", "properties": { "Id": 0, "Sheet_ID": "7號. 營城子", "label": "7號. 營城子", "call_short": null, "call_num": null, "recid": null, "websiteUrl": null, "title": null, "ckey": 0, "available": false, "iiifUrl": null }, "geometry": { "type": "Polygon", "coordinates": [ [ [ 121.375, 38.9999998 ], [ 121.5, 38.9999998 ], [ 121.5, 39.083333 ], [ 121.375, 39.083333 ], [ 121.375, 38.9999998 ] ] ] } },
{ "type": "Feature", "properties": { "Id": 0, "Sheet_ID": "4號. 南關嶺", "label": "4號. 南關嶺", "call_short": null, "call_num": null, "recid": null, "websiteUrl": null, "title": null, "ckey": 0, "available": false, "iiifUrl": null }, "geometry": { "type": "Polygon", "coordinates": [ [ [ 121.5, 38.9999998 ], [ 121.625, 38.9999998 ], [ 121.625, 39.083333 ], [ 121.5, 39.083333 ], [ 121.5, 38.9999998 ] ] ] } },
{ "type": "Feature", "properties": { "Id": 0, "Sheet_ID": "1號. 大房身", "label": "1號. 大房身", "call_short": null, "call_num": null, "recid": null, "websiteUrl": null, "title": null, "ckey": 0, "available": false, "iiifUrl": null }, "geometry": { "type": "Polygon", "coordinates": [ [ [ 121.625, 38.9999998 ], [ 121.75, 38.9999998 ], [ 121.75, 39.083333 ], [ 121.625, 39.083333 ], [ 121.625, 38.9999998 ] ] ] } }
]
}
