{
"type": "FeatureCollection",
"name": "index_map",
"xy_coordinate_resolution": 1e-07,
"features": [
{ "type": "Feature", "properties": { "Id": 0, "Sheet_ID": "SHEET 3", "label": "SHEET 3", "call_short": "G7064 .O415 1926 .J3", "call_num": "G7064 .O415 1926 .J3 SHEET 3", "recid": "cn974ry7689", "websiteUrl": "https://purl.stanford.edu/cn974ry7689", "title": "二万五千分一圖 オハ及バイカル近傍", "ckey": 9620728, "available": true, "iiifUrl": "https://purl.stanford.edu/cn974ry7689/iiif/manifest" }, "geometry": { "type": "Polygon", "coordinates": [ [ [ 142.9475322, 53.3746858 ], [ 143.1456727, 53.4018954 ], [ 143.1320679, 53.5009656 ], [ 142.9339274, 53.473756 ], [ 142.9475322, 53.3746858 ] ] ] } },
{ "type": "Feature", "properties": { "Id": 0, "Sheet_ID": "SHEET 5", "label": "SHEET 5", "call_short": "G7064 .O415 1926 .J3", "call_num": "G7064 .O415 1926 .J3 SHEET 5", "recid": "qd598sh2625", "websiteUrl": "https://purl.stanford.edu/qd598sh2625", "title": "二万五千分一圖 オハ及バイカル近傍", "ckey": 9620728, "available": true, "iiifUrl": "https://purl.stanford.edu/qd598sh2625/iiif/manifest" }, "geometry": { "type": "Polygon", "coordinates": [ [ [ 142.735787, 53.4465464 ], [ 142.9339274, 53.473756 ], [ 142.9203226, 53.5728262 ], [ 142.7221822, 53.5456167 ], [ 142.735787, 53.4465464 ] ] ] } },
{ "type": "Feature", "properties": { "Id": 0, "Sheet_ID": "SHEET 2", "label": "SHEET 2", "call_short": "G7064 .O415 1926 .J3", "call_num": "G7064 .O415 1926 .J3 SHEET 2", "recid": "bd416fn4096", "websiteUrl": "https://purl.stanford.edu/bd416fn4096", "title": "二万五千分一圖 オハ及バイカル近傍", "ckey": 9620728, "available": true, "iiifUrl": "https://purl.stanford.edu/bd416fn4096/iiif/manifest" }, "geometry": { "type": "Polygon", "coordinates": [ [ [ 142.9339274, 53.473756 ], [ 143.1320679, 53.5009656 ], [ 143.1184631, 53.6000358 ], [ 142.9203226, 53.5728262 ], [ 142.9339274, 53.473756 ] ] ] } },
{ "type": "Feature", "properties": { "Id": 0, "Sheet_ID": "SHEET 8", "label": "SHEET 8", "call_short": "G7064 .O415 1926 .J3", "call_num": "G7064 .O415 1926 .J3 SHEET 8", "recid": "xg563mv8964", "websiteUrl": "https://purl.stanford.edu/xg563mv8964", "title": "二万五千分一圖 オハ及バイカル近傍", "ckey": 9620728, "available": true, "iiifUrl": "https://purl.stanford.edu/xg563mv8964/iiif/manifest" }, "geometry": { "type": "Polygon", "coordinates": [ [ [ 142.1277608, 53.4639879 ], [ 142.3259013, 53.4911975 ], [ 142.3122965, 53.5902677 ], [ 142.114156, 53.5630582 ], [ 142.1277608, 53.4639879 ] ] ] } },
{ "type": "Feature", "properties": { "Id": 0, "Sheet_ID": "SHEET 7", "label": "SHEET 7", "call_short": "G7064 .O415 1926 .J3", "call_num": "G7064 .O415 1926 .J3 SHEET 7", "recid": "tb039vx7430", "websiteUrl": "https://purl.stanford.edu/tb039vx7430", "title": "二万五千分一圖 オハ及バイカル近傍", "ckey": 9620728, "available": true, "iiifUrl": "https://purl.stanford.edu/tb039vx7430/iiif/manifest" }, "geometry": { "type": "Polygon", "coordinates": [ [ [ 142.3259013, 53.4911975 ], [ 142.5240417, 53.5184071 ], [ 142.5104369, 53.6174773 ], [ 142.3122965, 53.5902677 ], [ 142.3259013, 53.4911975 ] ] ] } },
{ "type": "Feature", "properties": { "Id": 0, "Sheet_ID": "SHEET 6", "label": "SHEET 6", "call_short": "G7064 .O415 1926 .J3", "call_num": "G7064 .O415 1926 .J3 SHEET 6", "recid": "qc214bh5925", "websiteUrl": "https://purl.stanford.edu/qc214bh5925", "title": "二万五千分一圖 オハ及バイカル近傍", "ckey": 9620728, "available": true, "iiifUrl": "https://purl.stanford.edu/qc214bh5925/iiif/manifest" }, "geometry": { "type": "Polygon", "coordinates": [ [ [ 142.5240417, 53.5184071 ], [ 142.7221822, 53.5456167 ], [ 142.7085774, 53.6446869 ], [ 142.5104369, 53.6174773 ], [ 142.5240417, 53.5184071 ] ] ] } },
{ "type": "Feature", "properties": { "Id": 0, "Sheet_ID": "SHEET 4", "label": "SHEET 4", "call_short": "G7064 .O415 1926 .J3", "call_num": "G7064 .O415 1926 .J3 SHEET 4", "recid": "zc314ch2245", "websiteUrl": "https://purl.stanford.edu/zc314ch2245", "title": "二万五千分一圖 オハ及バイカル近傍", "ckey": 9620728, "available": true, "iiifUrl": "https://purl.stanford.edu/zc314ch2245/iiif/manifest" }, "geometry": { "type": "Polygon", "coordinates": [ [ [ 142.7221822, 53.5456167 ], [ 142.9203226, 53.5728262 ], [ 142.9067178, 53.6718965 ], [ 142.7085774, 53.6446869 ], [ 142.7221822, 53.5456167 ] ] ] } },
{ "type": "Feature", "properties": { "Id": 0, "Sheet_ID": "SHEET 1", "label": "SHEET 1", "call_short": "G7064 .O415 1926 .J3", "call_num": "G7064 .O415 1926 .J3 SHEET 1", "recid": "ns362kd2593", "websiteUrl": "https://purl.stanford.edu/ns362kd2593", "title": "二万五千分一圖 オハ及バイカル近傍", "ckey": 9620728, "available": true, "iiifUrl": "https://purl.stanford.edu/ns362kd2593/iiif/manifest" }, "geometry": { "type": "Polygon", "coordinates": [ [ [ 142.9203226, 53.5728262 ], [ 143.1184631, 53.6000358 ], [ 143.1048583, 53.699106 ], [ 142.9067178, 53.6718965 ], [ 142.9203226, 53.5728262 ] ] ] } }
]
}
