{
"type": "FeatureCollection",
"name": "index_map",
"xy_coordinate_resolution": 1e-07,
"features": [
{ "type": "Feature", "properties": { "Id": 0, "Sheet_ID": "20. ダンチュルスーム", "label": "20. ダンチュルスーム", "call_short": "0", "call_num": "0", "recid": "0", "websiteUrl": "0", "title": "0", "ckey": 0, "available": false, "iiifUrl": "0" }, "geometry": { "type": "Polygon", "coordinates": [ [ [ 118.0, 45.0 ], [ 118.5, 45.0 ], [ 118.5, 45.3333334 ], [ 118.0, 45.3333334 ], [ 118.0, 45.0 ] ] ] } },
{ "type": "Feature", "properties": { "Id": 0, "Sheet_ID": "15. オランハダ", "label": "15. オランハダ", "call_short": "G7823 .I5 S100 .J43", "call_num": "G7823 .I5 S100 .J43 SHEET 15", "recid": "vc663xg6129", "websiteUrl": "https://purl.stanford.edu/vc663xg6129", "title": "假製 蒙古十万分一圖 烏珠穆沁", "ckey": 12284213, "available": true, "iiifUrl": "https://purl.stanford.edu/vc663xg6129/iiif/manifest" }, "geometry": { "type": "Polygon", "coordinates": [ [ [ 118.5, 45.0 ], [ 119.0, 45.0 ], [ 119.0, 45.3333334 ], [ 118.5, 45.3333334 ], [ 118.5, 45.0 ] ] ] } },
{ "type": "Feature", "properties": { "Id": 0, "Sheet_ID": "10. ホロクテエーラ", "label": "10. ホロクテエーラ", "call_short": "0", "call_num": "0", "recid": "0", "websiteUrl": "0", "title": "0", "ckey": 0, "available": false, "iiifUrl": "0" }, "geometry": { "type": "Polygon", "coordinates": [ [ [ 119.0, 45.0 ], [ 119.5, 45.0 ], [ 119.5, 45.3333334 ], [ 119.0, 45.3333334 ], [ 119.0, 45.0 ] ] ] } },
{ "type": "Feature", "properties": { "Id": 0, "Sheet_ID": "5. コロボン嶺", "label": "5. コロボン嶺", "call_short": "0", "call_num": "0", "recid": "0", "websiteUrl": "0", "title": "0", "ckey": 0, "available": false, "iiifUrl": "0" }, "geometry": { "type": "Polygon", "coordinates": [ [ [ 119.5, 45.0 ], [ 120.0, 45.0 ], [ 120.0, 45.3333334 ], [ 119.5, 45.3333334 ], [ 119.5, 45.0 ] ] ] } },
{ "type": "Feature", "properties": { "Id": 0, "Sheet_ID": "19. サンノトカンヂョルスーム", "label": "19. サンノトカンヂョルスーム", "call_short": "0", "call_num": "0", "recid": "0", "websiteUrl": "0", "title": "0", "ckey": 0, "available": false, "iiifUrl": "0" }, "geometry": { "type": "Polygon", "coordinates": [ [ [ 118.0, 45.3333334 ], [ 118.5, 45.3333334 ], [ 118.5, 45.6666668 ], [ 118.0, 45.6666668 ], [ 118.0, 45.3333334 ] ] ] } },
{ "type": "Feature", "properties": { "Id": 0, "Sheet_ID": "14. トソラチーエーラ", "label": "14. トソラチーエーラ", "call_short": "0", "call_num": "0", "recid": "0", "websiteUrl": "0", "title": "0", "ckey": 0, "available": false, "iiifUrl": "0" }, "geometry": { "type": "Polygon", "coordinates": [ [ [ 118.5, 45.3333334 ], [ 119.0, 45.3333334 ], [ 119.0, 45.6666668 ], [ 118.5, 45.6666668 ], [ 118.5, 45.3333334 ] ] ] } },
{ "type": "Feature", "properties": { "Id": 0, "Sheet_ID": "9. ノーナイスーム", "label": "9. ノーナイスーム", "call_short": "0", "call_num": "0", "recid": "0", "websiteUrl": "0", "title": "0", "ckey": 0, "available": false, "iiifUrl": "0" }, "geometry": { "type": "Polygon", "coordinates": [ [ [ 119.0, 45.3333334 ], [ 119.5, 45.3333334 ], [ 119.5, 45.6666668 ], [ 119.0, 45.6666668 ], [ 119.0, 45.3333334 ] ] ] } },
{ "type": "Feature", "properties": { "Id": 0, "Sheet_ID": "4. モークチン", "label": "4. モークチン", "call_short": "0", "call_num": "0", "recid": "0", "websiteUrl": "0", "title": "0", "ckey": 0, "available": false, "iiifUrl": "0" }, "geometry": { "type": "Polygon", "coordinates": [ [ [ 119.5, 45.3333334 ], [ 120.0, 45.3333334 ], [ 120.0, 45.6666668 ], [ 119.5, 45.6666668 ], [ 119.5, 45.3333334 ] ] ] } },
{ "type": "Feature", "properties": { "Id": 0, "Sheet_ID": "18. パインホッションスーム", "label": "18. パインホッションスーム", "call_short": "0", "call_num": "0", "recid": "0", "websiteUrl": "0", "title": "0", "ckey": 0, "available": false, "iiifUrl": "0" }, "geometry": { "type": "Polygon", "coordinates": [ [ [ 118.0, 45.6666668 ], [ 118.5, 45.6666668 ], [ 118.5, 46.0000002 ], [ 118.0, 46.0000002 ], [ 118.0, 45.6666668 ] ] ] } },
{ "type": "Feature", "properties": { "Id": 0, "Sheet_ID": "13. プーナイスーム", "label": "13. プーナイスーム", "call_short": "G7823 .I5 S100 .J43", "call_num": "G7823 .I5 S100 .J43 SHEET 13", "recid": "vs098sv2738", "websiteUrl": "https://purl.stanford.edu/vs098sv2738", "title": "假製 蒙古十万分一圖 烏珠穆沁", "ckey": 12284213, "available": true, "iiifUrl": "https://purl.stanford.edu/vs098sv2738/iiif/manifest" }, "geometry": { "type": "Polygon", "coordinates": [ [ [ 118.5, 45.6666668 ], [ 119.0, 45.6666668 ], [ 119.0, 46.0000002 ], [ 118.5, 46.0000002 ], [ 118.5, 45.6666668 ] ] ] } },
{ "type": "Feature", "properties": { "Id": 0, "Sheet_ID": "8. 東烏珠穆沁貝勒府", "label": "8. 東烏珠穆沁貝勒府", "call_short": "0", "call_num": "0", "recid": "0", "websiteUrl": "0", "title": "0", "ckey": 0, "available": false, "iiifUrl": "0" }, "geometry": { "type": "Polygon", "coordinates": [ [ [ 119.0, 45.6666668 ], [ 119.5, 45.6666668 ], [ 119.5, 46.0000002 ], [ 119.0, 46.0000002 ], [ 119.0, 45.6666668 ] ] ] } },
{ "type": "Feature", "properties": { "Id": 0, "Sheet_ID": "3. ホッシヨースム", "label": "3. ホッシヨースム", "call_short": "0", "call_num": "0", "recid": "0", "websiteUrl": "0", "title": "0", "ckey": 0, "available": false, "iiifUrl": "0" }, "geometry": { "type": "Polygon", "coordinates": [ [ [ 119.5, 45.6666668 ], [ 120.0, 45.6666668 ], [ 120.0, 46.0000002 ], [ 119.5, 46.0000002 ], [ 119.5, 45.6666668 ] ] ] } },
{ "type": "Feature", "properties": { "Id": 0, "Sheet_ID": "17. コボネーラ", "label": "17. コボネーラ", "call_short": "0", "call_num": "0", "recid": "0", "websiteUrl": "0", "title": "0", "ckey": 0, "available": false, "iiifUrl": "0" }, "geometry": { "type": "Polygon", "coordinates": [ [ [ 118.0, 46.0000002 ], [ 118.5, 46.0000002 ], [ 118.5, 46.3333336 ], [ 118.0, 46.3333336 ], [ 118.0, 46.0000002 ] ] ] } },
{ "type": "Feature", "properties": { "Id": 0, "Sheet_ID": "12. クルベントラガイ", "label": "12. クルベントラガイ", "call_short": "0", "call_num": "0", "recid": "0", "websiteUrl": "0", "title": "0", "ckey": 0, "available": false, "iiifUrl": "0" }, "geometry": { "type": "Polygon", "coordinates": [ [ [ 118.5, 46.0000002 ], [ 119.0, 46.0000002 ], [ 119.0, 46.3333336 ], [ 118.5, 46.3333336 ], [ 118.5, 46.0000002 ] ] ] } },
{ "type": "Feature", "properties": { "Id": 0, "Sheet_ID": "7. ホルトン", "label": "7. ホルトン", "call_short": "0", "call_num": "0", "recid": "0", "websiteUrl": "0", "title": "0", "ckey": 0, "available": false, "iiifUrl": "0" }, "geometry": { "type": "Polygon", "coordinates": [ [ [ 119.0, 46.0000002 ], [ 119.5, 46.0000002 ], [ 119.5, 46.3333336 ], [ 119.0, 46.3333336 ], [ 119.0, 46.0000002 ] ] ] } },
{ "type": "Feature", "properties": { "Id": 0, "Sheet_ID": "2. ポットネーラ", "label": "2. ポットネーラ", "call_short": "0", "call_num": "0", "recid": "0", "websiteUrl": "0", "title": "0", "ckey": 0, "available": false, "iiifUrl": "0" }, "geometry": { "type": "Polygon", "coordinates": [ [ [ 119.5, 46.0000002 ], [ 120.0, 46.0000002 ], [ 120.0, 46.3333336 ], [ 119.5, 46.3333336 ], [ 119.5, 46.0000002 ] ] ] } },
{ "type": "Feature", "properties": { "Id": 0, "Sheet_ID": "16. パインノール", "label": "16. パインノール", "call_short": "0", "call_num": "0", "recid": "0", "websiteUrl": "0", "title": "0", "ckey": 0, "available": false, "iiifUrl": "0" }, "geometry": { "type": "Polygon", "coordinates": [ [ [ 118.0, 46.3333336 ], [ 118.5, 46.3333336 ], [ 118.5, 46.666667 ], [ 118.0, 46.666667 ], [ 118.0, 46.3333336 ] ] ] } },
{ "type": "Feature", "properties": { "Id": 0, "Sheet_ID": "11. 東二嶺", "label": "11. 東二嶺", "call_short": "0", "call_num": "0", "recid": "0", "websiteUrl": "0", "title": "0", "ckey": 0, "available": false, "iiifUrl": "0" }, "geometry": { "type": "Polygon", "coordinates": [ [ [ 118.5, 46.3333336 ], [ 119.0, 46.3333336 ], [ 119.0, 46.666667 ], [ 118.5, 46.666667 ], [ 118.5, 46.3333336 ] ] ] } },
{ "type": "Feature", "properties": { "Id": 0, "Sheet_ID": "6. チユルヒネーラ", "label": "6. チユルヒネーラ", "call_short": "0", "call_num": "0", "recid": "0", "websiteUrl": "0", "title": "0", "ckey": 0, "available": false, "iiifUrl": "0" }, "geometry": { "type": "Polygon", "coordinates": [ [ [ 119.0, 46.3333336 ], [ 119.5, 46.3333336 ], [ 119.5, 46.666667 ], [ 119.0, 46.666667 ], [ 119.0, 46.3333336 ] ] ] } },
{ "type": "Feature", "properties": { "Id": 0, "Sheet_ID": "1. チユルヒネーラ東部", "label": "1. チユルヒネーラ東部", "call_short": "0", "call_num": "0", "recid": "0", "websiteUrl": "0", "title": "0", "ckey": 0, "available": false, "iiifUrl": "0" }, "geometry": { "type": "Polygon", "coordinates": [ [ [ 119.5, 46.3333336 ], [ 120.0, 46.3333336 ], [ 120.0, 46.666667 ], [ 119.5, 46.666667 ], [ 119.5, 46.3333336 ] ] ] } }
]
}
