{
"type": "FeatureCollection",
"name": "index_map",
"xy_coordinate_resolution": 1e-07,
"features": [
{ "type": "Feature", "properties": { "Id": 0, "Sheet_ID": "2. WEST", "label": "2. WEST", "call_short": "G7323 .K5 1941 .J3", "call_num": "G7323 .K5 1941 .J3 MAP 2 (WEST)", "recid": "dk159dv1164", "websiteUrl": "https://purl.stanford.edu/dk159dv1164", "title": "五十万分一圖 ハバロフスク方面素圖", "ckey": 9229966, "available": true, "iiifUrl": "https://purl.stanford.edu/dk159dv1164/iiif/manifest" }, "geometry": { "type": "Polygon", "coordinates": [ [ [ 130.25, 46.75 ], [ 135.25, 46.75 ], [ 135.25, 51.5 ], [ 129.75, 51.5 ], [ 130.25, 46.75 ] ] ] } },
{ "type": "Feature", "properties": { "Id": 0, "Sheet_ID": "1. EAST", "label": "1. EAST", "call_short": "G7323 .K5 1941 .J3", "call_num": "G7323 .K5 1941 .J3 MAP 1 (EAST)", "recid": "pg017rr6061", "websiteUrl": "https://purl.stanford.edu/pg017rr6061", "title": "五十万分一圖 ハバロフスク方面素圖", "ckey": 9229966, "available": true, "iiifUrl": "https://purl.stanford.edu/pg017rr6061/iiif/manifest" }, "geometry": { "type": "Polygon", "coordinates": [ [ [ 135.25, 46.75 ], [ 140.25, 46.75 ], [ 140.75, 51.5 ], [ 135.25, 51.5 ], [ 135.25, 46.75 ] ] ] } }
]
}
