{
"type": "FeatureCollection",
"name": "index_map",
"xy_coordinate_resolution": 1e-07,
"features": [
{ "type": "Feature", "properties": { "Id": 0, "Sheet_ID": "七南ロ199. ベナベンス", "label": "七南ロ199. ベナベンス", "call_short": "G8160 S100 .J3", "call_num": "G8160 S100 .J3 7RO/199", "recid": "xn172vm9765", "websiteUrl": "https://purl.stanford.edu/xn172vm9765", "title": "東部パプア十万分一 空中寫眞測圖 要圖", "ckey": 8215943, "available": true, "iiifUrl": "https://purl.stanford.edu/xn172vm9765/iiif/manifest" }, "geometry": { "type": "Polygon", "coordinates": [ [ [ 145.0, -6.333333 ], [ 145.5, -6.333333 ], [ 145.5, -5.9999997 ], [ 145.0, -5.9999997 ], [ 145.0, -6.333333 ] ] ] } },
{ "type": "Feature", "properties": { "Id": 0, "Sheet_ID": "七南ロ189. ベナベナ", "label": "七南ロ189. ベナベナ", "call_short": "0", "call_num": "0", "recid": "0", "websiteUrl": "0", "title": "0", "ckey": 0, "available": false, "iiifUrl": "0" }, "geometry": { "type": "Polygon", "coordinates": [ [ [ 145.5, -6.333333 ], [ 146.0, -6.333333 ], [ 146.0, -5.9999997 ], [ 145.5, -5.9999997 ], [ 145.5, -6.333333 ] ] ] } },
{ "type": "Feature", "properties": { "Id": 0, "Sheet_ID": "七南ロ179. カイアピット", "label": "七南ロ179. カイアピット", "call_short": "G8160 S100 .J3", "call_num": "G8160 S100 .J3 7RO/179", "recid": "cr245xz4697", "websiteUrl": "https://purl.stanford.edu/cr245xz4697", "title": "東部パプア十万分一 空中寫眞測圖 要圖", "ckey": 8215943, "available": true, "iiifUrl": "https://purl.stanford.edu/cr245xz4697/iiif/manifest" }, "geometry": { "type": "Polygon", "coordinates": [ [ [ 146.0, -6.333333 ], [ 146.5, -6.333333 ], [ 146.5, -5.9999997 ], [ 146.0, -5.9999997 ], [ 146.0, -6.333333 ] ] ] } },
{ "type": "Feature", "properties": { "Id": 0, "Sheet_ID": "七南ロ159. バンゲタ山", "label": "七南ロ159. バンゲタ山", "call_short": "G8160 S100 .J3", "call_num": "G8160 S100 .J3 7RO/159", "recid": "hc829mh4100", "websiteUrl": "https://purl.stanford.edu/hc829mh4100", "title": "東部パプア十万分一 空中寫眞測圖 要圖", "ckey": 8215943, "available": true, "iiifUrl": "https://purl.stanford.edu/hc829mh4100/iiif/manifest" }, "geometry": { "type": "Polygon", "coordinates": [ [ [ 147.0, -6.333333 ], [ 147.5, -6.333333 ], [ 147.5, -5.9999997 ], [ 147.0, -5.9999997 ], [ 147.0, -6.333333 ] ] ] } },
{ "type": "Feature", "properties": { "Id": 0, "Sheet_ID": "七南ロ149. カラサ", "label": "七南ロ149. カラサ", "call_short": "G8160 S100 .J3", "call_num": "G8160 S100 .J3 7RO/149", "recid": "bq165bc6926", "websiteUrl": "https://purl.stanford.edu/bq165bc6926", "title": "東部パプア十万分一 空中寫眞測圖 要圖", "ckey": 8215943, "available": true, "iiifUrl": "https://purl.stanford.edu/bq165bc6926/iiif/manifest" }, "geometry": { "type": "Polygon", "coordinates": [ [ [ 147.5, -6.333333 ], [ 148.0, -6.333333 ], [ 148.0, -5.9999997 ], [ 147.5, -5.9999997 ], [ 147.5, -6.333333 ] ] ] } },
{ "type": "Feature", "properties": { "Id": 0, "Sheet_ID": "八南ロ128. ハーゲン山", "label": "八南ロ128. ハーゲン山", "call_short": "G8160 S100 .J3", "call_num": "G8160 S100 .J3 8RO/128", "recid": "dz539dt0353", "websiteUrl": "https://purl.stanford.edu/dz539dt0353", "title": "東部パプア十万分一 空中寫眞測圖 要圖", "ckey": 8215943, "available": true, "iiifUrl": "https://purl.stanford.edu/dz539dt0353/iiif/manifest" }, "geometry": { "type": "Polygon", "coordinates": [ [ [ 143.5, -5.9999997 ], [ 144.0, -5.9999997 ], [ 144.0, -5.6666663 ], [ 143.5, -5.6666663 ], [ 143.5, -5.9999997 ] ] ] } },
{ "type": "Feature", "properties": { "Id": 0, "Sheet_ID": "八南ロ118. ナンキル山", "label": "八南ロ118. ナンキル山", "call_short": "G8160 S100 .J3", "call_num": "G8160 S100 .J3 8RO/118", "recid": "wm315zf9745", "websiteUrl": "https://purl.stanford.edu/wm315zf9745", "title": "東部パプア十万分一 空中寫眞測圖 要圖", "ckey": 8215943, "available": true, "iiifUrl": "https://purl.stanford.edu/wm315zf9745/iiif/manifest" }, "geometry": { "type": "Polygon", "coordinates": [ [ [ 144.0, -5.9999997 ], [ 144.5, -5.9999997 ], [ 144.5, -5.6666663 ], [ 144.0, -5.6666663 ], [ 144.0, -5.9999997 ] ] ] } },
{ "type": "Feature", "properties": { "Id": 0, "Sheet_ID": "八南ロ108. ケロワギ", "label": "八南ロ108. ケロワギ", "call_short": "G8160 S100 .J3", "call_num": "G8160 S100 .J3 8RO/108", "recid": "tj725mq6651", "websiteUrl": "https://purl.stanford.edu/tj725mq6651", "title": "東部パプア十万分一 空中寫眞測圖 要圖", "ckey": 8215943, "available": true, "iiifUrl": "https://purl.stanford.edu/tj725mq6651/iiif/manifest" }, "geometry": { "type": "Polygon", "coordinates": [ [ [ 144.5, -5.9999997 ], [ 145.0, -5.9999997 ], [ 145.0, -5.6666663 ], [ 144.5, -5.6666663 ], [ 144.5, -5.9999997 ] ] ] } },
{ "type": "Feature", "properties": { "Id": 0, "Sheet_ID": "七南ロ198. ウィルヘルム山", "label": "七南ロ198. ウィルヘルム山", "call_short": "G8160 S100 .J3", "call_num": "G8160 S100 .J3 7RO/198", "recid": "dw968qq1813", "websiteUrl": "https://purl.stanford.edu/dw968qq1813", "title": "東部パプア十万分一 空中寫眞測圖 要圖", "ckey": 8215943, "available": true, "iiifUrl": "https://purl.stanford.edu/dw968qq1813/iiif/manifest" }, "geometry": { "type": "Polygon", "coordinates": [ [ [ 145.0, -5.9999997 ], [ 145.5, -5.9999997 ], [ 145.5, -5.6666663 ], [ 145.0, -5.6666663 ], [ 145.0, -5.9999997 ] ] ] } },
{ "type": "Feature", "properties": { "Id": 0, "Sheet_ID": "七南ロ188. イムリバ_補測2", "label": "七南ロ188. イムリバ_補測2", "call_short": "G8160 S100 .J3", "call_num": "G8160 S100 .J3 7RO/188", "recid": "gd493tf1308", "websiteUrl": "https://purl.stanford.edu/gd493tf1308", "title": "東部パプア十万分一 空中寫眞測圖 要圖", "ckey": 8215943, "available": true, "iiifUrl": "https://purl.stanford.edu/gd493tf1308/iiif/manifest" }, "geometry": { "type": "Polygon", "coordinates": [ [ [ 145.5, -5.9999997 ], [ 146.0, -5.9999997 ], [ 146.0, -5.6666663 ], [ 145.5, -5.6666663 ], [ 145.5, -5.9999997 ] ] ] } },
{ "type": "Feature", "properties": { "Id": 0, "Sheet_ID": "七南ロ178. グラッドストーン山", "label": "七南ロ178. グラッドストーン山", "call_short": "G8160 S100 .J3", "call_num": "G8160 S100 .J3 7RO/178", "recid": "zg064ft3847", "websiteUrl": "https://purl.stanford.edu/zg064ft3847", "title": "東部パプア十万分一 空中寫眞測圖 要圖", "ckey": 8215943, "available": true, "iiifUrl": "https://purl.stanford.edu/zg064ft3847/iiif/manifest" }, "geometry": { "type": "Polygon", "coordinates": [ [ [ 146.0, -5.9999997 ], [ 146.5, -5.9999997 ], [ 146.5, -5.6666663 ], [ 146.0, -5.6666663 ], [ 146.0, -5.9999997 ] ] ] } },
{ "type": "Feature", "properties": { "Id": 0, "Sheet_ID": "七南ロ168. メルマルマイ", "label": "七南ロ168. メルマルマイ", "call_short": "G8160 S100 .J3", "call_num": "G8160 S100 .J3 7RO/168", "recid": "sv319rc9700", "websiteUrl": "https://purl.stanford.edu/sv319rc9700", "title": "東部パプア十万分一 空中寫眞測圖 要圖", "ckey": 8215943, "available": true, "iiifUrl": "https://purl.stanford.edu/sv319rc9700/iiif/manifest" }, "geometry": { "type": "Polygon", "coordinates": [ [ [ 146.5, -5.9999997 ], [ 147.0, -5.9999997 ], [ 147.0, -5.6666663 ], [ 146.5, -5.6666663 ], [ 146.5, -5.9999997 ] ] ] } },
{ "type": "Feature", "properties": { "Id": 0, "Sheet_ID": "七南ロ158. シオ", "label": "七南ロ158. シオ", "call_short": "G8160 S100 .J3", "call_num": "G8160 S100 .J3 7RO/158", "recid": "mq371pd7817", "websiteUrl": "https://purl.stanford.edu/mq371pd7817", "title": "東部パプア十万分一 空中寫眞測圖 要圖", "ckey": 8215943, "available": true, "iiifUrl": "https://purl.stanford.edu/mq371pd7817/iiif/manifest" }, "geometry": { "type": "Polygon", "coordinates": [ [ [ 147.0, -5.9999997 ], [ 147.5, -5.9999997 ], [ 147.5, -5.6666663 ], [ 147.0, -5.6666663 ], [ 147.0, -5.9999997 ] ] ] } },
{ "type": "Feature", "properties": { "Id": 0, "Sheet_ID": "八南ロ127. ワバグ", "label": "八南ロ127. ワバグ", "call_short": "G8160 S100 .J3", "call_num": "G8160 S100 .J3 8RO/127", "recid": "ts560vh9683", "websiteUrl": "https://purl.stanford.edu/ts560vh9683", "title": "東部パプア十万分一 空中寫眞測圖 要圖", "ckey": 8215943, "available": true, "iiifUrl": "https://purl.stanford.edu/ts560vh9683/iiif/manifest" }, "geometry": { "type": "Polygon", "coordinates": [ [ [ 143.5, -5.6666663 ], [ 144.0, -5.6666663 ], [ 144.0, -5.333333 ], [ 143.5, -5.333333 ], [ 143.5, -5.6666663 ] ] ] } },
{ "type": "Feature", "properties": { "Id": 0, "Sheet_ID": "七南ロ197. ウリギナ", "label": "七南ロ197. ウリギナ", "call_short": "G8160 S100 .J3", "call_num": "G8160 S100 .J3 7RO/197", "recid": "hs994cm6835", "websiteUrl": "https://purl.stanford.edu/hs994cm6835", "title": "東部パプア十万分一 空中寫眞測圖 要圖", "ckey": 8215943, "available": true, "iiifUrl": "https://purl.stanford.edu/hs994cm6835/iiif/manifest" }, "geometry": { "type": "Polygon", "coordinates": [ [ [ 145.0, -5.6666663 ], [ 145.5, -5.6666663 ], [ 145.5, -5.333333 ], [ 145.0, -5.333333 ], [ 145.0, -5.6666663 ] ] ] } },
{ "type": "Feature", "properties": { "Id": 0, "Sheet_ID": "七南ロ187. ケク", "label": "七南ロ187. ケク", "call_short": "G8160 S100 .J3", "call_num": "G8160 S100 .J3 7RO/187 ED.2", "recid": "dg575fw5206", "websiteUrl": "https://purl.stanford.edu/dg575fw5206", "title": "東部パプア十万分一 空中寫眞測圖 要圖", "ckey": 8215943, "available": true, "iiifUrl": "https://purl.stanford.edu/dg575fw5206/iiif/manifest" }, "geometry": { "type": "Polygon", "coordinates": [ [ [ 145.5, -5.6666663 ], [ 146.0, -5.6666663 ], [ 146.0, -5.333333 ], [ 145.5, -5.333333 ], [ 145.5, -5.6666663 ] ] ] } },
{ "type": "Feature", "properties": { "Id": 0, "Sheet_ID": "七南ロ177. ビリアウ", "label": "七南ロ177. ビリアウ", "call_short": "G8160 S100 .J3", "call_num": "G8160 S100 .J3 7RO/177", "recid": "zh665yy6358", "websiteUrl": "https://purl.stanford.edu/zh665yy6358", "title": "東部パプア十万分一 空中寫眞測圖 要圖", "ckey": 8215943, "available": true, "iiifUrl": "https://purl.stanford.edu/zh665yy6358/iiif/manifest" }, "geometry": { "type": "Polygon", "coordinates": [ [ [ 146.0, -5.6666663 ], [ 146.5, -5.6666663 ], [ 146.5, -5.333333 ], [ 146.0, -5.333333 ], [ 146.0, -5.6666663 ] ] ] } },
{ "type": "Feature", "properties": { "Id": 0, "Sheet_ID": "七南ロ157. ロング島南部", "label": "七南ロ157. ロング島南部", "call_short": "0", "call_num": "0", "recid": "0", "websiteUrl": "0", "title": "0", "ckey": 0, "available": false, "iiifUrl": "0" }, "geometry": { "type": "Polygon", "coordinates": [ [ [ 147.0, -5.6666663 ], [ 147.5, -5.6666663 ], [ 147.5, -5.333333 ], [ 147.0, -5.333333 ], [ 147.0, -5.6666663 ] ] ] } },
{ "type": "Feature", "properties": { "Id": 0, "Sheet_ID": "八南ロ126. ビブタ", "label": "八南ロ126. ビブタ", "call_short": "G8160 S100 .J3", "call_num": "G8160 S100 .J3 8RO/126", "recid": "dz127ck3010", "websiteUrl": "https://purl.stanford.edu/dz127ck3010", "title": "東部パプア十万分一 空中寫眞測圖 要圖", "ckey": 8215943, "available": true, "iiifUrl": "https://purl.stanford.edu/dz127ck3010/iiif/manifest" }, "geometry": { "type": "Polygon", "coordinates": [ [ [ 143.5, -5.333333 ], [ 144.0, -5.333333 ], [ 144.0, -4.9999997 ], [ 143.5, -4.9999997 ], [ 143.5, -5.333333 ] ] ] } },
{ "type": "Feature", "properties": { "Id": 0, "Sheet_ID": "八南ロ116. コルビナロレル", "label": "八南ロ116. コルビナロレル", "call_short": "G8160 S100 .J3", "call_num": "G8160 S100 .J3 8RO/116", "recid": "zg554bs1571", "websiteUrl": "https://purl.stanford.edu/zg554bs1571", "title": "東部パプア十万分一 空中寫眞測圖 要圖", "ckey": 8215943, "available": true, "iiifUrl": "https://purl.stanford.edu/zg554bs1571/iiif/manifest" }, "geometry": { "type": "Polygon", "coordinates": [ [ [ 144.0, -5.333333 ], [ 144.5, -5.333333 ], [ 144.5, -4.9999997 ], [ 144.0, -4.9999997 ], [ 144.0, -5.333333 ] ] ] } },
{ "type": "Feature", "properties": { "Id": 0, "Sheet_ID": "八南ロ106. アテンブル", "label": "八南ロ106. アテンブル", "call_short": "G8160 S100 .J3", "call_num": "G8160 S100 .J3 8RO/106", "recid": "qf433hx8055", "websiteUrl": "https://purl.stanford.edu/qf433hx8055", "title": "東部パプア十万分一 空中寫眞測圖 要圖", "ckey": 8215943, "available": true, "iiifUrl": "https://purl.stanford.edu/qf433hx8055/iiif/manifest" }, "geometry": { "type": "Polygon", "coordinates": [ [ [ 144.5, -5.333333 ], [ 145.0, -5.333333 ], [ 145.0, -4.9999997 ], [ 144.5, -4.9999997 ], [ 144.5, -5.333333 ] ] ] } },
{ "type": "Feature", "properties": { "Id": 0, "Sheet_ID": "七南ロ186. マダン_補測2", "label": "七南ロ186. マダン_補測2", "call_short": "G8160 S100 .J3", "call_num": "G8160 S100 .J3 7RO/186", "recid": "mc785td7470", "websiteUrl": "https://purl.stanford.edu/mc785td7470", "title": "東部パプア十万分一 空中寫眞測圖 要圖", "ckey": 8215943, "available": true, "iiifUrl": "https://purl.stanford.edu/mc785td7470/iiif/manifest" }, "geometry": { "type": "Polygon", "coordinates": [ [ [ 145.5, -5.333333 ], [ 146.0, -5.333333 ], [ 146.0, -4.9999997 ], [ 145.5, -4.9999997 ], [ 145.5, -5.333333 ] ] ] } },
{ "type": "Feature", "properties": { "Id": 0, "Sheet_ID": "七南ロ156. ロング島北部", "label": "七南ロ156. ロング島北部", "call_short": "G8160 S100 .J3", "call_num": "G8160 S100 .J3 7RO/156", "recid": "sd184tn5575", "websiteUrl": "https://purl.stanford.edu/sd184tn5575", "title": "東部パプア十万分一 空中寫眞測圖 要圖", "ckey": 8215943, "available": true, "iiifUrl": "https://purl.stanford.edu/sd184tn5575/iiif/manifest" }, "geometry": { "type": "Polygon", "coordinates": [ [ [ 147.0, -5.333333 ], [ 147.5, -5.333333 ], [ 147.5, -4.9999997 ], [ 147.0, -4.9999997 ], [ 147.0, -5.333333 ] ] ] } },
{ "type": "Feature", "properties": { "Id": 0, "Sheet_ID": "八南ロ125. アヴィーム", "label": "八南ロ125. アヴィーム", "call_short": "G8160 S100 .J3", "call_num": "G8160 S100 .J3 8RO/125", "recid": "rc489nm7277", "websiteUrl": "https://purl.stanford.edu/rc489nm7277", "title": "東部パプア十万分一 空中寫眞測圖 要圖", "ckey": 8215943, "available": true, "iiifUrl": "https://purl.stanford.edu/rc489nm7277/iiif/manifest" }, "geometry": { "type": "Polygon", "coordinates": [ [ [ 143.5, -4.9999997 ], [ 144.0, -4.9999997 ], [ 144.0, -4.6666663 ], [ 143.5, -4.6666663 ], [ 143.5, -4.9999997 ] ] ] } },
{ "type": "Feature", "properties": { "Id": 0, "Sheet_ID": "八南ロ115. バナロ南部", "label": "八南ロ115. バナロ南部", "call_short": "G8160 S100 .J3", "call_num": "G8160 S100 .J3 8RO/115", "recid": "kh426hj7523", "websiteUrl": "https://purl.stanford.edu/kh426hj7523", "title": "東部パプア十万分一 空中寫眞測圖 要圖", "ckey": 8215943, "available": true, "iiifUrl": "https://purl.stanford.edu/kh426hj7523/iiif/manifest" }, "geometry": { "type": "Polygon", "coordinates": [ [ [ 144.0, -4.9999997 ], [ 144.5, -4.9999997 ], [ 144.5, -4.6666663 ], [ 144.0, -4.6666663 ], [ 144.0, -4.9999997 ] ] ] } },
{ "type": "Feature", "properties": { "Id": 0, "Sheet_ID": "八南ロ105. ニワパリ", "label": "八南ロ105. ニワパリ", "call_short": "G8160 S100 .J3", "call_num": "G8160 S100 .J3 8RO/105", "recid": "yy484ht0199", "websiteUrl": "https://purl.stanford.edu/yy484ht0199", "title": "東部パプア十万分一 空中寫眞測圖 要圖", "ckey": 8215943, "available": true, "iiifUrl": "https://purl.stanford.edu/yy484ht0199/iiif/manifest" }, "geometry": { "type": "Polygon", "coordinates": [ [ [ 144.5, -4.9999997 ], [ 145.0, -4.9999997 ], [ 145.0, -4.6666663 ], [ 144.5, -4.6666663 ], [ 144.5, -4.9999997 ] ] ] } },
{ "type": "Feature", "properties": { "Id": 0, "Sheet_ID": "七南ロ185. クルム_補測2", "label": "七南ロ185. クルム_補測2", "call_short": "G8160 S100 .J3", "call_num": "G8160 S100 .J3 7RO/185", "recid": "rk485pk7210", "websiteUrl": "https://purl.stanford.edu/rk485pk7210", "title": "東部パプア十万分一 空中寫眞測圖 要圖", "ckey": 8215943, "available": true, "iiifUrl": "https://purl.stanford.edu/rk485pk7210/iiif/manifest" }, "geometry": { "type": "Polygon", "coordinates": [ [ [ 145.5, -4.9999997 ], [ 146.0, -4.9999997 ], [ 146.0, -4.6666663 ], [ 145.5, -4.6666663 ], [ 145.5, -4.9999997 ] ] ] } },
{ "type": "Feature", "properties": { "Id": 0, "Sheet_ID": "七南ロ175. バガバグ島", "label": "七南ロ175. バガバグ島", "call_short": "G8160 S100 .J3", "call_num": "G8160 S100 .J3 7RO/175", "recid": "dr261rc4633", "websiteUrl": "https://purl.stanford.edu/dr261rc4633", "title": "東部パプア十万分一 空中寫眞測圖 要圖", "ckey": 8215943, "available": true, "iiifUrl": "https://purl.stanford.edu/dr261rc4633/iiif/manifest" }, "geometry": { "type": "Polygon", "coordinates": [ [ [ 146.0, -4.9999997 ], [ 146.5, -4.9999997 ], [ 146.5, -4.6666663 ], [ 146.0, -4.6666663 ], [ 146.0, -4.9999997 ] ] ] } },
{ "type": "Feature", "properties": { "Id": 0, "Sheet_ID": "八南ロ124. ルツクアウト山", "label": "八南ロ124. ルツクアウト山", "call_short": "G8160 S100 .J3", "call_num": "G8160 S100 .J3 8RO/124", "recid": "ph922ms0696", "websiteUrl": "https://purl.stanford.edu/ph922ms0696", "title": "東部パプア十万分一 空中寫眞測圖 要圖", "ckey": 8215943, "available": true, "iiifUrl": "https://purl.stanford.edu/ph922ms0696/iiif/manifest" }, "geometry": { "type": "Polygon", "coordinates": [ [ [ 143.5, -4.6666663 ], [ 144.0, -4.6666663 ], [ 144.0, -4.333333 ], [ 143.5, -4.333333 ], [ 143.5, -4.6666663 ] ] ] } },
{ "type": "Feature", "properties": { "Id": 0, "Sheet_ID": "八南ロ114. バナロ北部", "label": "八南ロ114. バナロ北部", "call_short": "G8160 S100 .J3", "call_num": "G8160 S100 .J3 8RO/114", "recid": "vb406dt5227", "websiteUrl": "https://purl.stanford.edu/vb406dt5227", "title": "東部パプア十万分一 空中寫眞測圖 要圖", "ckey": 8215943, "available": true, "iiifUrl": "https://purl.stanford.edu/vb406dt5227/iiif/manifest" }, "geometry": { "type": "Polygon", "coordinates": [ [ [ 144.0, -4.6666663 ], [ 144.5, -4.6666663 ], [ 144.5, -4.333333 ], [ 144.0, -4.333333 ], [ 144.0, -4.6666663 ] ] ] } },
{ "type": "Feature", "properties": { "Id": 0, "Sheet_ID": "八南ロ104. テンナ", "label": "八南ロ104. テンナ", "call_short": "G8160 S100 .J3", "call_num": "G8160 S100 .J3 8RO/104", "recid": "pn574tk1663", "websiteUrl": "https://purl.stanford.edu/pn574tk1663", "title": "東部パプア十万分一 空中寫眞測圖 要圖", "ckey": 8215943, "available": true, "iiifUrl": "https://purl.stanford.edu/pn574tk1663/iiif/manifest" }, "geometry": { "type": "Polygon", "coordinates": [ [ [ 144.5, -4.6666663 ], [ 145.0, -4.6666663 ], [ 145.0, -4.333333 ], [ 144.5, -4.333333 ], [ 144.5, -4.6666663 ] ] ] } },
{ "type": "Feature", "properties": { "Id": 0, "Sheet_ID": "七南ロ194. マララ", "label": "七南ロ194. マララ", "call_short": "G8160 S100 .J3", "call_num": "G8160 S100 .J3 7RO/194", "recid": "rv448yr1964", "websiteUrl": "https://purl.stanford.edu/rv448yr1964", "title": "東部パプア十万分一 空中寫眞測圖 要圖", "ckey": 8215943, "available": true, "iiifUrl": "https://purl.stanford.edu/rv448yr1964/iiif/manifest" }, "geometry": { "type": "Polygon", "coordinates": [ [ [ 145.0, -4.6666663 ], [ 145.5, -4.6666663 ], [ 145.5, -4.333333 ], [ 145.0, -4.333333 ], [ 145.0, -4.6666663 ] ] ] } },
{ "type": "Feature", "properties": { "Id": 0, "Sheet_ID": "七南ロ184. ブナブン", "label": "七南ロ184. ブナブン", "call_short": "G8160 S100 .J3", "call_num": "G8160 S100 .J3 7RO/184", "recid": "mc101fk7356", "websiteUrl": "https://purl.stanford.edu/mc101fk7356", "title": "東部パプア十万分一 空中寫眞測圖 要圖", "ckey": 8215943, "available": true, "iiifUrl": "https://purl.stanford.edu/mc101fk7356/iiif/manifest" }, "geometry": { "type": "Polygon", "coordinates": [ [ [ 145.5, -4.6666663 ], [ 146.0, -4.6666663 ], [ 146.0, -4.333333 ], [ 145.5, -4.333333 ], [ 145.5, -4.6666663 ] ] ] } },
{ "type": "Feature", "properties": { "Id": 0, "Sheet_ID": "七南ロ174. ツクティ", "label": "七南ロ174. ツクティ", "call_short": "G8160 S100 .J3", "call_num": "G8160 S100 .J3 7RO/174", "recid": "wd892rp2691", "websiteUrl": "https://purl.stanford.edu/wd892rp2691", "title": "東部パプア十万分一 空中寫眞測圖 要圖", "ckey": 8215943, "available": true, "iiifUrl": "https://purl.stanford.edu/wd892rp2691/iiif/manifest" }, "geometry": { "type": "Polygon", "coordinates": [ [ [ 146.0, -4.6666663 ], [ 146.5, -4.6666663 ], [ 146.5, -4.333333 ], [ 146.0, -4.333333 ], [ 146.0, -4.6666663 ] ] ] } },
{ "type": "Feature", "properties": { "Id": 0, "Sheet_ID": "八南ロ143. アンブンティ", "label": "八南ロ143. アンブンティ", "call_short": "G8160 S100 .J3", "call_num": "G8160 S100 .J3 8RO/143", "recid": "db860wz4760", "websiteUrl": "https://purl.stanford.edu/db860wz4760", "title": "東部パプア十万分一 空中寫眞測圖 要圖", "ckey": 8215943, "available": true, "iiifUrl": "https://purl.stanford.edu/db860wz4760/iiif/manifest" }, "geometry": { "type": "Polygon", "coordinates": [ [ [ 142.5, -4.333333 ], [ 143.0, -4.333333 ], [ 143.0, -3.9999997 ], [ 142.5, -3.9999997 ], [ 142.5, -4.333333 ] ] ] } },
{ "type": "Feature", "properties": { "Id": 0, "Sheet_ID": "八南ロ133. カラマンボ湖", "label": "八南ロ133. カラマンボ湖", "call_short": "G8160 S100 .J3", "call_num": "G8160 S100 .J3 8RO/133", "recid": "vt463nd5835", "websiteUrl": "https://purl.stanford.edu/vt463nd5835", "title": "東部パプア十万分一 空中寫眞測圖 要圖", "ckey": 8215943, "available": true, "iiifUrl": "https://purl.stanford.edu/vt463nd5835/iiif/manifest" }, "geometry": { "type": "Polygon", "coordinates": [ [ [ 143.0, -4.333333 ], [ 143.5, -4.333333 ], [ 143.5, -3.9999997 ], [ 143.0, -3.9999997 ], [ 143.0, -4.333333 ] ] ] } },
{ "type": "Feature", "properties": { "Id": 0, "Sheet_ID": "八南ロ123. カンブリンロ", "label": "八南ロ123. カンブリンロ", "call_short": "G8160 S100 .J3", "call_num": "G8160 S100 .J3 8RO/123", "recid": "cm524nf6427", "websiteUrl": "https://purl.stanford.edu/cm524nf6427", "title": "東部パプア十万分一 空中寫眞測圖 要圖", "ckey": 8215943, "available": true, "iiifUrl": "https://purl.stanford.edu/cm524nf6427/iiif/manifest" }, "geometry": { "type": "Polygon", "coordinates": [ [ [ 143.5, -4.333333 ], [ 144.0, -4.333333 ], [ 144.0, -3.9999997 ], [ 143.5, -3.9999997 ], [ 143.5, -4.333333 ] ] ] } },
{ "type": "Feature", "properties": { "Id": 0, "Sheet_ID": "八南ロ113. アンゴルム", "label": "八南ロ113. アンゴルム", "call_short": "G8160 S100 .J3", "call_num": "G8160 S100 .J3 8RO/113", "recid": "mn333mb2311", "websiteUrl": "https://purl.stanford.edu/mn333mb2311", "title": "東部パプア十万分一 空中寫眞測圖 要圖", "ckey": 8215943, "available": true, "iiifUrl": "https://purl.stanford.edu/mn333mb2311/iiif/manifest" }, "geometry": { "type": "Polygon", "coordinates": [ [ [ 144.0, -4.333333 ], [ 144.5, -4.333333 ], [ 144.5, -3.9999997 ], [ 144.0, -3.9999997 ], [ 144.0, -4.333333 ] ] ] } },
{ "type": "Feature", "properties": { "Id": 0, "Sheet_ID": "八南ロ103. シシマンガン", "label": "八南ロ103. シシマンガン", "call_short": "G8160 S100 .J3", "call_num": "G8160 S100 .J3 8RO/103", "recid": "jg338md1447", "websiteUrl": "https://purl.stanford.edu/jg338md1447", "title": "東部パプア十万分一 空中寫眞測圖 要圖", "ckey": 8215943, "available": true, "iiifUrl": "https://purl.stanford.edu/jg338md1447/iiif/manifest" }, "geometry": { "type": "Polygon", "coordinates": [ [ [ 144.5, -4.333333 ], [ 145.0, -4.333333 ], [ 145.0, -3.9999997 ], [ 144.5, -3.9999997 ], [ 144.5, -4.333333 ] ] ] } },
{ "type": "Feature", "properties": { "Id": 0, "Sheet_ID": "七南ロ193. マナム島", "label": "七南ロ193. マナム島", "call_short": "G8160 S100 .J3", "call_num": "G8160 S100 .J3 7RO/193", "recid": "kn992zk7174", "websiteUrl": "https://purl.stanford.edu/kn992zk7174", "title": "東部パプア十万分一 空中寫眞測圖 要圖", "ckey": 8215943, "available": true, "iiifUrl": "https://purl.stanford.edu/kn992zk7174/iiif/manifest" }, "geometry": { "type": "Polygon", "coordinates": [ [ [ 145.0, -4.333333 ], [ 145.5, -4.333333 ], [ 145.5, -3.9999997 ], [ 145.0, -3.9999997 ], [ 145.0, -4.333333 ] ] ] } },
{ "type": "Feature", "properties": { "Id": 0, "Sheet_ID": "八南ロ142. サウナンブ", "label": "八南ロ142. サウナンブ", "call_short": "G8160 S100 .J3", "call_num": "G8160 S100 .J3 8RO/142", "recid": "yk270cz5396", "websiteUrl": "https://purl.stanford.edu/yk270cz5396", "title": "東部パプア十万分一 空中寫眞測圖 要圖", "ckey": 8215943, "available": true, "iiifUrl": "https://purl.stanford.edu/yk270cz5396/iiif/manifest" }, "geometry": { "type": "Polygon", "coordinates": [ [ [ 142.5, -3.9999997 ], [ 143.0, -3.9999997 ], [ 143.0, -3.6666663 ], [ 142.5, -3.6666663 ], [ 142.5, -3.9999997 ] ] ] } },
{ "type": "Feature", "properties": { "Id": 0, "Sheet_ID": "八南ロ132. ワオセラ", "label": "八南ロ132. ワオセラ", "call_short": "G8160 S100 .J3", "call_num": "G8160 S100 .J3 8RO/132", "recid": "pd581yt7506", "websiteUrl": "https://purl.stanford.edu/pd581yt7506", "title": "東部パプア十万分一 空中寫眞測圖 要圖", "ckey": 8215943, "available": true, "iiifUrl": "https://purl.stanford.edu/pd581yt7506/iiif/manifest" }, "geometry": { "type": "Polygon", "coordinates": [ [ [ 143.0, -3.9999997 ], [ 143.5, -3.9999997 ], [ 143.5, -3.6666663 ], [ 143.0, -3.6666663 ], [ 143.0, -3.9999997 ] ] ] } },
{ "type": "Feature", "properties": { "Id": 0, "Sheet_ID": "八南ロ122. シル", "label": "八南ロ122. シル", "call_short": "G8160 S100 .J3", "call_num": "G8160 S100 .J3 8RO/122", "recid": "pf187tq9117", "websiteUrl": "https://purl.stanford.edu/pf187tq9117", "title": "東部パプア十万分一 空中寫眞測圖 要圖", "ckey": 8215943, "available": true, "iiifUrl": "https://purl.stanford.edu/pf187tq9117/iiif/manifest" }, "geometry": { "type": "Polygon", "coordinates": [ [ [ 143.5, -3.9999997 ], [ 144.0, -3.9999997 ], [ 144.0, -3.6666663 ], [ 143.5, -3.6666663 ], [ 143.5, -3.9999997 ] ] ] } },
{ "type": "Feature", "properties": { "Id": 0, "Sheet_ID": "八南ロ112. マリエンベルグ", "label": "八南ロ112. マリエンベルグ", "call_short": "G8160 S100 .J3", "call_num": "G8160 S100 .J3 8RO/112", "recid": "pz640gn7881", "websiteUrl": "https://purl.stanford.edu/pz640gn7881", "title": "東部パプア十万分一 空中寫眞測圖 要圖", "ckey": 8215943, "available": true, "iiifUrl": "https://purl.stanford.edu/pz640gn7881/iiif/manifest" }, "geometry": { "type": "Polygon", "coordinates": [ [ [ 144.0, -3.9999997 ], [ 144.5, -3.9999997 ], [ 144.5, -3.6666663 ], [ 144.0, -3.6666663 ], [ 144.0, -3.9999997 ] ] ] } },
{ "type": "Feature", "properties": { "Id": 0, "Sheet_ID": "八南ロ102. セピック河口", "label": "八南ロ102. セピック河口", "call_short": "G8160 S100 .J3", "call_num": "G8160 S100 .J3 8RO/102", "recid": "vt901hq7244", "websiteUrl": "https://purl.stanford.edu/vt901hq7244", "title": "東部パプア十万分一 空中寫眞測圖 要圖", "ckey": 8215943, "available": true, "iiifUrl": "https://purl.stanford.edu/vt901hq7244/iiif/manifest" }, "geometry": { "type": "Polygon", "coordinates": [ [ [ 144.5, -3.9999997 ], [ 145.0, -3.9999997 ], [ 145.0, -3.6666663 ], [ 144.5, -3.6666663 ], [ 144.5, -3.9999997 ] ] ] } },
{ "type": "Feature", "properties": { "Id": 0, "Sheet_ID": "八南ロ151. スモロー山", "label": "八南ロ151. スモロー山", "call_short": "G8160 S100 .J3", "call_num": "G8160 S100 .J3 8RO/151", "recid": "vg371dt1095", "websiteUrl": "https://purl.stanford.edu/vg371dt1095", "title": "東部パプア十万分一 空中寫眞測圖 要圖", "ckey": 8215943, "available": true, "iiifUrl": "https://purl.stanford.edu/vg371dt1095/iiif/manifest" }, "geometry": { "type": "Polygon", "coordinates": [ [ [ 142.0, -3.6666663 ], [ 142.5, -3.6666663 ], [ 142.5, -3.333333 ], [ 142.0, -3.333333 ], [ 142.0, -3.6666663 ] ] ] } },
{ "type": "Feature", "properties": { "Id": 0, "Sheet_ID": "八南ロ141. ラプラミン", "label": "八南ロ141. ラプラミン", "call_short": "G8160 S100 .J3", "call_num": "G8160 S100 .J3 8RO/141", "recid": "yd982rw4721", "websiteUrl": "https://purl.stanford.edu/yd982rw4721", "title": "東部パプア十万分一 空中寫眞測圖 要圖", "ckey": 8215943, "available": true, "iiifUrl": "https://purl.stanford.edu/yd982rw4721/iiif/manifest" }, "geometry": { "type": "Polygon", "coordinates": [ [ [ 142.5, -3.6666663 ], [ 143.0, -3.6666663 ], [ 143.0, -3.333333 ], [ 142.5, -3.333333 ], [ 142.5, -3.6666663 ] ] ] } },
{ "type": "Feature", "properties": { "Id": 0, "Sheet_ID": "八南ロ131 ED2. ダクア", "label": "八南ロ131 ED2. ダクア", "call_short": "G8160 S100 .J3", "call_num": "G8160 S100 .J3 8RO/131 ED.2", "recid": "zq642ww4587", "websiteUrl": "https://purl.stanford.edu/zq642ww4587", "title": "東部パプア十万分一 空中寫眞測圖 要圖", "ckey": 8215943, "available": true, "iiifUrl": "https://purl.stanford.edu/zq642ww4587/iiif/manifest" }, "geometry": { "type": "Polygon", "coordinates": [ [ [ 143.0, -3.6666663 ], [ 143.5, -3.6666663 ], [ 143.5, -3.333333 ], [ 143.0, -3.333333 ], [ 143.0, -3.6666663 ] ] ] } },
{ "type": "Feature", "properties": { "Id": 0, "Sheet_ID": "八南ロ121. ウェワク", "label": "八南ロ121. ウェワク", "call_short": "G8160 S100 .J3", "call_num": "G8160 S100 .J3 8RO/121", "recid": "wn306zd9455", "websiteUrl": "https://purl.stanford.edu/wn306zd9455", "title": "東部パプア十万分一 空中寫眞測圖 要圖", "ckey": 8215943, "available": true, "iiifUrl": "https://purl.stanford.edu/wn306zd9455/iiif/manifest" }, "geometry": { "type": "Polygon", "coordinates": [ [ [ 143.5, -3.6666663 ], [ 144.0, -3.6666663 ], [ 144.0, -3.333333 ], [ 143.5, -3.333333 ], [ 143.5, -3.6666663 ] ] ] } },
{ "type": "Feature", "properties": { "Id": 0, "Sheet_ID": "八南イ170. サム_補測", "label": "八南イ170. サム_補測", "call_short": "G8160 S100 .J3", "call_num": "G8160 S100 .J3 8I/170", "recid": "bh792hd2559", "websiteUrl": "https://purl.stanford.edu/bh792hd2559", "title": "東部パプア十万分一 空中寫眞測圖 要圖", "ckey": 8215943, "available": true, "iiifUrl": "https://purl.stanford.edu/bh792hd2559/iiif/manifest" }, "geometry": { "type": "Polygon", "coordinates": [ [ [ 141.5, -3.333333 ], [ 142.0, -3.333333 ], [ 142.0, -2.9999997 ], [ 141.5, -2.9999997 ], [ 141.5, -3.333333 ] ] ] } },
{ "type": "Feature", "properties": { "Id": 0, "Sheet_ID": "八南イ160. アイタペ_補測", "label": "八南イ160. アイタペ_補測", "call_short": "G8160 S100 .J3", "call_num": "G8160 S100 .J3 8I/160", "recid": "xv291rg6582", "websiteUrl": "https://purl.stanford.edu/xv291rg6582", "title": "東部パプア十万分一 空中寫眞測圖 要圖", "ckey": 8215943, "available": true, "iiifUrl": "https://purl.stanford.edu/xv291rg6582/iiif/manifest" }, "geometry": { "type": "Polygon", "coordinates": [ [ [ 142.0, -3.333333 ], [ 142.5, -3.333333 ], [ 142.5, -2.9999997 ], [ 142.0, -2.9999997 ], [ 142.0, -3.333333 ] ] ] } },
{ "type": "Feature", "properties": { "Id": 0, "Sheet_ID": "八南イ150. パピン", "label": "八南イ150. パピン", "call_short": "G8160 S100 .J3", "call_num": "G8160 S100 .J3 8I/150", "recid": "dk480zm1718", "websiteUrl": "https://purl.stanford.edu/dk480zm1718", "title": "東部パプア十万分一 空中寫眞測圖 要圖", "ckey": 8215943, "available": true, "iiifUrl": "https://purl.stanford.edu/dk480zm1718/iiif/manifest" }, "geometry": { "type": "Polygon", "coordinates": [ [ [ 142.5, -3.333333 ], [ 143.0, -3.333333 ], [ 143.0, -2.9999997 ], [ 142.5, -2.9999997 ], [ 142.5, -3.333333 ] ] ] } },
{ "type": "Feature", "properties": { "Id": 0, "Sheet_ID": "八南イ140. ヴァリフ島", "label": "八南イ140. ヴァリフ島", "call_short": "G8160 S100 .J3", "call_num": "G8160 S100 .J3 8I/140", "recid": "mc083qz7150", "websiteUrl": "https://purl.stanford.edu/mc083qz7150", "title": "東部パプア十万分一 空中寫眞測圖 要圖", "ckey": 8215943, "available": true, "iiifUrl": "https://purl.stanford.edu/mc083qz7150/iiif/manifest" }, "geometry": { "type": "Polygon", "coordinates": [ [ [ 143.0, -3.333333 ], [ 143.5, -3.333333 ], [ 143.5, -2.9999997 ], [ 143.0, -2.9999997 ], [ 143.0, -3.333333 ] ] ] } },
{ "type": "Feature", "properties": { "Id": 0, "Sheet_ID": "八南イ179. アソーワ山_補測2", "label": "八南イ179. アソーワ山_補測2", "call_short": "G8160 S100 .J3", "call_num": "G8160 S100 .J3 8I/179", "recid": "kh081pn5130", "websiteUrl": "https://purl.stanford.edu/kh081pn5130", "title": "東部パプア十万分一 空中寫眞測圖 要圖", "ckey": 8215943, "available": true, "iiifUrl": "https://purl.stanford.edu/kh081pn5130/iiif/manifest" }, "geometry": { "type": "Polygon", "coordinates": [ [ [ 141.0, -2.9999997 ], [ 141.5, -2.9999997 ], [ 141.5, -2.6666663 ], [ 141.0, -2.6666663 ], [ 141.0, -2.9999997 ] ] ] } },
{ "type": "Feature", "properties": { "Id": 0, "Sheet_ID": "八南イ169. ライテレ_補測", "label": "八南イ169. ライテレ_補測", "call_short": "G8160 S100 .J3", "call_num": "G8160 S100 .J3 8I/169", "recid": "rk217by5526", "websiteUrl": "https://purl.stanford.edu/rk217by5526", "title": "東部パプア十万分一 空中寫眞測圖 要圖", "ckey": 8215943, "available": true, "iiifUrl": "https://purl.stanford.edu/rk217by5526/iiif/manifest" }, "geometry": { "type": "Polygon", "coordinates": [ [ [ 141.5, -2.9999997 ], [ 142.0, -2.9999997 ], [ 142.0, -2.6666663 ], [ 141.5, -2.6666663 ], [ 141.5, -2.9999997 ] ] ] } },
{ "type": "Feature", "properties": { "Id": 0, "Sheet_ID": "八南イ178. ワニモ_補測", "label": "八南イ178. ワニモ_補測", "call_short": "G8160 S100 .J3", "call_num": "G8160 S100 .J3 8I/178", "recid": "kg052xh7908", "websiteUrl": "https://purl.stanford.edu/kg052xh7908", "title": "東部パプア十万分一 空中寫眞測圖 要圖", "ckey": 8215943, "available": true, "iiifUrl": "https://purl.stanford.edu/kg052xh7908/iiif/manifest" }, "geometry": { "type": "Polygon", "coordinates": [ [ [ 141.0, -2.6666663 ], [ 141.5, -2.6666663 ], [ 141.5, -2.333333 ], [ 141.0, -2.333333 ], [ 141.0, -2.6666663 ] ] ] } },
{ "type": "Feature", "properties": { "Id": 0, "Sheet_ID": "七南ロ187. ケク_補測2", "label": "七南ロ187. ケク_補測2", "call_short": "G8160 S100 .J3", "call_num": "G8160 S100 .J3 7RO/187", "recid": "jc709js6040", "websiteUrl": "https://purl.stanford.edu/jc709js6040", "title": "東部パプア十万分一 空中寫眞測圖 要圖", "ckey": 8215943, "available": true, "iiifUrl": "https://purl.stanford.edu/jc709js6040/iiif/manifest" }, "geometry": { "type": "Polygon", "coordinates": [ [ [ 145.5, -5.6666663 ], [ 146.0, -5.6666663 ], [ 146.0, -5.333333 ], [ 145.5, -5.333333 ], [ 145.5, -5.6666663 ] ] ] } },
{ "type": "Feature", "properties": { "Id": 0, "Sheet_ID": "八南ロ131. ダクア", "label": "八南ロ131. ダクア", "call_short": "G8160 S100 .J3", "call_num": "G8160 S100 .J3 8RO/131", "recid": "mt152yt4979", "websiteUrl": "https://purl.stanford.edu/mt152yt4979", "title": "東部パプア十万分一 空中寫眞測圖 要圖", "ckey": 8215943, "available": true, "iiifUrl": "https://purl.stanford.edu/mt152yt4979/iiif/manifest" }, "geometry": { "type": "Polygon", "coordinates": [ [ [ 143.0, -3.6666663 ], [ 143.5, -3.6666663 ], [ 143.5, -3.333333 ], [ 143.0, -3.333333 ], [ 143.0, -3.6666663 ] ] ] } }
]
}
