{"type":"FeatureCollection","features":[{"type":"Feature","properties":{"Id":0,"Sheet_ID":"42. リナバサン入江","label":"42. リナバサン入江","call_short":"G8062 .L8 S50 .J33","call_num":"G8062 .L8 S50 .J33 SHEET 42","recid":"yq766zs8229","websiteUrl":"https://purl.stanford.edu/yq766zs8229","title":"呂宋島五万分一圖","ckey":10553866,"web_map":"","available":"true","iiifUrl":"https://purl.stanford.edu/yq766zs8229/iiif/manifest"},"geometry":{"bbox":[121.33333300000001,15.833333,121.833333,16.166666333333332],"type":"Polygon","coordinates":[[[121.33333300000001,15.833333],[121.33333300000001,16.166666333333332],[121.833333,16.166666333333332],[121.833333,15.833333],[121.33333300000001,15.833333]]]}},{"type":"Feature","properties":{"Id":0,"Sheet_ID":"43. サンイルデホンソ岬","label":"43. サンイルデホンソ岬","call_short":"G8062 .L8 S50 .J33","call_num":"G8062 .L8 S50 .J33 SHEET 43","recid":"mb593kc0645","websiteUrl":"https://purl.stanford.edu/mb593kc0645","title":"呂宋島五万分一圖","ckey":10553866,"web_map":"","available":"true","iiifUrl":"https://purl.stanford.edu/mb593kc0645/iiif/manifest"},"geometry":{"bbox":[121.83333300000002,16.000000000000057,122.33333300000015,16.16666633333341],"type":"Polygon","coordinates":[[[121.83333300000002,16.000000000000057],[121.83333300000002,16.16666633333341],[122.33333300000015,16.16666633333341],[122.33333300000015,16.000000000000057],[121.83333300000002,16.000000000000057]]]}},{"type":"Feature","properties":{"Id":0,"Sheet_ID":"35. ピナパガン","label":"35. ピナパガン","call_short":"G8062 .L8 S50 .J33","call_num":"G8062 .L8 S50 .J33 SHEET 35","recid":"qx405qn0918","websiteUrl":"https://purl.stanford.edu/qx405qn0918","title":"呂宋島五万分一圖","ckey":10553866,"web_map":"","available":"true","iiifUrl":"https://purl.stanford.edu/qx405qn0918/iiif/manifest"},"geometry":{"bbox":[121.33333300000001,16.166666333333332,121.833333,16.499999666666664],"type":"Polygon","coordinates":[[[121.33333300000001,16.166666333333332],[121.33333300000001,16.499999666666664],[121.833333,16.499999666666664],[121.833333,16.166666333333332],[121.33333300000001,16.166666333333332]]]}},{"type":"Feature","properties":{"Id":0,"Sheet_ID":"36. カシグラン","label":"36. カシグラン","call_short":"G8062 .L8 S50 .J33","call_num":"G8062 .L8 S50 .J33 SHEET 36","recid":"hf851bk7210","websiteUrl":"https://purl.stanford.edu/hf851bk7210","title":"呂宋島五万分一圖","ckey":10553866,"web_map":"","available":"true","iiifUrl":"https://purl.stanford.edu/hf851bk7210/iiif/manifest"},"geometry":{"bbox":[121.833333,16.166666333333332,122.333333,16.499999666666664],"type":"Polygon","coordinates":[[[121.833333,16.166666333333332],[121.833333,16.499999666666664],[122.333333,16.499999666666664],[122.333333,16.166666333333332],[121.833333,16.166666333333332]]]}},{"type":"Feature","properties":{"Id":0,"Sheet_ID":"29. サンティアゴ","label":"29. サンティアゴ","call_short":"G8062 .L8 S50 .J33","call_num":"G8062 .L8 S50 .J33 SHEET 29","recid":"bz344kz6161","websiteUrl":"https://purl.stanford.edu/bz344kz6161","title":"呂宋島五万分一圖","ckey":10553866,"web_map":"","available":"true","iiifUrl":"https://purl.stanford.edu/bz344kz6161/iiif/manifest"},"geometry":{"bbox":[121.33333300000001,16.499999666666668,121.833333,16.833333],"type":"Polygon","coordinates":[[[121.33333300000001,16.499999666666668],[121.33333300000001,16.833333],[121.833333,16.833333],[121.833333,16.499999666666668],[121.33333300000001,16.499999666666668]]]}},{"type":"Feature","properties":{"Id":0,"Sheet_ID":"30. ミヌリ","label":"30. ミヌリ","call_short":"G8062 .L8 S50 .J33","call_num":"G8062 .L8 S50 .J33 SHEET 30","recid":"vm424vj6279","websiteUrl":"https://purl.stanford.edu/vm424vj6279","title":"呂宋島五万分一圖","ckey":10553866,"web_map":"","available":"true","iiifUrl":"https://purl.stanford.edu/vm424vj6279/iiif/manifest"},"geometry":{"bbox":[121.833333,16.499999666666668,122.333333,16.833333],"type":"Polygon","coordinates":[[[121.833333,16.499999666666668],[121.833333,16.833333],[122.333333,16.833333],[122.333333,16.499999666666668],[121.833333,16.499999666666668]]]}},{"type":"Feature","properties":{"Id":0,"Sheet_ID":"24. イラガン","label":"24. イラガン","call_short":"G8062 .L8 S50 .J33","call_num":"G8062 .L8 S50 .J33 SHEET 24","recid":"sd945bz0960","websiteUrl":"https://purl.stanford.edu/sd945bz0960","title":"呂宋島五万分一圖","ckey":10553866,"web_map":"","available":"true","iiifUrl":"https://purl.stanford.edu/sd945bz0960/iiif/manifest"},"geometry":{"bbox":[121.833333,16.833333,122.333333,17.166666333333332],"type":"Polygon","coordinates":[[[121.833333,16.833333],[121.833333,17.166666333333332],[122.333333,17.166666333333332],[122.333333,16.833333],[121.833333,16.833333]]]}},{"type":"Feature","properties":{"Id":0,"Sheet_ID":"19. バルグ","label":"19. バルグ","call_short":"G8062 .L8 S50 .J33","call_num":"G8062 .L8 S50 .J33 SHEET 19","recid":"rk084yk5380","websiteUrl":"https://purl.stanford.edu/rk084yk5380","title":"呂宋島五万分一圖","ckey":10553866,"web_map":"","available":"true","iiifUrl":"https://purl.stanford.edu/rk084yk5380/iiif/manifest"},"geometry":{"bbox":[121.833333,17.166666333333332,122.333333,17.499999666666664],"type":"Polygon","coordinates":[[[121.833333,17.166666333333332],[121.833333,17.499999666666664],[122.333333,17.499999666666664],[122.333333,17.166666333333332],[121.833333,17.166666333333332]]]}},{"type":"Feature","properties":{"Id":0,"Sheet_ID":"15. セタセオ山","label":"15. セタセオ山","call_short":"G8062 .L8 S50 .J33","call_num":"G8062 .L8 S50 .J33 SHEET 15","recid":"vs656bg2293","websiteUrl":"https://purl.stanford.edu/vs656bg2293","title":"呂宋島五万分一圖","ckey":10553866,"web_map":"","available":"true","iiifUrl":"https://purl.stanford.edu/vs656bg2293/iiif/manifest"},"geometry":{"bbox":[121.833333,17.499999666666668,122.333333,17.833333],"type":"Polygon","coordinates":[[[121.833333,17.499999666666668],[121.833333,17.833333],[122.333333,17.833333],[122.333333,17.499999666666668],[121.833333,17.499999666666668]]]}},{"type":"Feature","properties":{"Id":0,"Sheet_ID":"20. パラナン","label":"20. パラナン","call_short":"G8062 .L8 S50 .J33","call_num":"G8062 .L8 S50 .J33 SHEET 20","recid":"vf691wk9004","websiteUrl":"https://purl.stanford.edu/vf691wk9004","title":"呂宋島五万分一圖","ckey":10553866,"web_map":"","available":"true","iiifUrl":"https://purl.stanford.edu/vf691wk9004/iiif/manifest"},"geometry":{"bbox":[122.33333300000015,17.000000000000057,122.58333300000017,17.416667000000075],"type":"Polygon","coordinates":[[[122.58333300000017,17.000000000000057],[122.33333300000015,17.000000000000057],[122.33333300000015,17.416667000000075],[122.58333300000017,17.416667000000075],[122.58333300000017,17.000000000000057]]]}},{"type":"Feature","properties":{"Id":0,"Sheet_ID":"25. ディヒウイサ岬","label":"25. ディヒウイサ岬","call_short":"G8062 .L8 S50 .J33","call_num":"G8062 .L8 S50 .J33 SHEET 25","recid":"px635pz5165","websiteUrl":"https://purl.stanford.edu/px635pz5165","title":"呂宋島五万分一圖","ckey":10553866,"web_map":"","available":"true","iiifUrl":"https://purl.stanford.edu/px635pz5165/iiif/manifest"},"geometry":{"bbox":[122.33333300000015,16.58333300000004,122.58333300000017,17.000000000000057],"type":"Polygon","coordinates":[[[122.58333300000017,17.000000000000057],[122.58333300000017,16.58333300000004],[122.33333300000015,16.58333300000004],[122.33333300000015,17.000000000000057],[122.58333300000017,17.000000000000057]]]}}],"name":"index_10553866"}
