{"type":"FeatureCollection","features":[{"type":"Feature","properties":{"Id":0,"Sheet_ID":"2. ミッチナ","label":"2. ミッチナ","call_short":"","call_num":"","recid":"","websiteUrl":"","title":"","ckey":0,"web_map":"","available":"false","iiiUrl":""},"geometry":{"bbox":[96.00000000000001,24.000000000000004,102,28],"type":"Polygon","coordinates":[[[96.00000000000001,24.000000000000004],[96.00000000000001,28],[102,28],[102,24.000000000000004],[96.00000000000001,24.000000000000004]]]}},{"type":"Feature","properties":{"Id":0,"Sheet_ID":"4. グヤナントセ","label":"4. グヤナントセ","call_short":"G7823 .T5 S1000 .J3","call_num":"G7823 .T5 S1000 .J3 SHEET 4","recid":"jd933vv4444","websiteUrl":"https://purl.stanford.edu/jd933vv4444","title":"印度百万分一圖 東部周域","ckey":10505218,"web_map":"","available":"true","iiiUrl":"https://purl.stanford.edu/jd933vv4444/iiif/manifest"},"geometry":{"bbox":[84,28,90,32],"type":"Polygon","coordinates":[[[84,28],[84,32],[90,32],[90,28],[84,28]]]}},{"type":"Feature","properties":{"Id":0,"Sheet_ID":"3. ラーサ","label":"3. ラーサ","call_short":"G7823 .T5 S1000 .J3","call_num":"G7823 .T5 S1000 .J3 SHEET 3","recid":"tj426ky8604","websiteUrl":"https://purl.stanford.edu/tj426ky8604","title":"印度百万分一圖 東部周域","ckey":10505218,"web_map":"","available":"true","iiiUrl":"https://purl.stanford.edu/tj426ky8604/iiif/manifest"},"geometry":{"bbox":[90,28,96.00000000000001,32],"type":"Polygon","coordinates":[[[90,28],[90,32],[96.00000000000001,32],[96.00000000000001,28],[90,28]]]}},{"type":"Feature","properties":{"Id":0,"Sheet_ID":"1. バタン","label":"1. バタン","call_short":"G7823 .T5 S1000 .J3","call_num":"G7823 .T5 S1000 .J3 SHEET 1","recid":"wr290sd1084","websiteUrl":"https://purl.stanford.edu/wr290sd1084","title":"印度百万分一圖 東部周域","ckey":10505218,"web_map":"","available":"true","iiiUrl":"https://purl.stanford.edu/wr290sd1084/iiif/manifest"},"geometry":{"bbox":[96.00000000000001,28,102,32],"type":"Polygon","coordinates":[[[96.00000000000001,28],[96.00000000000001,32],[102,32],[102,28],[96.00000000000001,28]]]}}],"name":"index_10505218"}
