{
"type": "FeatureCollection",
"name": "index_map",
"features": [
{ "type": "Feature", "properties": { "Id": 0, "Sheet_ID": "トラック諸島南東部", "label": "トラック諸島南東部", "call_short": "G9442 .T75 1944 .G8", "call_num": "G9442 .T75 1944 .G8", "recid": "vv405gy0162", "websiteUrl": "https://purl.stanford.edu/vv405gy0162", "title": "協同兵要地點圖", "ckey": 12784636, "available": true, "iiifUrl": "https://purl.stanford.edu/vv405gy0162/iiif/manifest" }, "geometry": { "type": "Polygon", "coordinates": [ [ [ 151.766667, 6.983333 ], [ 152.058333, 6.983333 ], [ 152.058333, 7.425 ], [ 151.766667, 7.425 ], [ 151.766667, 6.983333 ] ] ] } }
]
}
