{
"type": "FeatureCollection",
"name": "index_map",
"xy_coordinate_resolution": 1e-07,
"features": [
{ "type": "Feature", "properties": { "Id": 0, "Sheet_ID": "5. 翼城", "label": "5. 翼城", "call_short": "G7823 .S43 S50 .J3", "call_num": "G7823 .S43 S50 .J3 SHEET 5", "recid": "nj963tf5466", "websiteUrl": "https://purl.stanford.edu/nj963tf5466", "title": "五万分一北支那空中寫眞測量要圖 山西省髙平縣翼城縣間", "ckey": 9862561, "available": true, "iiifUrl": "https://purl.stanford.edu/nj963tf5466/iiif/manifest" }, "geometry": { "type": "Polygon", "coordinates": [ [ [ 111.541667, 35.6 ], [ 111.7950002, 35.6 ], [ 111.7950002, 35.8 ], [ 111.541667, 35.8 ], [ 111.541667, 35.6 ] ] ] } },
{ "type": "Feature", "properties": { "Id": 0, "Sheet_ID": "4. 隆化鎮", "label": "4. 隆化鎮", "call_short": "G7823 .S43 S50 .J3", "call_num": "G7823 .S43 S50 .J3 SHEET 4", "recid": "sk117fc7847", "websiteUrl": "https://purl.stanford.edu/sk117fc7847", "title": "五万分一北支那空中寫眞測量要圖 山西省髙平縣翼城縣間", "ckey": 9862561, "available": true, "iiifUrl": "https://purl.stanford.edu/sk117fc7847/iiif/manifest" }, "geometry": { "type": "Polygon", "coordinates": [ [ [ 111.7950002, 35.6 ], [ 112.0483334, 35.6 ], [ 112.0483334, 35.8 ], [ 111.7950002, 35.8 ], [ 111.7950002, 35.6 ] ] ] } },
{ "type": "Feature", "properties": { "Id": 0, "Sheet_ID": "3. 沁水", "label": "3. 沁水", "call_short": "G7823 .S43 S50 .J3", "call_num": "G7823 .S43 S50 .J3 SHEET 3", "recid": "vs275dm7316", "websiteUrl": "https://purl.stanford.edu/vs275dm7316", "title": "五万分一北支那空中寫眞測量要圖 山西省髙平縣翼城縣間", "ckey": 9862561, "available": true, "iiifUrl": "https://purl.stanford.edu/vs275dm7316/iiif/manifest" }, "geometry": { "type": "Polygon", "coordinates": [ [ [ 112.0483334, 35.6 ], [ 112.3016666, 35.6 ], [ 112.3016666, 35.8 ], [ 112.0483334, 35.8 ], [ 112.0483334, 35.6 ] ] ] } },
{ "type": "Feature", "properties": { "Id": 0, "Sheet_ID": "2. 端氏鎮", "label": "2. 端氏鎮", "call_short": "G7823 .S43 S50 .J3", "call_num": "G7823 .S43 S50 .J3 SHEET 2", "recid": "jb547vt6047", "websiteUrl": "https://purl.stanford.edu/jb547vt6047", "title": "五万分一北支那空中寫眞測量要圖 山西省髙平縣翼城縣間", "ckey": 9862561, "available": true, "iiifUrl": "https://purl.stanford.edu/jb547vt6047/iiif/manifest" }, "geometry": { "type": "Polygon", "coordinates": [ [ [ 112.3016666, 35.6 ], [ 112.5549998, 35.6 ], [ 112.5549998, 35.8 ], [ 112.3016666, 35.8 ], [ 112.3016666, 35.6 ] ] ] } },
{ "type": "Feature", "properties": { "Id": 0, "Sheet_ID": "1. 唐安村", "label": "1. 唐安村", "call_short": "G7823 .S43 S50 .J3", "call_num": "G7823 .S43 S50 .J3 SHEET 1", "recid": "vq208jt9601", "websiteUrl": "https://purl.stanford.edu/vq208jt9601", "title": "五万分一北支那空中寫眞測量要圖 山西省髙平縣翼城縣間", "ckey": 9862561, "available": true, "iiifUrl": "https://purl.stanford.edu/vq208jt9601/iiif/manifest" }, "geometry": { "type": "Polygon", "coordinates": [ [ [ 112.5549998, 35.6 ], [ 112.808333, 35.6 ], [ 112.808333, 35.8 ], [ 112.5549998, 35.8 ], [ 112.5549998, 35.6 ] ] ] } }
]
}
