{
"type": "FeatureCollection",
"name": "index_map",
"features": [
{ "type": "Feature", "properties": { "Id": 0, "Sheet_ID": "7ワ503. 根室", "label": "7ワ503. 根室", "call_short": "G7960 S500 .J3", "call_num": "G7960 S500 .J3 5-6 (7WA503)", "recid": "xm453sq1400", "websiteUrl": "https://purl.stanford.edu/xm453sq1400", "title": "五十万分一帝國圖", "ckey": 8917597, "available": true, "iiifUrl": "https://purl.stanford.edu/xm453sq1400/iiif/manifest" }, "geometry": { "type": "Polygon", "coordinates": [ [ [ 145.0, 41.666667 ], [ 147.5, 41.666667 ], [ 147.5, 43.3333337 ], [ 145.0, 43.3333337 ], [ 145.0, 41.666667 ] ] ] } },
{ "type": "Feature", "properties": { "Id": 0, "Sheet_ID": "5行5段. 國後島", "label": "5行5段. 國後島", "call_short": "G7960 S500 .J3", "call_num": "G7960 S500 .J3 5-5", "recid": "yq678fm0108", "websiteUrl": "https://purl.stanford.edu/yq678fm0108", "title": "五十万分一輿地圖", "ckey": 8917597, "available": true, "iiifUrl": "https://purl.stanford.edu/yq678fm0108/iiif/manifest" }, "geometry": { "type": "Polygon", "coordinates": [ [ [ 147.5, 43.3333337 ], [ 147.5, 44.75 ], [ 148.0, 44.75 ], [ 148.0, 45.0000003 ], [ 147.5, 45.0000003 ], [ 145.0, 45.0000003 ], [ 145.0, 43.3333337 ], [ 147.5, 43.3333337 ] ] ] } },
{ "type": "Feature", "properties": { "Id": 0, "Sheet_ID": "4行4段. 擇捉島", "label": "4行4段. 擇捉島", "call_short": "G7960 S500 .J3", "call_num": "G7960 S500 .J3 4-4", "recid": "cp781vv3481", "websiteUrl": "https://purl.stanford.edu/cp781vv3481", "title": "五十万分一輿地圖", "ckey": 8917597, "available": true, "iiifUrl": "https://purl.stanford.edu/cp781vv3481/iiif/manifest" }, "geometry": { "type": "Polygon", "coordinates": [ [ [ 147.5, 45.0000003 ], [ 150.0, 45.0000003 ], [ 150.0, 46.666667 ], [ 147.5, 46.666667 ], [ 147.5, 45.0000003 ] ] ] } },
{ "type": "Feature", "properties": { "Id": 0, "Sheet_ID": "3行4段. 得撫島", "label": "3行4段. 得撫島", "call_short": null, "call_num": null, "recid": null, "websiteUrl": null, "title": null, "ckey": 0, "available": false, "iiifUrl": null }, "geometry": { "type": "Polygon", "coordinates": [ [ [ 150.0, 45.0000003 ], [ 152.5, 45.0000003 ], [ 152.5, 46.666667 ], [ 150.0, 46.666667 ], [ 150.0, 45.0000003 ] ] ] } },
{ "type": "Feature", "properties": { "Id": 0, "Sheet_ID": "3行3段. 新知島", "label": "3行3段. 新知島", "call_short": "G7960 S500 .J3", "call_num": "G7960 S500 .J3 3-3", "recid": "nx879qm7910", "websiteUrl": "https://purl.stanford.edu/nx879qm7910", "title": "五十万分一輿地圖", "ckey": 8917597, "available": true, "iiifUrl": "https://purl.stanford.edu/nx879qm7910/iiif/manifest" }, "geometry": { "type": "Polygon", "coordinates": [ [ [ 150.0, 46.666667 ], [ 152.5, 46.666667 ], [ 152.5, 48.3333337 ], [ 150.0, 48.3333337 ], [ 150.0, 46.666667 ] ] ] } },
{ "type": "Feature", "properties": { "Id": 0, "Sheet_ID": "2行3段. 松輪島", "label": "2行3段. 松輪島", "call_short": "G7960 S500 .J3", "call_num": "G7960 S500 .J3 2-3", "recid": "tr747hy3205", "websiteUrl": "https://purl.stanford.edu/tr747hy3205", "title": "五十万分一輿地圖", "ckey": 8917597, "available": true, "iiifUrl": "https://purl.stanford.edu/tr747hy3205/iiif/manifest" }, "geometry": { "type": "Polygon", "coordinates": [ [ [ 152.5, 46.666667 ], [ 155.0, 46.666667 ], [ 155.0, 48.3333337 ], [ 152.5, 48.3333337 ], [ 152.5, 46.666667 ] ] ] } },
{ "type": "Feature", "properties": { "Id": 0, "Sheet_ID": "2行2段. 温禰古丹島", "label": "2行2段. 温禰古丹島", "call_short": "G7960 S500 .J3", "call_num": "G7960 S500 .J3 2-2", "recid": "mh900zd2812", "websiteUrl": "https://purl.stanford.edu/mh900zd2812", "title": "五十万分一輿地圖", "ckey": 8917597, "available": true, "iiifUrl": "https://purl.stanford.edu/mh900zd2812/iiif/manifest" }, "geometry": { "type": "Polygon", "coordinates": [ [ [ 152.5, 48.3333337 ], [ 155.0, 48.3333337 ], [ 155.0, 50.0000003 ], [ 152.5, 50.0000003 ], [ 152.5, 48.3333337 ] ] ] } },
{ "type": "Feature", "properties": { "Id": 0, "Sheet_ID": "1行1段. 占守島", "label": "1行1段. 占守島", "call_short": "G7960 S500 .J3", "call_num": "G7960 S500 .J3 1-1", "recid": "bw539tv1504", "websiteUrl": "https://purl.stanford.edu/bw539tv1504", "title": "五十万分一輿地圖", "ckey": 8917597, "available": true, "iiifUrl": "https://purl.stanford.edu/bw539tv1504/iiif/manifest" }, "geometry": { "type": "Polygon", "coordinates": [ [ [ 157.5, 51.666667 ], [ 155.0, 51.666667 ], [ 155.0, 50.25 ], [ 154.916667, 50.25 ], [ 154.916667, 50.15 ], [ 155.0, 50.15 ], [ 155.0, 50.0000003 ], [ 155.333333, 50.0000003 ], [ 155.333333, 49.99 ], [ 155.5, 49.99 ], [ 155.5, 50.0000003 ], [ 157.5, 50.0000003 ], [ 157.5, 51.666667 ] ] ] } },
{ "type": "Feature", "properties": { "Id": 0, "Sheet_ID": "6行6段. 釧路", "label": "6行6段. 釧路", "call_short": null, "call_num": null, "recid": null, "websiteUrl": null, "title": null, "ckey": 0, "available": false, "iiifUrl": null }, "geometry": { "type": "Polygon", "coordinates": [ [ [ 142.5, 41.666667 ], [ 145.0, 41.666667 ], [ 145.0, 43.3333335 ], [ 142.5, 43.3333335 ], [ 142.5, 41.666667 ] ] ] } },
{ "type": "Feature", "properties": { "Id": 0, "Sheet_ID": "6行5段. 網走", "label": "6行5段. 網走", "call_short": null, "call_num": null, "recid": null, "websiteUrl": null, "title": null, "ckey": 0, "available": false, "iiifUrl": null }, "geometry": { "type": "Polygon", "coordinates": [ [ [ 142.5, 43.3333335 ], [ 145.0, 43.3333335 ], [ 145.0, 45.0 ], [ 142.5, 45.0 ], [ 142.5, 43.3333335 ] ] ] } },
{ "type": "Feature", "properties": { "Id": 0, "Sheet_ID": "6行4段. 大泊", "label": "6行4段. 大泊", "call_short": "G7960 S500 .J3", "call_num": "G7960 S500 .J3 6-4", "recid": "dr985kc5003", "websiteUrl": "https://purl.stanford.edu/dr985kc5003", "title": "五十万分一輿地圖", "ckey": 8917597, "available": true, "iiifUrl": "https://purl.stanford.edu/dr985kc5003/iiif/manifest" }, "geometry": { "type": "Polygon", "coordinates": [ [ [ 142.5, 45.0 ], [ 145.0, 45.0 ], [ 145.0, 46.6666665 ], [ 142.5, 46.6666665 ], [ 142.5, 45.0 ] ] ] } },
{ "type": "Feature", "properties": { "Id": 0, "Sheet_ID": "6行3段. 豊原", "label": "6行3段. 豊原", "call_short": null, "call_num": null, "recid": null, "websiteUrl": null, "title": null, "ckey": 0, "available": false, "iiifUrl": null }, "geometry": { "type": "Polygon", "coordinates": [ [ [ 142.5, 46.6666665 ], [ 145.0, 46.6666665 ], [ 145.0, 48.333333 ], [ 142.5, 48.333333 ], [ 142.5, 46.6666665 ] ] ] } },
{ "type": "Feature", "properties": { "Id": 0, "Sheet_ID": "7行17段. 硫黄島", "label": "7行17段. 硫黄島", "call_short": "G7960 S500 .J3", "call_num": "G7960 S500 .J3 7-17", "recid": "pd608kx0804", "websiteUrl": "https://purl.stanford.edu/pd608kx0804", "title": "五十万分一輿地圖", "ckey": 8917597, "available": true, "iiifUrl": "https://purl.stanford.edu/pd608kx0804/iiif/manifest" }, "geometry": { "type": "Polygon", "coordinates": [ [ [ 140.0, 23.333333 ], [ 142.5, 23.333333 ], [ 142.5, 24.9999997 ], [ 140.0, 24.9999997 ], [ 140.0, 23.333333 ] ] ] } },
{ "type": "Feature", "properties": { "Id": 0, "Sheet_ID": "7行16段. 母島", "label": "7行16段. 母島", "call_short": "G7960 S500 .J3", "call_num": "G7960 S500 .J3 7-16", "recid": "hb352gm2809", "websiteUrl": "https://purl.stanford.edu/hb352gm2809", "title": "五十万分一輿地圖", "ckey": 8917597, "available": true, "iiifUrl": "https://purl.stanford.edu/hb352gm2809/iiif/manifest" }, "geometry": { "type": "Polygon", "coordinates": [ [ [ 140.0, 24.9999997 ], [ 142.5, 24.9999997 ], [ 142.5, 26.6666663 ], [ 140.0, 26.6666663 ], [ 140.0, 24.9999997 ] ] ] } },
{ "type": "Feature", "properties": { "Id": 0, "Sheet_ID": "7行15段. 父島", "label": "7行15段. 父島", "call_short": "G7960 S500 .J3", "call_num": "G7960 S500 .J3 7-15", "recid": "fb992xv8890", "websiteUrl": "https://purl.stanford.edu/fb992xv8890", "title": "五十万分一輿地圖", "ckey": 8917597, "available": true, "iiifUrl": "https://purl.stanford.edu/fb992xv8890/iiif/manifest" }, "geometry": { "type": "Polygon", "coordinates": [ [ [ 140.0, 26.6666663 ], [ 142.5, 26.6666663 ], [ 142.5, 28.333333 ], [ 140.0, 28.333333 ], [ 140.0, 26.6666663 ] ] ] } },
{ "type": "Feature", "properties": { "Id": 0, "Sheet_ID": "7行14段. 孀婦岩", "label": "7行14段. 孀婦岩", "call_short": "G7960 S500 .J3", "call_num": "G7960 S500 .J3 7-14", "recid": "my183yj6144", "websiteUrl": "https://purl.stanford.edu/my183yj6144", "title": "五十万分一輿地圖", "ckey": 8917597, "available": true, "iiifUrl": "https://purl.stanford.edu/my183yj6144/iiif/manifest" }, "geometry": { "type": "Polygon", "coordinates": [ [ [ 140.0, 28.333333 ], [ 142.5, 28.333333 ], [ 142.5, 29.9999997 ], [ 140.0, 29.9999997 ], [ 140.0, 28.333333 ] ] ] } },
{ "type": "Feature", "properties": { "Id": 0, "Sheet_ID": "7行13段. 鳥島", "label": "7行13段. 鳥島", "call_short": "G7960 S500 .J3", "call_num": "G7960 S500 .J3 7-13", "recid": "zw546qp8776", "websiteUrl": "https://purl.stanford.edu/zw546qp8776", "title": "五十万分一輿地圖", "ckey": 8917597, "available": true, "iiifUrl": "https://purl.stanford.edu/zw546qp8776/iiif/manifest" }, "geometry": { "type": "Polygon", "coordinates": [ [ [ 140.0, 29.9999997 ], [ 142.5, 29.9999997 ], [ 142.5, 31.6666663 ], [ 140.0, 31.6666663 ], [ 140.0, 29.9999997 ] ] ] } },
{ "type": "Feature", "properties": { "Id": 0, "Sheet_ID": "7行10段. 水戸", "label": "7行10段. 水戸", "call_short": null, "call_num": null, "recid": null, "websiteUrl": null, "title": null, "ckey": 0, "available": false, "iiifUrl": null }, "geometry": { "type": "Polygon", "coordinates": [ [ [ 140.0, 34.9999997 ], [ 142.5, 34.9999997 ], [ 142.5, 36.6666663 ], [ 140.0, 36.6666663 ], [ 140.0, 34.9999997 ] ] ] } },
{ "type": "Feature", "properties": { "Id": 0, "Sheet_ID": "7行9段. 仙臺", "label": "7行9段. 仙臺", "call_short": "G7960 S500 .J3", "call_num": "G7960 S500 .J3 7-9 ED.1937", "recid": "bd674qh5296", "websiteUrl": "https://purl.stanford.edu/bd674qh5296", "title": "五十万分一輿地圖", "ckey": 8917597, "available": true, "iiifUrl": "https://purl.stanford.edu/bd674qh5296/iiif/manifest" }, "geometry": { "type": "Polygon", "coordinates": [ [ [ 140.0, 36.6666663 ], [ 142.5, 36.6666663 ], [ 142.5, 38.333333 ], [ 140.0, 38.333333 ], [ 140.0, 36.6666663 ] ] ] } },
{ "type": "Feature", "properties": { "Id": 0, "Sheet_ID": "7行8段. 秋田", "label": "7行8段. 秋田", "call_short": "G7960 S500 .J3", "call_num": "G7960 S500 .J3 7-8", "recid": "qr143qx6954", "websiteUrl": "https://purl.stanford.edu/qr143qx6954", "title": "五十万分一輿地圖", "ckey": 8917597, "available": true, "iiifUrl": "https://purl.stanford.edu/qr143qx6954/iiif/manifest" }, "geometry": { "type": "Polygon", "coordinates": [ [ [ 140.0, 38.333333 ], [ 142.5, 38.333333 ], [ 142.5, 39.9999997 ], [ 140.0, 39.9999997 ], [ 140.0, 38.333333 ] ] ] } },
{ "type": "Feature", "properties": { "Id": 0, "Sheet_ID": "7行7段. 青森", "label": "7行7段. 青森", "call_short": null, "call_num": null, "recid": null, "websiteUrl": null, "title": null, "ckey": 0, "available": false, "iiifUrl": null }, "geometry": { "type": "Polygon", "coordinates": [ [ [ 140.0, 39.9999997 ], [ 142.5, 39.9999997 ], [ 142.5, 41.6666663 ], [ 140.0, 41.6666663 ], [ 140.0, 39.9999997 ] ] ] } },
{ "type": "Feature", "properties": { "Id": 0, "Sheet_ID": "8ワ503. 札幌", "label": "8ワ503. 札幌", "call_short": "G7960 S500 .J3", "call_num": "G7960 S500 .J3 7-6 (8WA503)", "recid": "yy001yg8733", "websiteUrl": "https://purl.stanford.edu/yy001yg8733", "title": "五十万分一帝國圖", "ckey": 8917597, "available": true, "iiifUrl": "https://purl.stanford.edu/yy001yg8733/iiif/manifest" }, "geometry": { "type": "Polygon", "coordinates": [ [ [ 140.0, 41.6666663 ], [ 142.5, 41.6666663 ], [ 142.5, 43.333333 ], [ 140.0, 43.333333 ], [ 140.0, 41.6666663 ] ] ] } },
{ "type": "Feature", "properties": { "Id": 0, "Sheet_ID": "7行5段. 旭川", "label": "7行5段. 旭川", "call_short": null, "call_num": null, "recid": null, "websiteUrl": null, "title": null, "ckey": 0, "available": false, "iiifUrl": null }, "geometry": { "type": "Polygon", "coordinates": [ [ [ 140.0, 43.333333 ], [ 142.5, 43.333333 ], [ 142.5, 44.9999997 ], [ 140.0, 44.9999997 ], [ 140.0, 43.333333 ] ] ] } },
{ "type": "Feature", "properties": { "Id": 0, "Sheet_ID": "8カ503. 宗谷", "label": "8カ503. 宗谷", "call_short": "G7960 S500 .J3", "call_num": "G7960 S500 .J3 7-4 (8KA503)", "recid": "tx663ms2438", "websiteUrl": "https://purl.stanford.edu/tx663ms2438", "title": "五十万分一帝國圖", "ckey": 8917597, "available": true, "iiifUrl": "https://purl.stanford.edu/tx663ms2438/iiif/manifest" }, "geometry": { "type": "Polygon", "coordinates": [ [ [ 140.0, 44.9999997 ], [ 142.5, 44.9999997 ], [ 142.5, 46.6666663 ], [ 140.0, 46.6666663 ], [ 140.0, 44.9999997 ] ] ] } },
{ "type": "Feature", "properties": { "Id": 0, "Sheet_ID": "7行3段. 泊居", "label": "7行3段. 泊居", "call_short": null, "call_num": null, "recid": null, "websiteUrl": null, "title": null, "ckey": 0, "available": false, "iiifUrl": null }, "geometry": { "type": "Polygon", "coordinates": [ [ [ 140.0, 46.6666663 ], [ 142.5, 46.6666663 ], [ 142.5, 48.333333 ], [ 140.0, 48.333333 ], [ 140.0, 46.6666663 ] ] ] } },
{ "type": "Feature", "properties": { "Id": 0, "Sheet_ID": "8リ504. 父島", "label": "8リ504. 父島", "call_short": "G7960 S500 .J3", "call_num": "G7960 S500 .J3 7-15 (8RI504)", "recid": "qg507pj1432", "websiteUrl": "https://purl.stanford.edu/qg507pj1432", "title": "五十万分一帝國圖", "ckey": 8917597, "available": true, "iiifUrl": "https://purl.stanford.edu/qg507pj1432/iiif/manifest" }, "geometry": { "type": "Polygon", "coordinates": [ [ [ 140.0, 26.6666663 ], [ 142.5, 26.6666663 ], [ 142.5, 28.333333 ], [ 140.0, 28.333333 ], [ 140.0, 26.6666663 ] ] ] } },
{ "type": "Feature", "properties": { "Id": 0, "Sheet_ID": "8行12段. 八丈島", "label": "8行12段. 八丈島", "call_short": "G7960 S500 .J3", "call_num": "G7960 S500 .J3 8-12", "recid": "qn531bk8157", "websiteUrl": "https://purl.stanford.edu/qn531bk8157", "title": "五十万分一輿地圖", "ckey": 8917597, "available": true, "iiifUrl": "https://purl.stanford.edu/qn531bk8157/iiif/manifest" }, "geometry": { "type": "Polygon", "coordinates": [ [ [ 137.5, 31.666667 ], [ 140.0, 31.666667 ], [ 140.0, 33.3333336 ], [ 137.5, 33.3333336 ], [ 137.5, 31.666667 ] ] ] } },
{ "type": "Feature", "properties": { "Id": 0, "Sheet_ID": "8行11段. 静岡", "label": "8行11段. 静岡", "call_short": null, "call_num": null, "recid": null, "websiteUrl": null, "title": null, "ckey": 0, "available": false, "iiifUrl": null }, "geometry": { "type": "Polygon", "coordinates": [ [ [ 137.5, 33.3333336 ], [ 140.0, 33.3333336 ], [ 140.0, 35.0000001 ], [ 137.5, 35.0000001 ], [ 137.5, 33.3333336 ] ] ] } },
{ "type": "Feature", "properties": { "Id": 0, "Sheet_ID": "8行10段. 東京", "label": "8行10段. 東京", "call_short": null, "call_num": null, "recid": null, "websiteUrl": null, "title": null, "ckey": 0, "available": false, "iiifUrl": null }, "geometry": { "type": "Polygon", "coordinates": [ [ [ 137.5, 35.0000001 ], [ 140.0, 35.0000001 ], [ 140.0, 36.6666667 ], [ 137.5, 36.6666667 ], [ 137.5, 35.0000001 ] ] ] } },
{ "type": "Feature", "properties": { "Id": 0, "Sheet_ID": "8行9段. 新潟", "label": "8行9段. 新潟", "call_short": null, "call_num": null, "recid": null, "websiteUrl": null, "title": null, "ckey": 0, "available": false, "iiifUrl": null }, "geometry": { "type": "Polygon", "coordinates": [ [ [ 137.5, 36.6666667 ], [ 140.0, 36.6666667 ], [ 140.0, 38.3333333 ], [ 137.5, 38.3333333 ], [ 137.5, 36.6666667 ] ] ] } },
{ "type": "Feature", "properties": { "Id": 0, "Sheet_ID": "8行8段. 酒田", "label": "8行8段. 酒田", "call_short": null, "call_num": null, "recid": null, "websiteUrl": null, "title": null, "ckey": 0, "available": false, "iiifUrl": null }, "geometry": { "type": "Polygon", "coordinates": [ [ [ 137.5, 38.3333333 ], [ 140.0, 38.3333333 ], [ 140.0, 39.9999999 ], [ 137.5, 39.9999999 ], [ 137.5, 38.3333333 ] ] ] } },
{ "type": "Feature", "properties": { "Id": 0, "Sheet_ID": "8行7段. 渡島大島", "label": "8行7段. 渡島大島", "call_short": null, "call_num": null, "recid": null, "websiteUrl": null, "title": null, "ckey": 0, "available": false, "iiifUrl": null }, "geometry": { "type": "Polygon", "coordinates": [ [ [ 137.5, 39.9999999 ], [ 140.0, 39.9999999 ], [ 140.0, 41.6666664 ], [ 137.5, 41.6666664 ], [ 137.5, 39.9999999 ] ] ] } },
{ "type": "Feature", "properties": { "Id": 0, "Sheet_ID": "8行6段. 久遠", "label": "8行6段. 久遠", "call_short": "G7960 S500 .J3", "call_num": "G7960 S500 .J3 8-6", "recid": "rk732db5747", "websiteUrl": "https://purl.stanford.edu/rk732db5747", "title": "五十万分一輿地圖", "ckey": 8917597, "available": true, "iiifUrl": "https://purl.stanford.edu/rk732db5747/iiif/manifest" }, "geometry": { "type": "Polygon", "coordinates": [ [ [ 137.5, 41.6666664 ], [ 140.0, 41.6666664 ], [ 140.0, 43.333333 ], [ 137.5, 43.333333 ], [ 137.5, 41.6666664 ] ] ] } },
{ "type": "Feature", "properties": { "Id": 0, "Sheet_ID": "10行12段. 宇和島", "label": "10行12段. 宇和島", "call_short": null, "call_num": null, "recid": null, "websiteUrl": null, "title": null, "ckey": 0, "available": false, "iiifUrl": null }, "geometry": { "type": "Polygon", "coordinates": [ [ [ 132.5, 31.666667 ], [ 135.0, 31.666667 ], [ 135.0, 33.3333335 ], [ 132.5, 33.3333335 ], [ 132.5, 31.666667 ] ] ] } },
{ "type": "Feature", "properties": { "Id": 0, "Sheet_ID": "10行11段. 徳嶋", "label": "10行11段. 徳嶋", "call_short": null, "call_num": null, "recid": null, "websiteUrl": null, "title": null, "ckey": 0, "available": false, "iiifUrl": null }, "geometry": { "type": "Polygon", "coordinates": [ [ [ 132.5, 33.3333335 ], [ 135.0, 33.3333335 ], [ 135.0, 35.0 ], [ 132.5, 35.0 ], [ 132.5, 33.3333335 ] ] ] } },
{ "type": "Feature", "properties": { "Id": 0, "Sheet_ID": "9行11段. 大阪", "label": "9行11段. 大阪", "call_short": null, "call_num": null, "recid": null, "websiteUrl": null, "title": null, "ckey": 0, "available": false, "iiifUrl": null }, "geometry": { "type": "Polygon", "coordinates": [ [ [ 135.0, 33.3333335 ], [ 137.5, 33.3333335 ], [ 137.5, 35.0 ], [ 135.0, 35.0 ], [ 135.0, 33.3333335 ] ] ] } },
{ "type": "Feature", "properties": { "Id": 0, "Sheet_ID": "10行10段. 松江", "label": "10行10段. 松江", "call_short": null, "call_num": null, "recid": null, "websiteUrl": null, "title": null, "ckey": 0, "available": false, "iiifUrl": null }, "geometry": { "type": "Polygon", "coordinates": [ [ [ 132.5, 35.0 ], [ 135.0, 35.0 ], [ 135.0, 36.6666665 ], [ 132.5, 36.6666665 ], [ 132.5, 35.0 ] ] ] } },
{ "type": "Feature", "properties": { "Id": 0, "Sheet_ID": "9行10段. 名古屋", "label": "9行10段. 名古屋", "call_short": null, "call_num": null, "recid": null, "websiteUrl": null, "title": null, "ckey": 0, "available": false, "iiifUrl": null }, "geometry": { "type": "Polygon", "coordinates": [ [ [ 135.0, 35.0 ], [ 137.5, 35.0 ], [ 137.5, 36.6666665 ], [ 135.0, 36.6666665 ], [ 135.0, 35.0 ] ] ] } },
{ "type": "Feature", "properties": { "Id": 0, "Sheet_ID": "9行9段. 富山", "label": "9行9段. 富山", "call_short": null, "call_num": null, "recid": null, "websiteUrl": null, "title": null, "ckey": 0, "available": false, "iiifUrl": null }, "geometry": { "type": "Polygon", "coordinates": [ [ [ 135.0, 36.6666665 ], [ 137.5, 36.6666665 ], [ 137.5, 38.333333 ], [ 135.0, 38.333333 ], [ 135.0, 36.6666665 ] ] ] } },
{ "type": "Feature", "properties": { "Id": 0, "Sheet_ID": "13行17段. 宮古島", "label": "13行17段. 宮古島", "call_short": "G7960 S500 .J3", "call_num": "G7960 S500 .J3 13-17", "recid": "qb505mp5542", "websiteUrl": "https://purl.stanford.edu/qb505mp5542", "title": "五十万分一輿地圖", "ckey": 8917597, "available": true, "iiifUrl": "https://purl.stanford.edu/qb505mp5542/iiif/manifest" }, "geometry": { "type": "Polygon", "coordinates": [ [ [ 125.0, 23.333333 ], [ 127.5, 23.333333 ], [ 127.5, 24.9999997 ], [ 125.0, 24.9999997 ], [ 125.0, 23.333333 ] ] ] } },
{ "type": "Feature", "properties": { "Id": 0, "Sheet_ID": "11行17段. 沖大東島", "label": "11行17段. 沖大東島", "call_short": "G7960 S500 .J3", "call_num": "G7960 S500 .J3 11-17", "recid": "dj866jt8960", "websiteUrl": "https://purl.stanford.edu/dj866jt8960", "title": "五十万分一輿地圖", "ckey": 8917597, "available": true, "iiifUrl": "https://purl.stanford.edu/dj866jt8960/iiif/manifest" }, "geometry": { "type": "Polygon", "coordinates": [ [ [ 130.0, 23.333333 ], [ 132.5, 23.333333 ], [ 132.5, 24.9999997 ], [ 130.0, 24.9999997 ], [ 130.0, 23.333333 ] ] ] } },
{ "type": "Feature", "properties": { "Id": 0, "Sheet_ID": "13行16段. 久米島", "label": "13行16段. 久米島", "call_short": "G7960 S500 .J3", "call_num": "G7960 S500 .J3 13-16", "recid": "wr393nz0191", "websiteUrl": "https://purl.stanford.edu/wr393nz0191", "title": "五十万分一輿地圖", "ckey": 8917597, "available": true, "iiifUrl": "https://purl.stanford.edu/wr393nz0191/iiif/manifest" }, "geometry": { "type": "Polygon", "coordinates": [ [ [ 125.0, 24.9999997 ], [ 127.5, 24.9999997 ], [ 127.5, 26.6666664 ], [ 125.0, 26.6666664 ], [ 125.0, 24.9999997 ] ] ] } },
{ "type": "Feature", "properties": { "Id": 0, "Sheet_ID": "12行16段. 那覇", "label": "12行16段. 那覇", "call_short": "G7960 S500 .J3", "call_num": "G7960 S500 .J3 12-16", "recid": "zw145pw1360", "websiteUrl": "https://purl.stanford.edu/zw145pw1360", "title": "五十万分一輿地圖", "ckey": 8917597, "available": true, "iiifUrl": "https://purl.stanford.edu/zw145pw1360/iiif/manifest" }, "geometry": { "type": "Polygon", "coordinates": [ [ [ 127.5, 24.9999997 ], [ 130.0, 24.9999997 ], [ 130.0, 26.6666664 ], [ 127.5, 26.6666664 ], [ 127.5, 24.9999997 ] ] ] } },
{ "type": "Feature", "properties": { "Id": 0, "Sheet_ID": "11行16段. 南大東島", "label": "11行16段. 南大東島", "call_short": "G7960 S500 .J3", "call_num": "G7960 S500 .J3 11-16", "recid": "cn845zx5101", "websiteUrl": "https://purl.stanford.edu/cn845zx5101", "title": "五十万分一輿地圖", "ckey": 8917597, "available": true, "iiifUrl": "https://purl.stanford.edu/cn845zx5101/iiif/manifest" }, "geometry": { "type": "Polygon", "coordinates": [ [ [ 130.0, 24.9999997 ], [ 132.5, 24.9999997 ], [ 132.5, 26.6666664 ], [ 130.0, 26.6666664 ], [ 130.0, 24.9999997 ] ] ] } },
{ "type": "Feature", "properties": { "Id": 0, "Sheet_ID": "12行15段. 徳之島", "label": "12行15段. 徳之島", "call_short": "G7960 S500 .J3", "call_num": "G7960 S500 .J3 12-15", "recid": "cs138hp2255", "websiteUrl": "https://purl.stanford.edu/cs138hp2255", "title": "五十万分一輿地圖", "ckey": 8917597, "available": true, "iiifUrl": "https://purl.stanford.edu/cs138hp2255/iiif/manifest" }, "geometry": { "type": "Polygon", "coordinates": [ [ [ 130.0, 26.6666664 ], [ 130.0, 28.26 ], [ 130.05, 28.26 ], [ 130.05, 28.4 ], [ 129.9, 28.4 ], [ 129.9, 28.3333331 ], [ 127.5, 28.3333331 ], [ 127.5, 26.6666664 ], [ 130.0, 26.6666664 ] ] ] } },
{ "type": "Feature", "properties": { "Id": 0, "Sheet_ID": "12行14段. 名瀬", "label": "12行14段. 名瀬", "call_short": "G7960 S500 .J3", "call_num": "G7960 S500 .J3 12-14", "recid": "zk303yp2410", "websiteUrl": "https://purl.stanford.edu/zk303yp2410", "title": "五十万分一輿地圖", "ckey": 8917597, "available": true, "iiifUrl": "https://purl.stanford.edu/zk303yp2410/iiif/manifest" }, "geometry": { "type": "Polygon", "coordinates": [ [ [ 130.0, 29.9999998 ], [ 127.5, 29.9999998 ], [ 127.5, 28.3333331 ], [ 129.9, 28.3333331 ], [ 129.9, 28.26 ], [ 130.05, 28.26 ], [ 130.05, 28.4 ], [ 130.0, 28.4 ], [ 130.0, 29.9999998 ] ] ] } },
{ "type": "Feature", "properties": { "Id": 0, "Sheet_ID": "12行13段. 黒島", "label": "12行13段. 黒島", "call_short": null, "call_num": null, "recid": null, "websiteUrl": null, "title": null, "ckey": 0, "available": false, "iiifUrl": null }, "geometry": { "type": "Polygon", "coordinates": [ [ [ 127.5, 29.9999998 ], [ 130.0, 29.9999998 ], [ 130.0, 31.6666665 ], [ 127.5, 31.6666665 ], [ 127.5, 29.9999998 ] ] ] } },
{ "type": "Feature", "properties": { "Id": 0, "Sheet_ID": "11行13段. 鹿兒島", "label": "11行13段. 鹿兒島", "call_short": null, "call_num": null, "recid": null, "websiteUrl": null, "title": null, "ckey": 0, "available": false, "iiifUrl": null }, "geometry": { "type": "Polygon", "coordinates": [ [ [ 130.0, 29.9999998 ], [ 132.5, 29.9999998 ], [ 132.5, 31.6666665 ], [ 130.0, 31.6666665 ], [ 130.0, 29.9999998 ] ] ] } },
{ "type": "Feature", "properties": { "Id": 0, "Sheet_ID": "12行12段. 長崎", "label": "12行12段. 長崎", "call_short": null, "call_num": null, "recid": null, "websiteUrl": null, "title": null, "ckey": 0, "available": false, "iiifUrl": null }, "geometry": { "type": "Polygon", "coordinates": [ [ [ 127.5, 31.6666665 ], [ 130.0, 31.6666665 ], [ 130.0, 33.3333332 ], [ 127.5, 33.3333332 ], [ 127.5, 31.6666665 ] ] ] } },
{ "type": "Feature", "properties": { "Id": 0, "Sheet_ID": "11行12段. 熊本", "label": "11行12段. 熊本", "call_short": null, "call_num": null, "recid": null, "websiteUrl": null, "title": null, "ckey": 0, "available": false, "iiifUrl": null }, "geometry": { "type": "Polygon", "coordinates": [ [ [ 130.0, 31.6666665 ], [ 132.5, 31.6666665 ], [ 132.5, 33.3333332 ], [ 130.0, 33.3333332 ], [ 130.0, 31.6666665 ] ] ] } },
{ "type": "Feature", "properties": { "Id": 0, "Sheet_ID": "13行11段. 木浦", "label": "13行11段. 木浦", "call_short": "G7960 S500 .J3", "call_num": "G7960 S500 .J3 13-11", "recid": "gf384ct2098", "websiteUrl": "https://purl.stanford.edu/gf384ct2098", "title": "五十万分一輿地圖", "ckey": 8917597, "available": true, "iiifUrl": "https://purl.stanford.edu/gf384ct2098/iiif/manifest" }, "geometry": { "type": "Polygon", "coordinates": [ [ [ 127.0, 33.3333332 ], [ 127.5, 33.3333332 ], [ 127.5, 34.9999999 ], [ 125.0, 34.9999999 ], [ 125.0, 33.3333332 ], [ 126.0, 33.3333332 ], [ 126.0, 33.083333 ], [ 127.0, 33.083333 ], [ 127.0, 33.3333332 ] ] ] } },
{ "type": "Feature", "properties": { "Id": 0, "Sheet_ID": "12行11段. 嚴原 R.1947", "label": "12行11段. 嚴原 R.1947", "call_short": "G7960 S500 .J3", "call_num": "G7960 S500 .J3 12-11 ED.1939 R.1947", "recid": "qg798hx7541", "websiteUrl": "https://purl.stanford.edu/qg798hx7541", "title": "五十万分一輿地圖", "ckey": 8917597, "available": true, "iiifUrl": "https://purl.stanford.edu/qg798hx7541/iiif/manifest" }, "geometry": { "type": "Polygon", "coordinates": [ [ [ 127.5, 33.3333332 ], [ 130.0, 33.3333332 ], [ 130.0, 34.9999999 ], [ 127.5, 34.9999999 ], [ 127.5, 33.3333332 ] ] ] } },
{ "type": "Feature", "properties": { "Id": 0, "Sheet_ID": "11行11段. 廣島", "label": "11行11段. 廣島", "call_short": null, "call_num": null, "recid": null, "websiteUrl": null, "title": null, "ckey": 0, "available": false, "iiifUrl": null }, "geometry": { "type": "Polygon", "coordinates": [ [ [ 130.0, 33.3333332 ], [ 132.5, 33.3333332 ], [ 132.5, 34.9999999 ], [ 130.0, 34.9999999 ], [ 130.0, 33.3333332 ] ] ] } },
{ "type": "Feature", "properties": { "Id": 0, "Sheet_ID": "13行10段. 群山", "label": "13行10段. 群山", "call_short": "G7960 S500 .J3", "call_num": "G7960 S500 .J3 13-10", "recid": "hw211hh3912", "websiteUrl": "https://purl.stanford.edu/hw211hh3912", "title": "五十万分一輿地圖", "ckey": 8917597, "available": true, "iiifUrl": "https://purl.stanford.edu/hw211hh3912/iiif/manifest" }, "geometry": { "type": "Polygon", "coordinates": [ [ [ 125.0, 34.9999999 ], [ 127.5, 34.9999999 ], [ 127.5, 36.6666666 ], [ 125.0, 36.6666666 ], [ 125.0, 34.9999999 ] ] ] } },
{ "type": "Feature", "properties": { "Id": 0, "Sheet_ID": "12行10段. 釜山", "label": "12行10段. 釜山", "call_short": "G7960 S500 .J3", "call_num": "G7960 S500 .J3 12-10", "recid": "dz999hk9095", "websiteUrl": "https://purl.stanford.edu/dz999hk9095", "title": "五十万分一輿地圖", "ckey": 8917597, "available": true, "iiifUrl": "https://purl.stanford.edu/dz999hk9095/iiif/manifest" }, "geometry": { "type": "Polygon", "coordinates": [ [ [ 127.5, 34.9999999 ], [ 130.0, 34.9999999 ], [ 130.0, 36.6666666 ], [ 127.5, 36.6666666 ], [ 127.5, 34.9999999 ] ] ] } },
{ "type": "Feature", "properties": { "Id": 0, "Sheet_ID": "13行9段. 京城", "label": "13行9段. 京城", "call_short": "G7960 S500 .J3", "call_num": "G7960 S500 .J3 13-9", "recid": "yd137tj9675", "websiteUrl": "https://purl.stanford.edu/yd137tj9675", "title": "五十万分一輿地圖", "ckey": 8917597, "available": true, "iiifUrl": "https://purl.stanford.edu/yd137tj9675/iiif/manifest" }, "geometry": { "type": "Polygon", "coordinates": [ [ [ 127.5, 38.3333333 ], [ 125.0, 38.3333333 ], [ 124.5, 38.3333333 ], [ 124.5, 37.5 ], [ 125.0, 37.5 ], [ 125.0, 36.6666666 ], [ 127.5, 36.6666666 ], [ 127.5, 38.3333333 ] ] ] } },
{ "type": "Feature", "properties": { "Id": 0, "Sheet_ID": "12行9段. 忠州", "label": "12行9段. 忠州", "call_short": "G7960 S500 .J3", "call_num": "G7960 S500 .J3 12-9", "recid": "kd952fc6747", "websiteUrl": "https://purl.stanford.edu/kd952fc6747", "title": "五十万分一輿地圖", "ckey": 8917597, "available": true, "iiifUrl": "https://purl.stanford.edu/kd952fc6747/iiif/manifest" }, "geometry": { "type": "Polygon", "coordinates": [ [ [ 127.5, 36.6666666 ], [ 130.0, 36.6666666 ], [ 130.0, 38.3333333 ], [ 127.5, 38.3333333 ], [ 127.5, 36.6666666 ] ] ] } },
{ "type": "Feature", "properties": { "Id": 0, "Sheet_ID": "11行9段. 鬱陵島", "label": "11行9段. 鬱陵島", "call_short": "G7960 S500 .J3", "call_num": "G7960 S500 .J3 11-9", "recid": "mq584nb0635", "websiteUrl": "https://purl.stanford.edu/mq584nb0635", "title": "五十万分一輿地圖", "ckey": 8917597, "available": true, "iiifUrl": "https://purl.stanford.edu/mq584nb0635/iiif/manifest" }, "geometry": { "type": "Polygon", "coordinates": [ [ [ 130.0, 36.6666666 ], [ 132.5, 36.6666666 ], [ 132.5, 38.3333333 ], [ 130.0, 38.3333333 ], [ 130.0, 36.6666666 ] ] ] } },
{ "type": "Feature", "properties": { "Id": 0, "Sheet_ID": "13行8段. 平壌", "label": "13行8段. 平壌", "call_short": "G7960 S500 .J3", "call_num": "G7960 S500 .J3 13-8", "recid": "th628ng6723", "websiteUrl": "https://purl.stanford.edu/th628ng6723", "title": "五十万分一輿地圖", "ckey": 8917597, "available": true, "iiifUrl": "https://purl.stanford.edu/th628ng6723/iiif/manifest" }, "geometry": { "type": "Polygon", "coordinates": [ [ [ 125.0, 38.3333333 ], [ 127.5, 38.3333333 ], [ 127.5, 40.0 ], [ 125.0, 40.0 ], [ 125.0, 38.3333333 ] ] ] } },
{ "type": "Feature", "properties": { "Id": 0, "Sheet_ID": "12行8段. 咸興", "label": "12行8段. 咸興", "call_short": "G7960 S500 .J3", "call_num": "G7960 S500 .J3 12-8", "recid": "dx235cj5076", "websiteUrl": "https://purl.stanford.edu/dx235cj5076", "title": "五十万分一輿地圖", "ckey": 8917597, "available": true, "iiifUrl": "https://purl.stanford.edu/dx235cj5076/iiif/manifest" }, "geometry": { "type": "Polygon", "coordinates": [ [ [ 128.25, 40.02 ], [ 128.166667, 40.02 ], [ 128.166667, 40.0 ], [ 127.5, 40.0 ], [ 127.5, 38.3333333 ], [ 130.0, 38.3333333 ], [ 130.0, 40.0 ], [ 128.25, 40.0 ], [ 128.25, 40.02 ] ] ] } },
{ "type": "Feature", "properties": { "Id": 0, "Sheet_ID": "12行15段. 徳之島 ED.2", "label": "12行15段. 徳之島 ED.2", "call_short": "G7960 S500 .J3", "call_num": "G7960 S500 .J3 12-15 ED.2", "recid": "yd205cx2824", "websiteUrl": "https://purl.stanford.edu/yd205cx2824", "title": "五十万分一輿地圖", "ckey": 8917597, "available": true, "iiifUrl": "https://purl.stanford.edu/yd205cx2824/iiif/manifest" }, "geometry": { "type": "Polygon", "coordinates": [ [ [ 130.0, 26.6666664 ], [ 130.0, 28.26 ], [ 130.05, 28.26 ], [ 130.05, 28.4 ], [ 129.9, 28.4 ], [ 129.9, 28.3333331 ], [ 127.5, 28.3333331 ], [ 127.5, 26.6666664 ], [ 130.0, 26.6666664 ] ] ] } },
{ "type": "Feature", "properties": { "Id": 0, "Sheet_ID": "12行10段. 釜山 R.1947", "label": "12行10段. 釜山 R.1947", "call_short": "G7960 S500 .J3", "call_num": "G7960 S500 .J3 12-10 R.1947", "recid": "ts579vd6827", "websiteUrl": "https://purl.stanford.edu/ts579vd6827", "title": "五十万分一輿地圖", "ckey": 8917597, "available": true, "iiifUrl": "https://purl.stanford.edu/ts579vd6827/iiif/manifest" }, "geometry": { "type": "Polygon", "coordinates": [ [ [ 127.5, 34.9999999 ], [ 130.0, 34.9999999 ], [ 130.0, 36.6666666 ], [ 127.5, 36.6666666 ], [ 127.5, 34.9999999 ] ] ] } },
{ "type": "Feature", "properties": { "Id": 0, "Sheet_ID": "12行9段. 忠州 R.1947", "label": "12行9段. 忠州 R.1947", "call_short": "G7960 S500 .J3", "call_num": "G7960 S500 .J3 12-9 R.1947", "recid": "xp425bz9765", "websiteUrl": "https://purl.stanford.edu/xp425bz9765", "title": "五十万分一輿地圖", "ckey": 8917597, "available": true, "iiifUrl": "https://purl.stanford.edu/xp425bz9765/iiif/manifest" }, "geometry": { "type": "Polygon", "coordinates": [ [ [ 127.5, 36.6666666 ], [ 130.0, 36.6666666 ], [ 130.0, 38.3333333 ], [ 127.5, 38.3333333 ], [ 127.5, 36.6666666 ] ] ] } },
{ "type": "Feature", "properties": { "Id": 0, "Sheet_ID": "12行8段. 咸興 R.1947", "label": "12行8段. 咸興 R.1947", "call_short": "G7960 S500 .J3", "call_num": "G7960 S500 .J3 12-8 R.1947", "recid": "bm258dy9970", "websiteUrl": "https://purl.stanford.edu/bm258dy9970", "title": "五十万分一輿地圖", "ckey": 8917597, "available": true, "iiifUrl": "https://purl.stanford.edu/bm258dy9970/iiif/manifest" }, "geometry": { "type": "Polygon", "coordinates": [ [ [ 128.25, 40.02 ], [ 128.166667, 40.02 ], [ 128.166667, 40.0 ], [ 127.5, 40.0 ], [ 127.5, 38.3333333 ], [ 130.0, 38.3333333 ], [ 130.0, 40.0 ], [ 128.25, 40.0 ], [ 128.25, 40.02 ] ] ] } },
{ "type": "Feature", "properties": { "Id": 0, "Sheet_ID": "11行9段. 鬱陵島 R.1947", "label": "11行9段. 鬱陵島 R.1947", "call_short": "G7960 S500 .J3", "call_num": "G7960 S500 .J3 11-9 R.1947", "recid": "cr529xm9466", "websiteUrl": "https://purl.stanford.edu/cr529xm9466", "title": "五十万分一輿地圖", "ckey": 8917597, "available": true, "iiifUrl": "https://purl.stanford.edu/cr529xm9466/iiif/manifest" }, "geometry": { "type": "Polygon", "coordinates": [ [ [ 130.0, 36.6666666 ], [ 132.5, 36.6666666 ], [ 132.5, 38.3333333 ], [ 130.0, 38.3333333 ], [ 130.0, 36.6666666 ] ] ] } },
{ "type": "Feature", "properties": { "Id": 0, "Sheet_ID": "15行18段. 臺南 ED.2", "label": "15行18段. 臺南 ED.2", "call_short": "G7960 S500 .J3", "call_num": "G7960 S500 .J3 15-18 ED.2", "recid": "vj976vr0223", "websiteUrl": "https://purl.stanford.edu/vj976vr0223", "title": "五十万分一輿地圖", "ckey": 8917597, "available": true, "iiifUrl": "https://purl.stanford.edu/vj976vr0223/iiif/manifest" }, "geometry": { "type": "Polygon", "coordinates": [ [ [ 120.0, 21.666667 ], [ 122.5, 21.666667 ], [ 122.5, 23.3333337 ], [ 120.0, 23.3333337 ], [ 120.0, 21.666667 ] ] ] } },
{ "type": "Feature", "properties": { "Id": 0, "Sheet_ID": "16行17段. 澎湖島", "label": "16行17段. 澎湖島", "call_short": null, "call_num": null, "recid": null, "websiteUrl": null, "title": null, "ckey": 0, "available": false, "iiifUrl": null }, "geometry": { "type": "Polygon", "coordinates": [ [ [ 117.5, 23.3333337 ], [ 120.0, 23.3333337 ], [ 120.0, 25.0000003 ], [ 117.5, 25.0000003 ], [ 117.5, 23.3333337 ] ] ] } },
{ "type": "Feature", "properties": { "Id": 0, "Sheet_ID": "15行17段. 臺中", "label": "15行17段. 臺中", "call_short": "G7960 S500 .J3", "call_num": "G7960 S500 .J3 15-17", "recid": "sq105ky1949", "websiteUrl": "https://purl.stanford.edu/sq105ky1949", "title": "五十万分一輿地圖", "ckey": 8917597, "available": true, "iiifUrl": "https://purl.stanford.edu/sq105ky1949/iiif/manifest" }, "geometry": { "type": "Polygon", "coordinates": [ [ [ 120.0, 23.3333337 ], [ 122.5, 23.3333337 ], [ 122.5, 25.0000003 ], [ 120.0, 25.0000003 ], [ 120.0, 23.3333337 ] ] ] } },
{ "type": "Feature", "properties": { "Id": 0, "Sheet_ID": "14行17段. 八重山", "label": "14行17段. 八重山", "call_short": "G7960 S500 .J3", "call_num": "G7960 S500 .J3 14-17", "recid": "qx319xj2193", "websiteUrl": "https://purl.stanford.edu/qx319xj2193", "title": "五十万分一輿地圖", "ckey": 8917597, "available": true, "iiifUrl": "https://purl.stanford.edu/qx319xj2193/iiif/manifest" }, "geometry": { "type": "Polygon", "coordinates": [ [ [ 122.5, 23.3333337 ], [ 125.0, 23.3333337 ], [ 125.0, 25.0000003 ], [ 122.5, 25.0000003 ], [ 122.5, 23.3333337 ] ] ] } },
{ "type": "Feature", "properties": { "Id": 0, "Sheet_ID": "15行16段. 臺北", "label": "15行16段. 臺北", "call_short": "G7960 S500 .J3", "call_num": "G7960 S500 .J3 15-16", "recid": "yn929tf1781", "websiteUrl": "https://purl.stanford.edu/yn929tf1781", "title": "五十万分一輿地圖", "ckey": 8917597, "available": true, "iiifUrl": "https://purl.stanford.edu/yn929tf1781/iiif/manifest" }, "geometry": { "type": "Polygon", "coordinates": [ [ [ 120.0, 25.0000003 ], [ 122.5, 25.0000003 ], [ 122.5, 26.666667 ], [ 120.0, 26.666667 ], [ 120.0, 25.0000003 ] ] ] } },
{ "type": "Feature", "properties": { "Id": 0, "Sheet_ID": "14行16段. 尖閣群島", "label": "14行16段. 尖閣群島", "call_short": "G7960 S500 .J3", "call_num": "G7960 S500 .J3 14-16", "recid": "qn883hh7094", "websiteUrl": "https://purl.stanford.edu/qn883hh7094", "title": "五十万分一輿地圖", "ckey": 8917597, "available": true, "iiifUrl": "https://purl.stanford.edu/qn883hh7094/iiif/manifest" }, "geometry": { "type": "Polygon", "coordinates": [ [ [ 122.5, 25.0000003 ], [ 125.0, 25.0000003 ], [ 125.0, 26.666667 ], [ 122.5, 26.666667 ], [ 122.5, 25.0000003 ] ] ] } },
{ "type": "Feature", "properties": { "Id": 0, "Sheet_ID": "15行18段. 臺南", "label": "15行18段. 臺南", "call_short": "G7960 S500 .J3", "call_num": "G7960 S500 .J3 15-18", "recid": "ph572gw9131", "websiteUrl": "https://purl.stanford.edu/ph572gw9131", "title": "五十万分一輿地圖", "ckey": 8917597, "available": true, "iiifUrl": "https://purl.stanford.edu/ph572gw9131/iiif/manifest" }, "geometry": { "type": "Polygon", "coordinates": [ [ [ 120.0, 21.666667 ], [ 122.5, 21.666667 ], [ 122.5, 23.3333337 ], [ 120.0, 23.3333337 ], [ 120.0, 21.666667 ] ] ] } }
]
}
