{
"type": "FeatureCollection",
"name": "index_map",
"xy_coordinate_resolution": 1e-07,
"features": [
{ "type": "Feature", "properties": { "Id": 0, "Sheet_ID": "SHEET 1", "label": "SHEET 1", "call_short": "G7911 .P6 1935 .J3", "call_num": "G7911 .P6 1935 .J3 SHEET 1", "recid": "qn661kg7414", "websiteUrl": "https://purl.stanford.edu/qn661kg7414", "title": "百万分一航空圖 臺灣及呂宋島", "ckey": 10563548, "available": true, "iiifUrl": "https://purl.stanford.edu/qn661kg7414/iiif/manifest" }, "geometry": { "type": "Polygon", "coordinates": [ [ [ 125.358333, 25.583333 ], [ 118.641667, 25.583333 ], [ 118.791667, 20.333333 ], [ 125.208333, 20.333333 ], [ 125.3330949, 24.7 ], [ 125.5183789, 24.7 ], [ 125.5249997, 24.9 ], [ 125.3388092, 24.9 ], [ 125.358333, 25.583333 ] ] ] } },
{ "type": "Feature", "properties": { "Id": 0, "Sheet_ID": "SHEET 2", "label": "SHEET 2", "call_short": "G7911 .P6 1935 .J3", "call_num": "G7911 .P6 1935 .J3 SHEET 2", "recid": "kq262nh9353", "websiteUrl": "https://purl.stanford.edu/kq262nh9353", "title": "百万分一航空圖 臺灣及呂宋島", "ckey": 10563548, "available": true, "iiifUrl": "https://purl.stanford.edu/kq262nh9353/iiif/manifest" }, "geometry": { "type": "Polygon", "coordinates": [ [ [ 125.25, 20.333333 ], [ 118.75, 20.333333 ], [ 118.916667, 11.583333 ], [ 125.083333, 11.583333 ], [ 125.25, 20.333333 ] ] ] } },
{ "type": "Feature", "properties": { "Id": 0, "Sheet_ID": "SHEET 2 ED.2", "label": "SHEET 2 ED.2", "call_short": "G7911 .P6 1935 .J3", "call_num": "G7911 .P6 1935 .J3 SHEET 2 ED.2", "recid": "vd043mr7532", "websiteUrl": "https://purl.stanford.edu/vd043mr7532", "title": "百万分一航空圖 臺灣及呂宋島", "ckey": 10563548, "available": true, "iiifUrl": "https://purl.stanford.edu/vd043mr7532/iiif/manifest" }, "geometry": { "type": "Polygon", "coordinates": [ [ [ 125.25, 20.333333 ], [ 118.75, 20.333333 ], [ 118.916667, 11.583333 ], [ 125.083333, 11.583333 ], [ 125.25, 20.333333 ] ] ] } }
]
}
