{"type":"FeatureCollection","features":[{"type":"Feature","properties":{"Id":0,"Sheet_ID":"延吉 5","label":"延吉 5","call_short":"G7905 S100 .J3","call_num":"G7905 S100 .J3 SHEET B-5","recid":"qk463mf7833","websiteUrl":"https://purl.stanford.edu/qk463mf7833","title":"朝鮮十万分一圖","ckey":10778300,"web_map":"","available":"true","iiiUrl":"https://purl.stanford.edu/qk463mf7833/iiif/manifest"},"geometry":{"bbox":[129.5,41.666667,130,42],"type":"Polygon","coordinates":[[[129.5,41.666667],[129.5,42],[130,42],[130,41.666667],[129.5,41.666667]]]}},{"type":"Feature","properties":{"Id":0,"Sheet_ID":"琿春 25","label":"琿春 25","call_short":"G7905 S100 .J3","call_num":"G7905 S100 .J3 SHEET A-25","recid":"px732bw6058","websiteUrl":"https://purl.stanford.edu/px732bw6058","title":"朝鮮十万分一圖","ckey":10778300,"web_map":"","available":"true","iiiUrl":"https://purl.stanford.edu/px732bw6058/iiif/manifest"},"geometry":{"bbox":[130,41.666667,130.5,42],"type":"Polygon","coordinates":[[[130,41.666667],[130,42],[130.5,42],[130.5,41.666667],[130,41.666667]]]}}],"name":"index_10778300"}
