{
"type": "FeatureCollection",
"name": "index_map",
"features": [
{ "type": "Feature", "properties": { "Id": 0, "Sheet_ID": "サイパン島及テニアン島", "label": "サイパン島及テニアン島", "call_short": "G9412 .S3 P5 1944 .J3", "call_num": "G9412 .S3 P5 1944 .J3", "recid": "yd073wj0833", "websiteUrl": "https://purl.stanford.edu/yd073wj0833", "title": "サイパン島及テニアン島 / 五万分一陸海偏合圖", "ckey": 12437955, "web_map": null, "available": true, "iiifUrl": "https://purl.stanford.edu/yd073wj0833/iiif/manifest" }, "geometry": { "type": "Polygon", "coordinates": [ [ [ 145.5, 14.808333 ], [ 145.866667, 14.808333 ], [ 145.866667, 15.316667 ], [ 145.5, 15.316667 ], [ 145.5, 14.808333 ] ] ] } }
]
}
