{
"type": "FeatureCollection",
"name": "index_map",
"xy_coordinate_resolution": 1e-07,
"features": [
{ "type": "Feature", "properties": { "Id": 0, "Sheet_ID": "SHEET D13", "label": "SHEET D13", "call_short": "G7004 .G73 A1 S5 .J3", "call_num": "G7004 .G73 A1 S5 .J3 SHEET D13", "recid": "hh333wd0127", "websiteUrl": "https://purl.stanford.edu/hh333wd0127", "title": "内幌", "ckey": 8930530, "available": true, "iiifUrl": "https://purl.stanford.edu/hh333wd0127/iiif/manifest" }, "geometry": { "type": "Polygon", "coordinates": [ [ [ 141.804167, 46.438889 ], [ 141.8708335, 46.438889 ], [ 141.8708335, 46.4611112 ], [ 141.804167, 46.4611112 ], [ 141.804167, 46.438889 ] ] ] } },
{ "type": "Feature", "properties": { "Id": 0, "Sheet_ID": "SHEET D14", "label": "SHEET D14", "call_short": "G7004 .G73 A1 S5 .J3", "call_num": "G7004 .G73 A1 S5 .J3 SHEET D14", "recid": "mb035ss1350", "websiteUrl": "https://purl.stanford.edu/mb035ss1350", "title": "内幌", "ckey": 8930530, "available": true, "iiifUrl": "https://purl.stanford.edu/mb035ss1350/iiif/manifest" }, "geometry": { "type": "Polygon", "coordinates": [ [ [ 141.8708335, 46.438889 ], [ 141.9375, 46.438889 ], [ 141.9375, 46.4611112 ], [ 141.8708335, 46.4611112 ], [ 141.8708335, 46.438889 ] ] ] } },
{ "type": "Feature", "properties": { "Id": 0, "Sheet_ID": "SHEET D15", "label": "SHEET D15", "call_short": "G7004 .G73 A1 S5 .J3", "call_num": "G7004 .G73 A1 S5 .J3 SHEET D15", "recid": "xj576qs4148", "websiteUrl": "https://purl.stanford.edu/xj576qs4148", "title": "内幌", "ckey": 8930530, "available": true, "iiifUrl": "https://purl.stanford.edu/xj576qs4148/iiif/manifest" }, "geometry": { "type": "Polygon", "coordinates": [ [ [ 141.9375, 46.438889 ], [ 142.0041665, 46.438889 ], [ 142.0041665, 46.4611112 ], [ 141.9375, 46.4611112 ], [ 141.9375, 46.438889 ] ] ] } },
{ "type": "Feature", "properties": { "Id": 0, "Sheet_ID": "SHEET D16", "label": "SHEET D16", "call_short": "G7004 .G73 A1 S5 .J3", "call_num": "G7004 .G73 A1 S5 .J3 SHEET D16", "recid": "cf406ww4624", "websiteUrl": "https://purl.stanford.edu/cf406ww4624", "title": "内幌", "ckey": 8930530, "available": true, "iiifUrl": "https://purl.stanford.edu/cf406ww4624/iiif/manifest" }, "geometry": { "type": "Polygon", "coordinates": [ [ [ 142.0041665, 46.438889 ], [ 142.070833, 46.438889 ], [ 142.070833, 46.4611112 ], [ 142.0041665, 46.4611112 ], [ 142.0041665, 46.438889 ] ] ] } },
{ "type": "Feature", "properties": { "Id": 0, "Sheet_ID": "SHEET D10", "label": "SHEET D10", "call_short": "G7004 .G73 A1 S5 .J3", "call_num": "G7004 .G73 A1 S5 .J3 SHEET D10", "recid": "gt882bg9260", "websiteUrl": "https://purl.stanford.edu/gt882bg9260", "title": "内幌", "ckey": 8930530, "available": true, "iiifUrl": "https://purl.stanford.edu/gt882bg9260/iiif/manifest" }, "geometry": { "type": "Polygon", "coordinates": [ [ [ 141.804167, 46.4611112 ], [ 141.8708335, 46.4611112 ], [ 141.8708335, 46.4833333 ], [ 141.804167, 46.4833333 ], [ 141.804167, 46.4611112 ] ] ] } },
{ "type": "Feature", "properties": { "Id": 0, "Sheet_ID": "SHEET D11", "label": "SHEET D11", "call_short": "G7004 .G73 A1 S5 .J3", "call_num": "G7004 .G73 A1 S5 .J3 SHEET D11", "recid": "pw586ww1478", "websiteUrl": "https://purl.stanford.edu/pw586ww1478", "title": "内幌", "ckey": 8930530, "available": true, "iiifUrl": "https://purl.stanford.edu/pw586ww1478/iiif/manifest" }, "geometry": { "type": "Polygon", "coordinates": [ [ [ 141.8708335, 46.4611112 ], [ 141.9375, 46.4611112 ], [ 141.9375, 46.4833333 ], [ 141.8708335, 46.4833333 ], [ 141.8708335, 46.4611112 ] ] ] } },
{ "type": "Feature", "properties": { "Id": 0, "Sheet_ID": "SHEET D12", "label": "SHEET D12", "call_short": "G7004 .G73 A1 S5 .J3", "call_num": "G7004 .G73 A1 S5 .J3 SHEET D12", "recid": "yh153cs6897", "websiteUrl": "https://purl.stanford.edu/yh153cs6897", "title": "内幌", "ckey": 8930530, "available": true, "iiifUrl": "https://purl.stanford.edu/yh153cs6897/iiif/manifest" }, "geometry": { "type": "Polygon", "coordinates": [ [ [ 141.9375, 46.4611112 ], [ 142.0041665, 46.4611112 ], [ 142.0041665, 46.4833333 ], [ 141.9375, 46.4833333 ], [ 141.9375, 46.4611112 ] ] ] } },
{ "type": "Feature", "properties": { "Id": 0, "Sheet_ID": "SHEET D7", "label": "SHEET D7", "call_short": "G7004 .G73 A1 S5 .J3", "call_num": "G7004 .G73 A1 S5 .J3 SHEET D7", "recid": "zx417rm9700", "websiteUrl": "https://purl.stanford.edu/zx417rm9700", "title": "内幌", "ckey": 8930530, "available": true, "iiifUrl": "https://purl.stanford.edu/zx417rm9700/iiif/manifest" }, "geometry": { "type": "Polygon", "coordinates": [ [ [ 141.804167, 46.4833333 ], [ 141.8708335, 46.4833333 ], [ 141.8708335, 46.5055555 ], [ 141.804167, 46.5055555 ], [ 141.804167, 46.4833333 ] ] ] } },
{ "type": "Feature", "properties": { "Id": 0, "Sheet_ID": "SHEET D8", "label": "SHEET D8", "call_short": "G7004 .G73 A1 S5 .J3", "call_num": "G7004 .G73 A1 S5 .J3 SHEET D8", "recid": "ng284bs9291", "websiteUrl": "https://purl.stanford.edu/ng284bs9291", "title": "内幌", "ckey": 8930530, "available": true, "iiifUrl": "https://purl.stanford.edu/ng284bs9291/iiif/manifest" }, "geometry": { "type": "Polygon", "coordinates": [ [ [ 141.8708335, 46.4833333 ], [ 141.9375, 46.4833333 ], [ 141.9375, 46.5055555 ], [ 141.8708335, 46.5055555 ], [ 141.8708335, 46.4833333 ] ] ] } },
{ "type": "Feature", "properties": { "Id": 0, "Sheet_ID": "SHEET D9", "label": "SHEET D9", "call_short": "G7004 .G73 A1 S5 .J3", "call_num": "G7004 .G73 A1 S5 .J3 SHEET D9", "recid": "fw392cx8913", "websiteUrl": "https://purl.stanford.edu/fw392cx8913", "title": "内幌", "ckey": 8930530, "available": true, "iiifUrl": "https://purl.stanford.edu/fw392cx8913/iiif/manifest" }, "geometry": { "type": "Polygon", "coordinates": [ [ [ 141.9375, 46.4833333 ], [ 142.0041665, 46.4833333 ], [ 142.0041665, 46.5055555 ], [ 141.9375, 46.5055555 ], [ 141.9375, 46.4833333 ] ] ] } },
{ "type": "Feature", "properties": { "Id": 0, "Sheet_ID": "SHEET D5", "label": "SHEET D5", "call_short": "G7004 .G73 A1 S5 .J3", "call_num": "G7004 .G73 A1 S5 .J3 SHEET D5", "recid": "mr194tw8933", "websiteUrl": "https://purl.stanford.edu/mr194tw8933", "title": "内幌", "ckey": 8930530, "available": true, "iiifUrl": "https://purl.stanford.edu/mr194tw8933/iiif/manifest" }, "geometry": { "type": "Polygon", "coordinates": [ [ [ 141.804167, 46.5055555 ], [ 141.8708335, 46.5055555 ], [ 141.8708335, 46.5277777 ], [ 141.804167, 46.5277777 ], [ 141.804167, 46.5055555 ] ] ] } },
{ "type": "Feature", "properties": { "Id": 0, "Sheet_ID": "SHEET D6", "label": "SHEET D6", "call_short": "G7004 .G73 A1 S5 .J3", "call_num": "G7004 .G73 A1 S5 .J3 SHEET D6", "recid": "gp916pk0716", "websiteUrl": "https://purl.stanford.edu/gp916pk0716", "title": "内幌", "ckey": 8930530, "available": true, "iiifUrl": "https://purl.stanford.edu/gp916pk0716/iiif/manifest" }, "geometry": { "type": "Polygon", "coordinates": [ [ [ 141.8708335, 46.5055555 ], [ 141.9375, 46.5055555 ], [ 141.9375, 46.5277777 ], [ 141.8708335, 46.5277777 ], [ 141.8708335, 46.5055555 ] ] ] } },
{ "type": "Feature", "properties": { "Id": 0, "Sheet_ID": "SHEET D3", "label": "SHEET D3", "call_short": "G7004 .G73 A1 S5 .J3", "call_num": "G7004 .G73 A1 S5 .J3 SHEET D3", "recid": "cd159wt3845", "websiteUrl": "https://purl.stanford.edu/cd159wt3845", "title": "内幌", "ckey": 8930530, "available": true, "iiifUrl": "https://purl.stanford.edu/cd159wt3845/iiif/manifest" }, "geometry": { "type": "Polygon", "coordinates": [ [ [ 141.804167, 46.5277777 ], [ 141.8708335, 46.5277777 ], [ 141.8708335, 46.5499998 ], [ 141.804167, 46.5499998 ], [ 141.804167, 46.5277777 ] ] ] } },
{ "type": "Feature", "properties": { "Id": 0, "Sheet_ID": "SHEET D4", "label": "SHEET D4", "call_short": "G7004 .G73 A1 S5 .J3", "call_num": "G7004 .G73 A1 S5 .J3 SHEET D4", "recid": "yx926wf0126", "websiteUrl": "https://purl.stanford.edu/yx926wf0126", "title": "内幌", "ckey": 8930530, "available": true, "iiifUrl": "https://purl.stanford.edu/yx926wf0126/iiif/manifest" }, "geometry": { "type": "Polygon", "coordinates": [ [ [ 141.8708335, 46.5277777 ], [ 141.9375, 46.5277777 ], [ 141.9375, 46.5499998 ], [ 141.8708335, 46.5499998 ], [ 141.8708335, 46.5277777 ] ] ] } },
{ "type": "Feature", "properties": { "Id": 0, "Sheet_ID": "SHEET D1", "label": "SHEET D1", "call_short": "G7004 .G73 A1 S5 .J3", "call_num": "G7004 .G73 A1 S5 .J3 SHEET D1", "recid": "dx515hf3816", "websiteUrl": "https://purl.stanford.edu/dx515hf3816", "title": "内幌", "ckey": 8930530, "available": true, "iiifUrl": "https://purl.stanford.edu/dx515hf3816/iiif/manifest" }, "geometry": { "type": "Polygon", "coordinates": [ [ [ 141.804167, 46.5499998 ], [ 141.8708335, 46.5499998 ], [ 141.8708335, 46.572222 ], [ 141.804167, 46.572222 ], [ 141.804167, 46.5499998 ] ] ] } },
{ "type": "Feature", "properties": { "Id": 0, "Sheet_ID": "SHEET D2", "label": "SHEET D2", "call_short": "G7004 .G73 A1 S5 .J3", "call_num": "G7004 .G73 A1 S5 .J3 SHEET D2", "recid": "rb604ny4097", "websiteUrl": "https://purl.stanford.edu/rb604ny4097", "title": "内幌", "ckey": 8930530, "available": true, "iiifUrl": "https://purl.stanford.edu/rb604ny4097/iiif/manifest" }, "geometry": { "type": "Polygon", "coordinates": [ [ [ 141.8708335, 46.5499998 ], [ 141.9375, 46.5499998 ], [ 141.9375, 46.572222 ], [ 141.8708335, 46.572222 ], [ 141.8708335, 46.5499998 ] ] ] } }
]
}
