{
"type": "FeatureCollection",
"name": "index_map",
"features": [
{ "type": "Feature", "properties": { "Id": 0, "Sheet_ID": "沖繩縣", "label": "沖繩縣", "call_short": "G7963 .O65 1933 .J3", "call_num": "G7963 .O65 1933 .J3", "recid": "cb768kf4920", "websiteUrl": "https://purl.stanford.edu/cb768kf4920", "title": "沖繩縣", "ckey": 11351729, "web_map": null, "available": true, "iiifUrl": "https://purl.stanford.edu/cb768kf4920/iiif/manifest" }, "geometry": { "type": "Polygon", "coordinates": [ [ [ 127.083333, 26.066667 ], [ 128.583333, 26.066667 ], [ 128.583333, 27.1 ], [ 127.083333, 27.1 ], [ 127.083333, 26.066667 ] ] ] } }
]
}
