{
"type": "FeatureCollection",
"name": "index_map",
"features": [
{ "type": "Feature", "properties": { "Id": 0, "Sheet_ID": "一号", "label": "一号", "call_short": "G8164 .R3 1944 .J3", "call_num": "G8164 .R3 1944 .J3 SHEET 1", "recid": "zy674bg7729", "websiteUrl": "https://purl.stanford.edu/zy674bg7729", "title": "五万分一ラバウル近傍集成圖", "ckey": 12284141, "available": true, "iiifUrl": "https://purl.stanford.edu/zy674bg7729/iiif/manifest" }, "geometry": { "type": "Polygon", "coordinates": [ [ [ 152.35, -4.525 ], [ 152.508333, -4.525 ], [ 152.508333, -4.1 ], [ 152.35, -4.1 ], [ 152.35, -4.525 ] ] ] } },
{ "type": "Feature", "properties": { "Id": 0, "Sheet_ID": "二号", "label": "二号", "call_short": "G8164 .R3 1944 .J3", "call_num": "G8164 .R3 1944 .J3 SHEET 2", "recid": "jj685xm3543", "websiteUrl": "https://purl.stanford.edu/jj685xm3543", "title": "五万分一ラバウル近傍集成圖", "ckey": 12284141, "available": true, "iiifUrl": "https://purl.stanford.edu/jj685xm3543/iiif/manifest" }, "geometry": { "type": "Polygon", "coordinates": [ [ [ 152.35, -4.547778 ], [ 152.35, -4.131111 ], [ 152.029167, -4.131111 ], [ 152.029167, -4.547778 ], [ 152.35, -4.547778 ] ] ] } },
{ "type": "Feature", "properties": { "Id": 0, "Sheet_ID": "三号", "label": "三号", "call_short": "G8164 .R3 1944 .J3", "call_num": "G8164 .R3 1944 .J3 SHEET 3", "recid": "wk371jp2928", "websiteUrl": "https://purl.stanford.edu/wk371jp2928", "title": "五万分一ラバウル近傍集成圖", "ckey": 12284141, "available": true, "iiifUrl": "https://purl.stanford.edu/wk371jp2928/iiif/manifest" }, "geometry": { "type": "Polygon", "coordinates": [ [ [ 152.029167, -4.547778 ], [ 152.029167, -4.131111 ], [ 151.708333, -4.131111 ], [ 151.708333, -4.547778 ], [ 152.029167, -4.547778 ] ] ] } },
{ "type": "Feature", "properties": { "Id": 0, "Sheet_ID": "分圖A", "label": "分圖A", "call_short": "G8164 .R3 1944 .J3", "call_num": "G8164 .R3 1944 .J3 SHEET 2", "recid": "jj685xm3543", "websiteUrl": "https://purl.stanford.edu/jj685xm3543", "title": "五万分一ラバウル近傍集成圖", "ckey": 12284141, "available": true, "iiifUrl": "https://purl.stanford.edu/jj685xm3543/iiif/manifest" }, "geometry": { "type": "Polygon", "coordinates": [ [ [ 152.095833, -4.083333 ], [ 152.05, -4.083333 ], [ 152.05, -4.133333 ], [ 152.095833, -4.133333 ], [ 152.095833, -4.083333 ] ] ] } },
{ "type": "Feature", "properties": { "Id": 0, "Sheet_ID": "分圖B", "label": "分圖B", "call_short": "G8164 .R3 1944 .J3", "call_num": "G8164 .R3 1944 .J3 SHEET 1", "recid": "zy674bg7729", "websiteUrl": "https://purl.stanford.edu/zy674bg7729", "title": "五万分一ラバウル近傍集成圖", "ckey": 12284141, "available": true, "iiifUrl": "https://purl.stanford.edu/zy674bg7729/iiif/manifest" }, "geometry": { "type": "Polygon", "coordinates": [ [ [ 152.391667, -4.547778 ], [ 152.325, -4.547778 ], [ 152.325, -4.622778 ], [ 152.391667, -4.622778 ], [ 152.391667, -4.547778 ] ] ] } }
]
}
