{"type":"FeatureCollection","features":[{"type":"Feature","properties":{"Id":0,"Sheet_ID":"2. 會寧","label":"2. 會寧","call_short":"G7822 .M2 S100 .J423","call_num":"G7822 .M2 S100 .J423 SHEET 2","recid":"pt313gp3321","websiteUrl":"https://purl.stanford.edu/pt313gp3321","title":"朝鮮及満州十万分一圖 白頭山","ckey":12216202,"web_map":"","available":"true","iiifUrl":"https://purl.stanford.edu/pt313gp3321/iiif/manifest"},"geometry":{"bbox":[129,42,130,42.666666500000005],"type":"Polygon","coordinates":[[[129,42],[129,42.666666500000005],[130,42.666666500000005],[130,42],[129,42]]]}},{"type":"Feature","properties":{"Id":0,"Sheet_ID":"1. 延吉","label":"1. 延吉","call_short":"G7822 .M2 S100 .J423","call_num":"G7822 .M2 S100 .J423 SHEET 1","recid":"dn480my9085","websiteUrl":"https://purl.stanford.edu/dn480my9085","title":"朝鮮及満州十万分一圖 白頭山","ckey":12216202,"web_map":"","available":"true","iiifUrl":"https://purl.stanford.edu/dn480my9085/iiif/manifest"},"geometry":{"bbox":[129,42.666666500000005,130,43.33333300000001],"type":"Polygon","coordinates":[[[129,42.666666500000005],[129,43.33333300000001],[130,43.33333300000001],[130,42.666666500000005],[129,42.666666500000005]]]}}],"name":"index_12216202"}
