{
"type": "FeatureCollection",
"name": "index_map",
"features": [
{ "type": "Feature", "properties": { "Id": 0, "Sheet_ID": "6. ポルシャーヤエラーニ", "label": "6. ポルシャーヤエラーニ", "call_short": "G7064 .I93 1908 .J3", "call_num": "G7064 .I93 1908 .J3 SHEET 6", "recid": "tg865mc5733", "websiteUrl": "https://purl.stanford.edu/tg865mc5733", "title": "一万分一豊原近傍", "ckey": 10642365, "available": true, "iiifUrl": "https://purl.stanford.edu/tg865mc5733/iiif/manifest" }, "geometry": { "type": "Polygon", "coordinates": [ [ [ 142.683333, 46.9 ], [ 142.75, 46.9 ], [ 142.75, 46.938889 ], [ 142.683333, 46.938889 ], [ 142.683333, 46.9 ] ] ] } },
{ "type": "Feature", "properties": { "Id": 0, "Sheet_ID": "3. ポルシャーヤエラーニ東部", "label": "3. ポルシャーヤエラーニ東部", "call_short": "G7064 .I93 1908 .J3", "call_num": "G7064 .I93 1908 .J3 SHEET 3", "recid": "yd282zg4293", "websiteUrl": "https://purl.stanford.edu/yd282zg4293", "title": "一万分一豊原近傍", "ckey": 10642365, "available": true, "iiifUrl": "https://purl.stanford.edu/yd282zg4293/iiif/manifest" }, "geometry": { "type": "Polygon", "coordinates": [ [ [ 142.75, 46.9 ], [ 142.816667, 46.9 ], [ 142.816667, 46.938889 ], [ 142.75, 46.938889 ], [ 142.75, 46.9 ] ] ] } },
{ "type": "Feature", "properties": { "Id": 0, "Sheet_ID": "5. 豊原", "label": "5. 豊原", "call_short": "G7064 .I93 1908 .J3", "call_num": "G7064 .I93 1908 .J3 SHEET 5", "recid": "yp408zp4418", "websiteUrl": "https://purl.stanford.edu/yp408zp4418", "title": "一万分一豊原近傍", "ckey": 10642365, "available": true, "iiifUrl": "https://purl.stanford.edu/yp408zp4418/iiif/manifest" }, "geometry": { "type": "Polygon", "coordinates": [ [ [ 142.683333, 46.938889 ], [ 142.75, 46.938889 ], [ 142.75, 46.977778 ], [ 142.683333, 46.977778 ], [ 142.683333, 46.938889 ] ] ] } },
{ "type": "Feature", "properties": { "Id": 0, "Sheet_ID": "2. 豊原東部", "label": "2. 豊原東部", "call_short": "G7064 .I93 1908 .J3", "call_num": "G7064 .I93 1908 .J3 SHEET 2", "recid": "hn353mb3578", "websiteUrl": "https://purl.stanford.edu/hn353mb3578", "title": "一万分一豊原近傍", "ckey": 10642365, "available": true, "iiifUrl": "https://purl.stanford.edu/hn353mb3578/iiif/manifest" }, "geometry": { "type": "Polygon", "coordinates": [ [ [ 142.75, 46.938889 ], [ 142.816667, 46.938889 ], [ 142.816667, 46.977778 ], [ 142.75, 46.977778 ], [ 142.75, 46.938889 ] ] ] } },
{ "type": "Feature", "properties": { "Id": 0, "Sheet_ID": "4. ルゴーオエ", "label": "4. ルゴーオエ", "call_short": "G7064 .I93 1908 .J3", "call_num": "G7064 .I93 1908 .J3 SHEET 4", "recid": "gw161ps5206", "websiteUrl": "https://purl.stanford.edu/gw161ps5206", "title": "一万分一豊原近傍", "ckey": 10642365, "available": true, "iiifUrl": "https://purl.stanford.edu/gw161ps5206/iiif/manifest" }, "geometry": { "type": "Polygon", "coordinates": [ [ [ 142.683333, 46.977778 ], [ 142.75, 46.977778 ], [ 142.75, 47.016667 ], [ 142.683333, 47.016667 ], [ 142.683333, 46.977778 ] ] ] } },
{ "type": "Feature", "properties": { "Id": 0, "Sheet_ID": "1. ルゴーオエ東部", "label": "1. ルゴーオエ東部", "call_short": "G7064 .I93 1908 .J3", "call_num": "G7064 .I93 1908 .J3 SHEET 1", "recid": "fy607gw8727", "websiteUrl": "https://purl.stanford.edu/fy607gw8727", "title": "一万分一豊原近傍", "ckey": 10642365, "available": true, "iiifUrl": "https://purl.stanford.edu/fy607gw8727/iiif/manifest" }, "geometry": { "type": "Polygon", "coordinates": [ [ [ 142.75, 46.977778 ], [ 142.816667, 46.977778 ], [ 142.816667, 47.016667 ], [ 142.75, 47.016667 ], [ 142.75, 46.977778 ] ] ] } }
]
}
