{
"type": "FeatureCollection",
"name": "index_map",
"xy_coordinate_resolution": 1e-07,
"features": [
{ "type": "Feature", "properties": { "Id": 0, "Sheet_ID": "壹参ロ148. タワオ", "label": "壹参ロ148. タワオ", "call_short": null, "call_num": null, "recid": null, "websiteUrl": null, "title": null, "ckey": 0, "available": false, "iiifUrl": null }, "geometry": { "type": "Polygon", "coordinates": [ [ [ 117.5, 4.0 ], [ 118.0, 4.0 ], [ 118.0, 4.3333333 ], [ 117.5, 4.3333333 ], [ 117.5, 4.0 ] ] ] } },
{ "type": "Feature", "properties": { "Id": 0, "Sheet_ID": "壹参ロ138上. バロン川", "label": "壹参ロ138上. バロン川", "call_short": "G8100 S100 .J3", "call_num": "G8100 S100 .J3 13RO-138T", "recid": "xg930qw2219", "websiteUrl": "https://purl.stanford.edu/xg930qw2219", "title": "空中寫眞測量要圖 ボルネオ十万分一圖", "ckey": 10557564, "available": true, "iiifUrl": "https://purl.stanford.edu/xg930qw2219/iiif/manifest" }, "geometry": { "type": "Polygon", "coordinates": [ [ [ 118.0, 4.166667 ], [ 118.5, 4.166667 ], [ 118.5, 4.3333333 ], [ 118.0, 4.3333333 ], [ 118.0, 4.166667 ] ] ] } },
{ "type": "Feature", "properties": { "Id": 0, "Sheet_ID": "壹参ロ147. マス・マス川", "label": "壹参ロ147. マス・マス川", "call_short": null, "call_num": null, "recid": null, "websiteUrl": null, "title": null, "ckey": 0, "available": false, "iiifUrl": null }, "geometry": { "type": "Polygon", "coordinates": [ [ [ 117.5, 4.3333333 ], [ 118.0, 4.3333333 ], [ 118.0, 4.6666666 ], [ 117.5, 4.6666666 ], [ 117.5, 4.3333333 ] ] ] } },
{ "type": "Feature", "properties": { "Id": 0, "Sheet_ID": "壹参ロ137. モスチン", "label": "壹参ロ137. モスチン", "call_short": null, "call_num": null, "recid": null, "websiteUrl": null, "title": null, "ckey": 0, "available": false, "iiifUrl": null }, "geometry": { "type": "Polygon", "coordinates": [ [ [ 118.0, 4.3333333 ], [ 118.5, 4.3333333 ], [ 118.5, 4.6666666 ], [ 118.0, 4.6666666 ], [ 118.0, 4.3333333 ] ] ] } },
{ "type": "Feature", "properties": { "Id": 0, "Sheet_ID": "壹参ロ127. シンポルナ", "label": "壹参ロ127. シンポルナ", "call_short": null, "call_num": null, "recid": null, "websiteUrl": null, "title": null, "ckey": 0, "available": false, "iiifUrl": null }, "geometry": { "type": "Polygon", "coordinates": [ [ [ 118.5, 4.3333333 ], [ 119.0, 4.3333333 ], [ 119.0, 4.6666666 ], [ 118.5, 4.6666666 ], [ 118.5, 4.3333333 ] ] ] } },
{ "type": "Feature", "properties": { "Id": 0, "Sheet_ID": "壹参ロ136. コナック", "label": "壹参ロ136. コナック", "call_short": "G8100 S100 .J3", "call_num": "G8100 S100 .J3 13RO-136", "recid": "fx180sx3876", "websiteUrl": "https://purl.stanford.edu/fx180sx3876", "title": "空中寫眞測量要圖 ボルネオ十万分一圖", "ckey": 10557564, "available": true, "iiifUrl": "https://purl.stanford.edu/fx180sx3876/iiif/manifest" }, "geometry": { "type": "Polygon", "coordinates": [ [ [ 118.0, 4.6666666 ], [ 118.5, 4.6666666 ], [ 118.5, 4.9999999 ], [ 118.0, 4.9999999 ], [ 118.0, 4.6666666 ] ] ] } },
{ "type": "Feature", "properties": { "Id": 0, "Sheet_ID": "壹参ロ126. マクオ", "label": "壹参ロ126. マクオ", "call_short": "G8100 S100 .J3", "call_num": "G8100 S100 .J3 13RO-126", "recid": "gf906tx8418", "websiteUrl": "https://purl.stanford.edu/gf906tx8418", "title": "空中寫眞測量要圖 ボルネオ十万分一圖", "ckey": 10557564, "available": true, "iiifUrl": "https://purl.stanford.edu/gf906tx8418/iiif/manifest" }, "geometry": { "type": "Polygon", "coordinates": [ [ [ 118.5, 4.6666666 ], [ 119.0, 4.6666666 ], [ 119.0, 4.9999999 ], [ 118.5, 4.9999999 ], [ 118.5, 4.6666666 ] ] ] } },
{ "type": "Feature", "properties": { "Id": 0, "Sheet_ID": "壹参ロ135. ラハト・ダトゥ", "label": "壹参ロ135. ラハト・ダトゥ", "call_short": "G8100 S100 .J3", "call_num": "G8100 S100 .J3 13RO-135", "recid": "pm077yw4120", "websiteUrl": "https://purl.stanford.edu/pm077yw4120", "title": "空中寫眞測量要圖 ボルネオ十万分一圖", "ckey": 10557564, "available": true, "iiifUrl": "https://purl.stanford.edu/pm077yw4120/iiif/manifest" }, "geometry": { "type": "Polygon", "coordinates": [ [ [ 118.0, 4.9999999 ], [ 118.5, 4.9999999 ], [ 118.5, 5.3333332 ], [ 118.0, 5.3333332 ], [ 118.0, 4.9999999 ] ] ] } },
{ "type": "Feature", "properties": { "Id": 0, "Sheet_ID": "壹参ロ125. トンク", "label": "壹参ロ125. トンク", "call_short": "G8100 S100 .J3", "call_num": "G8100 S100 .J3 13RO-125", "recid": "zq456jp0881", "websiteUrl": "https://purl.stanford.edu/zq456jp0881", "title": "空中寫眞測量要圖 ボルネオ十万分一圖", "ckey": 10557564, "available": true, "iiifUrl": "https://purl.stanford.edu/zq456jp0881/iiif/manifest" }, "geometry": { "type": "Polygon", "coordinates": [ [ [ 118.5, 4.9999999 ], [ 119.0, 4.9999999 ], [ 119.0, 5.3333332 ], [ 118.5, 5.3333332 ], [ 118.5, 4.9999999 ] ] ] } },
{ "type": "Feature", "properties": { "Id": 0, "Sheet_ID": "壹参ロ115. アテアム", "label": "壹参ロ115. アテアム", "call_short": "G8100 S100 .J3", "call_num": "G8100 S100 .J3 13RO-115", "recid": "ch519pn7622", "websiteUrl": "https://purl.stanford.edu/ch519pn7622", "title": "空中寫眞測量要圖 ボルネオ十万分一圖", "ckey": 10557564, "available": true, "iiifUrl": "https://purl.stanford.edu/ch519pn7622/iiif/manifest" }, "geometry": { "type": "Polygon", "coordinates": [ [ [ 119.0, 4.9999999 ], [ 119.5, 4.9999999 ], [ 119.5, 5.3333332 ], [ 119.0, 5.3333332 ], [ 119.0, 4.9999999 ] ] ] } },
{ "type": "Feature", "properties": { "Id": 0, "Sheet_ID": "壹参ロ134. スカウ", "label": "壹参ロ134. スカウ", "call_short": "G8100 S100 .J3", "call_num": "G8100 S100 .J3 13RO-134", "recid": "gn472yq1809", "websiteUrl": "https://purl.stanford.edu/gn472yq1809", "title": "空中寫眞測量要圖 ボルネオ十万分一圖", "ckey": 10557564, "available": true, "iiifUrl": "https://purl.stanford.edu/gn472yq1809/iiif/manifest" }, "geometry": { "type": "Polygon", "coordinates": [ [ [ 118.0, 5.3333332 ], [ 118.5, 5.3333332 ], [ 118.5, 5.6666665 ], [ 118.0, 5.6666665 ], [ 118.0, 5.3333332 ] ] ] } },
{ "type": "Feature", "properties": { "Id": 0, "Sheet_ID": "壹参ロ124. セガマ河", "label": "壹参ロ124. セガマ河", "call_short": "G8100 S100 .J3", "call_num": "G8100 S100 .J3 13RO-124", "recid": "xb369nm9863", "websiteUrl": "https://purl.stanford.edu/xb369nm9863", "title": "空中寫眞測量要圖 ボルネオ十万分一圖", "ckey": 10557564, "available": true, "iiifUrl": "https://purl.stanford.edu/xb369nm9863/iiif/manifest" }, "geometry": { "type": "Polygon", "coordinates": [ [ [ 118.5, 5.3333332 ], [ 119.0, 5.3333332 ], [ 119.0, 5.6666665 ], [ 118.5, 5.6666665 ], [ 118.5, 5.3333332 ] ] ] } },
{ "type": "Feature", "properties": { "Id": 0, "Sheet_ID": "壹参ロ114. タンビサン", "label": "壹参ロ114. タンビサン", "call_short": "G8100 S100 .J3", "call_num": "G8100 S100 .J3 13RO-114", "recid": "hh772gp1091", "websiteUrl": "https://purl.stanford.edu/hh772gp1091", "title": "空中寫眞測量要圖 ボルネオ十万分一圖", "ckey": 10557564, "available": true, "iiifUrl": "https://purl.stanford.edu/hh772gp1091/iiif/manifest" }, "geometry": { "type": "Polygon", "coordinates": [ [ [ 119.0, 5.3333332 ], [ 119.5, 5.3333332 ], [ 119.5, 5.6666665 ], [ 119.0, 5.6666665 ], [ 119.0, 5.3333332 ] ] ] } },
{ "type": "Feature", "properties": { "Id": 0, "Sheet_ID": "壹参ロ163上. ラナウ", "label": "壹参ロ163上. ラナウ", "call_short": "G8100 S100 .J3", "call_num": "G8100 S100 .J3 13RO-163T", "recid": "zq848rb2344", "websiteUrl": "https://purl.stanford.edu/zq848rb2344", "title": "空中寫眞測量要圖 ボルネオ十万分一圖", "ckey": 10557564, "available": true, "iiifUrl": "https://purl.stanford.edu/zq848rb2344/iiif/manifest" }, "geometry": { "type": "Polygon", "coordinates": [ [ [ 116.5, 5.833333 ], [ 117.0, 5.833333 ], [ 117.0, 5.9999998 ], [ 116.5, 5.9999998 ], [ 116.5, 5.833333 ] ] ] } },
{ "type": "Feature", "properties": { "Id": 0, "Sheet_ID": "壹参ロ153上. クラガン", "label": "壹参ロ153上. クラガン", "call_short": "G8100 S100 .J3", "call_num": "G8100 S100 .J3 13RO-153T", "recid": "zm831xh8268", "websiteUrl": "https://purl.stanford.edu/zm831xh8268", "title": "空中寫眞測量要圖 ボルネオ十万分一圖", "ckey": 10557564, "available": true, "iiifUrl": "https://purl.stanford.edu/zm831xh8268/iiif/manifest" }, "geometry": { "type": "Polygon", "coordinates": [ [ [ 117.0, 5.833333 ], [ 117.5, 5.833333 ], [ 117.5, 5.9999998 ], [ 117.0, 5.9999998 ], [ 117.0, 5.833333 ] ] ] } },
{ "type": "Feature", "properties": { "Id": 0, "Sheet_ID": "壹参ロ143. ラボック河口", "label": "壹参ロ143. ラボック河口", "call_short": "G8100 S100 .J3", "call_num": "G8100 S100 .J3 13RO-143", "recid": "kf691cn7772", "websiteUrl": "https://purl.stanford.edu/kf691cn7772", "title": "空中寫眞測量要圖 ボルネオ十万分一圖", "ckey": 10557564, "available": true, "iiifUrl": "https://purl.stanford.edu/kf691cn7772/iiif/manifest" }, "geometry": { "type": "Polygon", "coordinates": [ [ [ 117.5, 5.6666665 ], [ 118.0, 5.6666665 ], [ 118.0, 5.9999998 ], [ 117.5, 5.9999998 ], [ 117.5, 5.6666665 ] ] ] } },
{ "type": "Feature", "properties": { "Id": 0, "Sheet_ID": "壹参ロ133. サンダカン", "label": "壹参ロ133. サンダカン", "call_short": "G8100 S100 .J3", "call_num": "G8100 S100 .J3 13RO-133", "recid": "nz979qr0721", "websiteUrl": "https://purl.stanford.edu/nz979qr0721", "title": "空中寫眞測量要圖 ボルネオ十万分一圖", "ckey": 10557564, "available": true, "iiifUrl": "https://purl.stanford.edu/nz979qr0721/iiif/manifest" }, "geometry": { "type": "Polygon", "coordinates": [ [ [ 118.0, 5.6666665 ], [ 118.5, 5.6666665 ], [ 118.5, 5.9999998 ], [ 118.0, 5.9999998 ], [ 118.0, 5.6666665 ] ] ] } },
{ "type": "Feature", "properties": { "Id": 0, "Sheet_ID": "壹参ロ162. キナバル山", "label": "壹参ロ162. キナバル山", "call_short": "G8100 S100 .J3", "call_num": "G8100 S100 .J3 13RO-162", "recid": "pp133jq8635", "websiteUrl": "https://purl.stanford.edu/pp133jq8635", "title": "空中寫眞測量要圖 ボルネオ十万分一圖", "ckey": 10557564, "available": true, "iiifUrl": "https://purl.stanford.edu/pp133jq8635/iiif/manifest" }, "geometry": { "type": "Polygon", "coordinates": [ [ [ 116.5, 5.9999998 ], [ 117.0, 5.9999998 ], [ 117.0, 6.3333331 ], [ 116.5, 6.3333331 ], [ 116.5, 5.9999998 ] ] ] } },
{ "type": "Feature", "properties": { "Id": 0, "Sheet_ID": "壹参ロ152. リンカバウ", "label": "壹参ロ152. リンカバウ", "call_short": "G8100 S100 .J3", "call_num": "G8100 S100 .J3 13RO-152", "recid": "cp364sb9482", "websiteUrl": "https://purl.stanford.edu/cp364sb9482", "title": "空中寫眞測量要圖 ボルネオ十万分一圖", "ckey": 10557564, "available": true, "iiifUrl": "https://purl.stanford.edu/cp364sb9482/iiif/manifest" }, "geometry": { "type": "Polygon", "coordinates": [ [ [ 117.0, 5.9999998 ], [ 117.5, 5.9999998 ], [ 117.5, 6.3333331 ], [ 117.0, 6.3333331 ], [ 117.0, 5.9999998 ] ] ] } },
{ "type": "Feature", "properties": { "Id": 0, "Sheet_ID": "壹参ロ142. クラガン河", "label": "壹参ロ142. クラガン河", "call_short": null, "call_num": null, "recid": null, "websiteUrl": null, "title": null, "ckey": 0, "available": false, "iiifUrl": null }, "geometry": { "type": "Polygon", "coordinates": [ [ [ 117.5, 5.9999998 ], [ 118.0, 5.9999998 ], [ 118.0, 6.3333331 ], [ 117.5, 6.3333331 ], [ 117.5, 5.9999998 ] ] ] } },
{ "type": "Feature", "properties": { "Id": 0, "Sheet_ID": "壹参ロ132. リバラン島", "label": "壹参ロ132. リバラン島", "call_short": null, "call_num": null, "recid": null, "websiteUrl": null, "title": null, "ckey": 0, "available": false, "iiifUrl": null }, "geometry": { "type": "Polygon", "coordinates": [ [ [ 118.0, 5.9999998 ], [ 118.5, 5.9999998 ], [ 118.5, 6.3333331 ], [ 118.0, 6.3333331 ], [ 118.0, 5.9999998 ] ] ] } },
{ "type": "Feature", "properties": { "Id": 0, "Sheet_ID": "壹参ロ171右. コタブル", "label": "壹参ロ171右. コタブル", "call_short": "G8100 S100 .J3", "call_num": "G8100 S100 .J3 13RO-171R", "recid": "jy519dq1123", "websiteUrl": "https://purl.stanford.edu/jy519dq1123", "title": "空中寫眞測量要圖 ボルネオ十万分一圖", "ckey": 10557564, "available": true, "iiifUrl": "https://purl.stanford.edu/jy519dq1123/iiif/manifest" }, "geometry": { "type": "Polygon", "coordinates": [ [ [ 116.25, 6.3333331 ], [ 116.5, 6.3333331 ], [ 116.5, 6.6666664 ], [ 116.25, 6.6666664 ], [ 116.25, 6.3333331 ] ] ] } },
{ "type": "Feature", "properties": { "Id": 0, "Sheet_ID": "壹参ロ161. ランコン", "label": "壹参ロ161. ランコン", "call_short": "G8100 S100 .J3", "call_num": "G8100 S100 .J3 13RO-161", "recid": "qy701nx8844", "websiteUrl": "https://purl.stanford.edu/qy701nx8844", "title": "空中寫眞測量要圖 ボルネオ十万分一圖", "ckey": 10557564, "available": true, "iiifUrl": "https://purl.stanford.edu/qy701nx8844/iiif/manifest" }, "geometry": { "type": "Polygon", "coordinates": [ [ [ 116.5, 6.3333331 ], [ 117.0, 6.3333331 ], [ 117.0, 6.6666664 ], [ 116.5, 6.6666664 ], [ 116.5, 6.3333331 ] ] ] } },
{ "type": "Feature", "properties": { "Id": 0, "Sheet_ID": "壹参ロ151. ションブロ湾", "label": "壹参ロ151. ションブロ湾", "call_short": "G8100 S100 .J3", "call_num": "G8100 S100 .J3 13RO-151", "recid": "rr125tf8749", "websiteUrl": "https://purl.stanford.edu/rr125tf8749", "title": "空中寫眞測量要圖 ボルネオ十万分一圖", "ckey": 10557564, "available": true, "iiifUrl": "https://purl.stanford.edu/rr125tf8749/iiif/manifest" }, "geometry": { "type": "Polygon", "coordinates": [ [ [ 117.0, 6.3333331 ], [ 117.5, 6.3333331 ], [ 117.5, 6.6666664 ], [ 117.0, 6.6666664 ], [ 117.0, 6.3333331 ] ] ] } },
{ "type": "Feature", "properties": { "Id": 0, "Sheet_ID": "壹参ロ141. トルサン", "label": "壹参ロ141. トルサン", "call_short": "G8100 S100 .J3", "call_num": "G8100 S100 .J3 13RO-141", "recid": "jq095hp9750", "websiteUrl": "https://purl.stanford.edu/jq095hp9750", "title": "空中寫眞測量要圖 ボルネオ十万分一圖", "ckey": 10557564, "available": true, "iiifUrl": "https://purl.stanford.edu/jq095hp9750/iiif/manifest" }, "geometry": { "type": "Polygon", "coordinates": [ [ [ 117.5, 6.3333331 ], [ 118.0, 6.3333331 ], [ 118.0, 6.6666664 ], [ 117.5, 6.6666664 ], [ 117.5, 6.3333331 ] ] ] } },
{ "type": "Feature", "properties": { "Id": 0, "Sheet_ID": "壹参ハ170. クダト", "label": "壹参ハ170. クダト", "call_short": "G8100 S100 .J3", "call_num": "G8100 S100 .J3 13HA-170", "recid": "pq585gr3000", "websiteUrl": "https://purl.stanford.edu/pq585gr3000", "title": "空中寫眞測量要圖 ボルネオ十万分一圖", "ckey": 10557564, "available": true, "iiifUrl": "https://purl.stanford.edu/pq585gr3000/iiif/manifest" }, "geometry": { "type": "Polygon", "coordinates": [ [ [ 116.5, 6.6666664 ], [ 117.0, 6.6666664 ], [ 117.0, 6.9999997 ], [ 116.5, 6.9999997 ], [ 116.5, 6.6666664 ] ] ] } },
{ "type": "Feature", "properties": { "Id": 0, "Sheet_ID": "壹参ハ160. セナジヤ", "label": "壹参ハ160. セナジヤ", "call_short": "G8100 S100 .J3", "call_num": "G8100 S100 .J3 13HA-160", "recid": "vf955yw1479", "websiteUrl": "https://purl.stanford.edu/vf955yw1479", "title": "空中寫眞測量要圖 ボルネオ十万分一圖", "ckey": 10557564, "available": true, "iiifUrl": "https://purl.stanford.edu/vf955yw1479/iiif/manifest" }, "geometry": { "type": "Polygon", "coordinates": [ [ [ 117.0, 6.6666664 ], [ 117.5, 6.6666664 ], [ 117.5, 6.9999997 ], [ 117.0, 6.9999997 ], [ 117.0, 6.6666664 ] ] ] } },
{ "type": "Feature", "properties": { "Id": 0, "Sheet_ID": "壹参ハ169. バランバガン島", "label": "壹参ハ169. バランバガン島", "call_short": "G8100 S100 .J3", "call_num": "G8100 S100 .J3 13HA-169", "recid": "fj030dm2251", "websiteUrl": "https://purl.stanford.edu/fj030dm2251", "title": "空中寫眞測量要圖 ボルネオ十万分一圖", "ckey": 10557564, "available": true, "iiifUrl": "https://purl.stanford.edu/fj030dm2251/iiif/manifest" }, "geometry": { "type": "Polygon", "coordinates": [ [ [ 116.5, 6.9999997 ], [ 117.0, 6.9999997 ], [ 117.0, 7.333333 ], [ 116.5, 7.333333 ], [ 116.5, 6.9999997 ] ] ] } },
{ "type": "Feature", "properties": { "Id": 0, "Sheet_ID": "壹参ハ159. バンギ島", "label": "壹参ハ159. バンギ島", "call_short": "G8100 S100 .J3", "call_num": "G8100 S100 .J3 13HA-159", "recid": "nn639tq5057", "websiteUrl": "https://purl.stanford.edu/nn639tq5057", "title": "空中寫眞測量要圖 ボルネオ十万分一圖", "ckey": 10557564, "available": true, "iiifUrl": "https://purl.stanford.edu/nn639tq5057/iiif/manifest" }, "geometry": { "type": "Polygon", "coordinates": [ [ [ 117.0, 6.9999997 ], [ 117.5, 6.9999997 ], [ 117.5, 7.333333 ], [ 117.0, 7.333333 ], [ 117.0, 6.9999997 ] ] ] } }
]
}
