{
"type": "FeatureCollection",
"name": "index_map",
"features": [
{ "type": "Feature", "properties": { "Id": 0, "Sheet_ID": "8行9段. 得撫島", "label": "8行9段. 得撫島", "call_short": null, "call_num": null, "recid": null, "websiteUrl": null, "title": null, "ckey": 0, "available": false, "iiifUrl": null }, "geometry": { "type": "Polygon", "coordinates": [ [ [ 149.0, 45.333333 ], [ 150.0, 45.333333 ], [ 150.0, 45.9999997 ], [ 149.0, 45.9999997 ], [ 149.0, 45.333333 ] ] ] } },
{ "type": "Feature", "properties": { "Id": 0, "Sheet_ID": "7行8段. 知理保以島", "label": "7行8段. 知理保以島", "call_short": null, "call_num": null, "recid": null, "websiteUrl": null, "title": null, "ckey": 0, "available": false, "iiifUrl": null }, "geometry": { "type": "Polygon", "coordinates": [ [ [ 150.0, 45.9999997 ], [ 151.0, 45.9999997 ], [ 151.0, 46.6666663 ], [ 150.0, 46.6666663 ], [ 150.0, 45.9999997 ] ] ] } },
{ "type": "Feature", "properties": { "Id": 0, "Sheet_ID": "5/6行7段. 新知島", "label": "5/6行7段. 新知島", "call_short": "G7960 S200 .J3", "call_num": "G7960 S200 .J3 SHEET 5.6-7", "recid": "ky370jj2016", "websiteUrl": "https://purl.stanford.edu/ky370jj2016", "title": "二十万分一帝國圖", "ckey": 10425346, "available": true, "iiifUrl": "https://purl.stanford.edu/ky370jj2016/iiif/manifest" }, "geometry": { "type": "Polygon", "coordinates": [ [ [ 152.5, 46.6666663 ], [ 152.5, 47.25 ], [ 152.566667, 47.25 ], [ 152.566667, 47.416667 ], [ 152.383333, 47.416667 ], [ 152.383333, 47.333333 ], [ 151.5, 47.333333 ], [ 151.5, 46.6666663 ], [ 152.5, 46.6666663 ] ] ] } },
{ "type": "Feature", "properties": { "Id": 0, "Sheet_ID": "5行6段. 羅處和島", "label": "5行6段. 羅處和島", "call_short": "G7960 S200 .J3", "call_num": "G7960 S200 .J3 SHEET 5-6", "recid": "kp117ts8151", "websiteUrl": "https://purl.stanford.edu/kp117ts8151", "title": "二十万分一帝國圖", "ckey": 10425346, "available": true, "iiifUrl": "https://purl.stanford.edu/kp117ts8151/iiif/manifest" }, "geometry": { "type": "Polygon", "coordinates": [ [ [ 153.0, 47.9999997 ], [ 152.0, 47.9999997 ], [ 152.0, 47.333333 ], [ 152.383333, 47.333333 ], [ 152.383333, 47.25 ], [ 152.566667, 47.25 ], [ 152.566667, 47.333333 ], [ 153.0, 47.333333 ], [ 153.0, 47.666667 ], [ 153.1, 47.666667 ], [ 153.1, 47.833333 ], [ 153.0, 47.833333 ], [ 153.0, 47.9999997 ] ] ] } },
{ "type": "Feature", "properties": { "Id": 0, "Sheet_ID": "4行5段. 松輪島", "label": "4行5段. 松輪島", "call_short": "G7960 S200 .J3", "call_num": "G7960 S200 .J3 SHEET 4-5", "recid": "dh567rj5568", "websiteUrl": "https://purl.stanford.edu/dh567rj5568", "title": "二十万分一帝國圖", "ckey": 10425346, "available": true, "iiifUrl": "https://purl.stanford.edu/dh567rj5568/iiif/manifest" }, "geometry": { "type": "Polygon", "coordinates": [ [ [ 153.0, 47.9999997 ], [ 154.0, 47.9999997 ], [ 154.0, 48.6666663 ], [ 153.0, 48.6666663 ], [ 153.0, 47.9999997 ] ] ] } },
{ "type": "Feature", "properties": { "Id": 0, "Sheet_ID": "4行4段. 知林古丹島", "label": "4行4段. 知林古丹島", "call_short": null, "call_num": null, "recid": null, "websiteUrl": null, "title": null, "ckey": 0, "available": false, "iiifUrl": null }, "geometry": { "type": "Polygon", "coordinates": [ [ [ 153.0, 48.6666663 ], [ 154.0, 48.6666663 ], [ 154.0, 49.333333 ], [ 153.0, 49.333333 ], [ 153.0, 48.6666663 ] ] ] } },
{ "type": "Feature", "properties": { "Id": 0, "Sheet_ID": "3行4段. 捨子古丹島", "label": "3行4段. 捨子古丹島", "call_short": "G7960 S200 .J3", "call_num": "G7960 S200 .J3 SHEET 3-4", "recid": "pc260fq9200", "websiteUrl": "https://purl.stanford.edu/pc260fq9200", "title": "二十万分一帝國圖", "ckey": 10425346, "available": true, "iiifUrl": "https://purl.stanford.edu/pc260fq9200/iiif/manifest" }, "geometry": { "type": "Polygon", "coordinates": [ [ [ 154.0, 48.6666663 ], [ 155.0, 48.6666663 ], [ 155.0, 49.333333 ], [ 154.0, 49.333333 ], [ 154.0, 49.0 ], [ 153.833333, 49.0 ], [ 153.833333, 48.6666663 ], [ 154.0, 48.6666663 ] ] ] } },
{ "type": "Feature", "properties": { "Id": 0, "Sheet_ID": "3行3段. 温禰古丹島", "label": "3行3段. 温禰古丹島", "call_short": "G7960 S200 .J3", "call_num": "G7960 S200 .J3 SHEET 3-3", "recid": "gz468zn9548", "websiteUrl": "https://purl.stanford.edu/gz468zn9548", "title": "二十万分一帝國圖", "ckey": 10425346, "available": true, "iiifUrl": "https://purl.stanford.edu/gz468zn9548/iiif/manifest" }, "geometry": { "type": "Polygon", "coordinates": [ [ [ 154.0, 49.333333 ], [ 155.0, 49.333333 ], [ 155.0, 49.9999997 ], [ 154.0, 49.9999997 ], [ 154.0, 49.333333 ] ] ] } },
{ "type": "Feature", "properties": { "Id": 0, "Sheet_ID": "2行2段. 幌筵島", "label": "2行2段. 幌筵島", "call_short": "G7960 S200 .J3", "call_num": "G7960 S200 .J3 SHEET 2-2", "recid": "gw611cf3184", "websiteUrl": "https://purl.stanford.edu/gw611cf3184", "title": "二十万分一帝國圖", "ckey": 10425346, "available": true, "iiifUrl": "https://purl.stanford.edu/gw611cf3184/iiif/manifest" }, "geometry": { "type": "Polygon", "coordinates": [ [ [ 156.0, 50.6666663 ], [ 155.0, 50.6666663 ], [ 155.0, 50.25 ], [ 154.916667, 50.25 ], [ 154.916667, 50.166667 ], [ 155.0, 50.166667 ], [ 155.0, 49.9999997 ], [ 156.0, 49.9999997 ], [ 156.0, 50.6666663 ] ] ] } },
{ "type": "Feature", "properties": { "Id": 0, "Sheet_ID": "1行2段. 朝日灣", "label": "1行2段. 朝日灣", "call_short": "G7960 S200 .J3", "call_num": "G7960 S200 .J3 SHEET 1-2", "recid": "kw270zg5344", "websiteUrl": "https://purl.stanford.edu/kw270zg5344", "title": "二十万分一帝國圖", "ckey": 10425346, "available": true, "iiifUrl": "https://purl.stanford.edu/kw270zg5344/iiif/manifest" }, "geometry": { "type": "Polygon", "coordinates": [ [ [ 156.0, 49.9999997 ], [ 157.0, 49.9999997 ], [ 157.0, 50.6666663 ], [ 156.0, 50.6666663 ], [ 156.0, 49.9999997 ] ] ] } },
{ "type": "Feature", "properties": { "Id": 0, "Sheet_ID": "2行1段. 阿賴度島", "label": "2行1段. 阿賴度島", "call_short": "G7960 S200 .J3", "call_num": "G7960 S200 .J3 SHEET 2-1", "recid": "vt838dc3028", "websiteUrl": "https://purl.stanford.edu/vt838dc3028", "title": "二十万分一帝國圖", "ckey": 10425346, "available": true, "iiifUrl": "https://purl.stanford.edu/vt838dc3028/iiif/manifest" }, "geometry": { "type": "Polygon", "coordinates": [ [ [ 155.0, 50.6666663 ], [ 156.0, 50.6666663 ], [ 156.0, 51.333333 ], [ 155.0, 51.333333 ], [ 155.0, 50.6666663 ] ] ] } },
{ "type": "Feature", "properties": { "Id": 0, "Sheet_ID": "1行1段. 占守島", "label": "1行1段. 占守島", "call_short": "G7960 S200 .J3", "call_num": "G7960 S200 .J3 SHEET 1-1", "recid": "jk748pz2835", "websiteUrl": "https://purl.stanford.edu/jk748pz2835", "title": "二十万分一帝國圖", "ckey": 10425346, "available": true, "iiifUrl": "https://purl.stanford.edu/jk748pz2835/iiif/manifest" }, "geometry": { "type": "Polygon", "coordinates": [ [ [ 156.0, 50.6666663 ], [ 157.0, 50.6666663 ], [ 157.0, 51.333333 ], [ 156.0, 51.333333 ], [ 156.0, 50.6666663 ] ] ] } },
{ "type": "Feature", "properties": { "Id": 0, "Sheet_ID": "18行15段. 渡島大島", "label": "18行15段. 渡島大島", "call_short": "G7960 S200 .J3", "call_num": "G7960 S200 .J3 SHEET 18-15", "recid": "wp756gz8627", "websiteUrl": "https://purl.stanford.edu/wp756gz8627", "title": "二十万分一帝國圖", "ckey": 10425346, "available": true, "iiifUrl": "https://purl.stanford.edu/wp756gz8627/iiif/manifest" }, "geometry": { "type": "Polygon", "coordinates": [ [ [ 139.0, 41.333333 ], [ 140.0, 41.333333 ], [ 140.0, 41.9999997 ], [ 139.0, 41.9999997 ], [ 139.0, 41.333333 ] ] ] } },
{ "type": "Feature", "properties": { "Id": 0, "Sheet_ID": "17行15段. 函館", "label": "17行15段. 函館", "call_short": "G7960 S200 .J3", "call_num": "G7960 S200 .J3 SHEET 17-15", "recid": "kt427gm7040", "websiteUrl": "https://purl.stanford.edu/kt427gm7040", "title": "二十万分一帝國圖", "ckey": 10425346, "available": true, "iiifUrl": "https://purl.stanford.edu/kt427gm7040/iiif/manifest" }, "geometry": { "type": "Polygon", "coordinates": [ [ [ 141.0, 41.9999997 ], [ 140.0, 41.9999997 ], [ 140.0, 41.7 ], [ 139.966667, 41.7 ], [ 139.966667, 41.5 ], [ 140.0, 41.5 ], [ 140.0, 41.333333 ], [ 141.0, 41.333333 ], [ 141.0, 41.9999997 ] ] ] } },
{ "type": "Feature", "properties": { "Id": 0, "Sheet_ID": "16行15段. 尻屋﨑", "label": "16行15段. 尻屋﨑", "call_short": "G7960 S200 .J3", "call_num": "G7960 S200 .J3 SHEET 16-15", "recid": "nc720wy7539", "websiteUrl": "https://purl.stanford.edu/nc720wy7539", "title": "二十万分一帝國圖", "ckey": 10425346, "available": true, "iiifUrl": "https://purl.stanford.edu/nc720wy7539/iiif/manifest" }, "geometry": { "type": "Polygon", "coordinates": [ [ [ 141.0, 41.333333 ], [ 142.0, 41.333333 ], [ 142.0, 41.9999997 ], [ 141.0, 41.9999997 ], [ 141.0, 41.333333 ] ] ] } },
{ "type": "Feature", "properties": { "Id": 0, "Sheet_ID": "18行14段. 久遠", "label": "18行14段. 久遠", "call_short": "G7960 S200 .J3", "call_num": "G7960 S200 .J3 SHEET 18-14", "recid": "mw027cy4359", "websiteUrl": "https://purl.stanford.edu/mw027cy4359", "title": "二十万分一帝國圖", "ckey": 10425346, "available": true, "iiifUrl": "https://purl.stanford.edu/mw027cy4359/iiif/manifest" }, "geometry": { "type": "Polygon", "coordinates": [ [ [ 140.0, 41.9999997 ], [ 140.0, 42.6666665 ], [ 140.0, 42.7 ], [ 139.833333, 42.7 ], [ 139.833333, 42.6666665 ], [ 139.0, 42.6666665 ], [ 139.0, 41.9999997 ], [ 140.0, 41.9999997 ] ] ] } },
{ "type": "Feature", "properties": { "Id": 0, "Sheet_ID": "17行14段. 室蘭", "label": "17行14段. 室蘭", "call_short": "G7960 S200 .J3", "call_num": "G7960 S200 .J3 SHEET 17-14", "recid": "jm970gq9990", "websiteUrl": "https://purl.stanford.edu/jm970gq9990", "title": "二十万分一帝國圖", "ckey": 10425346, "available": true, "iiifUrl": "https://purl.stanford.edu/jm970gq9990/iiif/manifest" }, "geometry": { "type": "Polygon", "coordinates": [ [ [ 140.0, 41.9999997 ], [ 141.0, 41.9999997 ], [ 141.0, 42.6666665 ], [ 140.0, 42.6666665 ], [ 140.0, 41.9999997 ] ] ] } },
{ "type": "Feature", "properties": { "Id": 0, "Sheet_ID": "16行14段. 苫小牧", "label": "16行14段. 苫小牧", "call_short": "G7960 S200 .J3", "call_num": "G7960 S200 .J3 SHEET 16-14", "recid": "wr082xb3869", "websiteUrl": "https://purl.stanford.edu/wr082xb3869", "title": "二十万分一帝國圖", "ckey": 10425346, "available": true, "iiifUrl": "https://purl.stanford.edu/wr082xb3869/iiif/manifest" }, "geometry": { "type": "Polygon", "coordinates": [ [ [ 141.0, 41.9999997 ], [ 142.0, 41.9999997 ], [ 142.0, 42.6666665 ], [ 141.0, 42.6666665 ], [ 141.0, 41.9999997 ] ] ] } },
{ "type": "Feature", "properties": { "Id": 0, "Sheet_ID": "15行14段. 浦河", "label": "15行14段. 浦河", "call_short": "G7960 S200 .J3", "call_num": "G7960 S200 .J3 SHEET 15-14", "recid": "gq211wd5686", "websiteUrl": "https://purl.stanford.edu/gq211wd5686", "title": "二十万分一帝國圖", "ckey": 10425346, "available": true, "iiifUrl": "https://purl.stanford.edu/gq211wd5686/iiif/manifest" }, "geometry": { "type": "Polygon", "coordinates": [ [ [ 142.0, 41.9999997 ], [ 143.0, 41.9999997 ], [ 143.0, 42.6666665 ], [ 142.0, 42.6666665 ], [ 142.0, 41.9999997 ] ] ] } },
{ "type": "Feature", "properties": { "Id": 0, "Sheet_ID": "14行14段. 廣尾", "label": "14行14段. 廣尾", "call_short": "G7960 S200 .J3", "call_num": "G7960 S200 .J3 SHEET 14-14", "recid": "yx844xs0144", "websiteUrl": "https://purl.stanford.edu/yx844xs0144", "title": "二十万分一帝國圖", "ckey": 10425346, "available": true, "iiifUrl": "https://purl.stanford.edu/yx844xs0144/iiif/manifest" }, "geometry": { "type": "Polygon", "coordinates": [ [ [ 143.3, 41.9999997 ], [ 144.0, 41.9999997 ], [ 144.0, 42.6666665 ], [ 143.0, 42.6666665 ], [ 143.0, 41.9999997 ], [ 143.116667, 41.9999997 ], [ 143.116667, 41.9 ], [ 143.3, 41.9 ], [ 143.3, 41.9999997 ] ] ] } },
{ "type": "Feature", "properties": { "Id": 0, "Sheet_ID": "17行13段. 岩内", "label": "17行13段. 岩内", "call_short": "G7960 S200 .J3", "call_num": "G7960 S200 .J3 SHEET 17-13", "recid": "vz200ym0039", "websiteUrl": "https://purl.stanford.edu/vz200ym0039", "title": "二十万分一帝國圖", "ckey": 10425346, "available": true, "iiifUrl": "https://purl.stanford.edu/vz200ym0039/iiif/manifest" }, "geometry": { "type": "Polygon", "coordinates": [ [ [ 140.5833331, 43.416667 ], [ 140.3, 43.416667 ], [ 140.3, 43.3333332 ], [ 140.0, 43.3333332 ], [ 140.0, 42.6666665 ], [ 141.0, 42.6666665 ], [ 141.0, 43.3333332 ], [ 140.583333, 43.3333332 ], [ 140.5833331, 43.416667 ] ] ] } },
{ "type": "Feature", "properties": { "Id": 0, "Sheet_ID": "八ワ216. 札幌", "label": "八ワ216. 札幌", "call_short": "G7960 S200 .J3", "call_num": "G7960 S200 .J3 SHEET 16-13", "recid": "ym691bv0839", "websiteUrl": "https://purl.stanford.edu/ym691bv0839", "title": "二十万分一帝國圖", "ckey": 10425346, "available": true, "iiifUrl": "https://purl.stanford.edu/ym691bv0839/iiif/manifest" }, "geometry": { "type": "Polygon", "coordinates": [ [ [ 141.0, 42.6666665 ], [ 142.0, 42.6666665 ], [ 142.0, 43.3333332 ], [ 141.0, 43.3333332 ], [ 141.0, 42.6666665 ] ] ] } },
{ "type": "Feature", "properties": { "Id": 0, "Sheet_ID": "15行13段. 夕張嶽", "label": "15行13段. 夕張嶽", "call_short": "G7960 S200 .J3", "call_num": "G7960 S200 .J3 SHEET 15-13", "recid": "bt122bd0650", "websiteUrl": "https://purl.stanford.edu/bt122bd0650", "title": "二十万分一帝國圖", "ckey": 10425346, "available": true, "iiifUrl": "https://purl.stanford.edu/bt122bd0650/iiif/manifest" }, "geometry": { "type": "Polygon", "coordinates": [ [ [ 142.0, 42.6666665 ], [ 143.0, 42.6666665 ], [ 143.0, 43.3333332 ], [ 142.0, 43.3333332 ], [ 142.0, 42.6666665 ] ] ] } },
{ "type": "Feature", "properties": { "Id": 0, "Sheet_ID": "14行13段. 帶廣", "label": "14行13段. 帶廣", "call_short": "G7960 S200 .J3", "call_num": "G7960 S200 .J3 SHEET 14-13", "recid": "qg717sh2146", "websiteUrl": "https://purl.stanford.edu/qg717sh2146", "title": "二十万分一帝國圖", "ckey": 10425346, "available": true, "iiifUrl": "https://purl.stanford.edu/qg717sh2146/iiif/manifest" }, "geometry": { "type": "Polygon", "coordinates": [ [ [ 143.0, 42.6666665 ], [ 144.0, 42.6666665 ], [ 144.0, 43.3333332 ], [ 143.0, 43.3333332 ], [ 143.0, 42.6666665 ] ] ] } },
{ "type": "Feature", "properties": { "Id": 0, "Sheet_ID": "八ワ201. 釧路", "label": "八ワ201. 釧路", "call_short": "G7960 S200 .J3", "call_num": "G7960 S200 .J3 SHEET 13-13", "recid": "ck941dr2033", "websiteUrl": "https://purl.stanford.edu/ck941dr2033", "title": "二十万分一帝國圖", "ckey": 10425346, "available": true, "iiifUrl": "https://purl.stanford.edu/ck941dr2033/iiif/manifest" }, "geometry": { "type": "Polygon", "coordinates": [ [ [ 144.0, 42.6666665 ], [ 145.0, 42.6666665 ], [ 145.0, 43.3333332 ], [ 144.0, 43.3333332 ], [ 144.0, 42.6666665 ] ] ] } },
{ "type": "Feature", "properties": { "Id": 0, "Sheet_ID": "七ワ221. 根室", "label": "七ワ221. 根室", "call_short": "G7960 S200 .J3", "call_num": "G7960 S200 .J3 SHEET 12-13", "recid": "xv653cq9317", "websiteUrl": "https://purl.stanford.edu/xv653cq9317", "title": "二十万分一帝國圖", "ckey": 10425346, "available": true, "iiifUrl": "https://purl.stanford.edu/xv653cq9317/iiif/manifest" }, "geometry": { "type": "Polygon", "coordinates": [ [ [ 145.0, 42.6666665 ], [ 146.0, 42.6666665 ], [ 146.0, 43.3333332 ], [ 145.0, 43.3333332 ], [ 145.0, 42.6666665 ] ] ] } },
{ "type": "Feature", "properties": { "Id": 0, "Sheet_ID": "16行12段. 留萌", "label": "16行12段. 留萌", "call_short": "G7960 S200 .J3", "call_num": "G7960 S200 .J3 SHEET 16-12", "recid": "gp783xq5256", "websiteUrl": "https://purl.stanford.edu/gp783xq5256", "title": "二十万分一帝國圖", "ckey": 10425346, "available": true, "iiifUrl": "https://purl.stanford.edu/gp783xq5256/iiif/manifest" }, "geometry": { "type": "Polygon", "coordinates": [ [ [ 141.0, 43.3333332 ], [ 142.0, 43.3333332 ], [ 142.0, 43.9999999 ], [ 141.0, 43.9999999 ], [ 141.0, 43.3333332 ] ] ] } },
{ "type": "Feature", "properties": { "Id": 0, "Sheet_ID": "15行12段. 旭川", "label": "15行12段. 旭川", "call_short": "G7960 S200 .J3", "call_num": "G7960 S200 .J3 SHEET 15-12", "recid": "nh318yc3336", "websiteUrl": "https://purl.stanford.edu/nh318yc3336", "title": "二十万分一帝國圖", "ckey": 10425346, "available": true, "iiifUrl": "https://purl.stanford.edu/nh318yc3336/iiif/manifest" }, "geometry": { "type": "Polygon", "coordinates": [ [ [ 142.0, 43.3333332 ], [ 143.0, 43.3333332 ], [ 143.0, 43.9999999 ], [ 142.0, 43.9999999 ], [ 142.0, 43.3333332 ] ] ] } },
{ "type": "Feature", "properties": { "Id": 0, "Sheet_ID": "14行12段. 淕別", "label": "14行12段. 淕別", "call_short": "G7960 S200 .J3", "call_num": "G7960 S200 .J3 SHEET 14-12", "recid": "rd565bf4518", "websiteUrl": "https://purl.stanford.edu/rd565bf4518", "title": "二十万分一帝國圖", "ckey": 10425346, "available": true, "iiifUrl": "https://purl.stanford.edu/rd565bf4518/iiif/manifest" }, "geometry": { "type": "Polygon", "coordinates": [ [ [ 143.0, 43.3333332 ], [ 144.0, 43.3333332 ], [ 144.0, 43.9999999 ], [ 143.0, 43.9999999 ], [ 143.0, 43.3333332 ] ] ] } },
{ "type": "Feature", "properties": { "Id": 0, "Sheet_ID": "八カ205. 斜里", "label": "八カ205. 斜里", "call_short": "G7960 S200 .J3", "call_num": "G7960 S200 .J3 SHEET 13-12", "recid": "yy316sr3701", "websiteUrl": "https://purl.stanford.edu/yy316sr3701", "title": "二十万分一帝國圖", "ckey": 10425346, "available": true, "iiifUrl": "https://purl.stanford.edu/yy316sr3701/iiif/manifest" }, "geometry": { "type": "Polygon", "coordinates": [ [ [ 144.0, 43.3333332 ], [ 145.0, 43.3333332 ], [ 145.0, 43.9999999 ], [ 144.0, 43.9999999 ], [ 144.0, 43.3333332 ] ] ] } },
{ "type": "Feature", "properties": { "Id": 0, "Sheet_ID": "12行12段. 標津", "label": "12行12段. 標津", "call_short": "G7960 S200 .J3", "call_num": "G7960 S200 .J3 SHEET 12-12", "recid": "cg638ty6718", "websiteUrl": "https://purl.stanford.edu/cg638ty6718", "title": "二十万分一帝國圖", "ckey": 10425346, "available": true, "iiifUrl": "https://purl.stanford.edu/cg638ty6718/iiif/manifest" }, "geometry": { "type": "Polygon", "coordinates": [ [ [ 145.0, 43.3333332 ], [ 146.0, 43.3333332 ], [ 146.0, 43.9999999 ], [ 145.0, 43.9999999 ], [ 145.0, 43.3333332 ] ] ] } },
{ "type": "Feature", "properties": { "Id": 0, "Sheet_ID": "11行12段. 色丹島", "label": "11行12段. 色丹島", "call_short": "G7960 S200 .J3", "call_num": "G7960 S200 .J3 SHEET 11-12", "recid": "gn734ww7055", "websiteUrl": "https://purl.stanford.edu/gn734ww7055", "title": "二十万分一帝國圖", "ckey": 10425346, "available": true, "iiifUrl": "https://purl.stanford.edu/gn734ww7055/iiif/manifest" }, "geometry": { "type": "Polygon", "coordinates": [ [ [ 146.0, 43.3333332 ], [ 147.0, 43.3333332 ], [ 147.0, 43.9999999 ], [ 146.0, 43.9999999 ], [ 146.0, 43.3333332 ] ] ] } },
{ "type": "Feature", "properties": { "Id": 0, "Sheet_ID": "16行11段. 羽幌", "label": "16行11段. 羽幌", "call_short": "G7960 S200 .J3", "call_num": "G7960 S200 .J3 SHEET 16-11", "recid": "rj893gy7924", "websiteUrl": "https://purl.stanford.edu/rj893gy7924", "title": "二十万分一帝國圖", "ckey": 10425346, "available": true, "iiifUrl": "https://purl.stanford.edu/rj893gy7924/iiif/manifest" }, "geometry": { "type": "Polygon", "coordinates": [ [ [ 141.0, 43.9999999 ], [ 142.0, 43.9999999 ], [ 142.0, 44.6666666 ], [ 141.0, 44.6666666 ], [ 141.0, 43.9999999 ] ] ] } },
{ "type": "Feature", "properties": { "Id": 0, "Sheet_ID": "15行11段. 名寄", "label": "15行11段. 名寄", "call_short": "G7960 S200 .J3", "call_num": "G7960 S200 .J3 SHEET 15-11", "recid": "pj902bg9925", "websiteUrl": "https://purl.stanford.edu/pj902bg9925", "title": "二十万分一帝國圖", "ckey": 10425346, "available": true, "iiifUrl": "https://purl.stanford.edu/pj902bg9925/iiif/manifest" }, "geometry": { "type": "Polygon", "coordinates": [ [ [ 142.0, 43.9999999 ], [ 143.0, 43.9999999 ], [ 143.0, 44.6666666 ], [ 142.0, 44.6666666 ], [ 142.0, 43.9999999 ] ] ] } },
{ "type": "Feature", "properties": { "Id": 0, "Sheet_ID": "14行11段. 紋別", "label": "14行11段. 紋別", "call_short": "G7960 S200 .J3", "call_num": "G7960 S200 .J3 SHEET 14-11", "recid": "nq684fj6062", "websiteUrl": "https://purl.stanford.edu/nq684fj6062", "title": "二十万分一帝國圖", "ckey": 10425346, "available": true, "iiifUrl": "https://purl.stanford.edu/nq684fj6062/iiif/manifest" }, "geometry": { "type": "Polygon", "coordinates": [ [ [ 143.0, 43.9999999 ], [ 144.0, 43.9999999 ], [ 144.0, 44.6666666 ], [ 143.0, 44.6666666 ], [ 143.0, 43.9999999 ] ] ] } },
{ "type": "Feature", "properties": { "Id": 0, "Sheet_ID": "13行11段. 網走", "label": "13行11段. 網走", "call_short": "G7960 S200 .J3", "call_num": "G7960 S200 .J3 SHEET 13-11", "recid": "bz315vy9833", "websiteUrl": "https://purl.stanford.edu/bz315vy9833", "title": "二十万分一帝國圖", "ckey": 10425346, "available": true, "iiifUrl": "https://purl.stanford.edu/bz315vy9833/iiif/manifest" }, "geometry": { "type": "Polygon", "coordinates": [ [ [ 144.0, 43.9999999 ], [ 145.0, 43.9999999 ], [ 145.0, 44.6666666 ], [ 144.0, 44.6666666 ], [ 144.0, 43.9999999 ] ] ] } },
{ "type": "Feature", "properties": { "Id": 0, "Sheet_ID": "12行11段. 知床岬", "label": "12行11段. 知床岬", "call_short": "G7960 S200 .J3", "call_num": "G7960 S200 .J3 SHEET 12-11", "recid": "rn363jk6857", "websiteUrl": "https://purl.stanford.edu/rn363jk6857", "title": "二十万分一帝國圖", "ckey": 10425346, "available": true, "iiifUrl": "https://purl.stanford.edu/rn363jk6857/iiif/manifest" }, "geometry": { "type": "Polygon", "coordinates": [ [ [ 145.0, 43.9999999 ], [ 146.0, 43.9999999 ], [ 146.0, 44.6666666 ], [ 145.0, 44.6666666 ], [ 145.0, 43.9999999 ] ] ] } },
{ "type": "Feature", "properties": { "Id": 0, "Sheet_ID": "11行11段. 安渡移矢岬", "label": "11行11段. 安渡移矢岬", "call_short": "G7960 S200 .J3", "call_num": "G7960 S200 .J3 SHEET 11-11", "recid": "pn642mk7989", "websiteUrl": "https://purl.stanford.edu/pn642mk7989", "title": "二十万分一帝國圖", "ckey": 10425346, "available": true, "iiifUrl": "https://purl.stanford.edu/pn642mk7989/iiif/manifest" }, "geometry": { "type": "Polygon", "coordinates": [ [ [ 146.0, 43.9999999 ], [ 147.0, 43.9999999 ], [ 147.0, 44.6666666 ], [ 146.0, 44.6666666 ], [ 146.0, 43.9999999 ] ] ] } },
{ "type": "Feature", "properties": { "Id": 0, "Sheet_ID": "七カ214. 得茂別湖", "label": "七カ214. 得茂別湖", "call_short": "G7960 S200 .J3", "call_num": "G7960 S200 .J3 SHEET 10-11", "recid": "ks864mr9813", "websiteUrl": "https://purl.stanford.edu/ks864mr9813", "title": "二十万分一帝國圖", "ckey": 10425346, "available": true, "iiifUrl": "https://purl.stanford.edu/ks864mr9813/iiif/manifest" }, "geometry": { "type": "Polygon", "coordinates": [ [ [ 147.0, 43.9999999 ], [ 148.0, 43.9999999 ], [ 148.0, 44.6666666 ], [ 147.0, 44.6666666 ], [ 147.0, 43.9999999 ] ] ] } },
{ "type": "Feature", "properties": { "Id": 0, "Sheet_ID": "16行10段. 天鹽", "label": "16行10段. 天鹽", "call_short": "G7960 S200 .J3", "call_num": "G7960 S200 .J3 SHEET 16-10", "recid": "rd070rb4182", "websiteUrl": "https://purl.stanford.edu/rd070rb4182", "title": "二十万分一帝國圖", "ckey": 10425346, "available": true, "iiifUrl": "https://purl.stanford.edu/rd070rb4182/iiif/manifest" }, "geometry": { "type": "Polygon", "coordinates": [ [ [ 141.0, 44.6666666 ], [ 142.0, 44.6666666 ], [ 142.0, 45.3333334 ], [ 141.0, 45.3333334 ], [ 141.0, 44.6666666 ] ] ] } },
{ "type": "Feature", "properties": { "Id": 0, "Sheet_ID": "15行10段. 枝幸", "label": "15行10段. 枝幸", "call_short": "G7960 S200 .J3", "call_num": "G7960 S200 .J3 SHEET 15-10", "recid": "jv867fd5958", "websiteUrl": "https://purl.stanford.edu/jv867fd5958", "title": "二十万分一帝國圖", "ckey": 10425346, "available": true, "iiifUrl": "https://purl.stanford.edu/jv867fd5958/iiif/manifest" }, "geometry": { "type": "Polygon", "coordinates": [ [ [ 142.0, 44.6666666 ], [ 143.0, 44.6666666 ], [ 143.0, 45.3333334 ], [ 142.0, 45.3333334 ], [ 142.0, 44.6666666 ] ] ] } },
{ "type": "Feature", "properties": { "Id": 0, "Sheet_ID": "10行10段. 紗那", "label": "10行10段. 紗那", "call_short": "G7960 S200 .J3", "call_num": "G7960 S200 .J3 SHEET 10-10", "recid": "ms098ym1888", "websiteUrl": "https://purl.stanford.edu/ms098ym1888", "title": "二十万分一帝國圖", "ckey": 10425346, "available": true, "iiifUrl": "https://purl.stanford.edu/ms098ym1888/iiif/manifest" }, "geometry": { "type": "Polygon", "coordinates": [ [ [ 147.0, 44.6666666 ], [ 148.0, 44.6666666 ], [ 148.0, 45.3333334 ], [ 147.0, 45.3333334 ], [ 147.0, 44.6666666 ] ] ] } },
{ "type": "Feature", "properties": { "Id": 0, "Sheet_ID": "9行10段. 別飛", "label": "9行10段. 別飛", "call_short": "G7960 S200 .J3", "call_num": "G7960 S200 .J3 SHEET 9-10", "recid": "cb131kd8736", "websiteUrl": "https://purl.stanford.edu/cb131kd8736", "title": "二十万分一帝國圖", "ckey": 10425346, "available": true, "iiifUrl": "https://purl.stanford.edu/cb131kd8736/iiif/manifest" }, "geometry": { "type": "Polygon", "coordinates": [ [ [ 148.0, 44.6666666 ], [ 149.0, 44.6666666 ], [ 149.0, 45.3333334 ], [ 148.0, 45.3333334 ], [ 148.0, 44.6666666 ] ] ] } },
{ "type": "Feature", "properties": { "Id": 0, "Sheet_ID": "八カ217. 宗谷", "label": "八カ217. 宗谷", "call_short": "G7960 S200 .J3", "call_num": "G7960 S200 .J3 SHEET 16-9", "recid": "fr318cx6965", "websiteUrl": "https://purl.stanford.edu/fr318cx6965", "title": "二十万分一帝國圖", "ckey": 10425346, "available": true, "iiifUrl": "https://purl.stanford.edu/fr318cx6965/iiif/manifest" }, "geometry": { "type": "Polygon", "coordinates": [ [ [ 142.0, 45.75 ], [ 142.25, 45.75 ], [ 142.25, 46.0000001 ], [ 142.0, 46.0000001 ], [ 141.0, 46.0000001 ], [ 141.0, 45.52 ], [ 140.95, 45.52 ], [ 140.95, 45.3333334 ], [ 141.0, 45.3333334 ], [ 142.0, 45.3333334 ], [ 142.2, 45.3333334 ], [ 142.2, 45.5 ], [ 142.0, 45.5 ], [ 142.0, 45.75 ] ] ] } },
{ "type": "Feature", "properties": { "Id": 0, "Sheet_ID": "9行9段. 蘂取", "label": "9行9段. 蘂取", "call_short": "G7960 S200 .J3", "call_num": "G7960 S200 .J3 SHEET 9-9", "recid": "gs240kx8134", "websiteUrl": "https://purl.stanford.edu/gs240kx8134", "title": "二十万分一帝國圖", "ckey": 10425346, "available": true, "iiifUrl": "https://purl.stanford.edu/gs240kx8134/iiif/manifest" }, "geometry": { "type": "Polygon", "coordinates": [ [ [ 148.0, 45.3333334 ], [ 149.0, 45.3333334 ], [ 149.0, 46.0000001 ], [ 148.0, 46.0000001 ], [ 148.0, 45.5 ], [ 147.833333, 45.5 ], [ 147.833333, 45.3333334 ], [ 148.0, 45.3333334 ] ] ] } },
{ "type": "Feature", "properties": { "Id": 0, "Sheet_ID": "16行8段. 内幌", "label": "16行8段. 内幌", "call_short": null, "call_num": null, "recid": null, "websiteUrl": null, "title": null, "ckey": 0, "available": false, "iiifUrl": null }, "geometry": { "type": "Polygon", "coordinates": [ [ [ 141.0, 46.0000001 ], [ 142.0, 46.0000001 ], [ 142.0, 46.6666668 ], [ 141.0, 46.6666668 ], [ 141.0, 46.0000001 ] ] ] } },
{ "type": "Feature", "properties": { "Id": 0, "Sheet_ID": "15行8段. 大泊", "label": "15行8段. 大泊", "call_short": null, "call_num": null, "recid": null, "websiteUrl": null, "title": null, "ckey": 0, "available": false, "iiifUrl": null }, "geometry": { "type": "Polygon", "coordinates": [ [ [ 142.0, 46.0000001 ], [ 143.0, 46.0000001 ], [ 143.0, 46.6666668 ], [ 142.0, 46.6666668 ], [ 142.0, 46.0000001 ] ] ] } },
{ "type": "Feature", "properties": { "Id": 0, "Sheet_ID": "14行8段. 中知床岬", "label": "14行8段. 中知床岬", "call_short": null, "call_num": null, "recid": null, "websiteUrl": null, "title": null, "ckey": 0, "available": false, "iiifUrl": null }, "geometry": { "type": "Polygon", "coordinates": [ [ [ 143.0, 46.0000001 ], [ 144.0, 46.0000001 ], [ 144.0, 46.6666668 ], [ 143.0, 46.6666668 ], [ 143.0, 46.0000001 ] ] ] } },
{ "type": "Feature", "properties": { "Id": 0, "Sheet_ID": "15行7段. 豐原", "label": "15行7段. 豐原", "call_short": null, "call_num": null, "recid": null, "websiteUrl": null, "title": null, "ckey": 0, "available": false, "iiifUrl": null }, "geometry": { "type": "Polygon", "coordinates": [ [ [ 142.0, 46.6666668 ], [ 143.0, 46.6666668 ], [ 143.0, 47.3333335 ], [ 142.0, 47.3333335 ], [ 142.0, 46.6666668 ] ] ] } },
{ "type": "Feature", "properties": { "Id": 0, "Sheet_ID": "14行7段. 富内", "label": "14行7段. 富内", "call_short": null, "call_num": null, "recid": null, "websiteUrl": null, "title": null, "ckey": 0, "available": false, "iiifUrl": null }, "geometry": { "type": "Polygon", "coordinates": [ [ [ 143.0, 46.6666668 ], [ 144.0, 46.6666668 ], [ 144.0, 47.3333335 ], [ 143.0, 47.3333335 ], [ 143.0, 46.6666668 ] ] ] } },
{ "type": "Feature", "properties": { "Id": 0, "Sheet_ID": "15行6段. 泊居", "label": "15行6段. 泊居", "call_short": null, "call_num": null, "recid": null, "websiteUrl": null, "title": null, "ckey": 0, "available": false, "iiifUrl": null }, "geometry": { "type": "Polygon", "coordinates": [ [ [ 142.0, 47.3333335 ], [ 143.0, 47.3333335 ], [ 143.0, 48.0000003 ], [ 142.0, 48.0000003 ], [ 142.0, 47.3333335 ] ] ] } },
{ "type": "Feature", "properties": { "Id": 0, "Sheet_ID": "15行5段. 知取", "label": "15行5段. 知取", "call_short": null, "call_num": null, "recid": null, "websiteUrl": null, "title": null, "ckey": 0, "available": false, "iiifUrl": null }, "geometry": { "type": "Polygon", "coordinates": [ [ [ 142.0, 48.0000003 ], [ 143.0, 48.0000003 ], [ 143.0, 48.666667 ], [ 142.0, 48.666667 ], [ 142.0, 48.0000003 ] ] ] } },
{ "type": "Feature", "properties": { "Id": 0, "Sheet_ID": "15行9段. 西能登呂岬", "label": "15行9段. 西能登呂岬", "call_short": null, "call_num": null, "recid": null, "websiteUrl": null, "title": null, "ckey": 0, "available": false, "iiifUrl": null }, "geometry": { "type": "Polygon", "coordinates": [ [ [ 142.0, 46.0000001 ], [ 142.0, 45.3333334 ], [ 143.0, 45.3333334 ], [ 143.0, 46.0000001 ], [ 142.0, 46.0000001 ] ] ] } },
{ "type": "Feature", "properties": { "Id": 0, "Sheet_ID": "17行32段. 鳥島", "label": "17行32段. 鳥島", "call_short": null, "call_num": null, "recid": null, "websiteUrl": null, "title": null, "ckey": 0, "available": false, "iiifUrl": null }, "geometry": { "type": "Polygon", "coordinates": [ [ [ 140.0, 30.0 ], [ 141.0, 30.0 ], [ 141.0, 30.6666666 ], [ 140.0, 30.6666666 ], [ 140.0, 30.0 ] ] ] } },
{ "type": "Feature", "properties": { "Id": 0, "Sheet_ID": "18行30段. ベヨネイス列岩", "label": "18行30段. ベヨネイス列岩", "call_short": null, "call_num": null, "recid": null, "websiteUrl": null, "title": null, "ckey": 0, "available": false, "iiifUrl": null }, "geometry": { "type": "Polygon", "coordinates": [ [ [ 139.0, 31.3333333 ], [ 140.0, 31.3333333 ], [ 140.0, 31.9999999 ], [ 139.0, 31.9999999 ], [ 139.0, 31.3333333 ] ] ] } },
{ "type": "Feature", "properties": { "Id": 0, "Sheet_ID": "17行30段. 須美壽島", "label": "17行30段. 須美壽島", "call_short": null, "call_num": null, "recid": null, "websiteUrl": null, "title": null, "ckey": 0, "available": false, "iiifUrl": null }, "geometry": { "type": "Polygon", "coordinates": [ [ [ 140.0, 31.3333333 ], [ 141.0, 31.3333333 ], [ 141.0, 31.9999999 ], [ 140.0, 31.9999999 ], [ 140.0, 31.3333333 ] ] ] } },
{ "type": "Feature", "properties": { "Id": 0, "Sheet_ID": "18行29段. 靑ヶ島", "label": "18行29段. 靑ヶ島", "call_short": null, "call_num": null, "recid": null, "websiteUrl": null, "title": null, "ckey": 0, "available": false, "iiifUrl": null }, "geometry": { "type": "Polygon", "coordinates": [ [ [ 139.0, 31.9999999 ], [ 140.0, 31.9999999 ], [ 140.0, 32.6666666 ], [ 139.0, 32.6666666 ], [ 139.0, 31.9999999 ] ] ] } },
{ "type": "Feature", "properties": { "Id": 0, "Sheet_ID": "25行28段. 宇和嶋", "label": "25行28段. 宇和嶋", "call_short": null, "call_num": null, "recid": null, "websiteUrl": null, "title": null, "ckey": 0, "available": false, "iiifUrl": null }, "geometry": { "type": "Polygon", "coordinates": [ [ [ 132.0, 32.6666666 ], [ 133.0, 32.6666666 ], [ 133.0, 33.3333332 ], [ 132.0, 33.3333332 ], [ 132.0, 32.6666666 ] ] ] } },
{ "type": "Feature", "properties": { "Id": 0, "Sheet_ID": "24行28段. 與津岬", "label": "24行28段. 與津岬", "call_short": null, "call_num": null, "recid": null, "websiteUrl": null, "title": null, "ckey": 0, "available": false, "iiifUrl": null }, "geometry": { "type": "Polygon", "coordinates": [ [ [ 133.0, 32.6666666 ], [ 134.0, 32.6666666 ], [ 134.0, 33.3333332 ], [ 133.0, 33.3333332 ], [ 133.0, 32.6666666 ] ] ] } },
{ "type": "Feature", "properties": { "Id": 0, "Sheet_ID": "18行28段. 八丈島", "label": "18行28段. 八丈島", "call_short": null, "call_num": null, "recid": null, "websiteUrl": null, "title": null, "ckey": 0, "available": false, "iiifUrl": null }, "geometry": { "type": "Polygon", "coordinates": [ [ [ 139.0, 32.6666666 ], [ 140.0, 32.6666666 ], [ 140.0, 33.3333332 ], [ 139.0, 33.3333332 ], [ 139.0, 32.6666666 ] ] ] } },
{ "type": "Feature", "properties": { "Id": 0, "Sheet_ID": "25行27段. 松山", "label": "25行27段. 松山", "call_short": null, "call_num": null, "recid": null, "websiteUrl": null, "title": null, "ckey": 0, "available": false, "iiifUrl": null }, "geometry": { "type": "Polygon", "coordinates": [ [ [ 132.0, 33.3333332 ], [ 133.0, 33.3333332 ], [ 133.0, 33.9999999 ], [ 132.0, 33.9999999 ], [ 132.0, 33.3333332 ] ] ] } },
{ "type": "Feature", "properties": { "Id": 0, "Sheet_ID": "24行27段. 高知", "label": "24行27段. 高知", "call_short": "G7960 S200 .J3", "call_num": "G7960 S200 .J3 SHEET 24-27", "recid": "jf248sv7520", "websiteUrl": "https://purl.stanford.edu/jf248sv7520", "title": "二十万分一帝國圖", "ckey": 10425346, "available": true, "iiifUrl": "https://purl.stanford.edu/jf248sv7520/iiif/manifest" }, "geometry": { "type": "Polygon", "coordinates": [ [ [ 133.0, 33.3333332 ], [ 134.0, 33.3333332 ], [ 134.0, 33.9999999 ], [ 133.0, 33.9999999 ], [ 133.0, 33.3333332 ] ] ] } },
{ "type": "Feature", "properties": { "Id": 0, "Sheet_ID": "23行27段. 劍山", "label": "23行27段. 劍山", "call_short": null, "call_num": null, "recid": null, "websiteUrl": null, "title": null, "ckey": 0, "available": false, "iiifUrl": null }, "geometry": { "type": "Polygon", "coordinates": [ [ [ 134.0, 33.3333332 ], [ 135.0, 33.3333332 ], [ 135.0, 33.9999999 ], [ 134.0, 33.9999999 ], [ 134.0, 33.3333332 ] ] ] } },
{ "type": "Feature", "properties": { "Id": 0, "Sheet_ID": "22行27段. 田邊", "label": "22行27段. 田邊", "call_short": null, "call_num": null, "recid": null, "websiteUrl": null, "title": null, "ckey": 0, "available": false, "iiifUrl": null }, "geometry": { "type": "Polygon", "coordinates": [ [ [ 135.0, 33.3333332 ], [ 136.0, 33.3333332 ], [ 136.0, 33.9999999 ], [ 135.0, 33.9999999 ], [ 135.0, 33.3333332 ] ] ] } },
{ "type": "Feature", "properties": { "Id": 0, "Sheet_ID": "21行27段. 木本", "label": "21行27段. 木本", "call_short": null, "call_num": null, "recid": null, "websiteUrl": null, "title": null, "ckey": 0, "available": false, "iiifUrl": null }, "geometry": { "type": "Polygon", "coordinates": [ [ [ 136.0, 33.3333332 ], [ 137.0, 33.3333332 ], [ 137.0, 33.9999999 ], [ 136.0, 33.9999999 ], [ 136.0, 33.3333332 ] ] ] } },
{ "type": "Feature", "properties": { "Id": 0, "Sheet_ID": "19行27段. 銭洲", "label": "19行27段. 銭洲", "call_short": null, "call_num": null, "recid": null, "websiteUrl": null, "title": null, "ckey": 0, "available": false, "iiifUrl": null }, "geometry": { "type": "Polygon", "coordinates": [ [ [ 138.0, 33.3333332 ], [ 139.0, 33.3333332 ], [ 139.0, 33.9999999 ], [ 138.0, 33.9999999 ], [ 138.0, 33.3333332 ] ] ] } },
{ "type": "Feature", "properties": { "Id": 0, "Sheet_ID": "18行27段. 御蔵島", "label": "18行27段. 御蔵島", "call_short": null, "call_num": null, "recid": null, "websiteUrl": null, "title": null, "ckey": 0, "available": false, "iiifUrl": null }, "geometry": { "type": "Polygon", "coordinates": [ [ [ 139.0, 33.3333332 ], [ 140.0, 33.3333332 ], [ 140.0, 33.9999999 ], [ 139.0, 33.9999999 ], [ 139.0, 33.3333332 ] ] ] } },
{ "type": "Feature", "properties": { "Id": 0, "Sheet_ID": "25行26段. 廣嶋", "label": "25行26段. 廣嶋", "call_short": null, "call_num": null, "recid": null, "websiteUrl": null, "title": null, "ckey": 0, "available": false, "iiifUrl": null }, "geometry": { "type": "Polygon", "coordinates": [ [ [ 132.0, 33.9999999 ], [ 133.0, 33.9999999 ], [ 133.0, 34.6666665 ], [ 132.0, 34.6666665 ], [ 132.0, 33.9999999 ] ] ] } },
{ "type": "Feature", "properties": { "Id": 0, "Sheet_ID": "24行26段. 岡山及丸龜", "label": "24行26段. 岡山及丸龜", "call_short": "G7960 S200 .J3", "call_num": "G7960 S200 .J3 SHEET 24-26", "recid": "xw970gx5386", "websiteUrl": "https://purl.stanford.edu/xw970gx5386", "title": "二十万分一帝國圖", "ckey": 10425346, "available": true, "iiifUrl": "https://purl.stanford.edu/xw970gx5386/iiif/manifest" }, "geometry": { "type": "Polygon", "coordinates": [ [ [ 133.0, 33.9999999 ], [ 134.0, 33.9999999 ], [ 134.0, 34.6666665 ], [ 133.0, 34.6666665 ], [ 133.0, 33.9999999 ] ] ] } },
{ "type": "Feature", "properties": { "Id": 0, "Sheet_ID": "23行26段. 徳嶋", "label": "23行26段. 徳嶋", "call_short": null, "call_num": null, "recid": null, "websiteUrl": null, "title": null, "ckey": 0, "available": false, "iiifUrl": null }, "geometry": { "type": "Polygon", "coordinates": [ [ [ 134.0, 33.9999999 ], [ 135.0, 33.9999999 ], [ 135.0, 34.6666665 ], [ 134.0, 34.6666665 ], [ 134.0, 33.9999999 ] ] ] } },
{ "type": "Feature", "properties": { "Id": 0, "Sheet_ID": "22行26段. 和歌山", "label": "22行26段. 和歌山", "call_short": null, "call_num": null, "recid": null, "websiteUrl": null, "title": null, "ckey": 0, "available": false, "iiifUrl": null }, "geometry": { "type": "Polygon", "coordinates": [ [ [ 135.0, 33.9999999 ], [ 136.0, 33.9999999 ], [ 136.0, 34.6666665 ], [ 135.0, 34.6666665 ], [ 135.0, 33.9999999 ] ] ] } },
{ "type": "Feature", "properties": { "Id": 0, "Sheet_ID": "21行26段. 宇治山田", "label": "21行26段. 宇治山田", "call_short": "G7960 S200 .J3", "call_num": "G7960 S200 .J3 SHEET 21-26", "recid": "bx593qz0050", "websiteUrl": "https://purl.stanford.edu/bx593qz0050", "title": "二十万分一帝國圖", "ckey": 10425346, "available": true, "iiifUrl": "https://purl.stanford.edu/bx593qz0050/iiif/manifest" }, "geometry": { "type": "Polygon", "coordinates": [ [ [ 136.0, 33.9999999 ], [ 137.0, 33.9999999 ], [ 137.0, 34.6666665 ], [ 136.0, 34.6666665 ], [ 136.0, 33.9999999 ] ] ] } },
{ "type": "Feature", "properties": { "Id": 0, "Sheet_ID": "20行26段. 伊良湖岬", "label": "20行26段. 伊良湖岬", "call_short": null, "call_num": null, "recid": null, "websiteUrl": null, "title": null, "ckey": 0, "available": false, "iiifUrl": null }, "geometry": { "type": "Polygon", "coordinates": [ [ [ 137.0, 33.9999999 ], [ 138.0, 33.9999999 ], [ 138.0, 34.6666665 ], [ 137.0, 34.6666665 ], [ 137.0, 33.9999999 ] ] ] } },
{ "type": "Feature", "properties": { "Id": 0, "Sheet_ID": "19行26段. 神子元島", "label": "19行26段. 神子元島", "call_short": "G7960 S200 .J3", "call_num": "G7960 S200 .J3 SHEET 19-26", "recid": "ft317wy8907", "websiteUrl": "https://purl.stanford.edu/ft317wy8907", "title": "二十万分一帝國圖", "ckey": 10425346, "available": true, "iiifUrl": "https://purl.stanford.edu/ft317wy8907/iiif/manifest" }, "geometry": { "type": "Polygon", "coordinates": [ [ [ 138.0, 33.9999999 ], [ 139.0, 33.9999999 ], [ 139.0, 34.6666665 ], [ 138.0, 34.6666665 ], [ 138.0, 33.9999999 ] ] ] } },
{ "type": "Feature", "properties": { "Id": 0, "Sheet_ID": "18行26段. 三宅島", "label": "18行26段. 三宅島", "call_short": null, "call_num": null, "recid": null, "websiteUrl": null, "title": null, "ckey": 0, "available": false, "iiifUrl": null }, "geometry": { "type": "Polygon", "coordinates": [ [ [ 139.0, 33.9999999 ], [ 140.0, 33.9999999 ], [ 140.0, 34.6666665 ], [ 139.0, 34.6666665 ], [ 139.0, 33.9999999 ] ] ] } },
{ "type": "Feature", "properties": { "Id": 0, "Sheet_ID": "25行25段. 濱田", "label": "25行25段. 濱田", "call_short": null, "call_num": null, "recid": null, "websiteUrl": null, "title": null, "ckey": 0, "available": false, "iiifUrl": null }, "geometry": { "type": "Polygon", "coordinates": [ [ [ 132.0, 34.6666665 ], [ 133.0, 34.6666665 ], [ 133.0, 35.3333332 ], [ 132.0, 35.3333332 ], [ 132.0, 34.6666665 ] ] ] } },
{ "type": "Feature", "properties": { "Id": 0, "Sheet_ID": "24行25段. 髙梁", "label": "24行25段. 髙梁", "call_short": "G7960 S200 .J3", "call_num": "G7960 S200 .J3 SHEET 24-25", "recid": "kd024kg6076", "websiteUrl": "https://purl.stanford.edu/kd024kg6076", "title": "二十万分一帝國圖", "ckey": 10425346, "available": true, "iiifUrl": "https://purl.stanford.edu/kd024kg6076/iiif/manifest" }, "geometry": { "type": "Polygon", "coordinates": [ [ [ 133.0, 34.6666665 ], [ 134.0, 34.6666665 ], [ 134.0, 35.3333332 ], [ 133.0, 35.3333332 ], [ 133.0, 34.6666665 ] ] ] } },
{ "type": "Feature", "properties": { "Id": 0, "Sheet_ID": "23行25段. 姫路", "label": "23行25段. 姫路", "call_short": "G7960 S200 .J3", "call_num": "G7960 S200 .J3 SHEET 23-25", "recid": "ht911zs0156", "websiteUrl": "https://purl.stanford.edu/ht911zs0156", "title": "二十万分一帝國圖", "ckey": 10425346, "available": true, "iiifUrl": "https://purl.stanford.edu/ht911zs0156/iiif/manifest" }, "geometry": { "type": "Polygon", "coordinates": [ [ [ 134.0, 34.6666665 ], [ 135.0, 34.6666665 ], [ 135.0, 35.3333332 ], [ 134.0, 35.3333332 ], [ 134.0, 34.6666665 ] ] ] } },
{ "type": "Feature", "properties": { "Id": 0, "Sheet_ID": "22行25段. 京都及大阪", "label": "22行25段. 京都及大阪", "call_short": null, "call_num": null, "recid": null, "websiteUrl": null, "title": null, "ckey": 0, "available": false, "iiifUrl": null }, "geometry": { "type": "Polygon", "coordinates": [ [ [ 135.0, 34.6666665 ], [ 136.0, 34.6666665 ], [ 136.0, 35.3333332 ], [ 135.0, 35.3333332 ], [ 135.0, 34.6666665 ] ] ] } },
{ "type": "Feature", "properties": { "Id": 0, "Sheet_ID": "21行25段. 名古屋", "label": "21行25段. 名古屋", "call_short": null, "call_num": null, "recid": null, "websiteUrl": null, "title": null, "ckey": 0, "available": false, "iiifUrl": null }, "geometry": { "type": "Polygon", "coordinates": [ [ [ 136.0, 34.6666665 ], [ 137.0, 34.6666665 ], [ 137.0, 35.3333332 ], [ 136.0, 35.3333332 ], [ 136.0, 34.6666665 ] ] ] } },
{ "type": "Feature", "properties": { "Id": 0, "Sheet_ID": "20行25段. 豐橋", "label": "20行25段. 豐橋", "call_short": null, "call_num": null, "recid": null, "websiteUrl": null, "title": null, "ckey": 0, "available": false, "iiifUrl": null }, "geometry": { "type": "Polygon", "coordinates": [ [ [ 137.0, 34.6666665 ], [ 138.0, 34.6666665 ], [ 138.0, 35.3333332 ], [ 137.0, 35.3333332 ], [ 137.0, 34.6666665 ] ] ] } },
{ "type": "Feature", "properties": { "Id": 0, "Sheet_ID": "19行25段. 靜岡", "label": "19行25段. 靜岡", "call_short": "G7960 S200 .J3", "call_num": "G7960 S200 .J3 SHEET 19-25", "recid": "gm661mx9464", "websiteUrl": "https://purl.stanford.edu/gm661mx9464", "title": "二十万分一帝國圖", "ckey": 10425346, "available": true, "iiifUrl": "https://purl.stanford.edu/gm661mx9464/iiif/manifest" }, "geometry": { "type": "Polygon", "coordinates": [ [ [ 138.0, 34.6666665 ], [ 139.0, 34.6666665 ], [ 139.0, 35.3333332 ], [ 138.0, 35.3333332 ], [ 138.0, 34.6666665 ] ] ] } },
{ "type": "Feature", "properties": { "Id": 0, "Sheet_ID": "18行25段. 横須賀", "label": "18行25段. 横須賀", "call_short": "G7960 S200 .J3", "call_num": "G7960 S200 .J3 SHEET 18-25", "recid": "fn857jh6248", "websiteUrl": "https://purl.stanford.edu/fn857jh6248", "title": "二十万分一帝國圖", "ckey": 10425346, "available": true, "iiifUrl": "https://purl.stanford.edu/fn857jh6248/iiif/manifest" }, "geometry": { "type": "Polygon", "coordinates": [ [ [ 139.0, 34.6666665 ], [ 140.0, 34.6666665 ], [ 140.0, 35.3333332 ], [ 139.0, 35.3333332 ], [ 139.0, 34.6666665 ] ] ] } },
{ "type": "Feature", "properties": { "Id": 0, "Sheet_ID": "17行25段. 大多喜", "label": "17行25段. 大多喜", "call_short": "G7960 S200 .J3", "call_num": "G7960 S200 .J3 SHEET 17-25", "recid": "kh741cv1672", "websiteUrl": "https://purl.stanford.edu/kh741cv1672", "title": "二十万分一帝國圖", "ckey": 10425346, "available": true, "iiifUrl": "https://purl.stanford.edu/kh741cv1672/iiif/manifest" }, "geometry": { "type": "Polygon", "coordinates": [ [ [ 140.0, 34.6666665 ], [ 141.0, 34.6666665 ], [ 141.0, 35.3333332 ], [ 140.0, 35.3333332 ], [ 140.0, 34.6666665 ] ] ] } },
{ "type": "Feature", "properties": { "Id": 0, "Sheet_ID": "25行24段. 杵築/大社", "label": "25行24段. 杵築/大社", "call_short": null, "call_num": null, "recid": null, "websiteUrl": null, "title": null, "ckey": 0, "available": false, "iiifUrl": null }, "geometry": { "type": "Polygon", "coordinates": [ [ [ 132.0, 35.3333332 ], [ 133.0, 35.3333332 ], [ 133.0, 35.9999998 ], [ 132.0, 35.9999998 ], [ 132.0, 35.3333332 ] ] ] } },
{ "type": "Feature", "properties": { "Id": 0, "Sheet_ID": "24行24段. 松江", "label": "24行24段. 松江", "call_short": null, "call_num": null, "recid": null, "websiteUrl": null, "title": null, "ckey": 0, "available": false, "iiifUrl": null }, "geometry": { "type": "Polygon", "coordinates": [ [ [ 133.0, 35.3333332 ], [ 134.0, 35.3333332 ], [ 134.0, 35.9999998 ], [ 133.0, 35.9999998 ], [ 133.0, 35.3333332 ] ] ] } },
{ "type": "Feature", "properties": { "Id": 0, "Sheet_ID": "23行24段. 鳥取", "label": "23行24段. 鳥取", "call_short": null, "call_num": null, "recid": null, "websiteUrl": null, "title": null, "ckey": 0, "available": false, "iiifUrl": null }, "geometry": { "type": "Polygon", "coordinates": [ [ [ 134.0, 35.3333332 ], [ 135.0, 35.3333332 ], [ 135.0, 35.9999998 ], [ 134.0, 35.9999998 ], [ 134.0, 35.3333332 ] ] ] } },
{ "type": "Feature", "properties": { "Id": 0, "Sheet_ID": "22行24段. 宮津", "label": "22行24段. 宮津", "call_short": null, "call_num": null, "recid": null, "websiteUrl": null, "title": null, "ckey": 0, "available": false, "iiifUrl": null }, "geometry": { "type": "Polygon", "coordinates": [ [ [ 135.0, 35.3333332 ], [ 136.0, 35.3333332 ], [ 136.0, 35.9999998 ], [ 135.0, 35.9999998 ], [ 135.0, 35.3333332 ] ] ] } },
{ "type": "Feature", "properties": { "Id": 0, "Sheet_ID": "21行24段. 岐阜", "label": "21行24段. 岐阜", "call_short": "G7960 S200 .J3", "call_num": "G7960 S200 .J3 SHEET 21-24", "recid": "qw512kk2500", "websiteUrl": "https://purl.stanford.edu/qw512kk2500", "title": "二十万分一帝國圖", "ckey": 10425346, "available": true, "iiifUrl": "https://purl.stanford.edu/qw512kk2500/iiif/manifest" }, "geometry": { "type": "Polygon", "coordinates": [ [ [ 136.0, 35.3333332 ], [ 137.0, 35.3333332 ], [ 137.0, 35.9999998 ], [ 136.0, 35.9999998 ], [ 136.0, 35.3333332 ] ] ] } },
{ "type": "Feature", "properties": { "Id": 0, "Sheet_ID": "20行24段. 飯田", "label": "20行24段. 飯田", "call_short": "G7960 S200 .J3", "call_num": "G7960 S200 .J3 SHEET 20-24", "recid": "cj670fp8342", "websiteUrl": "https://purl.stanford.edu/cj670fp8342", "title": "二十万分一帝國圖", "ckey": 10425346, "available": true, "iiifUrl": "https://purl.stanford.edu/cj670fp8342/iiif/manifest" }, "geometry": { "type": "Polygon", "coordinates": [ [ [ 137.0, 35.3333332 ], [ 138.0, 35.3333332 ], [ 138.0, 35.9999998 ], [ 137.0, 35.9999998 ], [ 137.0, 35.3333332 ] ] ] } },
{ "type": "Feature", "properties": { "Id": 0, "Sheet_ID": "19行24段. 甲府", "label": "19行24段. 甲府", "call_short": null, "call_num": null, "recid": null, "websiteUrl": null, "title": null, "ckey": 0, "available": false, "iiifUrl": null }, "geometry": { "type": "Polygon", "coordinates": [ [ [ 138.0, 35.3333332 ], [ 139.0, 35.3333332 ], [ 139.0, 35.9999998 ], [ 138.0, 35.9999998 ], [ 138.0, 35.3333332 ] ] ] } },
{ "type": "Feature", "properties": { "Id": 0, "Sheet_ID": "18行24段. 東京", "label": "18行24段. 東京", "call_short": "G7960 S200 .J3", "call_num": "G7960 S200 .J3 SHEET 18-24", "recid": "ns575pd9723", "websiteUrl": "https://purl.stanford.edu/ns575pd9723", "title": "二十万分一帝國圖", "ckey": 10425346, "available": true, "iiifUrl": "https://purl.stanford.edu/ns575pd9723/iiif/manifest" }, "geometry": { "type": "Polygon", "coordinates": [ [ [ 139.0, 35.3333332 ], [ 140.0, 35.3333332 ], [ 140.0, 35.9999998 ], [ 139.0, 35.9999998 ], [ 139.0, 35.3333332 ] ] ] } },
{ "type": "Feature", "properties": { "Id": 0, "Sheet_ID": "17行24段. 佐倉", "label": "17行24段. 佐倉", "call_short": "G7960 S200 .J3", "call_num": "G7960 S200 .J3 SHEET 17-24", "recid": "wk741xy6669", "websiteUrl": "https://purl.stanford.edu/wk741xy6669", "title": "二十万分一帝國圖", "ckey": 10425346, "available": true, "iiifUrl": "https://purl.stanford.edu/wk741xy6669/iiif/manifest" }, "geometry": { "type": "Polygon", "coordinates": [ [ [ 140.0, 35.3333332 ], [ 141.0, 35.3333332 ], [ 141.0, 35.9999998 ], [ 140.0, 35.9999998 ], [ 140.0, 35.3333332 ] ] ] } },
{ "type": "Feature", "properties": { "Id": 0, "Sheet_ID": "24行23段. 西郷", "label": "24行23段. 西郷", "call_short": "G7960 S200 .J3", "call_num": "G7960 S200 .J3 SHEET 24-23", "recid": "zs513py5853", "websiteUrl": "https://purl.stanford.edu/zs513py5853", "title": "二十万分一帝國圖", "ckey": 10425346, "available": true, "iiifUrl": "https://purl.stanford.edu/zs513py5853/iiif/manifest" }, "geometry": { "type": "Polygon", "coordinates": [ [ [ 133.0, 35.9999998 ], [ 134.0, 35.9999998 ], [ 134.0, 36.6666665 ], [ 133.0, 36.6666665 ], [ 133.0, 36.166667 ], [ 132.92, 36.166667 ], [ 132.92, 35.9999998 ], [ 133.0, 35.9999998 ] ] ] } },
{ "type": "Feature", "properties": { "Id": 0, "Sheet_ID": "21行23段. 金沢", "label": "21行23段. 金沢", "call_short": "G7960 S200 .J3", "call_num": "G7960 S200 .J3 SHEET 21-23", "recid": "dq963hm5954", "websiteUrl": "https://purl.stanford.edu/dq963hm5954", "title": "二十万分一帝國圖", "ckey": 10425346, "available": true, "iiifUrl": "https://purl.stanford.edu/dq963hm5954/iiif/manifest" }, "geometry": { "type": "Polygon", "coordinates": [ [ [ 136.0, 35.9999998 ], [ 137.0, 35.9999998 ], [ 137.0, 36.6666665 ], [ 136.0, 36.6666665 ], [ 136.0, 35.9999998 ] ] ] } },
{ "type": "Feature", "properties": { "Id": 0, "Sheet_ID": "20行23段. 髙山", "label": "20行23段. 髙山", "call_short": "G7960 S200 .J3", "call_num": "G7960 S200 .J3 SHEET 20-23", "recid": "hn124hj6494", "websiteUrl": "https://purl.stanford.edu/hn124hj6494", "title": "二十万分一帝國圖", "ckey": 10425346, "available": true, "iiifUrl": "https://purl.stanford.edu/hn124hj6494/iiif/manifest" }, "geometry": { "type": "Polygon", "coordinates": [ [ [ 137.0, 35.9999998 ], [ 138.0, 35.9999998 ], [ 138.0, 36.6666665 ], [ 137.0, 36.6666665 ], [ 137.0, 35.9999998 ] ] ] } },
{ "type": "Feature", "properties": { "Id": 0, "Sheet_ID": "19行23段. 長野", "label": "19行23段. 長野", "call_short": null, "call_num": null, "recid": null, "websiteUrl": null, "title": null, "ckey": 0, "available": false, "iiifUrl": null }, "geometry": { "type": "Polygon", "coordinates": [ [ [ 138.0, 35.9999998 ], [ 139.0, 35.9999998 ], [ 139.0, 36.6666665 ], [ 138.0, 36.6666665 ], [ 138.0, 35.9999998 ] ] ] } },
{ "type": "Feature", "properties": { "Id": 0, "Sheet_ID": "18行23段. 宇都宮", "label": "18行23段. 宇都宮", "call_short": null, "call_num": null, "recid": null, "websiteUrl": null, "title": null, "ckey": 0, "available": false, "iiifUrl": null }, "geometry": { "type": "Polygon", "coordinates": [ [ [ 139.0, 35.9999998 ], [ 140.0, 35.9999998 ], [ 140.0, 36.6666665 ], [ 139.0, 36.6666665 ], [ 139.0, 35.9999998 ] ] ] } },
{ "type": "Feature", "properties": { "Id": 0, "Sheet_ID": "17行23段. 水戸", "label": "17行23段. 水戸", "call_short": null, "call_num": null, "recid": null, "websiteUrl": null, "title": null, "ckey": 0, "available": false, "iiifUrl": null }, "geometry": { "type": "Polygon", "coordinates": [ [ [ 140.0, 35.9999998 ], [ 141.0, 35.9999998 ], [ 141.0, 36.6666665 ], [ 140.0, 36.6666665 ], [ 140.0, 35.9999998 ] ] ] } },
{ "type": "Feature", "properties": { "Id": 0, "Sheet_ID": "21行22段. 七尾", "label": "21行22段. 七尾", "call_short": "G7960 S200 .J3", "call_num": "G7960 S200 .J3 SHEET 21-22", "recid": "hr363mp7994", "websiteUrl": "https://purl.stanford.edu/hr363mp7994", "title": "二十万分一帝國圖", "ckey": 10425346, "available": true, "iiifUrl": "https://purl.stanford.edu/hr363mp7994/iiif/manifest" }, "geometry": { "type": "Polygon", "coordinates": [ [ [ 136.0, 36.6666665 ], [ 137.0, 36.6666665 ], [ 137.0, 37.3333331 ], [ 136.0, 37.3333331 ], [ 136.0, 36.6666665 ] ] ] } },
{ "type": "Feature", "properties": { "Id": 0, "Sheet_ID": "20行22段. 富山", "label": "20行22段. 富山", "call_short": "G7960 S200 .J3", "call_num": "G7960 S200 .J3 SHEET 20-22", "recid": "fd865cz8267", "websiteUrl": "https://purl.stanford.edu/fd865cz8267", "title": "二十万分一帝國圖", "ckey": 10425346, "available": true, "iiifUrl": "https://purl.stanford.edu/fd865cz8267/iiif/manifest" }, "geometry": { "type": "Polygon", "coordinates": [ [ [ 137.0, 36.6666665 ], [ 138.0, 36.6666665 ], [ 138.0, 37.3333331 ], [ 137.0, 37.3333331 ], [ 137.0, 36.6666665 ] ] ] } },
{ "type": "Feature", "properties": { "Id": 0, "Sheet_ID": "19行22段. 髙田", "label": "19行22段. 髙田", "call_short": "G7960 S200 .J3", "call_num": "G7960 S200 .J3 SHEET 19-22", "recid": "sk522mb8903", "websiteUrl": "https://purl.stanford.edu/sk522mb8903", "title": "二十万分一帝國圖", "ckey": 10425346, "available": true, "iiifUrl": "https://purl.stanford.edu/sk522mb8903/iiif/manifest" }, "geometry": { "type": "Polygon", "coordinates": [ [ [ 138.0, 36.6666665 ], [ 139.0, 36.6666665 ], [ 139.0, 37.3333331 ], [ 138.0, 37.3333331 ], [ 138.0, 36.6666665 ] ] ] } },
{ "type": "Feature", "properties": { "Id": 0, "Sheet_ID": "18行22段. 日光", "label": "18行22段. 日光", "call_short": "G7960 S200 .J3", "call_num": "G7960 S200 .J3 SHEET 18-22", "recid": "ft035bd9636", "websiteUrl": "https://purl.stanford.edu/ft035bd9636", "title": "二十万分一帝國圖", "ckey": 10425346, "available": true, "iiifUrl": "https://purl.stanford.edu/ft035bd9636/iiif/manifest" }, "geometry": { "type": "Polygon", "coordinates": [ [ [ 139.0, 36.6666665 ], [ 140.0, 36.6666665 ], [ 140.0, 37.3333331 ], [ 139.0, 37.3333331 ], [ 139.0, 36.6666665 ] ] ] } },
{ "type": "Feature", "properties": { "Id": 0, "Sheet_ID": "17行22段. 白河", "label": "17行22段. 白河", "call_short": null, "call_num": null, "recid": null, "websiteUrl": null, "title": null, "ckey": 0, "available": false, "iiifUrl": null }, "geometry": { "type": "Polygon", "coordinates": [ [ [ 141.0, 36.6666665 ], [ 141.0, 37.1 ], [ 141.05, 37.1 ], [ 141.05, 37.3333331 ], [ 141.0, 37.3333331 ], [ 140.0, 37.3333331 ], [ 140.0, 36.6666665 ], [ 141.0, 36.6666665 ] ] ] } },
{ "type": "Feature", "properties": { "Id": 0, "Sheet_ID": "21行21段. 輪島", "label": "21行21段. 輪島", "call_short": "G7960 S200 .J3", "call_num": "G7960 S200 .J3 SHEET 21-21", "recid": "gk229mk2406", "websiteUrl": "https://purl.stanford.edu/gk229mk2406", "title": "二十万分一帝國圖", "ckey": 10425346, "available": true, "iiifUrl": "https://purl.stanford.edu/gk229mk2406/iiif/manifest" }, "geometry": { "type": "Polygon", "coordinates": [ [ [ 136.0, 37.3333331 ], [ 137.0, 37.3333331 ], [ 137.0, 37.9999998 ], [ 136.0, 37.9999998 ], [ 136.0, 37.3333331 ] ] ] } },
{ "type": "Feature", "properties": { "Id": 0, "Sheet_ID": "20行21段. 珠洲岬", "label": "20行21段. 珠洲岬", "call_short": "G7960 S200 .J3", "call_num": "G7960 S200 .J3 SHEET 20-21", "recid": "cx337bp9469", "websiteUrl": "https://purl.stanford.edu/cx337bp9469", "title": "二十万分一帝國圖", "ckey": 10425346, "available": true, "iiifUrl": "https://purl.stanford.edu/cx337bp9469/iiif/manifest" }, "geometry": { "type": "Polygon", "coordinates": [ [ [ 137.0, 37.3333331 ], [ 138.0, 37.3333331 ], [ 138.0, 37.9999998 ], [ 137.0, 37.9999998 ], [ 137.0, 37.3333331 ] ] ] } },
{ "type": "Feature", "properties": { "Id": 0, "Sheet_ID": "19行21段. 長岡", "label": "19行21段. 長岡", "call_short": "G7960 S200 .J3", "call_num": "G7960 S200 .J3 SHEET 19-21", "recid": "dr820jg9592", "websiteUrl": "https://purl.stanford.edu/dr820jg9592", "title": "二十万分一帝國圖", "ckey": 10425346, "available": true, "iiifUrl": "https://purl.stanford.edu/dr820jg9592/iiif/manifest" }, "geometry": { "type": "Polygon", "coordinates": [ [ [ 138.0, 37.3333331 ], [ 139.0, 37.3333331 ], [ 139.0, 37.9999998 ], [ 138.0, 37.9999998 ], [ 138.0, 37.3333331 ] ] ] } },
{ "type": "Feature", "properties": { "Id": 0, "Sheet_ID": "18行21段. 新潟", "label": "18行21段. 新潟", "call_short": "G7960 S200 .J3", "call_num": "G7960 S200 .J3 SHEET 18-21", "recid": "cy707jt7720", "websiteUrl": "https://purl.stanford.edu/cy707jt7720", "title": "二十万分一帝國圖", "ckey": 10425346, "available": true, "iiifUrl": "https://purl.stanford.edu/cy707jt7720/iiif/manifest" }, "geometry": { "type": "Polygon", "coordinates": [ [ [ 139.0, 37.3333331 ], [ 140.0, 37.3333331 ], [ 140.0, 37.9999998 ], [ 139.0, 37.9999998 ], [ 139.0, 37.3333331 ] ] ] } },
{ "type": "Feature", "properties": { "Id": 0, "Sheet_ID": "17行21段. 福島", "label": "17行21段. 福島", "call_short": "G7960 S200 .J3", "call_num": "G7960 S200 .J3 SHEET 17-21", "recid": "jr856xv8877", "websiteUrl": "https://purl.stanford.edu/jr856xv8877", "title": "二十万分一帝國圖", "ckey": 10425346, "available": true, "iiifUrl": "https://purl.stanford.edu/jr856xv8877/iiif/manifest" }, "geometry": { "type": "Polygon", "coordinates": [ [ [ 141.0, 37.9999998 ], [ 140.0, 37.9999998 ], [ 140.0, 37.3333331 ], [ 141.0, 37.3333331 ], [ 141.05, 37.3333331 ], [ 141.05, 37.8 ], [ 141.0, 37.8 ], [ 141.0, 37.9999998 ] ] ] } },
{ "type": "Feature", "properties": { "Id": 0, "Sheet_ID": "19行20段. 相川", "label": "19行20段. 相川", "call_short": "G7960 S200 .J3", "call_num": "G7960 S200 .J3 SHEET 19-20", "recid": "dh219gm8124", "websiteUrl": "https://purl.stanford.edu/dh219gm8124", "title": "二十万分一帝國圖", "ckey": 10425346, "available": true, "iiifUrl": "https://purl.stanford.edu/dh219gm8124/iiif/manifest" }, "geometry": { "type": "Polygon", "coordinates": [ [ [ 138.0, 37.9999998 ], [ 139.0, 37.9999998 ], [ 139.0, 38.6666664 ], [ 138.0, 38.6666664 ], [ 138.0, 37.9999998 ] ] ] } },
{ "type": "Feature", "properties": { "Id": 0, "Sheet_ID": "18行20段. 村上", "label": "18行20段. 村上", "call_short": "G7960 S200 .J3", "call_num": "G7960 S200 .J3 SHEET 18-20", "recid": "rr133zr3240", "websiteUrl": "https://purl.stanford.edu/rr133zr3240", "title": "二十万分一帝國圖", "ckey": 10425346, "available": true, "iiifUrl": "https://purl.stanford.edu/rr133zr3240/iiif/manifest" }, "geometry": { "type": "Polygon", "coordinates": [ [ [ 139.0, 37.9999998 ], [ 140.0, 37.9999998 ], [ 140.0, 38.6666664 ], [ 139.0, 38.6666664 ], [ 139.0, 37.9999998 ] ] ] } },
{ "type": "Feature", "properties": { "Id": 0, "Sheet_ID": "17行20段. 仙臺", "label": "17行20段. 仙臺", "call_short": "G7960 S200 .J3", "call_num": "G7960 S200 .J3 SHEET 17-20", "recid": "hq257xm4314", "websiteUrl": "https://purl.stanford.edu/hq257xm4314", "title": "二十万分一帝國圖", "ckey": 10425346, "available": true, "iiifUrl": "https://purl.stanford.edu/hq257xm4314/iiif/manifest" }, "geometry": { "type": "Polygon", "coordinates": [ [ [ 140.0, 37.9999998 ], [ 141.0, 37.9999998 ], [ 141.0, 38.6666664 ], [ 140.0, 38.6666664 ], [ 140.0, 37.9999998 ] ] ] } },
{ "type": "Feature", "properties": { "Id": 0, "Sheet_ID": "16行20段. 石巻", "label": "16行20段. 石巻", "call_short": "G7960 S200 .J3", "call_num": "G7960 S200 .J3 SHEET 16-20", "recid": "nr631gm5633", "websiteUrl": "https://purl.stanford.edu/nr631gm5633", "title": "二十万分一帝國圖", "ckey": 10425346, "available": true, "iiifUrl": "https://purl.stanford.edu/nr631gm5633/iiif/manifest" }, "geometry": { "type": "Polygon", "coordinates": [ [ [ 141.0, 37.9999998 ], [ 142.0, 37.9999998 ], [ 142.0, 38.6666664 ], [ 141.0, 38.6666664 ], [ 141.0, 37.9999998 ] ] ] } },
{ "type": "Feature", "properties": { "Id": 0, "Sheet_ID": "18行19段. 酒田", "label": "18行19段. 酒田", "call_short": "G7960 S200 .J3", "call_num": "G7960 S200 .J3 SHEET 18-19", "recid": "kg951kg5979", "websiteUrl": "https://purl.stanford.edu/kg951kg5979", "title": "二十万分一帝國圖", "ckey": 10425346, "available": true, "iiifUrl": "https://purl.stanford.edu/kg951kg5979/iiif/manifest" }, "geometry": { "type": "Polygon", "coordinates": [ [ [ 139.0, 38.6666664 ], [ 140.0, 38.6666664 ], [ 140.0, 39.3333331 ], [ 139.0, 39.3333331 ], [ 139.0, 38.6666664 ] ] ] } },
{ "type": "Feature", "properties": { "Id": 0, "Sheet_ID": "17行19段. 新庄", "label": "17行19段. 新庄", "call_short": "G7960 S200 .J3", "call_num": "G7960 S200 .J3 SHEET 17-19", "recid": "tp273wb6431", "websiteUrl": "https://purl.stanford.edu/tp273wb6431", "title": "二十万分一帝國圖", "ckey": 10425346, "available": true, "iiifUrl": "https://purl.stanford.edu/tp273wb6431/iiif/manifest" }, "geometry": { "type": "Polygon", "coordinates": [ [ [ 140.0, 38.6666664 ], [ 141.0, 38.6666664 ], [ 141.0, 39.3333331 ], [ 140.0, 39.3333331 ], [ 140.0, 38.6666664 ] ] ] } },
{ "type": "Feature", "properties": { "Id": 0, "Sheet_ID": "16行19段. 一關", "label": "16行19段. 一關", "call_short": "G7960 S200 .J3", "call_num": "G7960 S200 .J3 SHEET 16-19", "recid": "dv170bh2421", "websiteUrl": "https://purl.stanford.edu/dv170bh2421", "title": "二十万分一帝國圖", "ckey": 10425346, "available": true, "iiifUrl": "https://purl.stanford.edu/dv170bh2421/iiif/manifest" }, "geometry": { "type": "Polygon", "coordinates": [ [ [ 141.0, 38.6666664 ], [ 142.0, 38.6666664 ], [ 142.0, 39.3333331 ], [ 141.0, 39.3333331 ], [ 141.0, 38.6666664 ] ] ] } },
{ "type": "Feature", "properties": { "Id": 0, "Sheet_ID": "18行18段. 男鹿島", "label": "18行18段. 男鹿島", "call_short": null, "call_num": null, "recid": null, "websiteUrl": null, "title": null, "ckey": 0, "available": false, "iiifUrl": null }, "geometry": { "type": "Polygon", "coordinates": [ [ [ 139.0, 39.3333331 ], [ 140.0, 39.3333331 ], [ 140.0, 39.9999997 ], [ 139.0, 39.9999997 ], [ 139.0, 39.3333331 ] ] ] } },
{ "type": "Feature", "properties": { "Id": 0, "Sheet_ID": "17行18段. 秋田", "label": "17行18段. 秋田", "call_short": "G7960 S200 .J3", "call_num": "G7960 S200 .J3 SHEET 17-18", "recid": "nk736vc8658", "websiteUrl": "https://purl.stanford.edu/nk736vc8658", "title": "二十万分一帝國圖", "ckey": 10425346, "available": true, "iiifUrl": "https://purl.stanford.edu/nk736vc8658/iiif/manifest" }, "geometry": { "type": "Polygon", "coordinates": [ [ [ 140.0, 39.3333331 ], [ 141.0, 39.3333331 ], [ 141.0, 39.9999997 ], [ 140.0, 39.9999997 ], [ 140.0, 39.3333331 ] ] ] } },
{ "type": "Feature", "properties": { "Id": 0, "Sheet_ID": "16行18段. 盛岡", "label": "16行18段. 盛岡", "call_short": null, "call_num": null, "recid": null, "websiteUrl": null, "title": null, "ckey": 0, "available": false, "iiifUrl": null }, "geometry": { "type": "Polygon", "coordinates": [ [ [ 142.0, 39.9999997 ], [ 141.0, 39.9999997 ], [ 141.0, 39.3333331 ], [ 142.0, 39.3333331 ], [ 142.1, 39.3333331 ], [ 142.1, 39.7 ], [ 142.0, 39.7 ], [ 142.0, 39.9999997 ] ] ] } },
{ "type": "Feature", "properties": { "Id": 0, "Sheet_ID": "18行17段. 深浦", "label": "18行17段. 深浦", "call_short": null, "call_num": null, "recid": null, "websiteUrl": null, "title": null, "ckey": 0, "available": false, "iiifUrl": null }, "geometry": { "type": "Polygon", "coordinates": [ [ [ 139.0, 39.9999997 ], [ 140.0, 39.9999997 ], [ 140.0, 40.6666664 ], [ 139.0, 40.6666664 ], [ 139.0, 39.9999997 ] ] ] } },
{ "type": "Feature", "properties": { "Id": 0, "Sheet_ID": "17行17段. 弘前", "label": "17行17段. 弘前", "call_short": "G7960 S200 .J3", "call_num": "G7960 S200 .J3 SHEET 17-17", "recid": "jy262ks6222", "websiteUrl": "https://purl.stanford.edu/jy262ks6222", "title": "二十万分一帝國圖", "ckey": 10425346, "available": true, "iiifUrl": "https://purl.stanford.edu/jy262ks6222/iiif/manifest" }, "geometry": { "type": "Polygon", "coordinates": [ [ [ 140.0, 39.9999997 ], [ 141.0, 39.9999997 ], [ 141.0, 40.6666664 ], [ 140.0, 40.6666664 ], [ 140.0, 39.9999997 ] ] ] } },
{ "type": "Feature", "properties": { "Id": 0, "Sheet_ID": "16行17段. 八戸", "label": "16行17段. 八戸", "call_short": "G7960 S200 .J3", "call_num": "G7960 S200 .J3 SHEET 16-17", "recid": "rm866qr5908", "websiteUrl": "https://purl.stanford.edu/rm866qr5908", "title": "二十万分一帝國圖", "ckey": 10425346, "available": true, "iiifUrl": "https://purl.stanford.edu/rm866qr5908/iiif/manifest" }, "geometry": { "type": "Polygon", "coordinates": [ [ [ 141.0, 39.9999997 ], [ 142.0, 39.9999997 ], [ 142.0, 40.6666664 ], [ 141.0, 40.6666664 ], [ 141.0, 39.9999997 ] ] ] } },
{ "type": "Feature", "properties": { "Id": 0, "Sheet_ID": "17行16段. 靑森", "label": "17行16段. 靑森", "call_short": "G7960 S200 .J3", "call_num": "G7960 S200 .J3 SHEET 17-16", "recid": "yr092zh8480", "websiteUrl": "https://purl.stanford.edu/yr092zh8480", "title": "二十万分一帝國圖", "ckey": 10425346, "available": true, "iiifUrl": "https://purl.stanford.edu/yr092zh8480/iiif/manifest" }, "geometry": { "type": "Polygon", "coordinates": [ [ [ 141.0, 40.6666664 ], [ 141.0, 41.333333 ], [ 140.0, 41.333333 ], [ 140.0, 40.75 ], [ 139.916667, 40.75 ], [ 139.916667, 40.6666664 ], [ 140.0, 40.6666664 ], [ 141.0, 40.6666664 ] ] ] } },
{ "type": "Feature", "properties": { "Id": 0, "Sheet_ID": "16行16段. 野邊地", "label": "16行16段. 野邊地", "call_short": "G7960 S200 .J3", "call_num": "G7960 S200 .J3 SHEET 16-16", "recid": "yc130sj4251", "websiteUrl": "https://purl.stanford.edu/yc130sj4251", "title": "二十万分一帝國圖", "ckey": 10425346, "available": true, "iiifUrl": "https://purl.stanford.edu/yc130sj4251/iiif/manifest" }, "geometry": { "type": "Polygon", "coordinates": [ [ [ 141.0, 40.6666664 ], [ 142.0, 40.6666664 ], [ 142.0, 41.333333 ], [ 141.0, 41.333333 ], [ 141.0, 40.6666664 ] ] ] } },
{ "type": "Feature", "properties": { "Id": 0, "Sheet_ID": "17行25段. 大多喜 ED.2", "label": "17行25段. 大多喜 ED.2", "call_short": "G7960 S200 .J3", "call_num": "G7960 S200 .J3 SHEET 17-25 ED.2", "recid": "ys539sp1895", "websiteUrl": "https://purl.stanford.edu/ys539sp1895", "title": "二十万分一帝國圖", "ckey": 10425346, "available": true, "iiifUrl": "https://purl.stanford.edu/ys539sp1895/iiif/manifest" }, "geometry": { "type": "Polygon", "coordinates": [ [ [ 140.0, 34.6666665 ], [ 141.0, 34.6666665 ], [ 141.0, 35.3333332 ], [ 140.0, 35.3333332 ], [ 140.0, 34.6666665 ] ] ] } },
{ "type": "Feature", "properties": { "Id": 0, "Sheet_ID": "19行25段. 静岡 ED.2", "label": "19行25段. 静岡 ED.2", "call_short": "G7960 S200 .J3", "call_num": "G7960 S200 .J3 SHEET 19-25 ED.2", "recid": "wt975vr1133", "websiteUrl": "https://purl.stanford.edu/wt975vr1133", "title": "二十万分一帝國圖", "ckey": 10425346, "available": true, "iiifUrl": "https://purl.stanford.edu/wt975vr1133/iiif/manifest" }, "geometry": { "type": "Polygon", "coordinates": [ [ [ 138.0, 34.6666665 ], [ 139.0, 34.6666665 ], [ 139.0, 35.3333332 ], [ 138.0, 35.3333332 ], [ 138.0, 34.6666665 ] ] ] } },
{ "type": "Feature", "properties": { "Id": 0, "Sheet_ID": "19行26段. 神子元島 ED.2", "label": "19行26段. 神子元島 ED.2", "call_short": "G7960 S200 .J3", "call_num": "G7960 S200 .J3 SHEET 19-26 ED.2", "recid": "zg948qg4791", "websiteUrl": "https://purl.stanford.edu/zg948qg4791", "title": "二十万分一帝國圖", "ckey": 10425346, "available": true, "iiifUrl": "https://purl.stanford.edu/zg948qg4791/iiif/manifest" }, "geometry": { "type": "Polygon", "coordinates": [ [ [ 138.0, 33.9999999 ], [ 139.0, 33.9999999 ], [ 139.0, 34.6666665 ], [ 138.0, 34.6666665 ], [ 138.0, 33.9999999 ] ] ] } },
{ "type": "Feature", "properties": { "Id": 0, "Sheet_ID": "20行24段. 飯田 ED.2", "label": "20行24段. 飯田 ED.2", "call_short": "G7960 S200 .J3", "call_num": "G7960 S200 .J3 SHEET 20-24 ED.2", "recid": "fv109dr7986", "websiteUrl": "https://purl.stanford.edu/fv109dr7986", "title": "二十万分一帝國圖", "ckey": 10425346, "available": true, "iiifUrl": "https://purl.stanford.edu/fv109dr7986/iiif/manifest" }, "geometry": { "type": "Polygon", "coordinates": [ [ [ 137.0, 35.3333332 ], [ 138.0, 35.3333332 ], [ 138.0, 35.9999998 ], [ 137.0, 35.9999998 ], [ 137.0, 35.3333332 ] ] ] } },
{ "type": "Feature", "properties": { "Id": 0, "Sheet_ID": "27行32段. 屋久島", "label": "27行32段. 屋久島", "call_short": "G7960 S200 .J3", "call_num": "G7960 S200 .J3 SHEET 27-32", "recid": "kt695wt7483", "websiteUrl": "https://purl.stanford.edu/kt695wt7483", "title": "二十万分一帝國圖", "ckey": 10425346, "available": true, "iiifUrl": "https://purl.stanford.edu/kt695wt7483/iiif/manifest" }, "geometry": { "type": "Polygon", "coordinates": [ [ [ 131.0, 30.0 ], [ 131.0, 30.5 ], [ 131.1, 30.5 ], [ 131.1, 30.6666666 ], [ 131.0, 30.6666666 ], [ 130.0, 30.6666666 ], [ 130.0, 30.0 ], [ 131.0, 30.0 ] ] ] } },
{ "type": "Feature", "properties": { "Id": 0, "Sheet_ID": "28行31段. 黒島", "label": "28行31段. 黒島", "call_short": null, "call_num": null, "recid": null, "websiteUrl": null, "title": null, "ckey": 0, "available": false, "iiifUrl": null }, "geometry": { "type": "Polygon", "coordinates": [ [ [ 129.0, 30.6666666 ], [ 130.0, 30.6666666 ], [ 130.0, 31.3333333 ], [ 129.0, 31.3333333 ], [ 129.0, 30.6666666 ] ] ] } },
{ "type": "Feature", "properties": { "Id": 0, "Sheet_ID": "27行31段. 開聞嶽", "label": "27行31段. 開聞嶽", "call_short": null, "call_num": null, "recid": null, "websiteUrl": null, "title": null, "ckey": 0, "available": false, "iiifUrl": null }, "geometry": { "type": "Polygon", "coordinates": [ [ [ 131.0, 31.15 ], [ 131.15, 31.15 ], [ 131.15, 31.3333333 ], [ 131.0, 31.3333333 ], [ 130.0, 31.3333333 ], [ 130.0, 30.6666666 ], [ 131.0, 30.6666666 ], [ 131.1, 30.6666666 ], [ 131.1, 30.85 ], [ 131.0, 30.85 ], [ 131.0, 31.15 ] ] ] } },
{ "type": "Feature", "properties": { "Id": 0, "Sheet_ID": "28行30段. 甑嶋", "label": "28行30段. 甑嶋", "call_short": null, "call_num": null, "recid": null, "websiteUrl": null, "title": null, "ckey": 0, "available": false, "iiifUrl": null }, "geometry": { "type": "Polygon", "coordinates": [ [ [ 129.0, 31.3333333 ], [ 130.0, 31.3333333 ], [ 130.0, 31.9999999 ], [ 129.0, 31.9999999 ], [ 129.0, 31.3333333 ] ] ] } },
{ "type": "Feature", "properties": { "Id": 0, "Sheet_ID": "27行30段. 鹿兒嶋", "label": "27行30段. 鹿兒嶋", "call_short": null, "call_num": null, "recid": null, "websiteUrl": null, "title": null, "ckey": 0, "available": false, "iiifUrl": null }, "geometry": { "type": "Polygon", "coordinates": [ [ [ 130.0, 31.3333333 ], [ 131.0, 31.3333333 ], [ 131.0, 31.9999999 ], [ 130.0, 31.9999999 ], [ 130.0, 31.3333333 ] ] ] } },
{ "type": "Feature", "properties": { "Id": 0, "Sheet_ID": "26行30段. 宮﨑", "label": "26行30段. 宮﨑", "call_short": "G7960 S200 .J3", "call_num": "G7960 S200 .J3 SHEET 26-30", "recid": "kq618bm3583", "websiteUrl": "https://purl.stanford.edu/kq618bm3583", "title": "二十万分一帝國圖", "ckey": 10425346, "available": true, "iiifUrl": "https://purl.stanford.edu/kq618bm3583/iiif/manifest" }, "geometry": { "type": "Polygon", "coordinates": [ [ [ 131.0, 31.3333333 ], [ 132.0, 31.3333333 ], [ 132.0, 31.9999999 ], [ 131.0, 31.9999999 ], [ 131.0, 31.3333333 ] ] ] } },
{ "type": "Feature", "properties": { "Id": 0, "Sheet_ID": "29行29段. 富江", "label": "29行29段. 富江", "call_short": null, "call_num": null, "recid": null, "websiteUrl": null, "title": null, "ckey": 0, "available": false, "iiifUrl": null }, "geometry": { "type": "Polygon", "coordinates": [ [ [ 128.0, 31.9999999 ], [ 129.0, 31.9999999 ], [ 129.0, 32.6666665 ], [ 128.0, 32.6666665 ], [ 128.0, 31.9999999 ] ] ] } },
{ "type": "Feature", "properties": { "Id": 0, "Sheet_ID": "28行29段. 野母﨑", "label": "28行29段. 野母﨑", "call_short": null, "call_num": null, "recid": null, "websiteUrl": null, "title": null, "ckey": 0, "available": false, "iiifUrl": null }, "geometry": { "type": "Polygon", "coordinates": [ [ [ 129.0, 31.9999999 ], [ 130.0, 31.9999999 ], [ 130.0, 32.6666665 ], [ 129.0, 32.6666665 ], [ 129.0, 31.9999999 ] ] ] } },
{ "type": "Feature", "properties": { "Id": 0, "Sheet_ID": "27行29段. 八代", "label": "27行29段. 八代", "call_short": "G7960 S200 .J3", "call_num": "G7960 S200 .J3 SHEET 27-29", "recid": "jn440gq6269", "websiteUrl": "https://purl.stanford.edu/jn440gq6269", "title": "二十万分一帝國圖", "ckey": 10425346, "available": true, "iiifUrl": "https://purl.stanford.edu/jn440gq6269/iiif/manifest" }, "geometry": { "type": "Polygon", "coordinates": [ [ [ 130.0, 31.9999999 ], [ 131.0, 31.9999999 ], [ 131.0, 32.6666665 ], [ 130.0, 32.6666665 ], [ 130.0, 31.9999999 ] ] ] } },
{ "type": "Feature", "properties": { "Id": 0, "Sheet_ID": "26行29段. 延岡", "label": "26行29段. 延岡", "call_short": "G7960 S200 .J3", "call_num": "G7960 S200 .J3 SHEET 26-29", "recid": "rh488db7731", "websiteUrl": "https://purl.stanford.edu/rh488db7731", "title": "二十万分一帝國圖", "ckey": 10425346, "available": true, "iiifUrl": "https://purl.stanford.edu/rh488db7731/iiif/manifest" }, "geometry": { "type": "Polygon", "coordinates": [ [ [ 131.0, 31.9999999 ], [ 132.0, 31.9999999 ], [ 132.0, 32.6666665 ], [ 131.0, 32.6666665 ], [ 131.0, 31.9999999 ] ] ] } },
{ "type": "Feature", "properties": { "Id": 0, "Sheet_ID": "29行28段. 福江", "label": "29行28段. 福江", "call_short": null, "call_num": null, "recid": null, "websiteUrl": null, "title": null, "ckey": 0, "available": false, "iiifUrl": null }, "geometry": { "type": "Polygon", "coordinates": [ [ [ 128.0, 32.6666665 ], [ 129.0, 32.6666665 ], [ 129.0, 33.3333331 ], [ 128.0, 33.3333331 ], [ 128.0, 32.6666665 ] ] ] } },
{ "type": "Feature", "properties": { "Id": 0, "Sheet_ID": "28行28段. 長﨑", "label": "28行28段. 長﨑", "call_short": "G7960 S200 .J3", "call_num": "G7960 S200 .J3 SHEET 28-28", "recid": "sm367ch5560", "websiteUrl": "https://purl.stanford.edu/sm367ch5560", "title": "二十万分一帝國圖", "ckey": 10425346, "available": true, "iiifUrl": "https://purl.stanford.edu/sm367ch5560/iiif/manifest" }, "geometry": { "type": "Polygon", "coordinates": [ [ [ 129.0, 32.6666665 ], [ 130.0, 32.6666665 ], [ 130.0, 33.3333331 ], [ 129.0, 33.3333331 ], [ 129.0, 32.6666665 ] ] ] } },
{ "type": "Feature", "properties": { "Id": 0, "Sheet_ID": "27行28段. 熊本", "label": "27行28段. 熊本", "call_short": "G7960 S200 .J3", "call_num": "G7960 S200 .J3 SHEET 27-28", "recid": "bz691vn0435", "websiteUrl": "https://purl.stanford.edu/bz691vn0435", "title": "二十万分一帝國圖", "ckey": 10425346, "available": true, "iiifUrl": "https://purl.stanford.edu/bz691vn0435/iiif/manifest" }, "geometry": { "type": "Polygon", "coordinates": [ [ [ 130.0, 32.6666665 ], [ 131.0, 32.6666665 ], [ 131.0, 33.3333331 ], [ 130.0, 33.3333331 ], [ 130.0, 32.6666665 ] ] ] } },
{ "type": "Feature", "properties": { "Id": 0, "Sheet_ID": "26行28段. 大分", "label": "26行28段. 大分", "call_short": "G7960 S200 .J3", "call_num": "G7960 S200 .J3 SHEET 26-28", "recid": "fw585bj0841", "websiteUrl": "https://purl.stanford.edu/fw585bj0841", "title": "二十万分一帝國圖", "ckey": 10425346, "available": true, "iiifUrl": "https://purl.stanford.edu/fw585bj0841/iiif/manifest" }, "geometry": { "type": "Polygon", "coordinates": [ [ [ 131.0, 32.6666665 ], [ 132.0, 32.6666665 ], [ 132.0, 33.3333331 ], [ 131.0, 33.3333331 ], [ 131.0, 32.6666665 ] ] ] } },
{ "type": "Feature", "properties": { "Id": 0, "Sheet_ID": "28行27段. 唐津", "label": "28行27段. 唐津", "call_short": "G7960 S200 .J3", "call_num": "G7960 S200 .J3 SHEET 28-27", "recid": "xx974qr3527", "websiteUrl": "https://purl.stanford.edu/xx974qr3527", "title": "二十万分一帝國圖", "ckey": 10425346, "available": true, "iiifUrl": "https://purl.stanford.edu/xx974qr3527/iiif/manifest" }, "geometry": { "type": "Polygon", "coordinates": [ [ [ 129.0, 33.3333331 ], [ 130.0, 33.3333331 ], [ 130.0, 33.9999998 ], [ 129.0, 33.9999998 ], [ 129.0, 33.3333331 ] ] ] } },
{ "type": "Feature", "properties": { "Id": 0, "Sheet_ID": "27行27段. 小倉", "label": "27行27段. 小倉", "call_short": null, "call_num": null, "recid": null, "websiteUrl": null, "title": null, "ckey": 0, "available": false, "iiifUrl": null }, "geometry": { "type": "Polygon", "coordinates": [ [ [ 130.0, 33.3333331 ], [ 131.0, 33.3333331 ], [ 131.0, 33.9999998 ], [ 130.0, 33.9999998 ], [ 130.0, 33.3333331 ] ] ] } },
{ "type": "Feature", "properties": { "Id": 0, "Sheet_ID": "26行27段. 中津", "label": "26行27段. 中津", "call_short": "G7960 S200 .J3", "call_num": "G7960 S200 .J3 SHEET 26-27", "recid": "wb579hf0391", "websiteUrl": "https://purl.stanford.edu/wb579hf0391", "title": "二十万分一帝國圖", "ckey": 10425346, "available": true, "iiifUrl": "https://purl.stanford.edu/wb579hf0391/iiif/manifest" }, "geometry": { "type": "Polygon", "coordinates": [ [ [ 131.0, 33.3333331 ], [ 132.0, 33.3333331 ], [ 132.0, 33.9999998 ], [ 131.0, 33.9999998 ], [ 131.0, 33.3333331 ] ] ] } },
{ "type": "Feature", "properties": { "Id": 0, "Sheet_ID": "28行26段. 嚴原", "label": "28行26段. 嚴原", "call_short": null, "call_num": null, "recid": null, "websiteUrl": null, "title": null, "ckey": 0, "available": false, "iiifUrl": null }, "geometry": { "type": "Polygon", "coordinates": [ [ [ 129.0, 33.9999998 ], [ 130.0, 33.9999998 ], [ 130.0, 34.6666664 ], [ 129.0, 34.6666664 ], [ 129.0, 33.9999998 ] ] ] } },
{ "type": "Feature", "properties": { "Id": 0, "Sheet_ID": "27行26段. 小串", "label": "27行26段. 小串", "call_short": null, "call_num": null, "recid": null, "websiteUrl": null, "title": null, "ckey": 0, "available": false, "iiifUrl": null }, "geometry": { "type": "Polygon", "coordinates": [ [ [ 130.0, 33.9999998 ], [ 131.0, 33.9999998 ], [ 131.0, 34.6666664 ], [ 130.0, 34.6666664 ], [ 130.0, 33.9999998 ] ] ] } },
{ "type": "Feature", "properties": { "Id": 0, "Sheet_ID": "26行26段. 山口", "label": "26行26段. 山口", "call_short": null, "call_num": null, "recid": null, "websiteUrl": null, "title": null, "ckey": 0, "available": false, "iiifUrl": null }, "geometry": { "type": "Polygon", "coordinates": [ [ [ 131.0, 33.9999998 ], [ 132.0, 33.9999998 ], [ 132.0, 34.6666664 ], [ 131.0, 34.6666664 ], [ 131.0, 33.9999998 ] ] ] } },
{ "type": "Feature", "properties": { "Id": 0, "Sheet_ID": "26行25段. 見嶋", "label": "26行25段. 見嶋", "call_short": null, "call_num": null, "recid": null, "websiteUrl": null, "title": null, "ckey": 0, "available": false, "iiifUrl": null }, "geometry": { "type": "Polygon", "coordinates": [ [ [ 131.0, 34.6666664 ], [ 132.0, 34.6666664 ], [ 132.0, 35.333333 ], [ 131.0, 35.333333 ], [ 131.0, 34.6666664 ] ] ] } },
{ "type": "Feature", "properties": { "Id": 0, "Sheet_ID": "34行41段. 西表島", "label": "34行41段. 西表島", "call_short": "G7960 S200 .J3", "call_num": "G7960 S200 .J3 SHEET 34-41", "recid": "wc850cs9790", "websiteUrl": "https://purl.stanford.edu/wc850cs9790", "title": "二十万分一帝國圖", "ckey": 10425346, "available": true, "iiifUrl": "https://purl.stanford.edu/wc850cs9790/iiif/manifest" }, "geometry": { "type": "Polygon", "coordinates": [ [ [ 124.0, 24.6666666 ], [ 123.0, 24.6666666 ], [ 123.0, 24.5 ], [ 122.9, 24.5 ], [ 122.9, 24.4 ], [ 123.0, 24.4 ], [ 123.0, 24.0 ], [ 124.0, 24.0 ], [ 124.0, 24.6666666 ] ] ] } },
{ "type": "Feature", "properties": { "Id": 0, "Sheet_ID": "33行40/41段. 石垣島", "label": "33行40/41段. 石垣島", "call_short": "G7960 S200 .J3", "call_num": "G7960 S200 .J3 SHEET 33-40.41", "recid": "xq007cb0633", "websiteUrl": "https://purl.stanford.edu/xq007cb0633", "title": "二十万分一帝國圖", "ckey": 10425346, "available": true, "iiifUrl": "https://purl.stanford.edu/xq007cb0633/iiif/manifest" }, "geometry": { "type": "Polygon", "coordinates": [ [ [ 124.0, 24.166667 ], [ 125.0, 24.166667 ], [ 125.0, 24.833333 ], [ 124.0, 24.833333 ], [ 124.0, 24.166667 ] ] ] } },
{ "type": "Feature", "properties": { "Id": 0, "Sheet_ID": "26行41段. 沖大東島", "label": "26行41段. 沖大東島", "call_short": "G7960 S200 .J3", "call_num": "G7960 S200 .J3 SHEET 26-41", "recid": "qq860wx9754", "websiteUrl": "https://purl.stanford.edu/qq860wx9754", "title": "二十万分一帝國圖", "ckey": 10425346, "available": true, "iiifUrl": "https://purl.stanford.edu/qq860wx9754/iiif/manifest" }, "geometry": { "type": "Polygon", "coordinates": [ [ [ 131.0, 24.0 ], [ 132.0, 24.0 ], [ 132.0, 24.6666666 ], [ 131.0, 24.6666666 ], [ 131.0, 24.0 ] ] ] } },
{ "type": "Feature", "properties": { "Id": 0, "Sheet_ID": "32行40段. 宮古島", "label": "32行40段. 宮古島", "call_short": "G7960 S200 .J3", "call_num": "G7960 S200 .J3 SHEET 32-40", "recid": "tp897wh3006", "websiteUrl": "https://purl.stanford.edu/tp897wh3006", "title": "二十万分一帝國圖", "ckey": 10425346, "available": true, "iiifUrl": "https://purl.stanford.edu/tp897wh3006/iiif/manifest" }, "geometry": { "type": "Polygon", "coordinates": [ [ [ 125.0, 24.6666666 ], [ 126.0, 24.6666666 ], [ 126.0, 25.3333333 ], [ 125.0, 25.3333333 ], [ 125.0, 24.6666666 ] ] ] } },
{ "type": "Feature", "properties": { "Id": 0, "Sheet_ID": "34行39段. 尖閣群島", "label": "34行39段. 尖閣群島", "call_short": "G7960 S200 .J3", "call_num": "G7960 S200 .J3 SHEET 34-39", "recid": "zn104rd0088", "websiteUrl": "https://purl.stanford.edu/zn104rd0088", "title": "二十万分一帝國圖", "ckey": 10425346, "available": true, "iiifUrl": "https://purl.stanford.edu/zn104rd0088/iiif/manifest" }, "geometry": { "type": "Polygon", "coordinates": [ [ [ 123.0, 25.3333332 ], [ 124.0, 25.3333332 ], [ 124.0, 25.9999999 ], [ 123.0, 25.9999999 ], [ 123.0, 25.3333332 ] ] ] } },
{ "type": "Feature", "properties": { "Id": 0, "Sheet_ID": "33行39段. 赤尾嶼", "label": "33行39段. 赤尾嶼", "call_short": "G7960 S200 .J3", "call_num": "G7960 S200 .J3 SHEET 33-39", "recid": "rg358ws7626", "websiteUrl": "https://purl.stanford.edu/rg358ws7626", "title": "二十万分一帝國圖", "ckey": 10425346, "available": true, "iiifUrl": "https://purl.stanford.edu/rg358ws7626/iiif/manifest" }, "geometry": { "type": "Polygon", "coordinates": [ [ [ 124.0, 25.3333332 ], [ 125.0, 25.3333332 ], [ 125.0, 25.9999999 ], [ 124.0, 25.9999999 ], [ 124.0, 25.3333332 ] ] ] } },
{ "type": "Feature", "properties": { "Id": 0, "Sheet_ID": "26行39段. 南大東島", "label": "26行39段. 南大東島", "call_short": "G7960 S200 .J3", "call_num": "G7960 S200 .J3 SHEET 26-39", "recid": "js999qr9246", "websiteUrl": "https://purl.stanford.edu/js999qr9246", "title": "二十万分一帝國圖", "ckey": 10425346, "available": true, "iiifUrl": "https://purl.stanford.edu/js999qr9246/iiif/manifest" }, "geometry": { "type": "Polygon", "coordinates": [ [ [ 131.0, 25.3333332 ], [ 132.0, 25.3333332 ], [ 132.0, 25.9999999 ], [ 131.0, 25.9999999 ], [ 131.0, 25.3333332 ] ] ] } },
{ "type": "Feature", "properties": { "Id": 0, "Sheet_ID": "31行38段. 久米島", "label": "31行38段. 久米島", "call_short": "G7960 S200 .J3", "call_num": "G7960 S200 .J3 SHEET 31-38", "recid": "kn351fj8917", "websiteUrl": "https://purl.stanford.edu/kn351fj8917", "title": "二十万分一帝國圖", "ckey": 10425346, "available": true, "iiifUrl": "https://purl.stanford.edu/kn351fj8917/iiif/manifest" }, "geometry": { "type": "Polygon", "coordinates": [ [ [ 126.0, 25.9999999 ], [ 127.0, 25.9999999 ], [ 127.0, 26.6666665 ], [ 126.0, 26.6666665 ], [ 126.0, 25.9999999 ] ] ] } },
{ "type": "Feature", "properties": { "Id": 0, "Sheet_ID": "30行38段. 那覇", "label": "30行38段. 那覇", "call_short": null, "call_num": null, "recid": null, "websiteUrl": null, "title": null, "ckey": 0, "available": false, "iiifUrl": null }, "geometry": { "type": "Polygon", "coordinates": [ [ [ 127.0, 25.9999999 ], [ 128.0, 25.9999999 ], [ 128.0, 26.6666665 ], [ 127.0, 26.6666665 ], [ 127.0, 25.9999999 ] ] ] } },
{ "type": "Feature", "properties": { "Id": 0, "Sheet_ID": "29行38段. 仲尾次", "label": "29行38段. 仲尾次", "call_short": null, "call_num": null, "recid": null, "websiteUrl": null, "title": null, "ckey": 0, "available": false, "iiifUrl": null }, "geometry": { "type": "Polygon", "coordinates": [ [ [ 128.0, 25.9999999 ], [ 129.0, 25.9999999 ], [ 129.0, 26.6666665 ], [ 128.0, 26.6666665 ], [ 128.0, 25.9999999 ] ] ] } },
{ "type": "Feature", "properties": { "Id": 0, "Sheet_ID": "30行37段. 伊平屋島", "label": "30行37段. 伊平屋島", "call_short": "G7960 S200 .J3", "call_num": "G7960 S200 .J3 SHEET 30-37", "recid": "pq962yn1263", "websiteUrl": "https://purl.stanford.edu/pq962yn1263", "title": "二十万分一帝國圖", "ckey": 10425346, "available": true, "iiifUrl": "https://purl.stanford.edu/pq962yn1263/iiif/manifest" }, "geometry": { "type": "Polygon", "coordinates": [ [ [ 127.0, 26.6666665 ], [ 128.0, 26.6666665 ], [ 128.0, 27.3333331 ], [ 127.0, 27.3333331 ], [ 127.0, 26.6666665 ] ] ] } },
{ "type": "Feature", "properties": { "Id": 0, "Sheet_ID": "29行37段. 輿論島", "label": "29行37段. 輿論島", "call_short": "G7960 S200 .J3", "call_num": "G7960 S200 .J3 SHEET 29-37", "recid": "xy377th4304", "websiteUrl": "https://purl.stanford.edu/xy377th4304", "title": "二十万分一帝國圖", "ckey": 10425346, "available": true, "iiifUrl": "https://purl.stanford.edu/xy377th4304/iiif/manifest" }, "geometry": { "type": "Polygon", "coordinates": [ [ [ 128.0, 26.6666665 ], [ 129.0, 26.6666665 ], [ 129.0, 27.3333331 ], [ 128.0, 27.3333331 ], [ 128.0, 26.6666665 ] ] ] } },
{ "type": "Feature", "properties": { "Id": 0, "Sheet_ID": "29行36段. 徳之島", "label": "29行36段. 徳之島", "call_short": "G7960 S200 .J3", "call_num": "G7960 S200 .J3 SHEET 29-36", "recid": "ms117pp8704", "websiteUrl": "https://purl.stanford.edu/ms117pp8704", "title": "二十万分一帝國圖", "ckey": 10425346, "available": true, "iiifUrl": "https://purl.stanford.edu/ms117pp8704/iiif/manifest" }, "geometry": { "type": "Polygon", "coordinates": [ [ [ 129.0, 27.9999998 ], [ 128.0, 27.9999998 ], [ 128.0, 27.3333331 ], [ 128.54, 27.3333331 ], [ 128.54, 27.32 ], [ 128.6, 27.32 ], [ 128.6, 27.3333331 ], [ 129.0, 27.3333331 ], [ 129.0, 27.666667 ], [ 129.05, 27.666667 ], [ 129.05, 27.833333 ], [ 129.0, 27.833333 ], [ 129.0, 27.9999998 ] ] ] } },
{ "type": "Feature", "properties": { "Id": 0, "Sheet_ID": "28行35段. 奄美大島", "label": "28行35段. 奄美大島", "call_short": "G7960 S200 .J3", "call_num": "G7960 S200 .J3 SHEET 28-35", "recid": "yy484hw1899", "websiteUrl": "https://purl.stanford.edu/yy484hw1899", "title": "二十万分一帝國圖", "ckey": 10425346, "available": true, "iiifUrl": "https://purl.stanford.edu/yy484hw1899/iiif/manifest" }, "geometry": { "type": "Polygon", "coordinates": [ [ [ 130.0, 28.6666664 ], [ 129.0, 28.6666664 ], [ 129.0, 27.9999998 ], [ 130.0, 27.9999998 ], [ 130.0, 28.3 ], [ 130.05, 28.3 ], [ 130.05, 28.4 ], [ 130.0, 28.4 ], [ 130.0, 28.6666664 ] ] ] } },
{ "type": "Feature", "properties": { "Id": 0, "Sheet_ID": "28行34段. 寶島", "label": "28行34段. 寶島", "call_short": "G7960 S200 .J3", "call_num": "G7960 S200 .J3 SHEET 28-34", "recid": "my651rm2798", "websiteUrl": "https://purl.stanford.edu/my651rm2798", "title": "二十万分一帝國圖", "ckey": 10425346, "available": true, "iiifUrl": "https://purl.stanford.edu/my651rm2798/iiif/manifest" }, "geometry": { "type": "Polygon", "coordinates": [ [ [ 130.0, 29.333333 ], [ 129.0, 29.333333 ], [ 129.0, 28.866667 ], [ 128.95, 28.866667 ], [ 128.95, 28.75 ], [ 129.0, 28.75 ], [ 129.0, 28.6666664 ], [ 130.0, 28.6666664 ], [ 130.0, 29.333333 ] ] ] } },
{ "type": "Feature", "properties": { "Id": 0, "Sheet_ID": "37行45段. 鵞鑾鼻", "label": "37行45段. 鵞鑾鼻", "call_short": "G7960 S200 .J3", "call_num": "G7960 S200 .J3 SHEET 37-45", "recid": "fq079yp2287", "websiteUrl": "https://purl.stanford.edu/fq079yp2287", "title": "二十万分一帝國圖", "ckey": 10425346, "available": true, "iiifUrl": "https://purl.stanford.edu/fq079yp2287/iiif/manifest" }, "geometry": { "type": "Polygon", "coordinates": [ [ [ 120.0, 21.333333 ], [ 121.0, 21.333333 ], [ 121.0, 21.9999997 ], [ 120.0, 21.9999997 ], [ 120.0, 21.333333 ] ] ] } },
{ "type": "Feature", "properties": { "Id": 0, "Sheet_ID": "37行44段. 髙雄", "label": "37行44段. 髙雄", "call_short": "G7960 S200 .J3", "call_num": "G7960 S200 .J3 SHEET 37-44", "recid": "vj632pr8714", "websiteUrl": "https://purl.stanford.edu/vj632pr8714", "title": "二十万分一帝國圖", "ckey": 10425346, "available": true, "iiifUrl": "https://purl.stanford.edu/vj632pr8714/iiif/manifest" }, "geometry": { "type": "Polygon", "coordinates": [ [ [ 120.0, 21.9999997 ], [ 121.0, 21.9999997 ], [ 121.0, 22.6666664 ], [ 120.0, 22.6666664 ], [ 120.0, 21.9999997 ] ] ] } },
{ "type": "Feature", "properties": { "Id": 0, "Sheet_ID": "壹貳ト217. 紅頭嶼", "label": "壹貳ト217. 紅頭嶼", "call_short": "G7960 S200 .J3", "call_num": "G7960 S200 .J3 SHEET 36-44", "recid": "dz973wy0714", "websiteUrl": "https://purl.stanford.edu/dz973wy0714", "title": "二十万分一帝國圖", "ckey": 10425346, "available": true, "iiifUrl": "https://purl.stanford.edu/dz973wy0714/iiif/manifest" }, "geometry": { "type": "Polygon", "coordinates": [ [ [ 121.533333, 22.7 ], [ 121.433333, 22.7 ], [ 121.433333, 22.6666664 ], [ 121.0, 22.6666664 ], [ 121.0, 21.9999997 ], [ 121.55, 21.9999997 ], [ 121.55, 21.9 ], [ 121.666667, 21.9 ], [ 121.666667, 21.9999997 ], [ 122.0, 21.9999997 ], [ 122.0, 22.6666664 ], [ 121.533333, 22.6666664 ], [ 121.533333, 22.7 ] ] ] } },
{ "type": "Feature", "properties": { "Id": 0, "Sheet_ID": "壹参ト201. 大嶼", "label": "壹参ト201. 大嶼", "call_short": "G7960 S200 .J3", "call_num": "G7960 S200 .J3 SHEET 38-43", "recid": "qz600fz0089", "websiteUrl": "https://purl.stanford.edu/qz600fz0089", "title": "二十万分一帝國圖", "ckey": 10425346, "available": true, "iiifUrl": "https://purl.stanford.edu/qz600fz0089/iiif/manifest" }, "geometry": { "type": "Polygon", "coordinates": [ [ [ 119.0, 22.6666664 ], [ 120.0, 22.6666664 ], [ 120.0, 23.3333331 ], [ 119.0, 23.3333331 ], [ 119.0, 22.6666664 ] ] ] } },
{ "type": "Feature", "properties": { "Id": 0, "Sheet_ID": "37行43段. 臺南", "label": "37行43段. 臺南", "call_short": "G7960 S200 .J3", "call_num": "G7960 S200 .J3 SHEET 37-43", "recid": "xq354gd9272", "websiteUrl": "https://purl.stanford.edu/xq354gd9272", "title": "二十万分一帝國圖", "ckey": 10425346, "available": true, "iiifUrl": "https://purl.stanford.edu/xq354gd9272/iiif/manifest" }, "geometry": { "type": "Polygon", "coordinates": [ [ [ 120.0, 22.6666664 ], [ 121.0, 22.6666664 ], [ 121.0, 23.3333331 ], [ 120.0, 23.3333331 ], [ 120.0, 22.6666664 ] ] ] } },
{ "type": "Feature", "properties": { "Id": 0, "Sheet_ID": "壹貳ト216. 臺東", "label": "壹貳ト216. 臺東", "call_short": "G7960 S200 .J3", "call_num": "G7960 S200 .J3 SHEET 36-43", "recid": "pz609kz0407", "websiteUrl": "https://purl.stanford.edu/pz609kz0407", "title": "二十万分一帝國圖", "ckey": 10425346, "available": true, "iiifUrl": "https://purl.stanford.edu/pz609kz0407/iiif/manifest" }, "geometry": { "type": "Polygon", "coordinates": [ [ [ 121.0, 22.6666664 ], [ 122.0, 22.6666664 ], [ 122.0, 23.3333331 ], [ 121.0, 23.3333331 ], [ 121.0, 22.6666664 ] ] ] } },
{ "type": "Feature", "properties": { "Id": 0, "Sheet_ID": "壹参チ205. 澎湖島", "label": "壹参チ205. 澎湖島", "call_short": "G7960 S200 .J3", "call_num": "G7960 S200 .J3 SHEET 38-42", "recid": "qd183kc2556", "websiteUrl": "https://purl.stanford.edu/qd183kc2556", "title": "二十万分一帝國圖", "ckey": 10425346, "available": true, "iiifUrl": "https://purl.stanford.edu/qd183kc2556/iiif/manifest" }, "geometry": { "type": "Polygon", "coordinates": [ [ [ 119.0, 23.3333331 ], [ 120.0, 23.3333331 ], [ 120.0, 23.9999999 ], [ 119.0, 23.9999999 ], [ 119.0, 23.3333331 ] ] ] } },
{ "type": "Feature", "properties": { "Id": 0, "Sheet_ID": "壹貳チ225. 嘉義", "label": "壹貳チ225. 嘉義", "call_short": "G7960 S200 .J3", "call_num": "G7960 S200 .J3 SHEET 37-42", "recid": "qm662px5637", "websiteUrl": "https://purl.stanford.edu/qm662px5637", "title": "二十万分一帝國圖", "ckey": 10425346, "available": true, "iiifUrl": "https://purl.stanford.edu/qm662px5637/iiif/manifest" }, "geometry": { "type": "Polygon", "coordinates": [ [ [ 120.0, 23.3333331 ], [ 121.0, 23.3333331 ], [ 121.0, 23.9999999 ], [ 120.0, 23.9999999 ], [ 120.0, 23.3333331 ] ] ] } },
{ "type": "Feature", "properties": { "Id": 0, "Sheet_ID": "36行42段. 花蓮港", "label": "36行42段. 花蓮港", "call_short": "G7960 S200 .J3", "call_num": "G7960 S200 .J3 SHEET 36-42", "recid": "cz764vn2691", "websiteUrl": "https://purl.stanford.edu/cz764vn2691", "title": "二十万分一帝國圖", "ckey": 10425346, "available": true, "iiifUrl": "https://purl.stanford.edu/cz764vn2691/iiif/manifest" }, "geometry": { "type": "Polygon", "coordinates": [ [ [ 121.0, 23.3333331 ], [ 122.0, 23.3333331 ], [ 122.0, 23.9999999 ], [ 121.0, 23.9999999 ], [ 121.0, 23.3333331 ] ] ] } },
{ "type": "Feature", "properties": { "Id": 0, "Sheet_ID": "37行41段. 臺中", "label": "37行41段. 臺中", "call_short": "G7960 S200 .J3", "call_num": "G7960 S200 .J3 SHEET 37-41", "recid": "fh518sf6996", "websiteUrl": "https://purl.stanford.edu/fh518sf6996", "title": "二十万分一帝國圖", "ckey": 10425346, "available": true, "iiifUrl": "https://purl.stanford.edu/fh518sf6996/iiif/manifest" }, "geometry": { "type": "Polygon", "coordinates": [ [ [ 120.0, 23.9999999 ], [ 121.0, 23.9999999 ], [ 121.0, 24.6666666 ], [ 120.0, 24.6666666 ], [ 120.0, 23.9999999 ] ] ] } },
{ "type": "Feature", "properties": { "Id": 0, "Sheet_ID": "壹貳チ219. 蘇澳", "label": "壹貳チ219. 蘇澳", "call_short": "G7960 S200 .J3", "call_num": "G7960 S200 .J3 SHEET 36-41", "recid": "bp242wh1200", "websiteUrl": "https://purl.stanford.edu/bp242wh1200", "title": "二十万分一帝國圖", "ckey": 10425346, "available": true, "iiifUrl": "https://purl.stanford.edu/bp242wh1200/iiif/manifest" }, "geometry": { "type": "Polygon", "coordinates": [ [ [ 121.0, 23.9999999 ], [ 122.0, 23.9999999 ], [ 122.0, 24.6666666 ], [ 121.0, 24.6666666 ], [ 121.0, 23.9999999 ] ] ] } },
{ "type": "Feature", "properties": { "Id": 0, "Sheet_ID": "37行40段. 新竹", "label": "37行40段. 新竹", "call_short": "G7960 S200 .J3", "call_num": "G7960 S200 .J3 SHEET 37-40", "recid": "zp130vj2764", "websiteUrl": "https://purl.stanford.edu/zp130vj2764", "title": "二十万分一帝國圖", "ckey": 10425346, "available": true, "iiifUrl": "https://purl.stanford.edu/zp130vj2764/iiif/manifest" }, "geometry": { "type": "Polygon", "coordinates": [ [ [ 120.0, 24.6666666 ], [ 121.0, 24.6666666 ], [ 121.0, 25.3333333 ], [ 120.0, 25.3333333 ], [ 120.0, 24.6666666 ] ] ] } },
{ "type": "Feature", "properties": { "Id": 0, "Sheet_ID": "36行40段. 臺北", "label": "36行40段. 臺北", "call_short": null, "call_num": null, "recid": null, "websiteUrl": null, "title": null, "ckey": 0, "available": false, "iiifUrl": null }, "geometry": { "type": "Polygon", "coordinates": [ [ [ 121.0, 24.6666666 ], [ 122.0, 24.6666666 ], [ 122.0, 25.3333333 ], [ 121.0, 25.3333333 ], [ 121.0, 24.6666666 ] ] ] } },
{ "type": "Feature", "properties": { "Id": 0, "Sheet_ID": "35行39段. 彭佳嶼", "label": "35行39段. 彭佳嶼", "call_short": "G7960 S200 .J3", "call_num": "G7960 S200 .J3 SHEET 35-39", "recid": "dg505hr7064", "websiteUrl": "https://purl.stanford.edu/dg505hr7064", "title": "二十万分一帝國圖", "ckey": 10425346, "available": true, "iiifUrl": "https://purl.stanford.edu/dg505hr7064/iiif/manifest" }, "geometry": { "type": "Polygon", "coordinates": [ [ [ 122.0, 25.3333333 ], [ 123.0, 25.3333333 ], [ 123.0, 26.0 ], [ 122.0, 26.0 ], [ 122.0, 25.3333333 ] ] ] } },
{ "type": "Feature", "properties": { "Id": 0, "Sheet_ID": "壹参チ205. 澎湖島 ED.2", "label": "壹参チ205. 澎湖島 ED.2", "call_short": "G7960 S200 .J3", "call_num": "G7960 S200 .J3 SHEET 38-42 ED.2", "recid": "qn724vk4516", "websiteUrl": "https://purl.stanford.edu/qn724vk4516", "title": "二十万分一帝國圖", "ckey": 10425346, "available": true, "iiifUrl": "https://purl.stanford.edu/qn724vk4516/iiif/manifest" }, "geometry": { "type": "Polygon", "coordinates": [ [ [ 119.0, 23.3333331 ], [ 120.0, 23.3333331 ], [ 120.0, 23.9999999 ], [ 119.0, 23.9999999 ], [ 119.0, 23.3333331 ] ] ] } },
{ "type": "Feature", "properties": { "Id": 0, "Sheet_ID": "16行41段. 南硫黃島", "label": "16行41段. 南硫黃島", "call_short": null, "call_num": null, "recid": null, "websiteUrl": null, "title": null, "ckey": 0, "available": false, "iiifUrl": null }, "geometry": { "type": "Polygon", "coordinates": [ [ [ 141.0, 24.0 ], [ 142.0, 24.0 ], [ 142.0, 24.6666667 ], [ 141.0, 24.6666667 ], [ 141.0, 24.0 ] ] ] } },
{ "type": "Feature", "properties": { "Id": 0, "Sheet_ID": "16行40段. 硫黄島", "label": "16行40段. 硫黄島", "call_short": null, "call_num": null, "recid": null, "websiteUrl": null, "title": null, "ckey": 0, "available": false, "iiifUrl": null }, "geometry": { "type": "Polygon", "coordinates": [ [ [ 141.0, 24.6666667 ], [ 142.0, 24.6666667 ], [ 142.0, 25.3333333 ], [ 141.0, 25.3333333 ], [ 141.0, 24.6666667 ] ] ] } },
{ "type": "Feature", "properties": { "Id": 0, "Sheet_ID": "16行39段. 北硫黄島", "label": "16行39段. 北硫黄島", "call_short": null, "call_num": null, "recid": null, "websiteUrl": null, "title": null, "ckey": 0, "available": false, "iiifUrl": null }, "geometry": { "type": "Polygon", "coordinates": [ [ [ 141.0, 25.3333333 ], [ 142.0, 25.3333333 ], [ 142.0, 26.0 ], [ 141.0, 26.0 ], [ 141.0, 25.3333333 ] ] ] } },
{ "type": "Feature", "properties": { "Id": 0, "Sheet_ID": "15行38段. 母島", "label": "15行38段. 母島", "call_short": null, "call_num": null, "recid": null, "websiteUrl": null, "title": null, "ckey": 0, "available": false, "iiifUrl": null }, "geometry": { "type": "Polygon", "coordinates": [ [ [ 142.0, 26.0 ], [ 143.0, 26.0 ], [ 143.0, 26.6666667 ], [ 142.0, 26.6666667 ], [ 142.0, 26.0 ] ] ] } },
{ "type": "Feature", "properties": { "Id": 0, "Sheet_ID": "17行37段. 西之島", "label": "17行37段. 西之島", "call_short": null, "call_num": null, "recid": null, "websiteUrl": null, "title": null, "ckey": 0, "available": false, "iiifUrl": null }, "geometry": { "type": "Polygon", "coordinates": [ [ [ 140.0, 26.6666667 ], [ 141.0, 26.6666667 ], [ 141.0, 27.3333333 ], [ 140.0, 27.3333333 ], [ 140.0, 26.6666667 ] ] ] } },
{ "type": "Feature", "properties": { "Id": 0, "Sheet_ID": "15行37段. 父島", "label": "15行37段. 父島", "call_short": null, "call_num": null, "recid": null, "websiteUrl": null, "title": null, "ckey": 0, "available": false, "iiifUrl": null }, "geometry": { "type": "Polygon", "coordinates": [ [ [ 142.0, 26.6666667 ], [ 143.0, 26.6666667 ], [ 143.0, 27.3333333 ], [ 142.0, 27.3333333 ], [ 142.0, 26.6666667 ] ] ] } },
{ "type": "Feature", "properties": { "Id": 0, "Sheet_ID": "15行36段. 聟島", "label": "15行36段. 聟島", "call_short": null, "call_num": null, "recid": null, "websiteUrl": null, "title": null, "ckey": 0, "available": false, "iiifUrl": null }, "geometry": { "type": "Polygon", "coordinates": [ [ [ 142.0, 27.3333333 ], [ 143.0, 27.3333333 ], [ 143.0, 28.0 ], [ 142.0, 28.0 ], [ 142.0, 27.3333333 ] ] ] } }
]
}
