{
"type": "FeatureCollection",
"name": "index_map",
"xy_coordinate_resolution": 1e-07,
"features": [
{ "type": "Feature", "properties": { "Id": 0, "Sheet_ID": "ス2-D_チモール島 25", "label": "ス2-D_チモール島 25", "call_short": "G8117 .R6 S100 .J3", "call_num": "G8117 .R6 S100 .J3 2-D", "recid": "fm576wn6315", "websiteUrl": "https://purl.stanford.edu/fm576wn6315", "title": "「ロティ」島兵要地誌資料圖", "ckey": 10425374, "available": true, "iiifUrl": "https://purl.stanford.edu/fm576wn6315/iiif/manifest" }, "geometry": { "type": "Polygon", "coordinates": [ [ [ 122.483333, -11.02 ], [ 122.8166663, -11.02 ], [ 122.816667, -10.661111 ], [ 122.483333, -10.661111 ], [ 122.483333, -11.02 ] ] ] } },
{ "type": "Feature", "properties": { "Id": 0, "Sheet_ID": "ス2-C_チモール島 26", "label": "ス2-C_チモール島 26", "call_short": "G8117 .R6 S100 .J3", "call_num": "G8117 .R6 S100 .J3 2-C", "recid": "tz504zd1353", "websiteUrl": "https://purl.stanford.edu/tz504zd1353", "title": "「ロティ」島兵要地誌資料圖", "ckey": 10425374, "available": true, "iiifUrl": "https://purl.stanford.edu/tz504zd1353/iiif/manifest" }, "geometry": { "type": "Polygon", "coordinates": [ [ [ 122.8166663, -11.02 ], [ 123.1499997, -11.02 ], [ 123.1499997, -10.661111 ], [ 122.8166663, -10.661111 ], [ 122.8166663, -11.02 ] ] ] } },
{ "type": "Feature", "properties": { "Id": 0, "Sheet_ID": "ス2-B_チモール島 27", "label": "ス2-B_チモール島 27", "call_short": "G8117 .R6 S100 .J3", "call_num": "G8117 .R6 S100 .J3 2-B", "recid": "wx279fk3844", "websiteUrl": "https://purl.stanford.edu/wx279fk3844", "title": "「ロティ」島兵要地誌資料圖", "ckey": 10425374, "available": true, "iiifUrl": "https://purl.stanford.edu/wx279fk3844/iiif/manifest" }, "geometry": { "type": "Polygon", "coordinates": [ [ [ 123.1499997, -11.02 ], [ 123.483333, -11.02 ], [ 123.483333, -10.661111 ], [ 123.1499997, -10.661111 ], [ 123.1499997, -11.02 ] ] ] } },
{ "type": "Feature", "properties": { "Id": 0, "Sheet_ID": "ス2-A_チモール島 24", "label": "ス2-A_チモール島 24", "call_short": "G8117 .R6 S100 .J3", "call_num": "G8117 .R6 S100 .J3 2-A", "recid": "gk414rt9197", "websiteUrl": "https://purl.stanford.edu/gk414rt9197", "title": "「ロティ」島兵要地誌資料圖", "ckey": 10425374, "available": true, "iiifUrl": "https://purl.stanford.edu/gk414rt9197/iiif/manifest" }, "geometry": { "type": "Polygon", "coordinates": [ [ [ 123.1, -10.661111 ], [ 123.483333, -10.661111 ], [ 123.483333, -10.327778 ], [ 123.1, -10.327778 ], [ 123.1, -10.661111 ] ] ] } }
]
}
