{
"type": "FeatureCollection",
"name": "index_map",
"features": [
{ "type": "Feature", "properties": { "Id": 0, "Sheet_ID": "八タ15. アノール", "label": "八タ15. アノール", "call_short": "G7320 S100 .J33", "call_num": "G7320 S100 .J33 8TA15", "recid": "qf434zf3991", "websiteUrl": "https://purl.stanford.edu/qf434zf3991", "title": "東「ソ」十万分一圖 / 十万分一地誌圖", "ckey": 12363920, "available": true, "iiifUrl": "https://purl.stanford.edu/qf434zf3991/iiif/manifest" }, "geometry": { "type": "Polygon", "coordinates": [ [ [ 142.0, 50.0 ], [ 143.0, 50.0 ], [ 143.0, 50.6666667 ], [ 142.0, 50.6666667 ], [ 142.0, 50.0 ] ] ] } },
{ "type": "Feature", "properties": { "Id": 0, "Sheet_ID": "八タ10. ランガリー河", "label": "八タ10. ランガリー河", "call_short": "G7320 S100 .J33", "call_num": "G7320 S100 .J33 8TA10", "recid": "sw872hm0205", "websiteUrl": "https://purl.stanford.edu/sw872hm0205", "title": "東「ソ」十万分一圖 / 十万分一地誌圖", "ckey": 12363920, "available": true, "iiifUrl": "https://purl.stanford.edu/sw872hm0205/iiif/manifest" }, "geometry": { "type": "Polygon", "coordinates": [ [ [ 143.0, 50.0 ], [ 144.0, 50.0 ], [ 144.0, 50.6666667 ], [ 143.0, 50.6666667 ], [ 143.0, 50.0 ] ] ] } },
{ "type": "Feature", "properties": { "Id": 0, "Sheet_ID": "アレクサンドロフスク", "label": "アレクサンドロフスク", "call_short": null, "call_num": null, "recid": null, "websiteUrl": null, "title": null, "ckey": 0, "available": false, "iiifUrl": null }, "geometry": { "type": "Polygon", "coordinates": [ [ [ 142.0, 50.6666667 ], [ 143.0, 50.6666667 ], [ 143.0, 51.3333333 ], [ 142.0, 51.3333333 ], [ 142.0, 50.6666667 ] ] ] } },
{ "type": "Feature", "properties": { "Id": 0, "Sheet_ID": "八タ9. コンギ", "label": "八タ9. コンギ", "call_short": "G7320 S100 .J33", "call_num": "G7320 S100 .J33 8TA9", "recid": "fm044kz0737", "websiteUrl": "https://purl.stanford.edu/fm044kz0737", "title": "東「ソ」十万分一圖 / 十万分一地誌圖", "ckey": 12363920, "available": true, "iiifUrl": "https://purl.stanford.edu/fm044kz0737/iiif/manifest" }, "geometry": { "type": "Polygon", "coordinates": [ [ [ 143.0, 50.6666667 ], [ 144.0, 50.6666667 ], [ 144.0, 51.3333333 ], [ 143.0, 51.3333333 ], [ 143.0, 50.6666667 ] ] ] } },
{ "type": "Feature", "properties": { "Id": 0, "Sheet_ID": "ヌイシ", "label": "ヌイシ", "call_short": null, "call_num": null, "recid": null, "websiteUrl": null, "title": null, "ckey": 0, "available": false, "iiifUrl": null }, "geometry": { "type": "Polygon", "coordinates": [ [ [ 142.0, 51.3333333 ], [ 143.0, 51.3333333 ], [ 143.0, 52.0 ], [ 142.0, 52.0 ], [ 142.0, 51.3333333 ] ] ] } },
{ "type": "Feature", "properties": { "Id": 0, "Sheet_ID": "八タ8. カタングリ", "label": "八タ8. カタングリ", "call_short": "G7320 S100 .J33", "call_num": "G7320 S100 .J33 8TA8", "recid": "bv235zr0620", "websiteUrl": "https://purl.stanford.edu/bv235zr0620", "title": "東「ソ」十万分一圖 / 十万分一地誌圖", "ckey": 12363920, "available": true, "iiifUrl": "https://purl.stanford.edu/bv235zr0620/iiif/manifest" }, "geometry": { "type": "Polygon", "coordinates": [ [ [ 143.0, 51.3333333 ], [ 143.5, 51.3333333 ], [ 143.5, 52.0 ], [ 143.0, 52.0 ], [ 143.0, 51.3333333 ] ] ] } },
{ "type": "Feature", "properties": { "Id": 0, "Sheet_ID": "ワール河", "label": "ワール河", "call_short": null, "call_num": null, "recid": null, "websiteUrl": null, "title": null, "ckey": 0, "available": false, "iiifUrl": null }, "geometry": { "type": "Polygon", "coordinates": [ [ [ 142.0, 52.0 ], [ 143.0, 52.0 ], [ 143.0, 52.6666667 ], [ 142.0, 52.6666667 ], [ 142.0, 52.0 ] ] ] } },
{ "type": "Feature", "properties": { "Id": 0, "Sheet_ID": "八タ7. チャイウォ", "label": "八タ7. チャイウォ", "call_short": "G7320 S100 .J33", "call_num": "G7320 S100 .J33 8TA7", "recid": "gn768rv5601", "websiteUrl": "https://purl.stanford.edu/gn768rv5601", "title": "東「ソ」十万分一圖 / 十万分一地誌圖", "ckey": 12363920, "available": true, "iiifUrl": "https://purl.stanford.edu/gn768rv5601/iiif/manifest" }, "geometry": { "type": "Polygon", "coordinates": [ [ [ 143.0, 52.0 ], [ 143.5, 52.0 ], [ 143.5, 52.6666667 ], [ 143.0, 52.6666667 ], [ 143.0, 52.0 ] ] ] } },
{ "type": "Feature", "properties": { "Id": 0, "Sheet_ID": "ピーヤ高原", "label": "ピーヤ高原", "call_short": null, "call_num": null, "recid": null, "websiteUrl": null, "title": null, "ckey": 0, "available": false, "iiifUrl": null }, "geometry": { "type": "Polygon", "coordinates": [ [ [ 142.0, 52.6666667 ], [ 143.0, 52.6666667 ], [ 143.0, 53.3333333 ], [ 142.0, 53.3333333 ], [ 142.0, 52.6666667 ] ] ] } },
{ "type": "Feature", "properties": { "Id": 0, "Sheet_ID": "八タ6. キャクル湾", "label": "八タ6. キャクル湾", "call_short": "G7320 S100 .J33", "call_num": "G7320 S100 .J33 8TA6", "recid": "jd869ky0831", "websiteUrl": "https://purl.stanford.edu/jd869ky0831", "title": "東「ソ」十万分一圖 / 十万分一地誌圖", "ckey": 12363920, "available": true, "iiifUrl": "https://purl.stanford.edu/jd869ky0831/iiif/manifest" }, "geometry": { "type": "Polygon", "coordinates": [ [ [ 143.0, 52.6666667 ], [ 143.5, 52.6666667 ], [ 143.5, 53.3333333 ], [ 143.0, 53.3333333 ], [ 143.0, 52.6666667 ] ] ] } },
{ "type": "Feature", "properties": { "Id": 0, "Sheet_ID": "八レ15. オハ", "label": "八レ15. オハ", "call_short": "G7320 S100 .J33", "call_num": "G7320 S100 .J33 8RE15", "recid": "qj178ry5888", "websiteUrl": "https://purl.stanford.edu/qj178ry5888", "title": "東「ソ」十万分一圖 / 十万分一地誌圖", "ckey": 12363920, "available": true, "iiifUrl": "https://purl.stanford.edu/qj178ry5888/iiif/manifest" }, "geometry": { "type": "Polygon", "coordinates": [ [ [ 142.0, 53.3333333 ], [ 143.0, 53.3333333 ], [ 143.0, 54.0 ], [ 142.0, 54.0 ], [ 142.0, 53.3333333 ] ] ] } },
{ "type": "Feature", "properties": { "Id": 0, "Sheet_ID": "八レ10. エハビ", "label": "八レ10. エハビ", "call_short": "G7320 S100 .J33", "call_num": "G7320 S100 .J33 8RE10", "recid": "cf013wk4384", "websiteUrl": "https://purl.stanford.edu/cf013wk4384", "title": "東「ソ」十万分一圖 / 十万分一地誌圖", "ckey": 12363920, "available": true, "iiifUrl": "https://purl.stanford.edu/cf013wk4384/iiif/manifest" }, "geometry": { "type": "Polygon", "coordinates": [ [ [ 143.0, 53.3333333 ], [ 143.5, 53.3333333 ], [ 143.5, 53.666667 ], [ 143.0, 53.666667 ], [ 143.0, 53.3333333 ] ] ] } }
]
}
