{
"type": "FeatureCollection",
"name": "index_map",
"features": [
{ "type": "Feature", "properties": { "Id": 0, "Sheet_ID": "ロタ島", "label": "ロタ島", "call_short": "G9412 .R6 S25 .J3", "call_num": "G9412 .R6 S25 .J3", "recid": "rm863yt1960", "websiteUrl": "https://purl.stanford.edu/rm863yt1960", "title": "ロタ島 / 二万五千分一陸海編合圖", "ckey": 10648654, "web_map": null, "available": true, "iiifUrl": "https://purl.stanford.edu/rm863yt1960/iiif/manifest" }, "geometry": { "type": "Polygon", "coordinates": [ [ [ 145.108333, 14.083333 ], [ 145.308333, 14.083333 ], [ 145.308333, 14.219444 ], [ 145.108333, 14.219444 ], [ 145.108333, 14.083333 ] ] ] } }
]
}
