{
"type": "FeatureCollection",
"name": "index_map",
"features": [
{ "type": "Feature", "properties": { "Id": 0, "Sheet_ID": "SHEET 5", "label": "SHEET 5", "call_short": "G7322 .R3 S25 .J3", "call_num": "G7322 .R3 S25 .J3 SHEET 5", "recid": "rq919qd0502", "websiteUrl": "https://purl.stanford.edu/rq919qd0502", "title": "綏芬河附近國境要圖", "ckey": 10496621, "available": true, "iiifUrl": "https://purl.stanford.edu/rq919qd0502/iiif/manifest" }, "geometry": { "type": "Polygon", "coordinates": [ [ [ 131.2, 44.2 ], [ 131.475, 44.2 ], [ 131.475, 44.3333333 ], [ 131.2, 44.3333333 ], [ 131.2, 44.2 ] ] ] } },
{ "type": "Feature", "properties": { "Id": 0, "Sheet_ID": "SHEET 4", "label": "SHEET 4", "call_short": "G7322 .R3 S25 .J3", "call_num": "G7322 .R3 S25 .J3 SHEET 4", "recid": "zx316yb9141", "websiteUrl": "https://purl.stanford.edu/zx316yb9141", "title": "綏芬河附近國境要圖", "ckey": 10496621, "available": true, "iiifUrl": "https://purl.stanford.edu/zx316yb9141/iiif/manifest" }, "geometry": { "type": "Polygon", "coordinates": [ [ [ 131.145833, 44.3333333 ], [ 131.420833, 44.3333333 ], [ 131.420833, 44.4666667 ], [ 131.145833, 44.4666667 ], [ 131.145833, 44.3333333 ] ] ] } },
{ "type": "Feature", "properties": { "Id": 0, "Sheet_ID": "SHEET 2", "label": "SHEET 2", "call_short": "G7322 .R3 S25 .J3", "call_num": "G7322 .R3 S25 .J3 SHEET 2", "recid": "fg416qd4279", "websiteUrl": "https://purl.stanford.edu/fg416qd4279", "title": "綏芬河附近國境要圖", "ckey": 10496621, "available": true, "iiifUrl": "https://purl.stanford.edu/fg416qd4279/iiif/manifest" }, "geometry": { "type": "Polygon", "coordinates": [ [ [ 131.420833, 44.3333333 ], [ 131.695833, 44.3333333 ], [ 131.695833, 44.4666667 ], [ 131.420833, 44.4666667 ], [ 131.420833, 44.3333333 ] ] ] } },
{ "type": "Feature", "properties": { "Id": 0, "Sheet_ID": "SHEET 3", "label": "SHEET 3", "call_short": "G7322 .R3 S25 .J3", "call_num": "G7322 .R3 S25 .J3 SHEET 3", "recid": "bz271wh9035", "websiteUrl": "https://purl.stanford.edu/bz271wh9035", "title": "綏芬河附近國境要圖", "ckey": 10496621, "available": true, "iiifUrl": "https://purl.stanford.edu/bz271wh9035/iiif/manifest" }, "geometry": { "type": "Polygon", "coordinates": [ [ [ 131.145833, 44.4666667 ], [ 131.420833, 44.4666667 ], [ 131.420833, 44.6 ], [ 131.145833, 44.6 ], [ 131.145833, 44.4666667 ] ] ] } },
{ "type": "Feature", "properties": { "Id": 0, "Sheet_ID": "SHEET 1", "label": "SHEET 1", "call_short": "G7322 .R3 S25 .J3", "call_num": "G7322 .R3 S25 .J3 SHEET 1", "recid": "ff634qx1167", "websiteUrl": "https://purl.stanford.edu/ff634qx1167", "title": "綏芬河附近國境要圖", "ckey": 10496621, "available": true, "iiifUrl": "https://purl.stanford.edu/ff634qx1167/iiif/manifest" }, "geometry": { "type": "Polygon", "coordinates": [ [ [ 131.420833, 44.4666667 ], [ 131.695833, 44.4666667 ], [ 131.695833, 44.6 ], [ 131.420833, 44.6 ], [ 131.420833, 44.4666667 ] ] ] } }
]
}
