{
"type": "FeatureCollection",
"name": "index_map",
"features": [
{ "type": "Feature", "properties": { "Id": 0, "Sheet_ID": "東京海灣至小笠原群島", "label": "東京海灣至小笠原群島", "call_short": "G7801 .P6 1944 .K3", "call_num": "G7801 .P6 1944 .K3 202", "recid": "xp889qh9575", "websiteUrl": "https://purl.stanford.edu/xp889qh9575", "title": "[機密海圖 水路部秘]", "ckey": 12782562, "available": true, "iiifUrl": "https://purl.stanford.edu/xp889qh9575/iiif/manifest" }, "geometry": { "type": "Polygon", "coordinates": [ [ [ 135.75, 24.75 ], [ 144.5, 24.75 ], [ 144.5, 35.833333 ], [ 135.75, 35.833333 ], [ 135.75, 24.75 ] ] ] } },
{ "type": "Feature", "properties": { "Id": 0, "Sheet_ID": "南支那海北部", "label": "南支那海北部", "call_short": "G7801 .P6 1944 .K3", "call_num": "G7801 .P6 1944 .K3 209", "recid": "nf787fz1752", "websiteUrl": "https://purl.stanford.edu/nf787fz1752", "title": "[機密海圖 水路部秘]", "ckey": 12782562, "available": true, "iiifUrl": "https://purl.stanford.edu/nf787fz1752/iiif/manifest" }, "geometry": { "type": "Polygon", "coordinates": [ [ [ 103.5, 9.666667 ], [ 125.0, 9.666667 ], [ 125.0, 23.75 ], [ 103.5, 23.75 ], [ 103.5, 9.666667 ] ] ] } },
{ "type": "Feature", "properties": { "Id": 0, "Sheet_ID": "南支那海南部", "label": "南支那海南部", "call_short": "G7801 .P6 1944 .K3", "call_num": "G7801 .P6 1944 .K3 210", "recid": "rw198fd1746", "websiteUrl": "https://purl.stanford.edu/rw198fd1746", "title": "[機密海圖 水路部秘]", "ckey": 12782562, "available": true, "iiifUrl": "https://purl.stanford.edu/rw198fd1746/iiif/manifest" }, "geometry": { "type": "Polygon", "coordinates": [ [ [ 98.916667, -1.0 ], [ 120.333333, -1.0 ], [ 120.333333, 13.75 ], [ 98.916667, 13.75 ], [ 98.916667, -1.0 ] ] ] } },
{ "type": "Feature", "properties": { "Id": 0, "Sheet_ID": "重慶（巴縣）至雲南（昆明）", "label": "重慶（巴縣）至雲南（昆明）", "call_short": "G7801 .P6 1944 .K3", "call_num": "G7801 .P6 1944 .K3 656", "recid": "bw283vk2291", "websiteUrl": "https://purl.stanford.edu/bw283vk2291", "title": "[機密海圖 水路部秘]", "ckey": 12782562, "available": true, "iiifUrl": "https://purl.stanford.edu/bw283vk2291/iiif/manifest" }, "geometry": { "type": "Polygon", "coordinates": [ [ [ 102.333333, 24.166667 ], [ 108.0, 24.166667 ], [ 108.0, 31.0 ], [ 102.333333, 31.0 ], [ 102.333333, 24.166667 ] ] ] } },
{ "type": "Feature", "properties": { "Id": 0, "Sheet_ID": "海南島至バンコック", "label": "海南島至バンコック", "call_short": "G7801 .P6 1944 .K3", "call_num": "G7801 .P6 1944 .K3 1001", "recid": "qn027mz6437", "websiteUrl": "https://purl.stanford.edu/qn027mz6437", "title": "[機密海圖 水路部秘]", "ckey": 12782562, "available": true, "iiifUrl": "https://purl.stanford.edu/qn027mz6437/iiif/manifest" }, "geometry": { "type": "Polygon", "coordinates": [ [ [ 100.0, 9.666667 ], [ 111.0, 9.666667 ], [ 111.0, 25.0 ], [ 100.0, 25.0 ], [ 100.0, 9.666667 ] ] ] } },
{ "type": "Feature", "properties": { "Id": 0, "Sheet_ID": "バンコック至シンガポール", "label": "バンコック至シンガポール", "call_short": "G7801 .P6 1944 .K3", "call_num": "G7801 .P6 1944 .K3 1002", "recid": "hz099tk5856", "websiteUrl": "https://purl.stanford.edu/hz099tk5856", "title": "[機密海圖 水路部秘]", "ckey": 12782562, "available": true, "iiifUrl": "https://purl.stanford.edu/hz099tk5856/iiif/manifest" }, "geometry": { "type": "Polygon", "coordinates": [ [ [ 98.0, 0.666667 ], [ 109.0, 0.666667 ], [ 109.0, 15.333333 ], [ 98.0, 15.333333 ], [ 98.0, 0.666667 ] ] ] } },
{ "type": "Feature", "properties": { "Id": 0, "Sheet_ID": "擇捉島至新知島", "label": "擇捉島至新知島", "call_short": "G7801 .P6 1944 .K3", "call_num": "G7801 .P6 1944 .K3 1028", "recid": "hp439sr0671", "websiteUrl": "https://purl.stanford.edu/hp439sr0671", "title": "[機密海圖 水路部秘]", "ckey": 12782562, "available": true, "iiifUrl": "https://purl.stanford.edu/hp439sr0671/iiif/manifest" }, "geometry": { "type": "Polygon", "coordinates": [ [ [ 147.333333, 44.666667 ], [ 152.666667, 44.666667 ], [ 152.666667, 47.2 ], [ 147.333333, 47.2 ], [ 147.333333, 44.666667 ] ] ] } },
{ "type": "Feature", "properties": { "Id": 0, "Sheet_ID": "小笠原群島", "label": "小笠原群島", "call_short": "G7801 .P6 1944 .K3", "call_num": "G7801 .P6 1944 .K3 1051", "recid": "xs825ky4663", "websiteUrl": "https://purl.stanford.edu/xs825ky4663", "title": "[機密海圖 水路部秘]", "ckey": 12782562, "available": true, "iiifUrl": "https://purl.stanford.edu/xs825ky4663/iiif/manifest" }, "geometry": { "type": "Polygon", "coordinates": [ [ [ 140.0, 23.5 ], [ 143.416667, 23.5 ], [ 143.416667, 28.416667 ], [ 140.0, 28.416667 ], [ 140.0, 23.5 ] ] ] } },
{ "type": "Feature", "properties": { "Id": 0, "Sheet_ID": "父島至サイパン島", "label": "父島至サイパン島", "call_short": "G7801 .P6 1944 .K3", "call_num": "G7801 .P6 1944 .K3 1061", "recid": "qq601rc0212", "websiteUrl": "https://purl.stanford.edu/qq601rc0212", "title": "[機密海圖 水路部秘]", "ckey": 12782562, "available": true, "iiifUrl": "https://purl.stanford.edu/qq601rc0212/iiif/manifest" }, "geometry": { "type": "Polygon", "coordinates": [ [ [ 139.5, 12.5 ], [ 150.0, 12.5 ], [ 150.0, 27.5 ], [ 139.5, 27.5 ], [ 139.5, 12.5 ] ] ] } },
{ "type": "Feature", "properties": { "Id": 0, "Sheet_ID": "サイパン島至パラオ諸島", "label": "サイパン島至パラオ諸島", "call_short": "G7801 .P6 1944 .K3", "call_num": "G7801 .P6 1944 .K3 1062", "recid": "vr450cb4427", "websiteUrl": "https://purl.stanford.edu/vr450cb4427", "title": "[機密海圖 水路部秘]", "ckey": 12782562, "available": true, "iiifUrl": "https://purl.stanford.edu/vr450cb4427/iiif/manifest" }, "geometry": { "type": "Polygon", "coordinates": [ [ [ 132.0, 15.333333 ], [ 132.0, 4.5 ], [ 148.0, 4.5 ], [ 148.0, 15.333333 ], [ 132.0, 15.333333 ] ] ] } },
{ "type": "Feature", "properties": { "Id": 0, "Sheet_ID": "サイパン島至ポナペ島", "label": "サイパン島至ポナペ島", "call_short": "G7801 .P6 1944 .K3", "call_num": "G7801 .P6 1944 .K3 1063", "recid": "cv420xc7404", "websiteUrl": "https://purl.stanford.edu/cv420xc7404", "title": "[機密海圖 水路部秘]", "ckey": 12782562, "available": true, "iiifUrl": "https://purl.stanford.edu/cv420xc7404/iiif/manifest" }, "geometry": { "type": "Polygon", "coordinates": [ [ [ 160.0, 15.333333 ], [ 144.0, 15.333333 ], [ 144.0, 4.5 ], [ 160.0, 4.5 ], [ 160.0, 15.333333 ] ] ] } },
{ "type": "Feature", "properties": { "Id": 0, "Sheet_ID": "ポナペ島至マーシャル諸島", "label": "ポナペ島至マーシャル諸島", "call_short": "G7801 .P6 1944 .K3", "call_num": "G7801 .P6 1944 .K3 1064", "recid": "td144vw7445", "websiteUrl": "https://purl.stanford.edu/td144vw7445", "title": "[機密海圖 水路部秘]", "ckey": 12782562, "available": true, "iiifUrl": "https://purl.stanford.edu/td144vw7445/iiif/manifest" }, "geometry": { "type": "Polygon", "coordinates": [ [ [ 157.666667, 15.333333 ], [ 157.666667, 4.5 ], [ 173.666667, 4.5 ], [ 173.666667, 15.333333 ], [ 157.666667, 15.333333 ] ] ] } },
{ "type": "Feature", "properties": { "Id": 0, "Sheet_ID": "ニュー、ギネア東部", "label": "ニュー、ギネア東部", "call_short": "G7801 .P6 1944 .K3", "call_num": "G7801 .P6 1944 .K3 1069", "recid": "gb707pp1023", "websiteUrl": "https://purl.stanford.edu/gb707pp1023", "title": "[機密海圖 水路部秘]", "ckey": 12782562, "available": true, "iiifUrl": "https://purl.stanford.edu/gb707pp1023/iiif/manifest" }, "geometry": { "type": "Polygon", "coordinates": [ [ [ 136.5, -11.0 ], [ 152.5152, -11.0 ], [ 152.5, 0.0 ], [ 136.5, 0.0 ], [ 136.5, -11.0 ] ] ] } },
{ "type": "Feature", "properties": { "Id": 0, "Sheet_ID": "ニュー、ギネア至濠洲北部東區", "label": "ニュー、ギネア至濠洲北部東區", "call_short": "G7801 .P6 1944 .K3", "call_num": "G7801 .P6 1944 .K3 1072", "recid": "gt859cc5891", "websiteUrl": "https://purl.stanford.edu/gt859cc5891", "title": "[機密海圖 水路部秘]", "ckey": 12782562, "available": true, "iiifUrl": "https://purl.stanford.edu/gt859cc5891/iiif/manifest" }, "geometry": { "type": "Polygon", "coordinates": [ [ [ 130.75, -18.5 ], [ 147.166667, -18.5 ], [ 147.166667, -8.5 ], [ 130.75, -8.5 ], [ 130.75, -18.5 ] ] ] } },
{ "type": "Feature", "properties": { "Id": 0, "Sheet_ID": "東カロリン諸島至ニュー、ギネア", "label": "東カロリン諸島至ニュー、ギネア", "call_short": "G7801 .P6 1944 .K3", "call_num": "G7801 .P6 1944 .K3 1093", "recid": "kq073jt0685", "websiteUrl": "https://purl.stanford.edu/kq073jt0685", "title": "[機密海圖 水路部秘]", "ckey": 12782562, "available": true, "iiifUrl": "https://purl.stanford.edu/kq073jt0685/iiif/manifest" }, "geometry": { "type": "Polygon", "coordinates": [ [ [ 134.0, -12.0 ], [ 166.0, -12.0 ], [ 166.0, 10.0 ], [ 134.0, 10.0 ], [ 134.0, -12.0 ] ] ] } },
{ "type": "Feature", "properties": { "Id": 0, "Sheet_ID": "小笠原群島至マーシャル諸島", "label": "小笠原群島至マーシャル諸島", "call_short": "G7801 .P6 1944 .K3", "call_num": "G7801 .P6 1944 .K3 1097", "recid": "zc389ys8925", "websiteUrl": "https://purl.stanford.edu/zc389ys8925", "title": "[機密海圖 水路部秘]", "ckey": 12782562, "available": true, "iiifUrl": "https://purl.stanford.edu/zc389ys8925/iiif/manifest" }, "geometry": { "type": "Polygon", "coordinates": [ [ [ 140.0, 27.0 ], [ 140.0, 5.0 ], [ 172.0, 5.0 ], [ 172.0, 27.0 ], [ 140.0, 27.0 ] ] ] } },
{ "type": "Feature", "properties": { "Id": 0, "Sheet_ID": "マーシャル諸島至ミッドウェイ島", "label": "マーシャル諸島至ミッドウェイ島", "call_short": "G7801 .P6 1944 .K3", "call_num": "G7801 .P6 1944 .K3 1098", "recid": "xf743wr7745", "websiteUrl": "https://purl.stanford.edu/xf743wr7745", "title": "[機密海圖 水路部秘]", "ckey": 12782562, "available": true, "iiifUrl": "https://purl.stanford.edu/xf743wr7745/iiif/manifest" }, "geometry": { "type": "Polygon", "coordinates": [ [ [ 162.0, 29.5 ], [ 162.0, -1.5 ], [ 176.5, -1.5 ], [ 176.5, 29.5 ], [ 162.0, 29.5 ] ] ] } },
{ "type": "Feature", "properties": { "Id": 0, "Sheet_ID": "マーシャル諸島至クリスマス島", "label": "マーシャル諸島至クリスマス島", "call_short": "G7801 .P6 1944 .K3", "call_num": "G7801 .P6 1944 .K3 1099", "recid": "fz800qp8928", "websiteUrl": "https://purl.stanford.edu/fz800qp8928", "title": "[機密海圖 水路部秘]", "ckey": 12782562, "available": true, "iiifUrl": "https://purl.stanford.edu/fz800qp8928/iiif/manifest" }, "geometry": { "type": "MultiPolygon", "coordinates": [ [ [ [ -157.5, -5.0 ], [ -157.5, 17.0 ], [ -180.0, 17.0 ], [ -180.0, -5.0 ], [ -157.5, -5.0 ] ] ], [ [ [ 180.0, -5.0 ], [ 180.0, 17.0 ], [ 169.5, 17.0 ], [ 169.5, -5.0 ], [ 180.0, -5.0 ] ] ] ] } },
{ "type": "Feature", "properties": { "Id": 0, "Sheet_ID": "マーシャル諸島至フィージー諸島", "label": "マーシャル諸島至フィージー諸島", "call_short": "G7801 .P6 1944 .K3", "call_num": "G7801 .P6 1944 .K3 1102", "recid": "gw901yq6430", "websiteUrl": "https://purl.stanford.edu/gw901yq6430", "title": "[機密海圖 水路部秘]", "ckey": 12782562, "available": true, "iiifUrl": "https://purl.stanford.edu/gw901yq6430/iiif/manifest" }, "geometry": { "type": "MultiPolygon", "coordinates": [ [ [ [ -170.0, -22.5 ], [ -170.0, 9.5 ], [ -180.0, 9.5 ], [ -180.0, -22.5 ], [ -170.0, -22.5 ] ] ], [ [ [ 180.0, -22.5 ], [ 180.0, 9.5 ], [ 167.5, 9.5 ], [ 167.5, -22.5 ], [ 180.0, -22.5 ] ] ] ] } },
{ "type": "Feature", "properties": { "Id": 0, "Sheet_ID": "臺灣沿岸", "label": "臺灣沿岸", "call_short": "G7801 .P6 1944 .K3", "call_num": "G7801 .P6 1944 .K3 5068", "recid": "yy788cb5873", "websiteUrl": "https://purl.stanford.edu/yy788cb5873", "title": "[機密海圖 水路部秘]", "ckey": 12782562, "available": true, "iiifUrl": "https://purl.stanford.edu/yy788cb5873/iiif/manifest" }, "geometry": { "type": "Polygon", "coordinates": [ [ [ 119.333333, 20.833333 ], [ 123.0, 20.833333 ], [ 123.0, 25.833333 ], [ 119.333333, 25.833333 ], [ 119.333333, 20.833333 ] ] ] } },
{ "type": "Feature", "properties": { "Id": 0, "Sheet_ID": "トラック諸島至ラバウル", "label": "トラック諸島至ラバウル", "call_short": "G7801 .P6 1944 .K3", "call_num": "G7801 .P6 1944 .K3 5252", "recid": "ps073zp7112", "websiteUrl": "https://purl.stanford.edu/ps073zp7112", "title": "[機密海圖 水路部秘]", "ckey": 12782562, "available": true, "iiifUrl": "https://purl.stanford.edu/ps073zp7112/iiif/manifest" }, "geometry": { "type": "Polygon", "coordinates": [ [ [ 149.0, -8.0 ], [ 160.0, -8.0 ], [ 160.0, 8.0 ], [ 149.0, 8.0 ], [ 149.0, -8.0 ] ] ] } },
{ "type": "Feature", "properties": { "Id": 0, "Sheet_ID": "ソロモン諸島至ニューカレドニア", "label": "ソロモン諸島至ニューカレドニア", "call_short": "G7801 .P6 1944 .K3", "call_num": "G7801 .P6 1944 .K3 5276", "recid": "zw233df7526", "websiteUrl": "https://purl.stanford.edu/zw233df7526", "title": "[機密海圖 水路部秘]", "ckey": 12782562, "available": true, "iiifUrl": "https://purl.stanford.edu/zw233df7526/iiif/manifest" }, "geometry": { "type": "Polygon", "coordinates": [ [ [ 157.5, -24.0 ], [ 168.666667, -24.0 ], [ 168.666667, -8.5 ], [ 157.5, -8.5 ], [ 157.5, -24.0 ] ] ] } }
]
}
