{
"type": "FeatureCollection",
"name": "index_map",
"xy_coordinate_resolution": 1e-07,
"features": [
{ "type": "Feature", "properties": { "Id": 0, "Sheet_ID": "1. 東部 (濱綏線以北地區)", "label": "1. 東部 (濱綏線以北地區)", "call_short": "G7831 .N44 1937 .J3", "call_num": "G7831 .N44 1937 .J3 MAP 1", "recid": "fb385pt7881", "websiteUrl": "https://purl.stanford.edu/fb385pt7881", "title": "北満洲給水兵要地誌圖", "ckey": 9925274, "available": true, "iiifUrl": "https://purl.stanford.edu/fb385pt7881/iiif/manifest" }, "geometry": { "type": "Polygon", "coordinates": [ [ [ 129.416667, 45.0 ], [ 135.0, 45.0 ], [ 135.0, 48.333333 ], [ 129.416667, 48.333333 ], [ 129.416667, 45.0 ] ] ] } },
{ "type": "Feature", "properties": { "Id": 0, "Sheet_ID": "2. 東部 (濱綏線以南地區)", "label": "2. 東部 (濱綏線以南地區)", "call_short": "G7831 .N44 1937 .J3", "call_num": "G7831 .N44 1937 .J3 MAP 2", "recid": "wh175zy2552", "websiteUrl": "https://purl.stanford.edu/wh175zy2552", "title": "北満洲給水兵要地誌圖", "ckey": 9925274, "available": true, "iiifUrl": "https://purl.stanford.edu/wh175zy2552/iiif/manifest" }, "geometry": { "type": "Polygon", "coordinates": [ [ [ 127.5, 42.5 ], [ 132.583333, 42.5 ], [ 132.583333, 45.733333 ], [ 127.5, 45.733333 ], [ 127.5, 42.5 ] ] ] } },
{ "type": "Feature", "properties": { "Id": 0, "Sheet_ID": "3. 北部 (小興安嶺以南地區)", "label": "3. 北部 (小興安嶺以南地區)", "call_short": "G7831 .N44 1937 .J3", "call_num": "G7831 .N44 1937 .J3 MAP 3", "recid": "mh239ms5676", "websiteUrl": "https://purl.stanford.edu/mh239ms5676", "title": "北満洲給水兵要地誌圖", "ckey": 9925274, "available": true, "iiifUrl": "https://purl.stanford.edu/mh239ms5676/iiif/manifest" }, "geometry": { "type": "Polygon", "coordinates": [ [ [ 125.0, 50.0 ], [ 125.0, 46.583333 ], [ 130.0, 46.583333 ], [ 130.0, 50.0 ], [ 125.0, 50.0 ] ] ] } },
{ "type": "Feature", "properties": { "Id": 0, "Sheet_ID": "4. 北部 (小興安嶺以北地區)", "label": "4. 北部 (小興安嶺以北地區)", "call_short": "G7831 .N44 1937 .J3", "call_num": "G7831 .N44 1937 .J3 MAP 4", "recid": "pg012gs3998", "websiteUrl": "https://purl.stanford.edu/pg012gs3998", "title": "北満洲給水兵要地誌圖", "ckey": 9925274, "available": true, "iiifUrl": "https://purl.stanford.edu/pg012gs3998/iiif/manifest" }, "geometry": { "type": "Polygon", "coordinates": [ [ [ 122.316667, 50.0 ], [ 127.783333, 50.0 ], [ 127.783333, 53.766667 ], [ 122.316667, 53.766667 ], [ 122.316667, 50.0 ] ] ] } },
{ "type": "Feature", "properties": { "Id": 0, "Sheet_ID": "5. 西部 (大興安嶺以東地區其一)", "label": "5. 西部 (大興安嶺以東地區其一)", "call_short": "G7831 .N44 1937 .J3", "call_num": "G7831 .N44 1937 .J3 MAP 5", "recid": "gp107jm4072", "websiteUrl": "https://purl.stanford.edu/gp107jm4072", "title": "北満洲給水兵要地誌圖", "ckey": 9925274, "available": true, "iiifUrl": "https://purl.stanford.edu/gp107jm4072/iiif/manifest" }, "geometry": { "type": "Polygon", "coordinates": [ [ [ 125.0, 50.0 ], [ 120.0, 50.0 ], [ 120.0, 46.583333 ], [ 125.0, 46.583333 ], [ 125.0, 50.0 ] ] ] } },
{ "type": "Feature", "properties": { "Id": 0, "Sheet_ID": "6. 西部 (大興安嶺以東地區其二)", "label": "6. 西部 (大興安嶺以東地區其二)", "call_short": "G7831 .N44 1937 .J3", "call_num": "G7831 .N44 1937 .J3 MAP 6", "recid": "cg574kk6354", "websiteUrl": "https://purl.stanford.edu/cg574kk6354", "title": "北満洲給水兵要地誌圖", "ckey": 9925274, "available": true, "iiifUrl": "https://purl.stanford.edu/cg574kk6354/iiif/manifest" }, "geometry": { "type": "Polygon", "coordinates": [ [ [ 124.0, 45.0 ], [ 124.0, 46.583333 ], [ 120.0, 46.583333 ], [ 120.0, 45.0 ], [ 124.0, 45.0 ] ] ] } },
{ "type": "Feature", "properties": { "Id": 0, "Sheet_ID": "7. 西部 (三河地區)", "label": "7. 西部 (三河地區)", "call_short": "G7831 .N44 1937 .J3", "call_num": "G7831 .N44 1937 .J3 MAP 7", "recid": "wn586fb2878", "websiteUrl": "https://purl.stanford.edu/wn586fb2878", "title": "北満洲給水兵要地誌圖", "ckey": 9925274, "available": true, "iiifUrl": "https://purl.stanford.edu/wn586fb2878/iiif/manifest" }, "geometry": { "type": "Polygon", "coordinates": [ [ [ 122.316667, 50.0 ], [ 122.316667, 51.75 ], [ 118.316667, 51.75 ], [ 118.316667, 50.0 ], [ 122.316667, 50.0 ] ] ] } }
]
}
