{
"type": "FeatureCollection",
"name": "index_map",
"xy_coordinate_resolution": 1e-07,
"features": [
{ "type": "Feature", "properties": { "Id": 0, "Sheet_ID": "支那東部其一 (北支國境)", "label": "支那東部其一 (北支國境)", "call_short": "G7822 .C47 S1000 .J3", "call_num": "G7822 .C47 S1000 .J3 E1 BASE", "recid": "pt565vr9929", "websiteUrl": "https://purl.stanford.edu/pt565vr9929", "title": "百万分一航空圖 [支那]", "ckey": 10563606, "available": true, "iiifUrl": "https://purl.stanford.edu/pt565vr9929/iiif/manifest" }, "geometry": { "type": "Polygon", "coordinates": [ [ [ 112.333333, 38.833333 ], [ 123.5, 38.666667 ], [ 123.75, 41.083333 ], [ 112.25, 41.25 ], [ 112.333333, 38.833333 ] ] ] } },
{ "type": "Feature", "properties": { "Id": 0, "Sheet_ID": "東部支那其二 (北支那)", "label": "東部支那其二 (北支那)", "call_short": "G7822 .C47 S1000 .J3", "call_num": "G7822 .C47 S1000 .J3 E2 BASE", "recid": "gv097pw4996", "websiteUrl": "https://purl.stanford.edu/gv097pw4996", "title": "百万分一航空圖 [支那]", "ckey": 10563606, "available": true, "iiifUrl": "https://purl.stanford.edu/gv097pw4996/iiif/manifest" }, "geometry": { "type": "Polygon", "coordinates": [ [ [ 112.583333, 33.75 ], [ 123.0, 33.583333 ], [ 123.5, 39.083333 ], [ 112.333333, 39.25 ], [ 112.583333, 33.75 ] ] ] } },
{ "type": "Feature", "properties": { "Id": 0, "Sheet_ID": "支那東部其三 (中支那)", "label": "支那東部其三 (中支那)", "call_short": "G7822 .C47 S1000 .J3", "call_num": "G7822 .C47 S1000 .J3 E3 BASE", "recid": "sq059fx9415", "websiteUrl": "https://purl.stanford.edu/sq059fx9415", "title": "百万分一航空圖 [支那]", "ckey": 10563606, "available": true, "iiifUrl": "https://purl.stanford.edu/sq059fx9415/iiif/manifest" }, "geometry": { "type": "Polygon", "coordinates": [ [ [ 112.833333, 27.75 ], [ 122.583333, 27.583333 ], [ 123.0, 33.583333 ], [ 112.583333, 33.75 ], [ 112.833333, 27.75 ] ] ] } },
{ "type": "Feature", "properties": { "Id": 0, "Sheet_ID": "支那東部其四 (南支那) 色刷 2", "label": "支那東部其四 (南支那) 色刷 2", "call_short": "G7822 .C47 S1000 .J3", "call_num": "G7822 .C47 S1000 .J3 E4", "recid": "sy476vd8533", "websiteUrl": "https://purl.stanford.edu/sy476vd8533", "title": "百万分一航空圖 [支那]", "ckey": 10563606, "available": true, "iiifUrl": "https://purl.stanford.edu/sy476vd8533/iiif/manifest" }, "geometry": { "type": "Polygon", "coordinates": [ [ [ 112.833333, 27.75 ], [ 112.916667, 21.75 ], [ 122.25, 21.583333 ], [ 122.583333, 27.583333 ], [ 112.833333, 27.75 ] ] ] } },
{ "type": "Feature", "properties": { "Id": 0, "Sheet_ID": "西部支那其一 (厚和寧夏近傍)", "label": "西部支那其一 (厚和寧夏近傍)", "call_short": "G7822 .C47 S1000 .J3", "call_num": "G7822 .C47 S1000 .J3 W1 BASE", "recid": "ch639tk8211", "websiteUrl": "https://purl.stanford.edu/ch639tk8211", "title": "百万分一航空圖 [支那]", "ckey": 10563606, "available": true, "iiifUrl": "https://purl.stanford.edu/ch639tk8211/iiif/manifest" }, "geometry": { "type": "Polygon", "coordinates": [ [ [ 102.25, 37.75 ], [ 113.583333, 37.916667 ], [ 113.75, 41.583333 ], [ 101.833333, 41.416667 ], [ 102.25, 37.75 ] ] ] } },
{ "type": "Feature", "properties": { "Id": 0, "Sheet_ID": "西部支那其二 (西安蘭州近傍) 色刷", "label": "西部支那其二 (西安蘭州近傍) 色刷", "call_short": "G7822 .C47 S1000 .J3", "call_num": "G7822 .C47 S1000 .J3 W2", "recid": "gw140tr5645", "websiteUrl": "https://purl.stanford.edu/gw140tr5645", "title": "百万分一航空圖 [支那]", "ckey": 10563606, "available": true, "iiifUrl": "https://purl.stanford.edu/gw140tr5645/iiif/manifest" }, "geometry": { "type": "Polygon", "coordinates": [ [ [ 102.666667, 33.583333 ], [ 113.416667, 33.75 ], [ 113.583333, 39.25 ], [ 102.083333, 39.083333 ], [ 102.666667, 33.583333 ] ] ] } },
{ "type": "Feature", "properties": { "Id": 0, "Sheet_ID": "支那西部其三 (宜昌成都近傍)", "label": "支那西部其三 (宜昌成都近傍)", "call_short": "G7822 .C47 S1000 .J3", "call_num": "G7822 .C47 S1000 .J3 W3 BASE", "recid": "jw206qd4596", "websiteUrl": "https://purl.stanford.edu/jw206qd4596", "title": "百万分一航空圖 [支那]", "ckey": 10563606, "available": true, "iiifUrl": "https://purl.stanford.edu/jw206qd4596/iiif/manifest" }, "geometry": { "type": "Polygon", "coordinates": [ [ [ 102.666667, 33.583333 ], [ 103.083333, 27.583333 ], [ 113.25, 27.75 ], [ 113.416667, 33.75 ], [ 102.666667, 33.583333 ] ] ] } },
{ "type": "Feature", "properties": { "Id": 0, "Sheet_ID": "支那西部其四 (梧州貴陽近傍)", "label": "支那西部其四 (梧州貴陽近傍)", "call_short": "G7822 .C47 S1000 .J3", "call_num": "G7822 .C47 S1000 .J3 W4 BASE", "recid": "sc492yq3382", "websiteUrl": "https://purl.stanford.edu/sc492yq3382", "title": "百万分一航空圖 [支那]", "ckey": 10563606, "available": true, "iiifUrl": "https://purl.stanford.edu/sc492yq3382/iiif/manifest" }, "geometry": { "type": "Polygon", "coordinates": [ [ [ 103.416667, 21.583333 ], [ 113.083333, 21.75 ], [ 113.25, 27.75 ], [ 103.083333, 27.583333 ], [ 103.416667, 21.583333 ] ] ] } },
{ "type": "Feature", "properties": { "Id": 0, "Sheet_ID": "西部支那其五 (海南島近傍)", "label": "西部支那其五 (海南島近傍)", "call_short": "G7822 .C47 S1000 .J3", "call_num": "G7822 .C47 S1000 .J3 W5 BASE", "recid": "wc501wf5868", "websiteUrl": "https://purl.stanford.edu/wc501wf5868", "title": "百万分一航空圖 [支那]", "ckey": 10563606, "available": true, "iiifUrl": "https://purl.stanford.edu/wc501wf5868/iiif/manifest" }, "geometry": { "type": "Polygon", "coordinates": [ [ [ 105.583333, 21.666667 ], [ 105.666667, 17.5 ], [ 113.0, 17.583333 ], [ 113.083333, 21.75 ], [ 105.583333, 21.666667 ] ] ] } },
{ "type": "Feature", "properties": { "Id": 0, "Sheet_ID": "西部支那其五 (海南島近傍) 色刷 2", "label": "西部支那其五 (海南島近傍) 色刷 2", "call_short": "G7822 .C47 S1000 .J3", "call_num": "G7822 .C47 S1000 .J3 W5 ED.2", "recid": "vx160cd4560", "websiteUrl": "https://purl.stanford.edu/vx160cd4560", "title": "百万分一航空圖 [支那]", "ckey": 10563606, "available": true, "iiifUrl": "https://purl.stanford.edu/vx160cd4560/iiif/manifest" }, "geometry": { "type": "Polygon", "coordinates": [ [ [ 105.583333, 21.666667 ], [ 105.666667, 17.5 ], [ 113.0, 17.583333 ], [ 113.083333, 21.75 ], [ 105.583333, 21.666667 ] ] ] } },
{ "type": "Feature", "properties": { "Id": 0, "Sheet_ID": "支那東部其一 (北支國境) 色刷", "label": "支那東部其一 (北支國境) 色刷", "call_short": "G7822 .C47 S1000 .J3", "call_num": "G7822 .C47 S1000 .J3 E1", "recid": "zd791qy7286", "websiteUrl": "https://purl.stanford.edu/zd791qy7286", "title": "百万分一航空圖 [支那]", "ckey": 10563606, "available": true, "iiifUrl": "https://purl.stanford.edu/zd791qy7286/iiif/manifest" }, "geometry": { "type": "Polygon", "coordinates": [ [ [ 112.333333, 38.833333 ], [ 123.5, 38.666667 ], [ 123.75, 41.083333 ], [ 112.25, 41.25 ], [ 112.333333, 38.833333 ] ] ] } },
{ "type": "Feature", "properties": { "Id": 0, "Sheet_ID": "支那東部其二 (北支那) 色刷", "label": "支那東部其二 (北支那) 色刷", "call_short": "G7822 .C47 S1000 .J3", "call_num": "G7822 .C47 S1000 .J3 E2", "recid": "pm688sy9959", "websiteUrl": "https://purl.stanford.edu/pm688sy9959", "title": "百万分一航空圖 [支那]", "ckey": 10563606, "available": true, "iiifUrl": "https://purl.stanford.edu/pm688sy9959/iiif/manifest" }, "geometry": { "type": "Polygon", "coordinates": [ [ [ 112.583333, 33.75 ], [ 123.0, 33.583333 ], [ 123.5, 39.083333 ], [ 112.333333, 39.25 ], [ 112.583333, 33.75 ] ] ] } },
{ "type": "Feature", "properties": { "Id": 0, "Sheet_ID": "支那東部其三 (中支那) 色刷", "label": "支那東部其三 (中支那) 色刷", "call_short": "G7822 .C47 S1000 .J3", "call_num": "G7822 .C47 S1000 .J3 E3", "recid": "dz269cc1904", "websiteUrl": "https://purl.stanford.edu/dz269cc1904", "title": "百万分一航空圖 [支那]", "ckey": 10563606, "available": true, "iiifUrl": "https://purl.stanford.edu/dz269cc1904/iiif/manifest" }, "geometry": { "type": "Polygon", "coordinates": [ [ [ 112.833333, 27.75 ], [ 122.583333, 27.583333 ], [ 123.0, 33.583333 ], [ 112.583333, 33.75 ], [ 112.833333, 27.75 ] ] ] } },
{ "type": "Feature", "properties": { "Id": 0, "Sheet_ID": "東部支那其四 (南支那) 色刷", "label": "東部支那其四 (南支那) 色刷", "call_short": "G7822 .C47 S1000 .J3", "call_num": "G7822 .C47 S1000 .J3 E4", "recid": "mn153jd4421", "websiteUrl": "https://purl.stanford.edu/mn153jd4421", "title": "百万分一航空圖 [支那]", "ckey": 10563606, "available": true, "iiifUrl": "https://purl.stanford.edu/mn153jd4421/iiif/manifest" }, "geometry": { "type": "Polygon", "coordinates": [ [ [ 112.833333, 27.75 ], [ 112.916667, 21.75 ], [ 122.25, 21.583333 ], [ 122.583333, 27.583333 ], [ 112.833333, 27.75 ] ] ] } },
{ "type": "Feature", "properties": { "Id": 0, "Sheet_ID": "西部支那其一 (厚和寧夏近傍) 色刷", "label": "西部支那其一 (厚和寧夏近傍) 色刷", "call_short": "G7822 .C47 S1000 .J3", "call_num": "G7822 .C47 S1000 .J3 W1", "recid": "mk842wq9554", "websiteUrl": "https://purl.stanford.edu/mk842wq9554", "title": "百万分一航空圖 [支那]", "ckey": 10563606, "available": true, "iiifUrl": "https://purl.stanford.edu/mk842wq9554/iiif/manifest" }, "geometry": { "type": "Polygon", "coordinates": [ [ [ 102.25, 37.75 ], [ 113.583333, 37.916667 ], [ 113.75, 41.583333 ], [ 101.833333, 41.416667 ], [ 102.25, 37.75 ] ] ] } },
{ "type": "Feature", "properties": { "Id": 0, "Sheet_ID": "西部支那其三 (宜昌成都近傍) 色刷", "label": "西部支那其三 (宜昌成都近傍) 色刷", "call_short": "G7822 .C47 S1000 .J3", "call_num": "G7822 .C47 S1000 .J3 W3", "recid": "kk034yq8991", "websiteUrl": "https://purl.stanford.edu/kk034yq8991", "title": "百万分一航空圖 [支那]", "ckey": 10563606, "available": true, "iiifUrl": "https://purl.stanford.edu/kk034yq8991/iiif/manifest" }, "geometry": { "type": "Polygon", "coordinates": [ [ [ 102.666667, 33.583333 ], [ 103.083333, 27.583333 ], [ 113.25, 27.75 ], [ 113.416667, 33.75 ], [ 102.666667, 33.583333 ] ] ] } },
{ "type": "Feature", "properties": { "Id": 0, "Sheet_ID": "支那西部其四 (梧州貴陽近傍) 色刷", "label": "支那西部其四 (梧州貴陽近傍) 色刷", "call_short": "G7822 .C47 S1000 .J3", "call_num": "G7822 .C47 S1000 .J3 W4", "recid": "tz677jm2170", "websiteUrl": "https://purl.stanford.edu/tz677jm2170", "title": "百万分一航空圖 [支那]", "ckey": 10563606, "available": true, "iiifUrl": "https://purl.stanford.edu/tz677jm2170/iiif/manifest" }, "geometry": { "type": "Polygon", "coordinates": [ [ [ 103.416667, 21.583333 ], [ 113.083333, 21.75 ], [ 113.25, 27.75 ], [ 103.083333, 27.583333 ], [ 103.416667, 21.583333 ] ] ] } },
{ "type": "Feature", "properties": { "Id": 0, "Sheet_ID": "支那西部其五 (海南島近傍) 色刷", "label": "支那西部其五 (海南島近傍) 色刷", "call_short": "G7822 .C47 S1000 .J3", "call_num": "G7822 .C47 S1000 .J3 W5", "recid": "kw022nk8818", "websiteUrl": "https://purl.stanford.edu/kw022nk8818", "title": "百万分一航空圖 [支那]", "ckey": 10563606, "available": true, "iiifUrl": "https://purl.stanford.edu/kw022nk8818/iiif/manifest" }, "geometry": { "type": "Polygon", "coordinates": [ [ [ 105.583333, 21.666667 ], [ 105.666667, 17.5 ], [ 113.0, 17.583333 ], [ 113.083333, 21.75 ], [ 105.583333, 21.666667 ] ] ] } }
]
}
