{
"type": "FeatureCollection",
"name": "index_map",
"features": [
{ "type": "Feature", "properties": { "Id": 0, "Sheet_ID": "敦賀市", "label": "敦賀市", "call_short": "G7964 .T94 1946 .N4", "call_num": "G7964 .T94 1946 .N4", "recid": "yn152cf5419", "websiteUrl": "https://purl.stanford.edu/yn152cf5419", "title": "敦賀市航空寫眞測量圖", "ckey": 10429442, "available": true, "iiifUrl": "https://purl.stanford.edu/yn152cf5419/iiif/manifest" }, "geometry": { "type": "Polygon", "coordinates": [ [ [ 136.05, 35.625 ], [ 136.088889, 35.625 ], [ 136.088889, 35.670833 ], [ 136.05, 35.670833 ], [ 136.05, 35.625 ] ] ] } }
]
}
