{"type":"FeatureCollection","features":[{"type":"Feature","properties":{"Id":0,"Sheet_ID":"25. アマザール","label":"25. アマザール","call_short":"G7271 .P2 S100 .J3","call_num":"G7271 .P2 S100 .J3 SHEET 25","recid":"ck894kz3268","websiteUrl":"https://purl.stanford.edu/ck894kz3268","title":"西伯利十万分一圖 ウルシァ","ckey":12372113,"web_map":"","available":"true","iiifUrl":"https://purl.stanford.edu/ck894kz3268/iiif/manifest"},"geometry":{"bbox":[119.99999999999999,53.333333,121,53.99999966666667],"type":"Polygon","coordinates":[[[119.99999999999999,53.333333],[119.99999999999999,53.99999966666667],[121,53.99999966666667],[121,53.333333],[119.99999999999999,53.333333]]]}},{"type":"Feature","properties":{"Id":0,"Sheet_ID":"20. エロフェイ・パウロヴィチ","label":"20. エロフェイ・パウロヴィチ","call_short":"G7271 .P2 S100 .J3","call_num":"G7271 .P2 S100 .J3 SHEET 20","recid":"vw572js3173","websiteUrl":"https://purl.stanford.edu/vw572js3173","title":"満州及西伯利十万分一圖 ウルシァ","ckey":12372113,"web_map":"","available":"true","iiifUrl":"https://purl.stanford.edu/vw572js3173/iiif/manifest"},"geometry":{"bbox":[121,53.333333,122,53.99999966666667],"type":"Polygon","coordinates":[[[121,53.333333],[121,53.99999966666667],[122,53.99999966666667],[122,53.333333],[121,53.333333]]]}},{"type":"Feature","properties":{"Id":0,"Sheet_ID":"15. イグナシーナ","label":"15. イグナシーナ","call_short":"G7271 .P2 S100 .J3","call_num":"G7271 .P2 S100 .J3 SHEET 15","recid":"ds067sg4384","websiteUrl":"https://purl.stanford.edu/ds067sg4384","title":"満州及西伯利十万分一圖 ウルシァ","ckey":12372113,"web_map":"","available":"true","iiifUrl":"https://purl.stanford.edu/ds067sg4384/iiif/manifest"},"geometry":{"bbox":[122,53.333333,123.00000000000001,53.99999966666667],"type":"Polygon","coordinates":[[[122,53.333333],[122,53.99999966666667],[123.00000000000001,53.99999966666667],[123.00000000000001,53.333333],[122,53.333333]]]}},{"type":"Feature","properties":{"Id":0,"Sheet_ID":"10. ヂァーリンダ","label":"10. ヂァーリンダ","call_short":"G7271 .P2 S100 .J3","call_num":"G7271 .P2 S100 .J3 SHEET 10","recid":"rd979pj1613","websiteUrl":"https://purl.stanford.edu/rd979pj1613","title":"満州及西伯利十万分一圖 ウルシァ","ckey":12372113,"web_map":"","available":"true","iiifUrl":"https://purl.stanford.edu/rd979pj1613/iiif/manifest"},"geometry":{"bbox":[123.00000000000001,53.333333,124,53.99999966666667],"type":"Polygon","coordinates":[[[123.00000000000001,53.333333],[123.00000000000001,53.99999966666667],[124,53.99999966666667],[124,53.333333],[123.00000000000001,53.333333]]]}},{"type":"Feature","properties":{"Id":0,"Sheet_ID":"5. アルバジン","label":"5. アルバジン","call_short":"G7271 .P2 S100 .J3","call_num":"G7271 .P2 S100 .J3 SHEET 5","recid":"zk351vt9665","websiteUrl":"https://purl.stanford.edu/zk351vt9665","title":"満州及西伯利十万分一圖 ウルシァ","ckey":12372113,"web_map":"","available":"true","iiifUrl":"https://purl.stanford.edu/zk351vt9665/iiif/manifest"},"geometry":{"bbox":[124,53.333333,125.00000000000001,53.99999966666667],"type":"Polygon","coordinates":[[[124,53.333333],[124,53.99999966666667],[125.00000000000001,53.99999966666667],[125.00000000000001,53.333333],[124,53.333333]]]}},{"type":"Feature","properties":{"Id":0,"Sheet_ID":"24. アマザール北方","label":"24. アマザール北方","call_short":"","call_num":"","recid":"","websiteUrl":"","title":"","ckey":0,"web_map":"","available":"false","iiifUrl":""},"geometry":{"bbox":[119.99999999999999,53.99999966666667,121,54.66666633333333],"type":"Polygon","coordinates":[[[119.99999999999999,53.99999966666667],[119.99999999999999,54.66666633333333],[121,54.66666633333333],[121,53.99999966666667],[119.99999999999999,53.99999966666667]]]}},{"type":"Feature","properties":{"Id":0,"Sheet_ID":"19. チチァートカ","label":"19. チチァートカ","call_short":"G7271 .P2 S100 .J3","call_num":"G7271 .P2 S100 .J3 SHEET 19","recid":"cc280fc4705","websiteUrl":"https://purl.stanford.edu/cc280fc4705","title":"西伯利十万分一圖 ウルシァ","ckey":12372113,"web_map":"","available":"true","iiifUrl":"https://purl.stanford.edu/cc280fc4705/iiif/manifest"},"geometry":{"bbox":[121,53.99999966666667,122,54.66666633333333],"type":"Polygon","coordinates":[[[121,53.99999966666667],[121,54.66666633333333],[122,54.66666633333333],[122,53.99999966666667],[121,53.99999966666667]]]}},{"type":"Feature","properties":{"Id":0,"Sheet_ID":"14. ウルシァ","label":"14. ウルシァ","call_short":"G7271 .P2 S100 .J3","call_num":"G7271 .P2 S100 .J3 SHEET 14","recid":"sb227xq5278","websiteUrl":"https://purl.stanford.edu/sb227xq5278","title":"西伯利十万分一圖 ウルシァ","ckey":12372113,"web_map":"","available":"true","iiifUrl":"https://purl.stanford.edu/sb227xq5278/iiif/manifest"},"geometry":{"bbox":[122,53.99999966666667,123.00000000000001,54.66666633333333],"type":"Polygon","coordinates":[[[122,53.99999966666667],[122,54.66666633333333],[123.00000000000001,54.66666633333333],[123.00000000000001,53.99999966666667],[122,53.99999966666667]]]}},{"type":"Feature","properties":{"Id":0,"Sheet_ID":"9. オリドーイ驛","label":"9. オリドーイ驛","call_short":"G7271 .P2 S100 .J3","call_num":"G7271 .P2 S100 .J3 SHEET 9","recid":"qq341sg3496","websiteUrl":"https://purl.stanford.edu/qq341sg3496","title":"西伯利十万分一圖 ウルシァ","ckey":12372113,"web_map":"","available":"true","iiifUrl":"https://purl.stanford.edu/qq341sg3496/iiif/manifest"},"geometry":{"bbox":[123.00000000000001,53.99999966666667,124,54.66666633333333],"type":"Polygon","coordinates":[[[123.00000000000001,53.99999966666667],[123.00000000000001,54.66666633333333],[124,54.66666633333333],[124,53.99999966666667],[123.00000000000001,53.99999966666667]]]}},{"type":"Feature","properties":{"Id":0,"Sheet_ID":"4. ウルカン","label":"4. ウルカン","call_short":"G7271 .P2 S100 .J3","call_num":"G7271 .P2 S100 .J3 SHEET 4","recid":"cj592zf0301","websiteUrl":"https://purl.stanford.edu/cj592zf0301","title":"西伯利十万分一圖 ウルシァ","ckey":12372113,"web_map":"","available":"true","iiifUrl":"https://purl.stanford.edu/cj592zf0301/iiif/manifest"},"geometry":{"bbox":[124,53.99999966666667,125.00000000000001,54.66666633333333],"type":"Polygon","coordinates":[[[124,53.99999966666667],[124,54.66666633333333],[125.00000000000001,54.66666633333333],[125.00000000000001,53.99999966666667],[124,53.99999966666667]]]}},{"type":"Feature","properties":{"Id":0,"Sheet_ID":"13. ボリシォーイ・ブガリフトィ","label":"13. ボリシォーイ・ブガリフトィ","call_short":"","call_num":"","recid":"","websiteUrl":"","title":"","ckey":0,"web_map":"","available":"false","iiifUrl":""},"geometry":{"bbox":[122,54.66666633333334,123.00000000000001,55.333333],"type":"Polygon","coordinates":[[[122,54.66666633333334],[122,55.333333],[123.00000000000001,55.333333],[123.00000000000001,54.66666633333334],[122,54.66666633333334]]]}}],"name":"index_12372113"}
