{"type":"FeatureCollection","features":[{"type":"Feature","properties":{"Id":0,"Sheet_ID":"12. ロンキチ","label":"12. ロンキチ","call_short":"G9422 .P6 S25 .J3","call_num":"G9422 .P6 S25 .J3 SHEET 12","recid":"st464kb9028","websiteUrl":"https://purl.stanford.edu/st464kb9028","title":"二万五千分一地形圖ポナペ島","ckey":10425332,"web_map":"","available":"true","iiifUrl":"https://purl.stanford.edu/st464kb9028/iiif/manifest"},"geometry":{"bbox":[158.1,6.75,158.2,6.83333325],"type":"Polygon","coordinates":[[[158.1,6.75],[158.1,6.83333325],[158.2,6.83333325],[158.2,6.75],[158.1,6.75]]]}},{"type":"Feature","properties":{"Id":0,"Sheet_ID":"8. オネ","label":"8. オネ","call_short":"G9422 .P6 S25 .J3","call_num":"G9422 .P6 S25 .J3 SHEET 8","recid":"mf788hw6425","websiteUrl":"https://purl.stanford.edu/mf788hw6425","title":"二万五千分一地形圖ポナペ島","ckey":10425332,"web_map":"","available":"true","iiifUrl":"https://purl.stanford.edu/mf788hw6425/iiif/manifest"},"geometry":{"bbox":[158.2,6.75,158.29999999999998,6.83333325],"type":"Polygon","coordinates":[[[158.2,6.75],[158.2,6.83333325],[158.29999999999998,6.83333325],[158.29999999999998,6.75],[158.2,6.75]]]}},{"type":"Feature","properties":{"Id":0,"Sheet_ID":"4. ワッパール","label":"4. ワッパール","call_short":"G9422 .P6 S25 .J3","call_num":"G9422 .P6 S25 .J3 SHEET 4","recid":"hq869df8013","websiteUrl":"https://purl.stanford.edu/hq869df8013","title":"二万五千分一地形圖ポナペ島","ckey":10425332,"web_map":"","available":"true","iiifUrl":"https://purl.stanford.edu/hq869df8013/iiif/manifest"},"geometry":{"bbox":[158.30000000000004,6.75,158.4,6.83333325],"type":"Polygon","coordinates":[[[158.30000000000004,6.75],[158.30000000000004,6.83333325],[158.4,6.83333325],[158.4,6.75],[158.30000000000004,6.75]]]}},{"type":"Feature","properties":{"Id":0,"Sheet_ID":"11. テアン","label":"11. テアン","call_short":"G9422 .P6 S25 .J3","call_num":"G9422 .P6 S25 .J3 SHEET 11","recid":"jz823xr5904","websiteUrl":"https://purl.stanford.edu/jz823xr5904","title":"二万五千分一地形圖ポナペ島","ckey":10425332,"web_map":"","available":"true","iiifUrl":"https://purl.stanford.edu/jz823xr5904/iiif/manifest"},"geometry":{"bbox":[158.1,6.83333325,158.2,6.9166665],"type":"Polygon","coordinates":[[[158.1,6.83333325],[158.1,6.9166665],[158.2,6.9166665],[158.2,6.83333325],[158.1,6.83333325]]]}},{"type":"Feature","properties":{"Id":0,"Sheet_ID":"7. トロコール山","label":"7. トロコール山","call_short":"G9422 .P6 S25 .J3","call_num":"G9422 .P6 S25 .J3 SHEET 7","recid":"mn223xp3579","websiteUrl":"https://purl.stanford.edu/mn223xp3579","title":"二万五千分一地形圖ポナペ島","ckey":10425332,"web_map":"","available":"true","iiifUrl":"https://purl.stanford.edu/mn223xp3579/iiif/manifest"},"geometry":{"bbox":[158.2,6.83333325,158.29999999999998,6.9166665],"type":"Polygon","coordinates":[[[158.2,6.83333325],[158.2,6.9166665],[158.29999999999998,6.9166665],[158.29999999999998,6.83333325],[158.2,6.83333325]]]}},{"type":"Feature","properties":{"Id":0,"Sheet_ID":"3. タモン","label":"3. タモン","call_short":"G9422 .P6 S25 .J3","call_num":"G9422 .P6 S25 .J3 SHEET 3","recid":"qw638sz8934","websiteUrl":"https://purl.stanford.edu/qw638sz8934","title":"二万五千分一地形圖ポナペ島","ckey":10425332,"web_map":"","available":"true","iiifUrl":"https://purl.stanford.edu/qw638sz8934/iiif/manifest"},"geometry":{"bbox":[158.30000000000004,6.83333325,158.4,6.9166665],"type":"Polygon","coordinates":[[[158.30000000000004,6.83333325],[158.30000000000004,6.9166665],[158.4,6.9166665],[158.4,6.83333325],[158.30000000000004,6.83333325]]]}},{"type":"Feature","properties":{"Id":0,"Sheet_ID":"10. ジョカージ嶋","label":"10. ジョカージ嶋","call_short":"G9422 .P6 S25 .J3","call_num":"G9422 .P6 S25 .J3 SHEET 10","recid":"qj608ds6017","websiteUrl":"https://purl.stanford.edu/qj608ds6017","title":"二万五千分一地形圖ポナペ島","ckey":10425332,"web_map":"","available":"true","iiifUrl":"https://purl.stanford.edu/qj608ds6017/iiif/manifest"},"geometry":{"bbox":[158.1,6.9166665,158.2,6.99999975],"type":"Polygon","coordinates":[[[158.1,6.9166665],[158.1,6.99999975],[158.2,6.99999975],[158.2,6.9166665],[158.1,6.9166665]]]}},{"type":"Feature","properties":{"Id":0,"Sheet_ID":"6. コロニヤ","label":"6. コロニヤ","call_short":"G9422 .P6 S25 .J3","call_num":"G9422 .P6 S25 .J3 SHEET 6","recid":"jx499gj3214","websiteUrl":"https://purl.stanford.edu/jx499gj3214","title":"二万五千分一地形圖ポナペ島","ckey":10425332,"web_map":"","available":"true","iiifUrl":"https://purl.stanford.edu/jx499gj3214/iiif/manifest"},"geometry":{"bbox":[158.2,6.9166665,158.29999999999998,6.99999975],"type":"Polygon","coordinates":[[[158.2,6.9166665],[158.2,6.99999975],[158.29999999999998,6.99999975],[158.29999999999998,6.9166665],[158.2,6.9166665]]]}},{"type":"Feature","properties":{"Id":0,"Sheet_ID":"2. アルウ","label":"2. アルウ","call_short":"G9422 .P6 S25 .J3","call_num":"G9422 .P6 S25 .J3 SHEET 2","recid":"ps164fp5205","websiteUrl":"https://purl.stanford.edu/ps164fp5205","title":"二万五千分一地形圖ポナペ島","ckey":10425332,"web_map":"","available":"true","iiifUrl":"https://purl.stanford.edu/ps164fp5205/iiif/manifest"},"geometry":{"bbox":[158.30000000000004,6.9166665,158.4,6.99999975],"type":"Polygon","coordinates":[[[158.30000000000004,6.9166665],[158.30000000000004,6.99999975],[158.4,6.99999975],[158.4,6.9166665],[158.30000000000004,6.9166665]]]}},{"type":"Feature","properties":{"Id":0,"Sheet_ID":"9. ジョカージ水道","label":"9. ジョカージ水道","call_short":"G9422 .P6 S25 .J3","call_num":"G9422 .P6 S25 .J3 SHEET 9","recid":"sy864vc0832","websiteUrl":"https://purl.stanford.edu/sy864vc0832","title":"二万五千分一地形圖ポナペ島","ckey":10425332,"web_map":"","available":"true","iiifUrl":"https://purl.stanford.edu/sy864vc0832/iiif/manifest"},"geometry":{"bbox":[158.1,6.99999975,158.2,7.083333],"type":"Polygon","coordinates":[[[158.1,6.99999975],[158.1,7.083333],[158.2,7.083333],[158.2,6.99999975],[158.1,6.99999975]]]}},{"type":"Feature","properties":{"Id":0,"Sheet_ID":"5. ランガール島","label":"5. ランガール島","call_short":"G9422 .P6 S25 .J3","call_num":"G9422 .P6 S25 .J3 SHEET 5","recid":"mv406gg1698","websiteUrl":"https://purl.stanford.edu/mv406gg1698","title":"二万五千分一地形圖ポナペ島","ckey":10425332,"web_map":"","available":"true","iiifUrl":"https://purl.stanford.edu/mv406gg1698/iiif/manifest"},"geometry":{"bbox":[158.2,6.99999975,158.29999999999998,7.083333],"type":"Polygon","coordinates":[[[158.2,6.99999975],[158.2,7.083333],[158.29999999999998,7.083333],[158.29999999999998,6.99999975],[158.2,6.99999975]]]}},{"type":"Feature","properties":{"Id":0,"Sheet_ID":"1. 東マント島","label":"1. 東マント島","call_short":"G9422 .P6 S25 .J3","call_num":"G9422 .P6 S25 .J3 SHEET 1","recid":"sc683gz5638","websiteUrl":"https://purl.stanford.edu/sc683gz5638","title":"二万五千分一地形圖ポナペ島","ckey":10425332,"web_map":"","available":"true","iiifUrl":"https://purl.stanford.edu/sc683gz5638/iiif/manifest"},"geometry":{"bbox":[158.30000000000004,6.99999975,158.4,7.083333],"type":"Polygon","coordinates":[[[158.30000000000004,6.99999975],[158.30000000000004,7.083333],[158.4,7.083333],[158.4,6.99999975],[158.30000000000004,6.99999975]]]}}],"name":"index_10425332"}
