{"type":"FeatureCollection","features":[{"type":"Feature","properties":{"Id":0,"Sheet_ID":"10WA50 満洲 浦潮斯德","label":"10WA50 満洲 浦潮斯德","call_short":"G7800 S500 .J3","call_num":"G7800 S500 .J3 SHEET 10WA50","recid":"ry817cn9919","websiteUrl":"https://purl.stanford.edu/ry817cn9919","title":"五十万分一地誌圖","ckey":10780180,"web_map":"","available":"true","iiiUrl":"https://purl.stanford.edu/ry817cn9919/iiif/manifest"},"geometry":{"bbox":[130,41.66666700000002,135,43.33333333333343],"type":"Polygon","coordinates":[[[130,41.66666700000002],[130,43.33333333333343],[135,43.33333333333343],[135,41.66666700000002],[130,41.66666700000002]]]}},{"type":"Feature","properties":{"Id":0,"Sheet_ID":"10KA50 満洲 興凱湖","label":"10KA50 満洲 興凱湖","call_short":"G7800 S500 .J3","call_num":"G7800 S500 .J3 SHEET 10KA50","recid":"ph728gd5848","websiteUrl":"https://purl.stanford.edu/ph728gd5848","title":"五十万分一地誌圖","ckey":10780180,"web_map":"","available":"true","iiiUrl":"https://purl.stanford.edu/ph728gd5848/iiif/manifest"},"geometry":{"bbox":[130,43.33333333333334,135,46.66666666666667],"type":"Polygon","coordinates":[[[130,43.33333333333334],[130,46.66666666666667],[135,46.66666666666667],[135,43.33333333333334],[130,43.33333333333334]]]}},{"type":"Feature","properties":{"Id":0,"Sheet_ID":"9KA50 東「ソ」オリガ","label":"9KA50 東「ソ」オリガ","call_short":"G7800 S500 .J3","call_num":"G7800 S500 .J3 SHEET 9YO50","recid":"qw456mx8596","websiteUrl":"https://purl.stanford.edu/qw456mx8596","title":"五十万分一地誌圖","ckey":10780180,"web_map":"","available":"true","iiiUrl":"https://purl.stanford.edu/qw456mx8596/iiif/manifest"},"geometry":{"bbox":[135,43.33333333333334,140,46.66666666666667],"type":"Polygon","coordinates":[[[135,43.33333333333334],[135,46.66666666666667],[140,46.66666666666667],[140,43.33333333333334],[135,43.33333333333334]]]}},{"type":"Feature","properties":{"Id":0,"Sheet_ID":"14YO50 東「ソ」外蒙古 チョイバルサン","label":"14YO50 東「ソ」外蒙古 チョイバルサン","call_short":"G7800 S500 .J3","call_num":"G7800 S500 .J3 SHEET 14YO50","recid":"ss328sy2873","websiteUrl":"https://purl.stanford.edu/ss328sy2873","title":"五十万分一地誌圖","ckey":10780180,"web_map":"","available":"true","iiiUrl":"https://purl.stanford.edu/ss328sy2873/iiif/manifest"},"geometry":{"bbox":[110.00000000000006,46.66666666666674,115.00000000000013,50.00000000000006],"type":"Polygon","coordinates":[[[110.00000000000006,46.66666666666674],[110.00000000000006,50.00000000000006],[115.00000000000013,50.00000000000006],[115.00000000000013,46.66666666666674],[110.00000000000006,46.66666666666674]]]}},{"type":"Feature","properties":{"Id":0,"Sheet_ID":"9YO50 東「ソ」ハバロフスク","label":"9YO50 東「ソ」ハバロフスク","call_short":"G7800 S500 .J3","call_num":"G7800 S500 .J3 SHEET 9KA50","recid":"xt385bt8954","websiteUrl":"https://purl.stanford.edu/xt385bt8954","title":"五十万分一地誌圖","ckey":10780180,"web_map":"","available":"true","iiiUrl":"https://purl.stanford.edu/xt385bt8954/iiif/manifest"},"geometry":{"bbox":[135,46.66666666666667,140,50.00000000000001],"type":"Polygon","coordinates":[[[135,46.66666666666667],[135,50.00000000000001],[140,50.00000000000001],[140,46.66666666666667],[135,46.66666666666667]]]}}],"name":"index_10780180"}
