{
"type": "FeatureCollection",
"name": "index_map",
"features": [
{ "type": "Feature", "properties": { "Id": 0, "Sheet_ID": "四日市", "label": "四日市", "call_short": "G7964 .Y54 1946 .N4", "call_num": "G7964 .Y54 1946 .N4", "recid": "dx686xz3690", "websiteUrl": "https://purl.stanford.edu/dx686xz3690", "title": "四日市航空寫眞測量圖", "ckey": 10429435, "available": true, "iiifUrl": "https://purl.stanford.edu/dx686xz3690/iiif/manifest" }, "geometry": { "type": "Polygon", "coordinates": [ [ [ 136.646389, 34.946667 ], [ 136.654444, 34.993333 ], [ 136.610278, 34.998611 ], [ 136.602222, 34.951944 ], [ 136.646389, 34.946667 ] ] ] } }
]
}
