{
"type": "FeatureCollection",
"name": "index_map",
"xy_coordinate_resolution": 1e-07,
"features": [
{ "type": "Feature", "properties": { "Id": 0, "Sheet_ID": "17. 小田市集", "label": "17. 小田市集", "call_short": "G7823 .A5 S50 .J3", "call_num": "G7823 .A5 S50 .J3 SHEET 17", "recid": "pj100fc3064", "websiteUrl": "https://purl.stanford.edu/pj100fc3064", "title": "五万分一安徽省太和頴州地方 空中寫眞測量 要圖", "ckey": 13900007, "available": true, "iiifUrl": "https://purl.stanford.edu/pj100fc3064/iiif/manifest" }, "geometry": { "type": "Polygon", "coordinates": [ [ [ 115.525, 32.604167 ], [ 115.75, 32.604167 ], [ 115.75, 32.7708335 ], [ 115.525, 32.7708335 ], [ 115.525, 32.604167 ] ] ] } },
{ "type": "Feature", "properties": { "Id": 0, "Sheet_ID": "13. 大場集", "label": "13. 大場集", "call_short": "G7823 .A5 S50 .J3", "call_num": "G7823 .A5 S50 .J3 SHEET 13", "recid": "jg929wr9080", "websiteUrl": "https://purl.stanford.edu/jg929wr9080", "title": "五万分一安徽省太和頴州地方 空中寫眞測量 要圖", "ckey": 13900007, "available": true, "iiifUrl": "https://purl.stanford.edu/jg929wr9080/iiif/manifest" }, "geometry": { "type": "Polygon", "coordinates": [ [ [ 115.75, 32.604167 ], [ 115.975, 32.604167 ], [ 115.975, 32.7708335 ], [ 115.75, 32.7708335 ], [ 115.75, 32.604167 ] ] ] } },
{ "type": "Feature", "properties": { "Id": 0, "Sheet_ID": "9. 南照集", "label": "9. 南照集", "call_short": "G7823 .A5 S50 .J3", "call_num": "G7823 .A5 S50 .J3 SHEET 9", "recid": "qr787pw7722", "websiteUrl": "https://purl.stanford.edu/qr787pw7722", "title": "五万分一安徽省太和頴州地方 空中寫眞測量 要圖", "ckey": 13900007, "available": true, "iiifUrl": "https://purl.stanford.edu/qr787pw7722/iiif/manifest" }, "geometry": { "type": "Polygon", "coordinates": [ [ [ 115.975, 32.604167 ], [ 116.2, 32.604167 ], [ 116.2, 32.7708335 ], [ 115.975, 32.7708335 ], [ 115.975, 32.604167 ] ] ] } },
{ "type": "Feature", "properties": { "Id": 0, "Sheet_ID": "5. 頴上縣", "label": "5. 頴上縣", "call_short": "G7823 .A5 S50 .J3", "call_num": "G7823 .A5 S50 .J3 SHEET 5", "recid": "nr851yd7688", "websiteUrl": "https://purl.stanford.edu/nr851yd7688", "title": "五万分一安徽省太和頴州地方 空中寫眞測量 要圖", "ckey": 13900007, "available": true, "iiifUrl": "https://purl.stanford.edu/nr851yd7688/iiif/manifest" }, "geometry": { "type": "Polygon", "coordinates": [ [ [ 116.2, 32.604167 ], [ 116.425, 32.604167 ], [ 116.425, 32.7708335 ], [ 116.2, 32.7708335 ], [ 116.2, 32.604167 ] ] ] } },
{ "type": "Feature", "properties": { "Id": 0, "Sheet_ID": "1. 夏家集", "label": "1. 夏家集", "call_short": "G7823 .A5 S50 .J3", "call_num": "G7823 .A5 S50 .J3 SHEET 1", "recid": "tb666yk5712", "websiteUrl": "https://purl.stanford.edu/tb666yk5712", "title": "五万分一安徽省太和頴州地方 空中寫眞測量 要圖", "ckey": 13900007, "available": true, "iiifUrl": "https://purl.stanford.edu/tb666yk5712/iiif/manifest" }, "geometry": { "type": "Polygon", "coordinates": [ [ [ 116.425, 32.604167 ], [ 116.65, 32.604167 ], [ 116.65, 32.7708335 ], [ 116.425, 32.7708335 ], [ 116.425, 32.604167 ] ] ] } },
{ "type": "Feature", "properties": { "Id": 0, "Sheet_ID": "20. 駅口橋", "label": "20. 駅口橋", "call_short": "G7823 .A5 S50 .J3", "call_num": "G7823 .A5 S50 .J3 SHEET 20", "recid": "pw838qp9454", "websiteUrl": "https://purl.stanford.edu/pw838qp9454", "title": "五万分一安徽省太和頴州地方 空中寫眞測量 要圖", "ckey": 13900007, "available": true, "iiifUrl": "https://purl.stanford.edu/pw838qp9454/iiif/manifest" }, "geometry": { "type": "Polygon", "coordinates": [ [ [ 115.3, 32.7708335 ], [ 115.525, 32.7708335 ], [ 115.525, 32.9375 ], [ 115.3, 32.9375 ], [ 115.3, 32.7708335 ] ] ] } },
{ "type": "Feature", "properties": { "Id": 0, "Sheet_ID": "16. 新村集", "label": "16. 新村集", "call_short": "G7823 .A5 S50 .J3", "call_num": "G7823 .A5 S50 .J3 SHEET 16", "recid": "tf247sf3498", "websiteUrl": "https://purl.stanford.edu/tf247sf3498", "title": "五万分一安徽省太和頴州地方 空中寫眞測量 要圖", "ckey": 13900007, "available": true, "iiifUrl": "https://purl.stanford.edu/tf247sf3498/iiif/manifest" }, "geometry": { "type": "Polygon", "coordinates": [ [ [ 115.525, 32.7708335 ], [ 115.75, 32.7708335 ], [ 115.75, 32.9375 ], [ 115.525, 32.9375 ], [ 115.525, 32.7708335 ] ] ] } },
{ "type": "Feature", "properties": { "Id": 0, "Sheet_ID": "12. 頴州", "label": "12. 頴州", "call_short": "G7823 .A5 S50 .J3", "call_num": "G7823 .A5 S50 .J3 SHEET 12", "recid": "wc963zx5236", "websiteUrl": "https://purl.stanford.edu/wc963zx5236", "title": "五万分一安徽省太和頴州地方 空中寫眞測量 要圖", "ckey": 13900007, "available": true, "iiifUrl": "https://purl.stanford.edu/wc963zx5236/iiif/manifest" }, "geometry": { "type": "Polygon", "coordinates": [ [ [ 115.75, 32.7708335 ], [ 115.975, 32.7708335 ], [ 115.975, 32.9375 ], [ 115.75, 32.9375 ], [ 115.75, 32.7708335 ] ] ] } },
{ "type": "Feature", "properties": { "Id": 0, "Sheet_ID": "8. 口子集", "label": "8. 口子集", "call_short": "G7823 .A5 S50 .J3", "call_num": "G7823 .A5 S50 .J3 SHEET 8", "recid": "dh224jh1546", "websiteUrl": "https://purl.stanford.edu/dh224jh1546", "title": "五万分一安徽省太和頴州地方 空中寫眞測量 要圖", "ckey": 13900007, "available": true, "iiifUrl": "https://purl.stanford.edu/dh224jh1546/iiif/manifest" }, "geometry": { "type": "Polygon", "coordinates": [ [ [ 115.975, 32.7708335 ], [ 116.2, 32.7708335 ], [ 116.2, 32.9375 ], [ 115.975, 32.9375 ], [ 115.975, 32.7708335 ] ] ] } },
{ "type": "Feature", "properties": { "Id": 0, "Sheet_ID": "4. 展溝集", "label": "4. 展溝集", "call_short": "G7823 .A5 S50 .J3", "call_num": "G7823 .A5 S50 .J3 SHEET 4", "recid": "nv017hx0256", "websiteUrl": "https://purl.stanford.edu/nv017hx0256", "title": "五万分一安徽省太和頴州地方 空中寫眞測量 要圖", "ckey": 13900007, "available": true, "iiifUrl": "https://purl.stanford.edu/nv017hx0256/iiif/manifest" }, "geometry": { "type": "Polygon", "coordinates": [ [ [ 116.2, 32.7708335 ], [ 116.425, 32.7708335 ], [ 116.425, 32.9375 ], [ 116.2, 32.9375 ], [ 116.2, 32.7708335 ] ] ] } },
{ "type": "Feature", "properties": { "Id": 0, "Sheet_ID": "19. 長官店", "label": "19. 長官店", "call_short": "G7823 .A5 S50 .J3", "call_num": "G7823 .A5 S50 .J3 SHEET 19", "recid": "hd609hd0010", "websiteUrl": "https://purl.stanford.edu/hd609hd0010", "title": "五万分一安徽省太和頴州地方 空中寫眞測量 要圖", "ckey": 13900007, "available": true, "iiifUrl": "https://purl.stanford.edu/hd609hd0010/iiif/manifest" }, "geometry": { "type": "Polygon", "coordinates": [ [ [ 115.3, 32.9375 ], [ 115.525, 32.9375 ], [ 115.525, 33.1041665 ], [ 115.3, 33.1041665 ], [ 115.3, 32.9375 ] ] ] } },
{ "type": "Feature", "properties": { "Id": 0, "Sheet_ID": "15. 襄家埠", "label": "15. 襄家埠", "call_short": "G7823 .A5 S50 .J3", "call_num": "G7823 .A5 S50 .J3 SHEET 15", "recid": "jh236nz4421", "websiteUrl": "https://purl.stanford.edu/jh236nz4421", "title": "五万分一安徽省太和頴州地方 空中寫眞測量 要圖", "ckey": 13900007, "available": true, "iiifUrl": "https://purl.stanford.edu/jh236nz4421/iiif/manifest" }, "geometry": { "type": "Polygon", "coordinates": [ [ [ 115.525, 32.9375 ], [ 115.75, 32.9375 ], [ 115.75, 33.1041665 ], [ 115.525, 33.1041665 ], [ 115.525, 32.9375 ] ] ] } },
{ "type": "Feature", "properties": { "Id": 0, "Sheet_ID": "11. 行流集", "label": "11. 行流集", "call_short": "G7823 .A5 S50 .J3", "call_num": "G7823 .A5 S50 .J3 SHEET 11", "recid": "mx845pt8929", "websiteUrl": "https://purl.stanford.edu/mx845pt8929", "title": "五万分一安徽省太和頴州地方 空中寫眞測量 要圖", "ckey": 13900007, "available": true, "iiifUrl": "https://purl.stanford.edu/mx845pt8929/iiif/manifest" }, "geometry": { "type": "Polygon", "coordinates": [ [ [ 115.75, 32.9375 ], [ 115.975, 32.9375 ], [ 115.975, 33.1041665 ], [ 115.75, 33.1041665 ], [ 115.75, 32.9375 ] ] ] } },
{ "type": "Feature", "properties": { "Id": 0, "Sheet_ID": "7. 挿花廟", "label": "7. 挿花廟", "call_short": "G7823 .A5 S50 .J3", "call_num": "G7823 .A5 S50 .J3 SHEET 7", "recid": "kn162yz5305", "websiteUrl": "https://purl.stanford.edu/kn162yz5305", "title": "五万分一安徽省太和頴州地方 空中寫眞測量 要圖", "ckey": 13900007, "available": true, "iiifUrl": "https://purl.stanford.edu/kn162yz5305/iiif/manifest" }, "geometry": { "type": "Polygon", "coordinates": [ [ [ 115.975, 32.9375 ], [ 116.2, 32.9375 ], [ 116.2, 33.1041665 ], [ 115.975, 33.1041665 ], [ 115.975, 32.9375 ] ] ] } },
{ "type": "Feature", "properties": { "Id": 0, "Sheet_ID": "3. 關疃集", "label": "3. 關疃集", "call_short": "G7823 .A5 S50 .J3", "call_num": "G7823 .A5 S50 .J3 SHEET 3", "recid": "cj058sk4510", "websiteUrl": "https://purl.stanford.edu/cj058sk4510", "title": "五万分一安徽省太和頴州地方 空中寫眞測量 要圖", "ckey": 13900007, "available": true, "iiifUrl": "https://purl.stanford.edu/cj058sk4510/iiif/manifest" }, "geometry": { "type": "Polygon", "coordinates": [ [ [ 116.2, 32.9375 ], [ 116.425, 32.9375 ], [ 116.425, 33.1041665 ], [ 116.2, 33.1041665 ], [ 116.2, 32.9375 ] ] ] } },
{ "type": "Feature", "properties": { "Id": 0, "Sheet_ID": "18. 沈邱集", "label": "18. 沈邱集", "call_short": "G7823 .A5 S50 .J3", "call_num": "G7823 .A5 S50 .J3 SHEET 18", "recid": "pp089jg8090", "websiteUrl": "https://purl.stanford.edu/pp089jg8090", "title": "五万分一安徽省太和頴州地方 空中寫眞測量 要圖", "ckey": 13900007, "available": true, "iiifUrl": "https://purl.stanford.edu/pp089jg8090/iiif/manifest" }, "geometry": { "type": "Polygon", "coordinates": [ [ [ 115.3, 33.1041665 ], [ 115.525, 33.1041665 ], [ 115.525, 33.270833 ], [ 115.3, 33.270833 ], [ 115.3, 33.1041665 ] ] ] } },
{ "type": "Feature", "properties": { "Id": 0, "Sheet_ID": "14. 太和", "label": "14. 太和", "call_short": "G7823 .A5 S50 .J3", "call_num": "G7823 .A5 S50 .J3 SHEET 14", "recid": "jv150bq8437", "websiteUrl": "https://purl.stanford.edu/jv150bq8437", "title": "五万分一安徽省太和頴州地方 空中寫眞測量 要圖", "ckey": 13900007, "available": true, "iiifUrl": "https://purl.stanford.edu/jv150bq8437/iiif/manifest" }, "geometry": { "type": "Polygon", "coordinates": [ [ [ 115.525, 33.1041665 ], [ 115.75, 33.1041665 ], [ 115.75, 33.270833 ], [ 115.525, 33.270833 ], [ 115.525, 33.1041665 ] ] ] } },
{ "type": "Feature", "properties": { "Id": 0, "Sheet_ID": "10. 黄崗寺", "label": "10. 黄崗寺", "call_short": "G7823 .A5 S50 .J3", "call_num": "G7823 .A5 S50 .J3 SHEET 10", "recid": "dp310tw8007", "websiteUrl": "https://purl.stanford.edu/dp310tw8007", "title": "五万分一安徽省太和頴州地方 空中寫眞測量 要圖", "ckey": 13900007, "available": true, "iiifUrl": "https://purl.stanford.edu/dp310tw8007/iiif/manifest" }, "geometry": { "type": "Polygon", "coordinates": [ [ [ 115.75, 33.1041665 ], [ 115.975, 33.1041665 ], [ 115.975, 33.270833 ], [ 115.75, 33.270833 ], [ 115.75, 33.1041665 ] ] ] } },
{ "type": "Feature", "properties": { "Id": 0, "Sheet_ID": "6. 王市集", "label": "6. 王市集", "call_short": "G7823 .A5 S50 .J3", "call_num": "G7823 .A5 S50 .J3 SHEET 6", "recid": "qr562kw1514", "websiteUrl": "https://purl.stanford.edu/qr562kw1514", "title": "五万分一安徽省太和頴州地方 空中寫眞測量 要圖", "ckey": 13900007, "available": true, "iiifUrl": "https://purl.stanford.edu/qr562kw1514/iiif/manifest" }, "geometry": { "type": "Polygon", "coordinates": [ [ [ 115.975, 33.1041665 ], [ 116.2, 33.1041665 ], [ 116.2, 33.270833 ], [ 115.975, 33.270833 ], [ 115.975, 33.1041665 ] ] ] } },
{ "type": "Feature", "properties": { "Id": 0, "Sheet_ID": "2. 高隍廟", "label": "2. 高隍廟", "call_short": "G7823 .A5 S50 .J3", "call_num": "G7823 .A5 S50 .J3 SHEET 2", "recid": "js702jn5408", "websiteUrl": "https://purl.stanford.edu/js702jn5408", "title": "五万分一安徽省太和頴州地方 空中寫眞測量 要圖", "ckey": 13900007, "available": true, "iiifUrl": "https://purl.stanford.edu/js702jn5408/iiif/manifest" }, "geometry": { "type": "Polygon", "coordinates": [ [ [ 116.2, 33.1041665 ], [ 116.425, 33.1041665 ], [ 116.425, 33.270833 ], [ 116.2, 33.270833 ], [ 116.2, 33.1041665 ] ] ] } }
]
}
