{
"type": "FeatureCollection",
"name": "index_map",
"features": [
{ "type": "Feature", "properties": { "Id": 0, "Sheet_ID": "杭州近傍", "label": "杭州近傍", "call_short": "G7824 .H2 1937 .J3", "call_num": "G7824 .H2 1937 .J3", "recid": "jk583dp9826", "websiteUrl": "https://purl.stanford.edu/jk583dp9826", "title": "二万分一杭州近傍圖", "ckey": 9635127, "available": true, "iiifUrl": "https://purl.stanford.edu/jk583dp9826/iiif/manifest" }, "geometry": { "type": "Polygon", "coordinates": [ [ [ 120.1, 30.183333 ], [ 120.216667, 30.183333 ], [ 120.216667, 30.319444 ], [ 120.1, 30.319444 ], [ 120.1, 30.183333 ] ] ] } }
]
}
