{
"type": "FeatureCollection",
"name": "index_map",
"features": [
{ "type": "Feature", "properties": { "Id": 0, "Sheet_ID": "1. アラウエ", "label": "1. アラウエ", "call_short": "G8180 S35 .J3", "call_num": "G8180 S35 .J3 MAP 1", "recid": "sv955fw2847", "websiteUrl": "https://purl.stanford.edu/sv955fw2847", "title": "空中寫眞要圖 三万五千分一「ビスマルク」群島 「アラウエ」-「 マーカス」岬間", "ckey": 10425274, "available": true, "iiifUrl": "https://purl.stanford.edu/sv955fw2847/iiif/manifest" }, "geometry": { "type": "Polygon", "coordinates": [ [ [ 149.091667, -6.166667 ], [ 149.25, -6.166667 ], [ 149.25, -6.0625 ], [ 149.091667, -6.0625 ], [ 149.091667, -6.166667 ] ] ] } },
{ "type": "Feature", "properties": { "Id": 0, "Sheet_ID": "2. マーカス岬", "label": "2. マーカス岬", "call_short": "G8180 S35 .J3", "call_num": "G8180 S35 .J3 MAP 2", "recid": "hm770fq4962", "websiteUrl": "https://purl.stanford.edu/hm770fq4962", "title": "空中寫眞要圖 三万五千分一「ビスマルク」群島 「アラウエ」-「 マーカス」岬間", "ckey": 10425274, "available": true, "iiifUrl": "https://purl.stanford.edu/hm770fq4962/iiif/manifest" }, "geometry": { "type": "Polygon", "coordinates": [ [ [ 149.091667, -6.1625 ], [ 149.091667, -6.0125 ], [ 148.958333, -6.0125 ], [ 148.958333, -6.1625 ], [ 149.091667, -6.1625 ] ] ] } }
]
}
