{
"type": "FeatureCollection",
"name": "index_map",
"xy_coordinate_resolution": 1e-07,
"features": [
{ "type": "Feature", "properties": { "Id": 0, "Sheet_ID": "會寧近傍 9", "label": "會寧近傍 9", "call_short": "G7900 S25 .J3", "call_num": "G7900 S25 .J3 SHEET A-9", "recid": "pq156pc9501", "websiteUrl": "https://purl.stanford.edu/pq156pc9501", "title": "[朝鮮] 二万五千分一地形圖 會寧近傍", "ckey": 10167801, "available": true, "iiifUrl": "https://purl.stanford.edu/pq156pc9501/iiif/manifest" }, "geometry": { "type": "Polygon", "coordinates": [ [ [ 129.627778, 42.25 ], [ 129.752778, 42.25 ], [ 129.752778, 42.3333333 ], [ 129.627778, 42.3333333 ], [ 129.627778, 42.25 ] ] ] } },
{ "type": "Feature", "properties": { "Id": 0, "Sheet_ID": "會寧近傍 6", "label": "會寧近傍 6", "call_short": "G7900 S25 .J3", "call_num": "G7900 S25 .J3 SHEET A-6", "recid": "pq944py2473", "websiteUrl": "https://purl.stanford.edu/pq944py2473", "title": "[朝鮮] 二万五千分一地形圖 會寧近傍", "ckey": 10167801, "available": true, "iiifUrl": "https://purl.stanford.edu/pq944py2473/iiif/manifest" }, "geometry": { "type": "Polygon", "coordinates": [ [ [ 129.752778, 42.25 ], [ 129.877778, 42.25 ], [ 129.877778, 42.3333333 ], [ 129.752778, 42.3333333 ], [ 129.752778, 42.25 ] ] ] } },
{ "type": "Feature", "properties": { "Id": 0, "Sheet_ID": "會寧近傍 3", "label": "會寧近傍 3", "call_short": "G7900 S25 .J3", "call_num": "G7900 S25 .J3 SHEET A-3", "recid": "mr482tj1056", "websiteUrl": "https://purl.stanford.edu/mr482tj1056", "title": "[朝鮮] 二万五千分一地形圖 會寧近傍", "ckey": 10167801, "available": true, "iiifUrl": "https://purl.stanford.edu/mr482tj1056/iiif/manifest" }, "geometry": { "type": "Polygon", "coordinates": [ [ [ 129.877778, 42.25 ], [ 130.002778, 42.25 ], [ 130.002778, 42.3333333 ], [ 129.877778, 42.3333333 ], [ 129.877778, 42.25 ] ] ] } },
{ "type": "Feature", "properties": { "Id": 0, "Sheet_ID": "會寧近傍 8", "label": "會寧近傍 8", "call_short": "G7900 S25 .J3", "call_num": "G7900 S25 .J3 SHEET A-8", "recid": "tp057cw6396", "websiteUrl": "https://purl.stanford.edu/tp057cw6396", "title": "[朝鮮] 二万五千分一地形圖 會寧近傍", "ckey": 10167801, "available": true, "iiifUrl": "https://purl.stanford.edu/tp057cw6396/iiif/manifest" }, "geometry": { "type": "Polygon", "coordinates": [ [ [ 129.627778, 42.3333333 ], [ 129.752778, 42.3333333 ], [ 129.752778, 42.4166667 ], [ 129.627778, 42.4166667 ], [ 129.627778, 42.3333333 ] ] ] } },
{ "type": "Feature", "properties": { "Id": 0, "Sheet_ID": "會寧近傍 5", "label": "會寧近傍 5", "call_short": "G7900 S25 .J3", "call_num": "G7900 S25 .J3 SHEET A-5", "recid": "xz635my4766", "websiteUrl": "https://purl.stanford.edu/xz635my4766", "title": "[朝鮮] 二万五千分一地形圖 會寧近傍", "ckey": 10167801, "available": true, "iiifUrl": "https://purl.stanford.edu/xz635my4766/iiif/manifest" }, "geometry": { "type": "Polygon", "coordinates": [ [ [ 129.752778, 42.3333333 ], [ 129.877778, 42.3333333 ], [ 129.877778, 42.4166667 ], [ 129.752778, 42.4166667 ], [ 129.752778, 42.3333333 ] ] ] } },
{ "type": "Feature", "properties": { "Id": 0, "Sheet_ID": "會寧近傍 2", "label": "會寧近傍 2", "call_short": "G7900 S25 .J3", "call_num": "G7900 S25 .J3 SHEET A-2", "recid": "jy003sd9281", "websiteUrl": "https://purl.stanford.edu/jy003sd9281", "title": "[朝鮮] 二万五千分一地形圖 會寧近傍", "ckey": 10167801, "available": true, "iiifUrl": "https://purl.stanford.edu/jy003sd9281/iiif/manifest" }, "geometry": { "type": "Polygon", "coordinates": [ [ [ 129.877778, 42.3333333 ], [ 130.002778, 42.3333333 ], [ 130.002778, 42.4166667 ], [ 129.877778, 42.4166667 ], [ 129.877778, 42.3333333 ] ] ] } },
{ "type": "Feature", "properties": { "Id": 0, "Sheet_ID": "會寧近傍 7", "label": "會寧近傍 7", "call_short": "G7900 S25 .J3", "call_num": "G7900 S25 .J3 SHEET A-7", "recid": "bt911mj0709", "websiteUrl": "https://purl.stanford.edu/bt911mj0709", "title": "[朝鮮] 二万五千分一地形圖 會寧近傍", "ckey": 10167801, "available": true, "iiifUrl": "https://purl.stanford.edu/bt911mj0709/iiif/manifest" }, "geometry": { "type": "Polygon", "coordinates": [ [ [ 129.627778, 42.4166667 ], [ 129.752778, 42.4166667 ], [ 129.752778, 42.5 ], [ 129.627778, 42.5 ], [ 129.627778, 42.4166667 ] ] ] } },
{ "type": "Feature", "properties": { "Id": 0, "Sheet_ID": "會寧近傍 4", "label": "會寧近傍 4", "call_short": "G7900 S25 .J3", "call_num": "G7900 S25 .J3 SHEET A-4", "recid": "xb630kd9286", "websiteUrl": "https://purl.stanford.edu/xb630kd9286", "title": "[朝鮮] 二万五千分一地形圖 會寧近傍", "ckey": 10167801, "available": true, "iiifUrl": "https://purl.stanford.edu/xb630kd9286/iiif/manifest" }, "geometry": { "type": "Polygon", "coordinates": [ [ [ 129.752778, 42.4166667 ], [ 129.877778, 42.4166667 ], [ 129.877778, 42.5 ], [ 129.752778, 42.5 ], [ 129.752778, 42.4166667 ] ] ] } },
{ "type": "Feature", "properties": { "Id": 0, "Sheet_ID": "會寧近傍 1", "label": "會寧近傍 1", "call_short": "G7900 S25 .J3", "call_num": "G7900 S25 .J3 SHEET A-1", "recid": "dh848jd5556", "websiteUrl": "https://purl.stanford.edu/dh848jd5556", "title": "[朝鮮] 二万五千分一地形圖 會寧近傍", "ckey": 10167801, "available": true, "iiifUrl": "https://purl.stanford.edu/dh848jd5556/iiif/manifest" }, "geometry": { "type": "Polygon", "coordinates": [ [ [ 129.877778, 42.4166667 ], [ 130.002778, 42.4166667 ], [ 130.002778, 42.5 ], [ 129.877778, 42.5 ], [ 129.877778, 42.4166667 ] ] ] } },
{ "type": "Feature", "properties": { "Id": 0, "Sheet_ID": "清津及羅南地方 10", "label": "清津及羅南地方 10", "call_short": "G7900 S25 .J3", "call_num": "G7900 S25 .J3 SHEET B-10", "recid": "br847ym6184", "websiteUrl": "https://purl.stanford.edu/br847ym6184", "title": "[朝鮮] 清津及羅南地方", "ckey": 10167801, "available": true, "iiifUrl": "https://purl.stanford.edu/br847ym6184/iiif/manifest" }, "geometry": { "type": "Polygon", "coordinates": [ [ [ 129.502778, 41.5 ], [ 129.627778, 41.5 ], [ 129.627778, 41.5833333 ], [ 129.502778, 41.5833333 ], [ 129.502778, 41.5 ] ] ] } },
{ "type": "Feature", "properties": { "Id": 0, "Sheet_ID": "清津及羅南地方 6", "label": "清津及羅南地方 6", "call_short": "G7900 S25 .J3", "call_num": "G7900 S25 .J3 SHEET B-6", "recid": "tb058pj4549", "websiteUrl": "https://purl.stanford.edu/tb058pj4549", "title": "[朝鮮] 清津及羅南地方", "ckey": 10167801, "available": true, "iiifUrl": "https://purl.stanford.edu/tb058pj4549/iiif/manifest" }, "geometry": { "type": "Polygon", "coordinates": [ [ [ 129.627778, 41.5 ], [ 129.752778, 41.5 ], [ 129.752778, 41.5833333 ], [ 129.627778, 41.5833333 ], [ 129.627778, 41.5 ] ] ] } },
{ "type": "Feature", "properties": { "Id": 0, "Sheet_ID": "清津及羅南地方 9", "label": "清津及羅南地方 9", "call_short": "G7900 S25 .J3", "call_num": "G7900 S25 .J3 SHEET B-9", "recid": "hb777rz1308", "websiteUrl": "https://purl.stanford.edu/hb777rz1308", "title": "[朝鮮] 清津及羅南地方", "ckey": 10167801, "available": true, "iiifUrl": "https://purl.stanford.edu/hb777rz1308/iiif/manifest" }, "geometry": { "type": "Polygon", "coordinates": [ [ [ 129.502778, 41.5833333 ], [ 129.627778, 41.5833333 ], [ 129.627778, 41.6666665 ], [ 129.502778, 41.6666665 ], [ 129.502778, 41.5833333 ] ] ] } },
{ "type": "Feature", "properties": { "Id": 0, "Sheet_ID": "清津及羅南地方 5", "label": "清津及羅南地方 5", "call_short": "G7900 S25 .J3", "call_num": "G7900 S25 .J3 SHEET B-5", "recid": "rb944xt3840", "websiteUrl": "https://purl.stanford.edu/rb944xt3840", "title": "[朝鮮] 清津及羅南地方", "ckey": 10167801, "available": true, "iiifUrl": "https://purl.stanford.edu/rb944xt3840/iiif/manifest" }, "geometry": { "type": "Polygon", "coordinates": [ [ [ 129.627778, 41.5833333 ], [ 129.752778, 41.5833333 ], [ 129.752778, 41.6666665 ], [ 129.627778, 41.6666665 ], [ 129.627778, 41.5833333 ] ] ] } },
{ "type": "Feature", "properties": { "Id": 0, "Sheet_ID": "清津及羅南地方 8", "label": "清津及羅南地方 8", "call_short": "G7900 S25 .J3", "call_num": "G7900 S25 .J3 SHEET B-8", "recid": "yc202zx6867", "websiteUrl": "https://purl.stanford.edu/yc202zx6867", "title": "[朝鮮] 清津及羅南地方", "ckey": 10167801, "available": true, "iiifUrl": "https://purl.stanford.edu/yc202zx6867/iiif/manifest" }, "geometry": { "type": "Polygon", "coordinates": [ [ [ 129.502778, 41.6666665 ], [ 129.627778, 41.6666665 ], [ 129.627778, 41.7499998 ], [ 129.502778, 41.7499998 ], [ 129.502778, 41.6666665 ] ] ] } },
{ "type": "Feature", "properties": { "Id": 0, "Sheet_ID": "清津及羅南地方 4", "label": "清津及羅南地方 4", "call_short": "G7900 S25 .J3", "call_num": "G7900 S25 .J3 SHEET B-4", "recid": "pk057jx4466", "websiteUrl": "https://purl.stanford.edu/pk057jx4466", "title": "[朝鮮] 清津及羅南地方", "ckey": 10167801, "available": true, "iiifUrl": "https://purl.stanford.edu/pk057jx4466/iiif/manifest" }, "geometry": { "type": "Polygon", "coordinates": [ [ [ 129.627778, 41.6666665 ], [ 129.752778, 41.6666665 ], [ 129.752778, 41.7499998 ], [ 129.627778, 41.7499998 ], [ 129.627778, 41.6666665 ] ] ] } },
{ "type": "Feature", "properties": { "Id": 0, "Sheet_ID": "清津及羅南近傍 2", "label": "清津及羅南近傍 2", "call_short": "G7900 S25 .J3", "call_num": "G7900 S25 .J3 SHEET B-2", "recid": "tc781vx0846", "websiteUrl": "https://purl.stanford.edu/tc781vx0846", "title": "[朝鮮] 二万五千分一地形圖 清津及羅南近傍", "ckey": 10167801, "available": true, "iiifUrl": "https://purl.stanford.edu/tc781vx0846/iiif/manifest" }, "geometry": { "type": "Polygon", "coordinates": [ [ [ 129.752778, 41.6666665 ], [ 129.877778, 41.6666665 ], [ 129.877778, 41.7499998 ], [ 129.752778, 41.7499998 ], [ 129.752778, 41.6666665 ] ] ] } },
{ "type": "Feature", "properties": { "Id": 0, "Sheet_ID": "清津及羅南地方 7", "label": "清津及羅南地方 7", "call_short": "G7900 S25 .J3", "call_num": "G7900 S25 .J3 SHEET B-7", "recid": "cg945dp0702", "websiteUrl": "https://purl.stanford.edu/cg945dp0702", "title": "[朝鮮] 清津及羅南地方", "ckey": 10167801, "available": true, "iiifUrl": "https://purl.stanford.edu/cg945dp0702/iiif/manifest" }, "geometry": { "type": "Polygon", "coordinates": [ [ [ 129.502778, 41.7499998 ], [ 129.627778, 41.7499998 ], [ 129.627778, 41.833333 ], [ 129.502778, 41.833333 ], [ 129.502778, 41.7499998 ] ] ] } },
{ "type": "Feature", "properties": { "Id": 0, "Sheet_ID": "清津及羅南地方 3", "label": "清津及羅南地方 3", "call_short": "G7900 S25 .J3", "call_num": "G7900 S25 .J3 SHEET B-3", "recid": "gr607sm7609", "websiteUrl": "https://purl.stanford.edu/gr607sm7609", "title": "[朝鮮] 清津及羅南地方", "ckey": 10167801, "available": true, "iiifUrl": "https://purl.stanford.edu/gr607sm7609/iiif/manifest" }, "geometry": { "type": "Polygon", "coordinates": [ [ [ 129.627778, 41.7499998 ], [ 129.752778, 41.7499998 ], [ 129.752778, 41.833333 ], [ 129.627778, 41.833333 ], [ 129.627778, 41.7499998 ] ] ] } },
{ "type": "Feature", "properties": { "Id": 0, "Sheet_ID": "清津及羅南地方 1", "label": "清津及羅南地方 1", "call_short": "G7900 S25 .J3", "call_num": "G7900 S25 .J3 SHEET B-1", "recid": "np311qj6501", "websiteUrl": "https://purl.stanford.edu/np311qj6501", "title": "[朝鮮] 清津及羅南地方", "ckey": 10167801, "available": true, "iiifUrl": "https://purl.stanford.edu/np311qj6501/iiif/manifest" }, "geometry": { "type": "Polygon", "coordinates": [ [ [ 129.752778, 41.7499998 ], [ 129.877778, 41.7499998 ], [ 129.877778, 41.833333 ], [ 129.752778, 41.833333 ], [ 129.752778, 41.7499998 ] ] ] } },
{ "type": "Feature", "properties": { "Id": 0, "Sheet_ID": "義州地方 9", "label": "義州地方 9", "call_short": "G7900 S25 .J3", "call_num": "G7900 S25 .J3 SHEET C-9", "recid": "zm350tt0806", "websiteUrl": "https://purl.stanford.edu/zm350tt0806", "title": "[朝鮮] 義州地方", "ckey": 10167801, "available": true, "iiifUrl": "https://purl.stanford.edu/zm350tt0806/iiif/manifest" }, "geometry": { "type": "Polygon", "coordinates": [ [ [ 124.315278, 39.916667 ], [ 124.440278, 39.916667 ], [ 124.440278, 40.0000002 ], [ 124.315278, 40.0000002 ], [ 124.315278, 39.916667 ] ] ] } },
{ "type": "Feature", "properties": { "Id": 0, "Sheet_ID": "義州地方 8", "label": "義州地方 8", "call_short": "G7900 S25 .J3", "call_num": "G7900 S25 .J3 SHEET C-8", "recid": "ds777fz0760", "websiteUrl": "https://purl.stanford.edu/ds777fz0760", "title": "[朝鮮] 義州地方", "ckey": 10167801, "available": true, "iiifUrl": "https://purl.stanford.edu/ds777fz0760/iiif/manifest" }, "geometry": { "type": "Polygon", "coordinates": [ [ [ 124.315278, 40.0000002 ], [ 124.440278, 40.0000002 ], [ 124.440278, 40.0833335 ], [ 124.315278, 40.0833335 ], [ 124.315278, 40.0000002 ] ] ] } },
{ "type": "Feature", "properties": { "Id": 0, "Sheet_ID": "義州地方 6", "label": "義州地方 6", "call_short": "G7900 S25 .J3", "call_num": "G7900 S25 .J3 SHEET C-6", "recid": "dh703wv0260", "websiteUrl": "https://purl.stanford.edu/dh703wv0260", "title": "[朝鮮] 義州地方", "ckey": 10167801, "available": true, "iiifUrl": "https://purl.stanford.edu/dh703wv0260/iiif/manifest" }, "geometry": { "type": "Polygon", "coordinates": [ [ [ 124.440278, 40.0000002 ], [ 124.565278, 40.0000002 ], [ 124.565278, 40.0833335 ], [ 124.440278, 40.0833335 ], [ 124.440278, 40.0000002 ] ] ] } },
{ "type": "Feature", "properties": { "Id": 0, "Sheet_ID": "義州地方 3", "label": "義州地方 3", "call_short": "G7900 S25 .J3", "call_num": "G7900 S25 .J3 SHEET C-3", "recid": "pm986ss8981", "websiteUrl": "https://purl.stanford.edu/pm986ss8981", "title": "[朝鮮] 義州地方", "ckey": 10167801, "available": true, "iiifUrl": "https://purl.stanford.edu/pm986ss8981/iiif/manifest" }, "geometry": { "type": "Polygon", "coordinates": [ [ [ 124.565278, 40.0000002 ], [ 124.690278, 40.0000002 ], [ 124.690278, 40.0833335 ], [ 124.565278, 40.0833335 ], [ 124.565278, 40.0000002 ] ] ] } },
{ "type": "Feature", "properties": { "Id": 0, "Sheet_ID": "義州地方 7", "label": "義州地方 7", "call_short": "G7900 S25 .J3", "call_num": "G7900 S25 .J3 SHEET C-7", "recid": "wk453xt0681", "websiteUrl": "https://purl.stanford.edu/wk453xt0681", "title": "[朝鮮] 義州地方", "ckey": 10167801, "available": true, "iiifUrl": "https://purl.stanford.edu/wk453xt0681/iiif/manifest" }, "geometry": { "type": "Polygon", "coordinates": [ [ [ 124.315278, 40.0833335 ], [ 124.440278, 40.0833335 ], [ 124.440278, 40.1666667 ], [ 124.315278, 40.1666667 ], [ 124.315278, 40.0833335 ] ] ] } },
{ "type": "Feature", "properties": { "Id": 0, "Sheet_ID": "義州地方 5", "label": "義州地方 5", "call_short": "G7900 S25 .J3", "call_num": "G7900 S25 .J3 SHEET C-5", "recid": "mk524rq5941", "websiteUrl": "https://purl.stanford.edu/mk524rq5941", "title": "[朝鮮] 義州地方", "ckey": 10167801, "available": true, "iiifUrl": "https://purl.stanford.edu/mk524rq5941/iiif/manifest" }, "geometry": { "type": "Polygon", "coordinates": [ [ [ 124.440278, 40.0833335 ], [ 124.565278, 40.0833335 ], [ 124.565278, 40.1666667 ], [ 124.440278, 40.1666667 ], [ 124.440278, 40.0833335 ] ] ] } },
{ "type": "Feature", "properties": { "Id": 0, "Sheet_ID": "義州地方 2", "label": "義州地方 2", "call_short": "G7900 S25 .J3", "call_num": "G7900 S25 .J3 SHEET C-2", "recid": "br635xb6368", "websiteUrl": "https://purl.stanford.edu/br635xb6368", "title": "[朝鮮] 義州地方", "ckey": 10167801, "available": true, "iiifUrl": "https://purl.stanford.edu/br635xb6368/iiif/manifest" }, "geometry": { "type": "Polygon", "coordinates": [ [ [ 124.565278, 40.0833335 ], [ 124.690278, 40.0833335 ], [ 124.690278, 40.1666667 ], [ 124.565278, 40.1666667 ], [ 124.565278, 40.0833335 ] ] ] } },
{ "type": "Feature", "properties": { "Id": 0, "Sheet_ID": "義州地方 4", "label": "義州地方 4", "call_short": "G7900 S25 .J3", "call_num": "G7900 S25 .J3 SHEET C-4", "recid": "dx539xr1511", "websiteUrl": "https://purl.stanford.edu/dx539xr1511", "title": "[朝鮮] 義州地方", "ckey": 10167801, "available": true, "iiifUrl": "https://purl.stanford.edu/dx539xr1511/iiif/manifest" }, "geometry": { "type": "Polygon", "coordinates": [ [ [ 124.440278, 40.1666667 ], [ 124.565278, 40.1666667 ], [ 124.565278, 40.25 ], [ 124.440278, 40.25 ], [ 124.440278, 40.1666667 ] ] ] } },
{ "type": "Feature", "properties": { "Id": 0, "Sheet_ID": "義州地方 1", "label": "義州地方 1", "call_short": "G7900 S25 .J3", "call_num": "G7900 S25 .J3 SHEET C-1", "recid": "fz406ss9310", "websiteUrl": "https://purl.stanford.edu/fz406ss9310", "title": "[朝鮮] 義州地方", "ckey": 10167801, "available": true, "iiifUrl": "https://purl.stanford.edu/fz406ss9310/iiif/manifest" }, "geometry": { "type": "Polygon", "coordinates": [ [ [ 124.565278, 40.1666667 ], [ 124.690278, 40.1666667 ], [ 124.690278, 40.25 ], [ 124.565278, 40.25 ], [ 124.565278, 40.1666667 ] ] ] } },
{ "type": "Feature", "properties": { "Id": 0, "Sheet_ID": "咸興地方 9", "label": "咸興地方 9", "call_short": "G7900 S25 .J3", "call_num": "G7900 S25 .J3 SHEET D-9", "recid": "td908zb6752", "websiteUrl": "https://purl.stanford.edu/td908zb6752", "title": "[朝鮮] 咸興地方", "ckey": 10167801, "available": true, "iiifUrl": "https://purl.stanford.edu/td908zb6752/iiif/manifest" }, "geometry": { "type": "Polygon", "coordinates": [ [ [ 127.377778, 39.75 ], [ 127.502778, 39.75 ], [ 127.502778, 39.8333333 ], [ 127.377778, 39.8333333 ], [ 127.377778, 39.75 ] ] ] } },
{ "type": "Feature", "properties": { "Id": 0, "Sheet_ID": "咸興地方 6", "label": "咸興地方 6", "call_short": "G7900 S25 .J3", "call_num": "G7900 S25 .J3 SHEET D-6", "recid": "xt416xw9519", "websiteUrl": "https://purl.stanford.edu/xt416xw9519", "title": "[朝鮮] 咸興地方", "ckey": 10167801, "available": true, "iiifUrl": "https://purl.stanford.edu/xt416xw9519/iiif/manifest" }, "geometry": { "type": "Polygon", "coordinates": [ [ [ 127.502778, 39.75 ], [ 127.627778, 39.75 ], [ 127.627778, 39.8333333 ], [ 127.502778, 39.8333333 ], [ 127.502778, 39.75 ] ] ] } },
{ "type": "Feature", "properties": { "Id": 0, "Sheet_ID": "咸興地方 3", "label": "咸興地方 3", "call_short": null, "call_num": null, "recid": null, "websiteUrl": null, "title": null, "ckey": 0, "available": false, "iiifUrl": null }, "geometry": { "type": "Polygon", "coordinates": [ [ [ 127.627778, 39.75 ], [ 127.752778, 39.75 ], [ 127.752778, 39.8333333 ], [ 127.627778, 39.8333333 ], [ 127.627778, 39.75 ] ] ] } },
{ "type": "Feature", "properties": { "Id": 0, "Sheet_ID": "咸興地方 8", "label": "咸興地方 8", "call_short": "G7900 S25 .J3", "call_num": "G7900 S25 .J3 SHEET D-8", "recid": "db960kx4301", "websiteUrl": "https://purl.stanford.edu/db960kx4301", "title": "[朝鮮] 咸興地方", "ckey": 10167801, "available": true, "iiifUrl": "https://purl.stanford.edu/db960kx4301/iiif/manifest" }, "geometry": { "type": "Polygon", "coordinates": [ [ [ 127.377778, 39.8333333 ], [ 127.502778, 39.8333333 ], [ 127.502778, 39.9166667 ], [ 127.377778, 39.9166667 ], [ 127.377778, 39.8333333 ] ] ] } },
{ "type": "Feature", "properties": { "Id": 0, "Sheet_ID": "咸興地方 5", "label": "咸興地方 5", "call_short": "G7900 S25 .J3", "call_num": "G7900 S25 .J3 SHEET D-5", "recid": "js025xj7253", "websiteUrl": "https://purl.stanford.edu/js025xj7253", "title": "[朝鮮] 咸興地方", "ckey": 10167801, "available": true, "iiifUrl": "https://purl.stanford.edu/js025xj7253/iiif/manifest" }, "geometry": { "type": "Polygon", "coordinates": [ [ [ 127.502778, 39.8333333 ], [ 127.627778, 39.8333333 ], [ 127.627778, 39.9166667 ], [ 127.502778, 39.9166667 ], [ 127.502778, 39.8333333 ] ] ] } },
{ "type": "Feature", "properties": { "Id": 0, "Sheet_ID": "咸興地方 2", "label": "咸興地方 2", "call_short": "G7900 S25 .J3", "call_num": "G7900 S25 .J3 SHEET D-2", "recid": "qw006xn4090", "websiteUrl": "https://purl.stanford.edu/qw006xn4090", "title": "[朝鮮] 咸興地方", "ckey": 10167801, "available": true, "iiifUrl": "https://purl.stanford.edu/qw006xn4090/iiif/manifest" }, "geometry": { "type": "Polygon", "coordinates": [ [ [ 127.627778, 39.8333333 ], [ 127.752778, 39.8333333 ], [ 127.752778, 39.9166667 ], [ 127.627778, 39.9166667 ], [ 127.627778, 39.8333333 ] ] ] } },
{ "type": "Feature", "properties": { "Id": 0, "Sheet_ID": "咸興地方 7", "label": "咸興地方 7", "call_short": "G7900 S25 .J3", "call_num": "G7900 S25 .J3 SHEET D-7", "recid": "xg640zt8202", "websiteUrl": "https://purl.stanford.edu/xg640zt8202", "title": "[朝鮮] 咸興地方", "ckey": 10167801, "available": true, "iiifUrl": "https://purl.stanford.edu/xg640zt8202/iiif/manifest" }, "geometry": { "type": "Polygon", "coordinates": [ [ [ 127.377778, 39.9166667 ], [ 127.502778, 39.9166667 ], [ 127.502778, 40.0 ], [ 127.377778, 40.0 ], [ 127.377778, 39.9166667 ] ] ] } },
{ "type": "Feature", "properties": { "Id": 0, "Sheet_ID": "咸興地方 4", "label": "咸興地方 4", "call_short": "G7900 S25 .J3", "call_num": "G7900 S25 .J3 SHEET D-4", "recid": "yv974pg4702", "websiteUrl": "https://purl.stanford.edu/yv974pg4702", "title": "[朝鮮] 咸興地方", "ckey": 10167801, "available": true, "iiifUrl": "https://purl.stanford.edu/yv974pg4702/iiif/manifest" }, "geometry": { "type": "Polygon", "coordinates": [ [ [ 127.502778, 39.9166667 ], [ 127.627778, 39.9166667 ], [ 127.627778, 40.0 ], [ 127.502778, 40.0 ], [ 127.502778, 39.9166667 ] ] ] } },
{ "type": "Feature", "properties": { "Id": 0, "Sheet_ID": "咸興地方 1", "label": "咸興地方 1", "call_short": "G7900 S25 .J3", "call_num": "G7900 S25 .J3 SHEET D-1", "recid": "xw484xj7775", "websiteUrl": "https://purl.stanford.edu/xw484xj7775", "title": "[朝鮮] 咸興地方", "ckey": 10167801, "available": true, "iiifUrl": "https://purl.stanford.edu/xw484xj7775/iiif/manifest" }, "geometry": { "type": "Polygon", "coordinates": [ [ [ 127.627778, 39.9166667 ], [ 127.752778, 39.9166667 ], [ 127.752778, 40.0 ], [ 127.627778, 40.0 ], [ 127.627778, 39.9166667 ] ] ] } },
{ "type": "Feature", "properties": { "Id": 0, "Sheet_ID": "永興灣要塞近傍 16", "label": "永興灣要塞近傍 16", "call_short": "G7900 S25 .J3", "call_num": "G7900 S25 .J3 SHEET E-16", "recid": "mn690px5514", "websiteUrl": "https://purl.stanford.edu/mn690px5514", "title": "[朝鮮] 二万五千分一地形圖 永興灣要塞近傍", "ckey": 10167801, "available": true, "iiifUrl": "https://purl.stanford.edu/mn690px5514/iiif/manifest" }, "geometry": { "type": "Polygon", "coordinates": [ [ [ 127.252778, 39.083333 ], [ 127.377778, 39.083333 ], [ 127.377778, 39.1666664 ], [ 127.252778, 39.1666664 ], [ 127.252778, 39.083333 ] ] ] } },
{ "type": "Feature", "properties": { "Id": 0, "Sheet_ID": "永興灣要塞近傍 11", "label": "永興灣要塞近傍 11", "call_short": "G7900 S25 .J3", "call_num": "G7900 S25 .J3 SHEET E-11", "recid": "db111dx0903", "websiteUrl": "https://purl.stanford.edu/db111dx0903", "title": "[朝鮮] 二万五千分一地形圖 永興灣要塞近傍", "ckey": 10167801, "available": true, "iiifUrl": "https://purl.stanford.edu/db111dx0903/iiif/manifest" }, "geometry": { "type": "Polygon", "coordinates": [ [ [ 127.377778, 39.083333 ], [ 127.502778, 39.083333 ], [ 127.502778, 39.1666664 ], [ 127.377778, 39.1666664 ], [ 127.377778, 39.083333 ] ] ] } },
{ "type": "Feature", "properties": { "Id": 0, "Sheet_ID": "永興灣要塞近傍 6", "label": "永興灣要塞近傍 6", "call_short": "G7900 S25 .J3", "call_num": "G7900 S25 .J3 SHEET E-6", "recid": "zf810xc3348", "websiteUrl": "https://purl.stanford.edu/zf810xc3348", "title": "[朝鮮] 二万五千分一地形圖 永興灣要塞近傍", "ckey": 10167801, "available": true, "iiifUrl": "https://purl.stanford.edu/zf810xc3348/iiif/manifest" }, "geometry": { "type": "Polygon", "coordinates": [ [ [ 127.502778, 39.083333 ], [ 127.627778, 39.083333 ], [ 127.627778, 39.1666664 ], [ 127.502778, 39.1666664 ], [ 127.502778, 39.083333 ] ] ] } },
{ "type": "Feature", "properties": { "Id": 0, "Sheet_ID": "永興灣要塞近傍 1", "label": "永興灣要塞近傍 1", "call_short": "G7900 S25 .J3", "call_num": "G7900 S25 .J3 SHEET E-1", "recid": "mh360qt8234", "websiteUrl": "https://purl.stanford.edu/mh360qt8234", "title": "[朝鮮] 二万五千分一地形圖 永興灣要塞近傍", "ckey": 10167801, "available": true, "iiifUrl": "https://purl.stanford.edu/mh360qt8234/iiif/manifest" }, "geometry": { "type": "Polygon", "coordinates": [ [ [ 127.627778, 39.083333 ], [ 127.752778, 39.083333 ], [ 127.752778, 39.1666664 ], [ 127.627778, 39.1666664 ], [ 127.627778, 39.083333 ] ] ] } },
{ "type": "Feature", "properties": { "Id": 0, "Sheet_ID": "永興灣要塞近傍 15", "label": "永興灣要塞近傍 15", "call_short": "G7900 S25 .J3", "call_num": "G7900 S25 .J3 SHEET E-15", "recid": "zt113hf1204", "websiteUrl": "https://purl.stanford.edu/zt113hf1204", "title": "[朝鮮] 二万五千分一地形圖 永興灣要塞近傍", "ckey": 10167801, "available": true, "iiifUrl": "https://purl.stanford.edu/zt113hf1204/iiif/manifest" }, "geometry": { "type": "Polygon", "coordinates": [ [ [ 127.252778, 39.1666664 ], [ 127.377778, 39.1666664 ], [ 127.377778, 39.2499998 ], [ 127.252778, 39.2499998 ], [ 127.252778, 39.1666664 ] ] ] } },
{ "type": "Feature", "properties": { "Id": 0, "Sheet_ID": "永興灣要塞近傍 10", "label": "永興灣要塞近傍 10", "call_short": "G7900 S25 .J3", "call_num": "G7900 S25 .J3 SHEET E-10", "recid": "rr431vs2563", "websiteUrl": "https://purl.stanford.edu/rr431vs2563", "title": "[朝鮮] 二万五千分一地形圖 永興灣要塞近傍", "ckey": 10167801, "available": true, "iiifUrl": "https://purl.stanford.edu/rr431vs2563/iiif/manifest" }, "geometry": { "type": "Polygon", "coordinates": [ [ [ 127.377778, 39.1666664 ], [ 127.502778, 39.1666664 ], [ 127.502778, 39.2499998 ], [ 127.377778, 39.2499998 ], [ 127.377778, 39.1666664 ] ] ] } },
{ "type": "Feature", "properties": { "Id": 0, "Sheet_ID": "永興灣要塞近傍 5", "label": "永興灣要塞近傍 5", "call_short": "G7900 S25 .J3", "call_num": "G7900 S25 .J3 SHEET E-5", "recid": "ky369sn7706", "websiteUrl": "https://purl.stanford.edu/ky369sn7706", "title": "[朝鮮] 二万五千分一地形圖 永興灣要塞近傍", "ckey": 10167801, "available": true, "iiifUrl": "https://purl.stanford.edu/ky369sn7706/iiif/manifest" }, "geometry": { "type": "Polygon", "coordinates": [ [ [ 127.502778, 39.1666664 ], [ 127.6427, 39.1666664 ], [ 127.6427, 39.2499998 ], [ 127.502778, 39.2499998 ], [ 127.502778, 39.1666664 ] ] ] } },
{ "type": "Feature", "properties": { "Id": 0, "Sheet_ID": "永興灣要塞近傍 14", "label": "永興灣要塞近傍 14", "call_short": "G7900 S25 .J3", "call_num": "G7900 S25 .J3 SHEET E-14", "recid": "mp871bf5679", "websiteUrl": "https://purl.stanford.edu/mp871bf5679", "title": "[朝鮮] 二万五千分一地形圖 永興灣要塞近傍", "ckey": 10167801, "available": true, "iiifUrl": "https://purl.stanford.edu/mp871bf5679/iiif/manifest" }, "geometry": { "type": "Polygon", "coordinates": [ [ [ 127.252778, 39.2499998 ], [ 127.377778, 39.2499998 ], [ 127.377778, 39.3333332 ], [ 127.252778, 39.3333332 ], [ 127.252778, 39.2499998 ] ] ] } },
{ "type": "Feature", "properties": { "Id": 0, "Sheet_ID": "永興灣要塞近傍 9", "label": "永興灣要塞近傍 9", "call_short": "G7900 S25 .J3", "call_num": "G7900 S25 .J3 SHEET E-9", "recid": "wh505fc7995", "websiteUrl": "https://purl.stanford.edu/wh505fc7995", "title": "[朝鮮] 二万五千分一地形圖 永興灣要塞近傍", "ckey": 10167801, "available": true, "iiifUrl": "https://purl.stanford.edu/wh505fc7995/iiif/manifest" }, "geometry": { "type": "Polygon", "coordinates": [ [ [ 127.377778, 39.2499998 ], [ 127.502778, 39.2499998 ], [ 127.502778, 39.3333332 ], [ 127.377778, 39.3333332 ], [ 127.377778, 39.2499998 ] ] ] } },
{ "type": "Feature", "properties": { "Id": 0, "Sheet_ID": "永興灣要塞近傍 4", "label": "永興灣要塞近傍 4", "call_short": "G7900 S25 .J3", "call_num": "G7900 S25 .J3 SHEET E-4", "recid": "mr896cn3359", "websiteUrl": "https://purl.stanford.edu/mr896cn3359", "title": "[朝鮮] 二万五千分一地形圖 永興灣要塞近傍", "ckey": 10167801, "available": true, "iiifUrl": "https://purl.stanford.edu/mr896cn3359/iiif/manifest" }, "geometry": { "type": "Polygon", "coordinates": [ [ [ 127.502778, 39.2499998 ], [ 127.63, 39.2499998 ], [ 127.63, 39.3333332 ], [ 127.502778, 39.3333332 ], [ 127.502778, 39.2499998 ] ] ] } },
{ "type": "Feature", "properties": { "Id": 0, "Sheet_ID": "永興灣要塞近傍 13", "label": "永興灣要塞近傍 13", "call_short": "G7900 S25 .J3", "call_num": "G7900 S25 .J3 SHEET E-13", "recid": "jd587gv5481", "websiteUrl": "https://purl.stanford.edu/jd587gv5481", "title": "[朝鮮] 二万五千分一地形圖 永興灣要塞近傍", "ckey": 10167801, "available": true, "iiifUrl": "https://purl.stanford.edu/jd587gv5481/iiif/manifest" }, "geometry": { "type": "Polygon", "coordinates": [ [ [ 127.252778, 39.3333332 ], [ 127.377778, 39.3333332 ], [ 127.377778, 39.4166666 ], [ 127.252778, 39.4166666 ], [ 127.252778, 39.3333332 ] ] ] } },
{ "type": "Feature", "properties": { "Id": 0, "Sheet_ID": "永興灣要塞近傍 8", "label": "永興灣要塞近傍 8", "call_short": "G7900 S25 .J3", "call_num": "G7900 S25 .J3 SHEET E-8", "recid": "pv617vs8009", "websiteUrl": "https://purl.stanford.edu/pv617vs8009", "title": "[朝鮮] 二万五千分一地形圖 永興灣要塞近傍", "ckey": 10167801, "available": true, "iiifUrl": "https://purl.stanford.edu/pv617vs8009/iiif/manifest" }, "geometry": { "type": "Polygon", "coordinates": [ [ [ 127.377778, 39.3333332 ], [ 127.502778, 39.3333332 ], [ 127.502778, 39.4166666 ], [ 127.377778, 39.4166666 ], [ 127.377778, 39.3333332 ] ] ] } },
{ "type": "Feature", "properties": { "Id": 0, "Sheet_ID": "永興灣要塞近傍 3", "label": "永興灣要塞近傍 3", "call_short": "G7900 S25 .J3", "call_num": "G7900 S25 .J3 SHEET E-3", "recid": "tc140sk5993", "websiteUrl": "https://purl.stanford.edu/tc140sk5993", "title": "[朝鮮] 二万五千分一地形圖 永興灣要塞近傍", "ckey": 10167801, "available": true, "iiifUrl": "https://purl.stanford.edu/tc140sk5993/iiif/manifest" }, "geometry": { "type": "Polygon", "coordinates": [ [ [ 127.502778, 39.3333332 ], [ 127.627778, 39.3333332 ], [ 127.627778, 39.4166666 ], [ 127.502778, 39.4166666 ], [ 127.502778, 39.3333332 ] ] ] } },
{ "type": "Feature", "properties": { "Id": 0, "Sheet_ID": "永興灣要塞近傍 12", "label": "永興灣要塞近傍 12", "call_short": "G7900 S25 .J3", "call_num": "G7900 S25 .J3 SHEET E-12", "recid": "pv645zk7819", "websiteUrl": "https://purl.stanford.edu/pv645zk7819", "title": "[朝鮮] 二万五千分一地形圖 永興灣要塞近傍", "ckey": 10167801, "available": true, "iiifUrl": "https://purl.stanford.edu/pv645zk7819/iiif/manifest" }, "geometry": { "type": "Polygon", "coordinates": [ [ [ 127.252778, 39.4166666 ], [ 127.377778, 39.4166666 ], [ 127.377778, 39.5 ], [ 127.252778, 39.5 ], [ 127.252778, 39.4166666 ] ] ] } },
{ "type": "Feature", "properties": { "Id": 0, "Sheet_ID": "永興灣要塞近傍 7", "label": "永興灣要塞近傍 7", "call_short": "G7900 S25 .J3", "call_num": "G7900 S25 .J3 SHEET E-7", "recid": "wm005dj6805", "websiteUrl": "https://purl.stanford.edu/wm005dj6805", "title": "[朝鮮] 二万五千分一地形圖 永興灣要塞近傍", "ckey": 10167801, "available": true, "iiifUrl": "https://purl.stanford.edu/wm005dj6805/iiif/manifest" }, "geometry": { "type": "Polygon", "coordinates": [ [ [ 127.377778, 39.4166666 ], [ 127.502778, 39.4166666 ], [ 127.502778, 39.5 ], [ 127.377778, 39.5 ], [ 127.377778, 39.4166666 ] ] ] } },
{ "type": "Feature", "properties": { "Id": 0, "Sheet_ID": "永興灣要塞近傍 2", "label": "永興灣要塞近傍 2", "call_short": "G7900 S25 .J3", "call_num": "G7900 S25 .J3 SHEET E-2", "recid": "sj559sp8210", "websiteUrl": "https://purl.stanford.edu/sj559sp8210", "title": "[朝鮮] 二万五千分一地形圖 永興灣要塞近傍", "ckey": 10167801, "available": true, "iiifUrl": "https://purl.stanford.edu/sj559sp8210/iiif/manifest" }, "geometry": { "type": "Polygon", "coordinates": [ [ [ 127.502778, 39.4166666 ], [ 127.627778, 39.4166666 ], [ 127.627778, 39.5 ], [ 127.502778, 39.5 ], [ 127.502778, 39.4166666 ] ] ] } },
{ "type": "Feature", "properties": { "Id": 0, "Sheet_ID": "平壌地方 9", "label": "平壌地方 9", "call_short": "G7900 S25 .J3", "call_num": "G7900 S25 .J3 SHEET F-9", "recid": "zw499cz1586", "websiteUrl": "https://purl.stanford.edu/zw499cz1586", "title": "[朝鮮] 平壌地方", "ckey": 10167801, "available": true, "iiifUrl": "https://purl.stanford.edu/zw499cz1586/iiif/manifest" }, "geometry": { "type": "Polygon", "coordinates": [ [ [ 125.502778, 38.916667 ], [ 125.627778, 38.916667 ], [ 125.627778, 39.0000003 ], [ 125.502778, 39.0000003 ], [ 125.502778, 38.916667 ] ] ] } },
{ "type": "Feature", "properties": { "Id": 0, "Sheet_ID": "平壌地方 6", "label": "平壌地方 6", "call_short": "G7900 S25 .J3", "call_num": "G7900 S25 .J3 SHEET F-6", "recid": "hc096qr6027", "websiteUrl": "https://purl.stanford.edu/hc096qr6027", "title": "[朝鮮] 平壌地方", "ckey": 10167801, "available": true, "iiifUrl": "https://purl.stanford.edu/hc096qr6027/iiif/manifest" }, "geometry": { "type": "Polygon", "coordinates": [ [ [ 125.627778, 38.916667 ], [ 125.752778, 38.916667 ], [ 125.752778, 39.0000003 ], [ 125.627778, 39.0000003 ], [ 125.627778, 38.916667 ] ] ] } },
{ "type": "Feature", "properties": { "Id": 0, "Sheet_ID": "平壌地方 3", "label": "平壌地方 3", "call_short": "G7900 S25 .J3", "call_num": "G7900 S25 .J3 SHEET F-3", "recid": "wt820zg0447", "websiteUrl": "https://purl.stanford.edu/wt820zg0447", "title": "[朝鮮] 平壌地方", "ckey": 10167801, "available": true, "iiifUrl": "https://purl.stanford.edu/wt820zg0447/iiif/manifest" }, "geometry": { "type": "Polygon", "coordinates": [ [ [ 125.752778, 38.916667 ], [ 125.877778, 38.916667 ], [ 125.877778, 39.0000003 ], [ 125.752778, 39.0000003 ], [ 125.752778, 38.916667 ] ] ] } },
{ "type": "Feature", "properties": { "Id": 0, "Sheet_ID": "平壌地方 8", "label": "平壌地方 8", "call_short": "G7900 S25 .J3", "call_num": "G7900 S25 .J3 SHEET F-8", "recid": "kb757bk9077", "websiteUrl": "https://purl.stanford.edu/kb757bk9077", "title": "[朝鮮] 平壌地方", "ckey": 10167801, "available": true, "iiifUrl": "https://purl.stanford.edu/kb757bk9077/iiif/manifest" }, "geometry": { "type": "Polygon", "coordinates": [ [ [ 125.502778, 39.0000003 ], [ 125.627778, 39.0000003 ], [ 125.627778, 39.0833337 ], [ 125.502778, 39.0833337 ], [ 125.502778, 39.0000003 ] ] ] } },
{ "type": "Feature", "properties": { "Id": 0, "Sheet_ID": "平壌地方 5", "label": "平壌地方 5", "call_short": "G7900 S25 .J3", "call_num": "G7900 S25 .J3 SHEET F-5", "recid": "mx647st6508", "websiteUrl": "https://purl.stanford.edu/mx647st6508", "title": "[朝鮮] 平壌地方", "ckey": 10167801, "available": true, "iiifUrl": "https://purl.stanford.edu/mx647st6508/iiif/manifest" }, "geometry": { "type": "Polygon", "coordinates": [ [ [ 125.627778, 39.0000003 ], [ 125.752778, 39.0000003 ], [ 125.752778, 39.0833337 ], [ 125.627778, 39.0833337 ], [ 125.627778, 39.0000003 ] ] ] } },
{ "type": "Feature", "properties": { "Id": 0, "Sheet_ID": "平壌地方 2", "label": "平壌地方 2", "call_short": "G7900 S25 .J3", "call_num": "G7900 S25 .J3 SHEET F-2", "recid": "vs482hz1668", "websiteUrl": "https://purl.stanford.edu/vs482hz1668", "title": "[朝鮮] 平壌地方", "ckey": 10167801, "available": true, "iiifUrl": "https://purl.stanford.edu/vs482hz1668/iiif/manifest" }, "geometry": { "type": "Polygon", "coordinates": [ [ [ 125.752778, 39.0000003 ], [ 125.877778, 39.0000003 ], [ 125.877778, 39.0833337 ], [ 125.752778, 39.0833337 ], [ 125.752778, 39.0000003 ] ] ] } },
{ "type": "Feature", "properties": { "Id": 0, "Sheet_ID": "平壌地方 7", "label": "平壌地方 7", "call_short": "G7900 S25 .J3", "call_num": "G7900 S25 .J3 SHEET F-7", "recid": "tp089pz4074", "websiteUrl": "https://purl.stanford.edu/tp089pz4074", "title": "[朝鮮] 平壌地方", "ckey": 10167801, "available": true, "iiifUrl": "https://purl.stanford.edu/tp089pz4074/iiif/manifest" }, "geometry": { "type": "Polygon", "coordinates": [ [ [ 125.502778, 39.0833337 ], [ 125.627778, 39.0833337 ], [ 125.627778, 39.166667 ], [ 125.502778, 39.166667 ], [ 125.502778, 39.0833337 ] ] ] } },
{ "type": "Feature", "properties": { "Id": 0, "Sheet_ID": "平壌地方 4", "label": "平壌地方 4", "call_short": "G7900 S25 .J3", "call_num": "G7900 S25 .J3 SHEET F-4", "recid": "dh503fv2260", "websiteUrl": "https://purl.stanford.edu/dh503fv2260", "title": "[朝鮮] 平壌地方", "ckey": 10167801, "available": true, "iiifUrl": "https://purl.stanford.edu/dh503fv2260/iiif/manifest" }, "geometry": { "type": "Polygon", "coordinates": [ [ [ 125.627778, 39.0833337 ], [ 125.752778, 39.0833337 ], [ 125.752778, 39.166667 ], [ 125.627778, 39.166667 ], [ 125.627778, 39.0833337 ] ] ] } },
{ "type": "Feature", "properties": { "Id": 0, "Sheet_ID": "平壌地方 1", "label": "平壌地方 1", "call_short": "G7900 S25 .J3", "call_num": "G7900 S25 .J3 SHEET F-1", "recid": "rt143kf8972", "websiteUrl": "https://purl.stanford.edu/rt143kf8972", "title": "[朝鮮] 平壌地方", "ckey": 10167801, "available": true, "iiifUrl": "https://purl.stanford.edu/rt143kf8972/iiif/manifest" }, "geometry": { "type": "Polygon", "coordinates": [ [ [ 125.752778, 39.0833337 ], [ 125.877778, 39.0833337 ], [ 125.877778, 39.166667 ], [ 125.752778, 39.166667 ], [ 125.752778, 39.0833337 ] ] ] } },
{ "type": "Feature", "properties": { "Id": 0, "Sheet_ID": "鎮南浦地方 4", "label": "鎮南浦地方 4", "call_short": "G7900 S25 .J3", "call_num": "G7900 S25 .J3 SHEET G-4", "recid": "wj408yd1473", "websiteUrl": "https://purl.stanford.edu/wj408yd1473", "title": "[朝鮮] 鎮南浦地方", "ckey": 10167801, "available": true, "iiifUrl": "https://purl.stanford.edu/wj408yd1473/iiif/manifest" }, "geometry": { "type": "Polygon", "coordinates": [ [ [ 125.252778, 38.666667 ], [ 125.377778, 38.666667 ], [ 125.377778, 38.75 ], [ 125.252778, 38.75 ], [ 125.252778, 38.666667 ] ] ] } },
{ "type": "Feature", "properties": { "Id": 0, "Sheet_ID": "鎮南浦地方 2", "label": "鎮南浦地方 2", "call_short": "G7900 S25 .J3", "call_num": "G7900 S25 .J3 SHEET G-2", "recid": "rd033zd3556", "websiteUrl": "https://purl.stanford.edu/rd033zd3556", "title": "[朝鮮] 鎮南浦地方", "ckey": 10167801, "available": true, "iiifUrl": "https://purl.stanford.edu/rd033zd3556/iiif/manifest" }, "geometry": { "type": "Polygon", "coordinates": [ [ [ 125.377778, 38.666667 ], [ 125.502778, 38.666667 ], [ 125.502778, 38.75 ], [ 125.377778, 38.75 ], [ 125.377778, 38.666667 ] ] ] } },
{ "type": "Feature", "properties": { "Id": 0, "Sheet_ID": "鎮南浦地方 3", "label": "鎮南浦地方 3", "call_short": "G7900 S25 .J3", "call_num": "G7900 S25 .J3 SHEET G-3", "recid": "jm254fq0652", "websiteUrl": "https://purl.stanford.edu/jm254fq0652", "title": "[朝鮮] 鎮南浦地方", "ckey": 10167801, "available": true, "iiifUrl": "https://purl.stanford.edu/jm254fq0652/iiif/manifest" }, "geometry": { "type": "Polygon", "coordinates": [ [ [ 125.252778, 38.75 ], [ 125.377778, 38.75 ], [ 125.377778, 38.833333 ], [ 125.252778, 38.833333 ], [ 125.252778, 38.75 ] ] ] } },
{ "type": "Feature", "properties": { "Id": 0, "Sheet_ID": "鎮南浦地方 1", "label": "鎮南浦地方 1", "call_short": "G7900 S25 .J3", "call_num": "G7900 S25 .J3 SHEET G-1", "recid": "ct889mh6414", "websiteUrl": "https://purl.stanford.edu/ct889mh6414", "title": "[朝鮮] 鎮南浦地方", "ckey": 10167801, "available": true, "iiifUrl": "https://purl.stanford.edu/ct889mh6414/iiif/manifest" }, "geometry": { "type": "Polygon", "coordinates": [ [ [ 125.377778, 38.75 ], [ 125.502778, 38.75 ], [ 125.502778, 38.833333 ], [ 125.377778, 38.833333 ], [ 125.377778, 38.75 ] ] ] } },
{ "type": "Feature", "properties": { "Id": 0, "Sheet_ID": "仁川近傍 2", "label": "仁川近傍 2", "call_short": "G7900 S25 .J3", "call_num": "G7900 S25 .J3 SHEET I-2", "recid": "fq740wq0566", "websiteUrl": "https://purl.stanford.edu/fq740wq0566", "title": "[朝鮮] 二万五千分一地形圖 仁川近傍", "ckey": 10167801, "available": true, "iiifUrl": "https://purl.stanford.edu/fq740wq0566/iiif/manifest" }, "geometry": { "type": "Polygon", "coordinates": [ [ [ 126.627778, 37.333333 ], [ 126.752778, 37.333333 ], [ 126.752778, 37.4166665 ], [ 126.627778, 37.4166665 ], [ 126.627778, 37.333333 ] ] ] } },
{ "type": "Feature", "properties": { "Id": 0, "Sheet_ID": "京城及仁川地方 12", "label": "京城及仁川地方 12", "call_short": "G7900 S25 .J3", "call_num": "G7900 S25 .J3 SHEET H-12", "recid": "ff096tw5060", "websiteUrl": "https://purl.stanford.edu/ff096tw5060", "title": "[朝鮮] 京城及仁川地方", "ckey": 10167801, "available": true, "iiifUrl": "https://purl.stanford.edu/ff096tw5060/iiif/manifest" }, "geometry": { "type": "Polygon", "coordinates": [ [ [ 126.752778, 37.333333 ], [ 126.877778, 37.333333 ], [ 126.877778, 37.4166665 ], [ 126.752778, 37.4166665 ], [ 126.752778, 37.333333 ] ] ] } },
{ "type": "Feature", "properties": { "Id": 0, "Sheet_ID": "京城及仁川地方 8", "label": "京城及仁川地方 8", "call_short": "G7900 S25 .J3", "call_num": "G7900 S25 .J3 SHEET H-8", "recid": "xr118fv0131", "websiteUrl": "https://purl.stanford.edu/xr118fv0131", "title": "[朝鮮] 京城及仁川地方", "ckey": 10167801, "available": true, "iiifUrl": "https://purl.stanford.edu/xr118fv0131/iiif/manifest" }, "geometry": { "type": "Polygon", "coordinates": [ [ [ 126.877778, 37.333333 ], [ 127.002778, 37.333333 ], [ 127.002778, 37.4166665 ], [ 126.877778, 37.4166665 ], [ 126.877778, 37.333333 ] ] ] } },
{ "type": "Feature", "properties": { "Id": 0, "Sheet_ID": "京城及仁川地方 4", "label": "京城及仁川地方 4", "call_short": "G7900 S25 .J3", "call_num": "G7900 S25 .J3 SHEET H-4", "recid": "kr613dk8089", "websiteUrl": "https://purl.stanford.edu/kr613dk8089", "title": "[朝鮮] 京城及仁川地方", "ckey": 10167801, "available": true, "iiifUrl": "https://purl.stanford.edu/kr613dk8089/iiif/manifest" }, "geometry": { "type": "Polygon", "coordinates": [ [ [ 127.002778, 37.333333 ], [ 127.127778, 37.333333 ], [ 127.127778, 37.4166665 ], [ 127.002778, 37.4166665 ], [ 127.002778, 37.333333 ] ] ] } },
{ "type": "Feature", "properties": { "Id": 0, "Sheet_ID": "仁川近傍 3", "label": "仁川近傍 3", "call_short": "G7900 S25 .J3", "call_num": "G7900 S25 .J3 SHEET I-3", "recid": "nm334jm7062", "websiteUrl": "https://purl.stanford.edu/nm334jm7062", "title": "[朝鮮] 二万五千分一地形圖 仁川近傍", "ckey": 10167801, "available": true, "iiifUrl": "https://purl.stanford.edu/nm334jm7062/iiif/manifest" }, "geometry": { "type": "Polygon", "coordinates": [ [ [ 126.502778, 37.4166665 ], [ 126.627778, 37.4166665 ], [ 126.627778, 37.5 ], [ 126.502778, 37.5 ], [ 126.502778, 37.4166665 ] ] ] } },
{ "type": "Feature", "properties": { "Id": 0, "Sheet_ID": "仁川近傍 1", "label": "仁川近傍 1", "call_short": "G7900 S25 .J3", "call_num": "G7900 S25 .J3 SHEET I-1", "recid": "tx166gt5969", "websiteUrl": "https://purl.stanford.edu/tx166gt5969", "title": "[朝鮮] 二万五千分一地形圖 仁川近傍", "ckey": 10167801, "available": true, "iiifUrl": "https://purl.stanford.edu/tx166gt5969/iiif/manifest" }, "geometry": { "type": "Polygon", "coordinates": [ [ [ 126.627778, 37.4166665 ], [ 126.752778, 37.4166665 ], [ 126.752778, 37.5 ], [ 126.627778, 37.5 ], [ 126.627778, 37.4166665 ] ] ] } },
{ "type": "Feature", "properties": { "Id": 0, "Sheet_ID": "京城及仁川地方 11", "label": "京城及仁川地方 11", "call_short": "G7900 S25 .J3", "call_num": "G7900 S25 .J3 SHEET H-11", "recid": "dk248rc2228", "websiteUrl": "https://purl.stanford.edu/dk248rc2228", "title": "[朝鮮] 京城及仁川地方", "ckey": 10167801, "available": true, "iiifUrl": "https://purl.stanford.edu/dk248rc2228/iiif/manifest" }, "geometry": { "type": "Polygon", "coordinates": [ [ [ 126.752778, 37.4166665 ], [ 126.877778, 37.4166665 ], [ 126.877778, 37.5 ], [ 126.752778, 37.5 ], [ 126.752778, 37.4166665 ] ] ] } },
{ "type": "Feature", "properties": { "Id": 0, "Sheet_ID": "京城及仁川地方 7", "label": "京城及仁川地方 7", "call_short": "G7900 S25 .J3", "call_num": "G7900 S25 .J3 SHEET H-7", "recid": "mr125pg4692", "websiteUrl": "https://purl.stanford.edu/mr125pg4692", "title": "[朝鮮] 京城及仁川地方", "ckey": 10167801, "available": true, "iiifUrl": "https://purl.stanford.edu/mr125pg4692/iiif/manifest" }, "geometry": { "type": "Polygon", "coordinates": [ [ [ 126.877778, 37.4166665 ], [ 127.002778, 37.4166665 ], [ 127.002778, 37.5 ], [ 126.877778, 37.5 ], [ 126.877778, 37.4166665 ] ] ] } },
{ "type": "Feature", "properties": { "Id": 0, "Sheet_ID": "京城及仁川地方 3", "label": "京城及仁川地方 3", "call_short": "G7900 S25 .J3", "call_num": "G7900 S25 .J3 SHEET H-3", "recid": "xr589vq6128", "websiteUrl": "https://purl.stanford.edu/xr589vq6128", "title": "[朝鮮] 京城及仁川地方", "ckey": 10167801, "available": true, "iiifUrl": "https://purl.stanford.edu/xr589vq6128/iiif/manifest" }, "geometry": { "type": "Polygon", "coordinates": [ [ [ 127.002778, 37.4166665 ], [ 127.127778, 37.4166665 ], [ 127.127778, 37.5 ], [ 127.002778, 37.5 ], [ 127.002778, 37.4166665 ] ] ] } },
{ "type": "Feature", "properties": { "Id": 0, "Sheet_ID": "京城及仁川地方 15", "label": "京城及仁川地方 15", "call_short": "G7900 S25 .J3", "call_num": "G7900 S25 .J3 SHEET H-15", "recid": "cp325dj7615", "websiteUrl": "https://purl.stanford.edu/cp325dj7615", "title": "[朝鮮] 京城及仁川地方", "ckey": 10167801, "available": true, "iiifUrl": "https://purl.stanford.edu/cp325dj7615/iiif/manifest" }, "geometry": { "type": "Polygon", "coordinates": [ [ [ 126.502778, 37.5 ], [ 126.627778, 37.5 ], [ 126.627778, 37.5833335 ], [ 126.502778, 37.5833335 ], [ 126.502778, 37.5 ] ] ] } },
{ "type": "Feature", "properties": { "Id": 0, "Sheet_ID": "京城及仁川地方 14", "label": "京城及仁川地方 14", "call_short": "G7900 S25 .J3", "call_num": "G7900 S25 .J3 SHEET H-14", "recid": "qy624bn6987", "websiteUrl": "https://purl.stanford.edu/qy624bn6987", "title": "[朝鮮] 京城及仁川地方", "ckey": 10167801, "available": true, "iiifUrl": "https://purl.stanford.edu/qy624bn6987/iiif/manifest" }, "geometry": { "type": "Polygon", "coordinates": [ [ [ 126.627778, 37.5 ], [ 126.752778, 37.5 ], [ 126.752778, 37.5833335 ], [ 126.627778, 37.5833335 ], [ 126.627778, 37.5 ] ] ] } },
{ "type": "Feature", "properties": { "Id": 0, "Sheet_ID": "京城及仁川地方 10", "label": "京城及仁川地方 10", "call_short": "G7900 S25 .J3", "call_num": "G7900 S25 .J3 SHEET H-10", "recid": "dj060hc9889", "websiteUrl": "https://purl.stanford.edu/dj060hc9889", "title": "[朝鮮] 京城及仁川地方", "ckey": 10167801, "available": true, "iiifUrl": "https://purl.stanford.edu/dj060hc9889/iiif/manifest" }, "geometry": { "type": "Polygon", "coordinates": [ [ [ 126.752778, 37.5 ], [ 126.877778, 37.5 ], [ 126.877778, 37.5833335 ], [ 126.752778, 37.5833335 ], [ 126.752778, 37.5 ] ] ] } },
{ "type": "Feature", "properties": { "Id": 0, "Sheet_ID": "京城及仁川地方 6", "label": "京城及仁川地方 6", "call_short": "G7900 S25 .J3", "call_num": "G7900 S25 .J3 SHEET H-6", "recid": "yb543xq9845", "websiteUrl": "https://purl.stanford.edu/yb543xq9845", "title": "[朝鮮] 京城及仁川地方", "ckey": 10167801, "available": true, "iiifUrl": "https://purl.stanford.edu/yb543xq9845/iiif/manifest" }, "geometry": { "type": "Polygon", "coordinates": [ [ [ 126.877778, 37.5 ], [ 127.002778, 37.5 ], [ 127.002778, 37.5833335 ], [ 126.877778, 37.5833335 ], [ 126.877778, 37.5 ] ] ] } },
{ "type": "Feature", "properties": { "Id": 0, "Sheet_ID": "京城及仁川地方 2", "label": "京城及仁川地方 2", "call_short": "G7900 S25 .J3", "call_num": "G7900 S25 .J3 SHEET H-2", "recid": "fc955zf4698", "websiteUrl": "https://purl.stanford.edu/fc955zf4698", "title": "[朝鮮] 京城及仁川地方", "ckey": 10167801, "available": true, "iiifUrl": "https://purl.stanford.edu/fc955zf4698/iiif/manifest" }, "geometry": { "type": "Polygon", "coordinates": [ [ [ 127.002778, 37.5 ], [ 127.127778, 37.5 ], [ 127.127778, 37.5833335 ], [ 127.002778, 37.5833335 ], [ 127.002778, 37.5 ] ] ] } },
{ "type": "Feature", "properties": { "Id": 0, "Sheet_ID": "京城及仁川地方 13", "label": "京城及仁川地方 13", "call_short": "G7900 S25 .J3", "call_num": "G7900 S25 .J3 SHEET H-13", "recid": "ys288rz7329", "websiteUrl": "https://purl.stanford.edu/ys288rz7329", "title": "[朝鮮] 京城及仁川地方", "ckey": 10167801, "available": true, "iiifUrl": "https://purl.stanford.edu/ys288rz7329/iiif/manifest" }, "geometry": { "type": "Polygon", "coordinates": [ [ [ 126.627778, 37.5833335 ], [ 126.752778, 37.5833335 ], [ 126.752778, 37.666667 ], [ 126.627778, 37.666667 ], [ 126.627778, 37.5833335 ] ] ] } },
{ "type": "Feature", "properties": { "Id": 0, "Sheet_ID": "京城及仁川地方 9", "label": "京城及仁川地方 9", "call_short": "G7900 S25 .J3", "call_num": "G7900 S25 .J3 SHEET H-9", "recid": "jh855dp5186", "websiteUrl": "https://purl.stanford.edu/jh855dp5186", "title": "[朝鮮] 京城及仁川地方", "ckey": 10167801, "available": true, "iiifUrl": "https://purl.stanford.edu/jh855dp5186/iiif/manifest" }, "geometry": { "type": "Polygon", "coordinates": [ [ [ 126.752778, 37.5833335 ], [ 126.877778, 37.5833335 ], [ 126.877778, 37.666667 ], [ 126.752778, 37.666667 ], [ 126.752778, 37.5833335 ] ] ] } },
{ "type": "Feature", "properties": { "Id": 0, "Sheet_ID": "京城及仁川地方 5", "label": "京城及仁川地方 5", "call_short": "G7900 S25 .J3", "call_num": "G7900 S25 .J3 SHEET H-5", "recid": "hd719gz6534", "websiteUrl": "https://purl.stanford.edu/hd719gz6534", "title": "[朝鮮] 京城及仁川地方", "ckey": 10167801, "available": true, "iiifUrl": "https://purl.stanford.edu/hd719gz6534/iiif/manifest" }, "geometry": { "type": "Polygon", "coordinates": [ [ [ 126.877778, 37.5833335 ], [ 127.002778, 37.5833335 ], [ 127.002778, 37.666667 ], [ 126.877778, 37.666667 ], [ 126.877778, 37.5833335 ] ] ] } },
{ "type": "Feature", "properties": { "Id": 0, "Sheet_ID": "京城及仁川地方 1", "label": "京城及仁川地方 1", "call_short": "G7900 S25 .J3", "call_num": "G7900 S25 .J3 SHEET H-1", "recid": "ps591gs7316", "websiteUrl": "https://purl.stanford.edu/ps591gs7316", "title": "[朝鮮] 京城及仁川地方", "ckey": 10167801, "available": true, "iiifUrl": "https://purl.stanford.edu/ps591gs7316/iiif/manifest" }, "geometry": { "type": "Polygon", "coordinates": [ [ [ 127.002778, 37.5833335 ], [ 127.127778, 37.5833335 ], [ 127.127778, 37.666667 ], [ 127.002778, 37.666667 ], [ 127.002778, 37.5833335 ] ] ] } },
{ "type": "Feature", "properties": { "Id": 0, "Sheet_ID": "大田地方 12", "label": "大田地方 12", "call_short": "G7900 S25 .J3", "call_num": "G7900 S25 .J3 SHEET J-12", "recid": "yv808vg0512", "websiteUrl": "https://purl.stanford.edu/yv808vg0512", "title": "[朝鮮] 大田地方", "ckey": 10167801, "available": true, "iiifUrl": "https://purl.stanford.edu/yv808vg0512/iiif/manifest" }, "geometry": { "type": "Polygon", "coordinates": [ [ [ 127.252778, 36.166667 ], [ 127.377778, 36.166667 ], [ 127.377778, 36.2500002 ], [ 127.252778, 36.2500002 ], [ 127.252778, 36.166667 ] ] ] } },
{ "type": "Feature", "properties": { "Id": 0, "Sheet_ID": "大田地方 8", "label": "大田地方 8", "call_short": "G7900 S25 .J3", "call_num": "G7900 S25 .J3 SHEET J-8", "recid": "dn879hx0212", "websiteUrl": "https://purl.stanford.edu/dn879hx0212", "title": "[朝鮮] 大田地方", "ckey": 10167801, "available": true, "iiifUrl": "https://purl.stanford.edu/dn879hx0212/iiif/manifest" }, "geometry": { "type": "Polygon", "coordinates": [ [ [ 127.377778, 36.166667 ], [ 127.502778, 36.166667 ], [ 127.502778, 36.2500002 ], [ 127.377778, 36.2500002 ], [ 127.377778, 36.166667 ] ] ] } },
{ "type": "Feature", "properties": { "Id": 0, "Sheet_ID": "大田地方 4", "label": "大田地方 4", "call_short": "G7900 S25 .J3", "call_num": "G7900 S25 .J3 SHEET J-4", "recid": "pd526cd2883", "websiteUrl": "https://purl.stanford.edu/pd526cd2883", "title": "[朝鮮] 大田地方", "ckey": 10167801, "available": true, "iiifUrl": "https://purl.stanford.edu/pd526cd2883/iiif/manifest" }, "geometry": { "type": "Polygon", "coordinates": [ [ [ 127.502778, 36.166667 ], [ 127.627778, 36.166667 ], [ 127.627778, 36.2500002 ], [ 127.502778, 36.2500002 ], [ 127.502778, 36.166667 ] ] ] } },
{ "type": "Feature", "properties": { "Id": 0, "Sheet_ID": "大田地方 11", "label": "大田地方 11", "call_short": "G7900 S25 .J3", "call_num": "G7900 S25 .J3 SHEET J-11", "recid": "qv208kc2776", "websiteUrl": "https://purl.stanford.edu/qv208kc2776", "title": "[朝鮮] 大田地方", "ckey": 10167801, "available": true, "iiifUrl": "https://purl.stanford.edu/qv208kc2776/iiif/manifest" }, "geometry": { "type": "Polygon", "coordinates": [ [ [ 127.252778, 36.2500002 ], [ 127.377778, 36.2500002 ], [ 127.377778, 36.3333335 ], [ 127.252778, 36.3333335 ], [ 127.252778, 36.2500002 ] ] ] } },
{ "type": "Feature", "properties": { "Id": 0, "Sheet_ID": "大田地方 7", "label": "大田地方 7", "call_short": "G7900 S25 .J3", "call_num": "G7900 S25 .J3 SHEET J-7", "recid": "jz247sg0362", "websiteUrl": "https://purl.stanford.edu/jz247sg0362", "title": "[朝鮮] 大田地方", "ckey": 10167801, "available": true, "iiifUrl": "https://purl.stanford.edu/jz247sg0362/iiif/manifest" }, "geometry": { "type": "Polygon", "coordinates": [ [ [ 127.377778, 36.2500002 ], [ 127.502778, 36.2500002 ], [ 127.502778, 36.3333335 ], [ 127.377778, 36.3333335 ], [ 127.377778, 36.2500002 ] ] ] } },
{ "type": "Feature", "properties": { "Id": 0, "Sheet_ID": "大田地方 3", "label": "大田地方 3", "call_short": "G7900 S25 .J3", "call_num": "G7900 S25 .J3 SHEET J-3", "recid": "qy067jt1270", "websiteUrl": "https://purl.stanford.edu/qy067jt1270", "title": "[朝鮮] 大田地方", "ckey": 10167801, "available": true, "iiifUrl": "https://purl.stanford.edu/qy067jt1270/iiif/manifest" }, "geometry": { "type": "Polygon", "coordinates": [ [ [ 127.502778, 36.2500002 ], [ 127.627778, 36.2500002 ], [ 127.627778, 36.3333335 ], [ 127.502778, 36.3333335 ], [ 127.502778, 36.2500002 ] ] ] } },
{ "type": "Feature", "properties": { "Id": 0, "Sheet_ID": "大田地方 10", "label": "大田地方 10", "call_short": "G7900 S25 .J3", "call_num": "G7900 S25 .J3 SHEET J-10", "recid": "dq176nv4800", "websiteUrl": "https://purl.stanford.edu/dq176nv4800", "title": "[朝鮮] 大田地方", "ckey": 10167801, "available": true, "iiifUrl": "https://purl.stanford.edu/dq176nv4800/iiif/manifest" }, "geometry": { "type": "Polygon", "coordinates": [ [ [ 127.252778, 36.3333335 ], [ 127.377778, 36.3333335 ], [ 127.377778, 36.4166667 ], [ 127.252778, 36.4166667 ], [ 127.252778, 36.3333335 ] ] ] } },
{ "type": "Feature", "properties": { "Id": 0, "Sheet_ID": "大田地方 6", "label": "大田地方 6", "call_short": "G7900 S25 .J3", "call_num": "G7900 S25 .J3 SHEET J-6", "recid": "ht509hq3806", "websiteUrl": "https://purl.stanford.edu/ht509hq3806", "title": "[朝鮮] 大田地方", "ckey": 10167801, "available": true, "iiifUrl": "https://purl.stanford.edu/ht509hq3806/iiif/manifest" }, "geometry": { "type": "Polygon", "coordinates": [ [ [ 127.377778, 36.3333335 ], [ 127.502778, 36.3333335 ], [ 127.502778, 36.4166667 ], [ 127.377778, 36.4166667 ], [ 127.377778, 36.3333335 ] ] ] } },
{ "type": "Feature", "properties": { "Id": 0, "Sheet_ID": "大田地方 2", "label": "大田地方 2", "call_short": "G7900 S25 .J3", "call_num": "G7900 S25 .J3 SHEET J-2", "recid": "vz998hh7845", "websiteUrl": "https://purl.stanford.edu/vz998hh7845", "title": "[朝鮮] 大田地方", "ckey": 10167801, "available": true, "iiifUrl": "https://purl.stanford.edu/vz998hh7845/iiif/manifest" }, "geometry": { "type": "Polygon", "coordinates": [ [ [ 127.502778, 36.3333335 ], [ 127.627778, 36.3333335 ], [ 127.627778, 36.4166667 ], [ 127.502778, 36.4166667 ], [ 127.502778, 36.3333335 ] ] ] } },
{ "type": "Feature", "properties": { "Id": 0, "Sheet_ID": "大田地方 9", "label": "大田地方 9", "call_short": "G7900 S25 .J3", "call_num": "G7900 S25 .J3 SHEET J-9", "recid": "vn929wk7402", "websiteUrl": "https://purl.stanford.edu/vn929wk7402", "title": "[朝鮮] 大田地方", "ckey": 10167801, "available": true, "iiifUrl": "https://purl.stanford.edu/vn929wk7402/iiif/manifest" }, "geometry": { "type": "Polygon", "coordinates": [ [ [ 127.252778, 36.4166667 ], [ 127.377778, 36.4166667 ], [ 127.377778, 36.5 ], [ 127.252778, 36.5 ], [ 127.252778, 36.4166667 ] ] ] } },
{ "type": "Feature", "properties": { "Id": 0, "Sheet_ID": "大田地方 5", "label": "大田地方 5", "call_short": "G7900 S25 .J3", "call_num": "G7900 S25 .J3 SHEET J-5", "recid": "zh497cr3850", "websiteUrl": "https://purl.stanford.edu/zh497cr3850", "title": "[朝鮮] 大田地方", "ckey": 10167801, "available": true, "iiifUrl": "https://purl.stanford.edu/zh497cr3850/iiif/manifest" }, "geometry": { "type": "Polygon", "coordinates": [ [ [ 127.377778, 36.4166667 ], [ 127.502778, 36.4166667 ], [ 127.502778, 36.5 ], [ 127.377778, 36.5 ], [ 127.377778, 36.4166667 ] ] ] } },
{ "type": "Feature", "properties": { "Id": 0, "Sheet_ID": "大田地方 1", "label": "大田地方 1", "call_short": "G7900 S25 .J3", "call_num": "G7900 S25 .J3 SHEET J-1", "recid": "yx234kc8968", "websiteUrl": "https://purl.stanford.edu/yx234kc8968", "title": "[朝鮮] 大田地方", "ckey": 10167801, "available": true, "iiifUrl": "https://purl.stanford.edu/yx234kc8968/iiif/manifest" }, "geometry": { "type": "Polygon", "coordinates": [ [ [ 127.502778, 36.4166667 ], [ 127.627778, 36.4166667 ], [ 127.627778, 36.5 ], [ 127.502778, 36.5 ], [ 127.502778, 36.4166667 ] ] ] } },
{ "type": "Feature", "properties": { "Id": 0, "Sheet_ID": "群山地方 11", "label": "群山地方 11", "call_short": "G7900 S25 .J3", "call_num": "G7900 S25 .J3 SHEET K-11", "recid": "jg222nf3223", "websiteUrl": "https://purl.stanford.edu/jg222nf3223", "title": "[朝鮮] 群山地方", "ckey": 10167801, "available": true, "iiifUrl": "https://purl.stanford.edu/jg222nf3223/iiif/manifest" }, "geometry": { "type": "Polygon", "coordinates": [ [ [ 126.627778, 35.833333 ], [ 126.752778, 35.833333 ], [ 126.752778, 35.9166665 ], [ 126.627778, 35.9166665 ], [ 126.627778, 35.833333 ] ] ] } },
{ "type": "Feature", "properties": { "Id": 0, "Sheet_ID": "群山地方 8", "label": "群山地方 8", "call_short": "G7900 S25 .J3", "call_num": "G7900 S25 .J3 SHEET K-8", "recid": "xr746zk4720", "websiteUrl": "https://purl.stanford.edu/xr746zk4720", "title": "[朝鮮] 群山地方", "ckey": 10167801, "available": true, "iiifUrl": "https://purl.stanford.edu/xr746zk4720/iiif/manifest" }, "geometry": { "type": "Polygon", "coordinates": [ [ [ 126.752778, 35.833333 ], [ 126.877778, 35.833333 ], [ 126.877778, 35.9166665 ], [ 126.752778, 35.9166665 ], [ 126.752778, 35.833333 ] ] ] } },
{ "type": "Feature", "properties": { "Id": 0, "Sheet_ID": "群山地方 4", "label": "群山地方 4", "call_short": "G7900 S25 .J3", "call_num": "G7900 S25 .J3 SHEET K-4", "recid": "rc306wt2747", "websiteUrl": "https://purl.stanford.edu/rc306wt2747", "title": "[朝鮮] 群山地方", "ckey": 10167801, "available": true, "iiifUrl": "https://purl.stanford.edu/rc306wt2747/iiif/manifest" }, "geometry": { "type": "Polygon", "coordinates": [ [ [ 126.877778, 35.833333 ], [ 127.002778, 35.833333 ], [ 127.002778, 35.9166665 ], [ 126.877778, 35.9166665 ], [ 126.877778, 35.833333 ] ] ] } },
{ "type": "Feature", "properties": { "Id": 0, "Sheet_ID": "群山地方 10", "label": "群山地方 10", "call_short": "G7900 S25 .J3", "call_num": "G7900 S25 .J3 SHEET K-10", "recid": "gp511rb3575", "websiteUrl": "https://purl.stanford.edu/gp511rb3575", "title": "[朝鮮] 群山地方", "ckey": 10167801, "available": true, "iiifUrl": "https://purl.stanford.edu/gp511rb3575/iiif/manifest" }, "geometry": { "type": "Polygon", "coordinates": [ [ [ 126.627778, 35.9166665 ], [ 126.752778, 35.9166665 ], [ 126.752778, 36.0 ], [ 126.627778, 36.0 ], [ 126.627778, 35.9166665 ] ] ] } },
{ "type": "Feature", "properties": { "Id": 0, "Sheet_ID": "群山地方 7", "label": "群山地方 7", "call_short": "G7900 S25 .J3", "call_num": "G7900 S25 .J3 SHEET K-7", "recid": "zf708sw4902", "websiteUrl": "https://purl.stanford.edu/zf708sw4902", "title": "[朝鮮] 群山地方", "ckey": 10167801, "available": true, "iiifUrl": "https://purl.stanford.edu/zf708sw4902/iiif/manifest" }, "geometry": { "type": "Polygon", "coordinates": [ [ [ 126.752778, 35.9166665 ], [ 126.877778, 35.9166665 ], [ 126.877778, 36.0 ], [ 126.752778, 36.0 ], [ 126.752778, 35.9166665 ] ] ] } },
{ "type": "Feature", "properties": { "Id": 0, "Sheet_ID": "群山地方 3", "label": "群山地方 3", "call_short": "G7900 S25 .J3", "call_num": "G7900 S25 .J3 SHEET K-3", "recid": "wd112wy1198", "websiteUrl": "https://purl.stanford.edu/wd112wy1198", "title": "[朝鮮] 群山地方", "ckey": 10167801, "available": true, "iiifUrl": "https://purl.stanford.edu/wd112wy1198/iiif/manifest" }, "geometry": { "type": "Polygon", "coordinates": [ [ [ 126.877778, 35.9166665 ], [ 127.002778, 35.9166665 ], [ 127.002778, 36.0 ], [ 126.877778, 36.0 ], [ 126.877778, 35.9166665 ] ] ] } },
{ "type": "Feature", "properties": { "Id": 0, "Sheet_ID": "群山地方 9", "label": "群山地方 9", "call_short": "G7900 S25 .J3", "call_num": "G7900 S25 .J3 SHEET K-9", "recid": "xg104gp3022", "websiteUrl": "https://purl.stanford.edu/xg104gp3022", "title": "[朝鮮] 群山地方", "ckey": 10167801, "available": true, "iiifUrl": "https://purl.stanford.edu/xg104gp3022/iiif/manifest" }, "geometry": { "type": "Polygon", "coordinates": [ [ [ 126.627778, 36.0 ], [ 126.752778, 36.0 ], [ 126.752778, 36.0833335 ], [ 126.627778, 36.0833335 ], [ 126.627778, 36.0 ] ] ] } },
{ "type": "Feature", "properties": { "Id": 0, "Sheet_ID": "群山地方 6", "label": "群山地方 6", "call_short": "G7900 S25 .J3", "call_num": "G7900 S25 .J3 SHEET K-6", "recid": "yg815sj5725", "websiteUrl": "https://purl.stanford.edu/yg815sj5725", "title": "[朝鮮] 群山地方", "ckey": 10167801, "available": true, "iiifUrl": "https://purl.stanford.edu/yg815sj5725/iiif/manifest" }, "geometry": { "type": "Polygon", "coordinates": [ [ [ 126.752778, 36.0 ], [ 126.877778, 36.0 ], [ 126.877778, 36.0833335 ], [ 126.752778, 36.0833335 ], [ 126.752778, 36.0 ] ] ] } },
{ "type": "Feature", "properties": { "Id": 0, "Sheet_ID": "群山地方 2", "label": "群山地方 2", "call_short": "G7900 S25 .J3", "call_num": "G7900 S25 .J3 SHEET K-2", "recid": "zw731hy0898", "websiteUrl": "https://purl.stanford.edu/zw731hy0898", "title": "[朝鮮] 群山地方", "ckey": 10167801, "available": true, "iiifUrl": "https://purl.stanford.edu/zw731hy0898/iiif/manifest" }, "geometry": { "type": "Polygon", "coordinates": [ [ [ 126.877778, 36.0 ], [ 127.002778, 36.0 ], [ 127.002778, 36.0833335 ], [ 126.877778, 36.0833335 ], [ 126.877778, 36.0 ] ] ] } },
{ "type": "Feature", "properties": { "Id": 0, "Sheet_ID": "群山地方 5", "label": "群山地方 5", "call_short": "G7900 S25 .J3", "call_num": "G7900 S25 .J3 SHEET K-5", "recid": "xp007kg1744", "websiteUrl": "https://purl.stanford.edu/xp007kg1744", "title": "[朝鮮] 群山地方", "ckey": 10167801, "available": true, "iiifUrl": "https://purl.stanford.edu/xp007kg1744/iiif/manifest" }, "geometry": { "type": "Polygon", "coordinates": [ [ [ 126.752778, 36.0833335 ], [ 126.877778, 36.0833335 ], [ 126.877778, 36.166667 ], [ 126.752778, 36.166667 ], [ 126.752778, 36.0833335 ] ] ] } },
{ "type": "Feature", "properties": { "Id": 0, "Sheet_ID": "群山地方 1", "label": "群山地方 1", "call_short": "G7900 S25 .J3", "call_num": "G7900 S25 .J3 SHEET K-1", "recid": "yf618yb3482", "websiteUrl": "https://purl.stanford.edu/yf618yb3482", "title": "[朝鮮] 群山地方", "ckey": 10167801, "available": true, "iiifUrl": "https://purl.stanford.edu/yf618yb3482/iiif/manifest" }, "geometry": { "type": "Polygon", "coordinates": [ [ [ 126.877778, 36.0833335 ], [ 127.002778, 36.0833335 ], [ 127.002778, 36.166667 ], [ 126.877778, 36.166667 ], [ 126.877778, 36.0833335 ] ] ] } },
{ "type": "Feature", "properties": { "Id": 0, "Sheet_ID": "大邱地方 9", "label": "大邱地方 9", "call_short": "G7900 S25 .J3", "call_num": "G7900 S25 .J3 SHEET L-9", "recid": "ys669yx9026", "websiteUrl": "https://purl.stanford.edu/ys669yx9026", "title": "[朝鮮] 大邱地方", "ckey": 10167801, "available": true, "iiifUrl": "https://purl.stanford.edu/ys669yx9026/iiif/manifest" }, "geometry": { "type": "Polygon", "coordinates": [ [ [ 128.377778, 35.75 ], [ 128.502778, 35.75 ], [ 128.502778, 35.8333333 ], [ 128.377778, 35.8333333 ], [ 128.377778, 35.75 ] ] ] } },
{ "type": "Feature", "properties": { "Id": 0, "Sheet_ID": "大邱地方 6", "label": "大邱地方 6", "call_short": "G7900 S25 .J3", "call_num": "G7900 S25 .J3 SHEET L-6", "recid": "dz335fg9458", "websiteUrl": "https://purl.stanford.edu/dz335fg9458", "title": "[朝鮮] 大邱地方", "ckey": 10167801, "available": true, "iiifUrl": "https://purl.stanford.edu/dz335fg9458/iiif/manifest" }, "geometry": { "type": "Polygon", "coordinates": [ [ [ 128.502778, 35.75 ], [ 128.627778, 35.75 ], [ 128.627778, 35.8333333 ], [ 128.502778, 35.8333333 ], [ 128.502778, 35.75 ] ] ] } },
{ "type": "Feature", "properties": { "Id": 0, "Sheet_ID": "大邱地方 3", "label": "大邱地方 3", "call_short": "G7900 S25 .J3", "call_num": "G7900 S25 .J3 SHEET L-3", "recid": "jv126kh9254", "websiteUrl": "https://purl.stanford.edu/jv126kh9254", "title": "[朝鮮] 大邱地方", "ckey": 10167801, "available": true, "iiifUrl": "https://purl.stanford.edu/jv126kh9254/iiif/manifest" }, "geometry": { "type": "Polygon", "coordinates": [ [ [ 128.627778, 35.75 ], [ 128.752778, 35.75 ], [ 128.752778, 35.8333333 ], [ 128.627778, 35.8333333 ], [ 128.627778, 35.75 ] ] ] } },
{ "type": "Feature", "properties": { "Id": 0, "Sheet_ID": "大邱地方 8", "label": "大邱地方 8", "call_short": "G7900 S25 .J3", "call_num": "G7900 S25 .J3 SHEET L-8", "recid": "qr116bf3899", "websiteUrl": "https://purl.stanford.edu/qr116bf3899", "title": "[朝鮮] 大邱地方", "ckey": 10167801, "available": true, "iiifUrl": "https://purl.stanford.edu/qr116bf3899/iiif/manifest" }, "geometry": { "type": "Polygon", "coordinates": [ [ [ 128.377778, 35.8333333 ], [ 128.502778, 35.8333333 ], [ 128.502778, 35.9166667 ], [ 128.377778, 35.9166667 ], [ 128.377778, 35.8333333 ] ] ] } },
{ "type": "Feature", "properties": { "Id": 0, "Sheet_ID": "大邱地方 5", "label": "大邱地方 5", "call_short": "G7900 S25 .J3", "call_num": "G7900 S25 .J3 SHEET L-5", "recid": "qd087nv5786", "websiteUrl": "https://purl.stanford.edu/qd087nv5786", "title": "[朝鮮] 大邱地方", "ckey": 10167801, "available": true, "iiifUrl": "https://purl.stanford.edu/qd087nv5786/iiif/manifest" }, "geometry": { "type": "Polygon", "coordinates": [ [ [ 128.502778, 35.8333333 ], [ 128.627778, 35.8333333 ], [ 128.627778, 35.9166667 ], [ 128.502778, 35.9166667 ], [ 128.502778, 35.8333333 ] ] ] } },
{ "type": "Feature", "properties": { "Id": 0, "Sheet_ID": "大邱地方 2", "label": "大邱地方 2", "call_short": "G7900 S25 .J3", "call_num": "G7900 S25 .J3 SHEET L-2", "recid": "yj162sw6937", "websiteUrl": "https://purl.stanford.edu/yj162sw6937", "title": "[朝鮮] 大邱地方", "ckey": 10167801, "available": true, "iiifUrl": "https://purl.stanford.edu/yj162sw6937/iiif/manifest" }, "geometry": { "type": "Polygon", "coordinates": [ [ [ 128.627778, 35.8333333 ], [ 128.752778, 35.8333333 ], [ 128.752778, 35.9166667 ], [ 128.627778, 35.9166667 ], [ 128.627778, 35.8333333 ] ] ] } },
{ "type": "Feature", "properties": { "Id": 0, "Sheet_ID": "大邱地方 7", "label": "大邱地方 7", "call_short": "G7900 S25 .J3", "call_num": "G7900 S25 .J3 SHEET L-7", "recid": "wn930yr2284", "websiteUrl": "https://purl.stanford.edu/wn930yr2284", "title": "[朝鮮] 大邱地方", "ckey": 10167801, "available": true, "iiifUrl": "https://purl.stanford.edu/wn930yr2284/iiif/manifest" }, "geometry": { "type": "Polygon", "coordinates": [ [ [ 128.377778, 35.9166667 ], [ 128.502778, 35.9166667 ], [ 128.502778, 36.0 ], [ 128.377778, 36.0 ], [ 128.377778, 35.9166667 ] ] ] } },
{ "type": "Feature", "properties": { "Id": 0, "Sheet_ID": "大邱地方 4", "label": "大邱地方 4", "call_short": "G7900 S25 .J3", "call_num": "G7900 S25 .J3 SHEET L-4", "recid": "qm988dj1230", "websiteUrl": "https://purl.stanford.edu/qm988dj1230", "title": "[朝鮮] 大邱地方", "ckey": 10167801, "available": true, "iiifUrl": "https://purl.stanford.edu/qm988dj1230/iiif/manifest" }, "geometry": { "type": "Polygon", "coordinates": [ [ [ 128.502778, 35.9166667 ], [ 128.627778, 35.9166667 ], [ 128.627778, 36.0 ], [ 128.502778, 36.0 ], [ 128.502778, 35.9166667 ] ] ] } },
{ "type": "Feature", "properties": { "Id": 0, "Sheet_ID": "大邱地方 1", "label": "大邱地方 1", "call_short": "G7900 S25 .J3", "call_num": "G7900 S25 .J3 SHEET L-1", "recid": "dh763fk0497", "websiteUrl": "https://purl.stanford.edu/dh763fk0497", "title": "[朝鮮] 大邱地方", "ckey": 10167801, "available": true, "iiifUrl": "https://purl.stanford.edu/dh763fk0497/iiif/manifest" }, "geometry": { "type": "Polygon", "coordinates": [ [ [ 128.627778, 35.9166667 ], [ 128.752778, 35.9166667 ], [ 128.752778, 36.0 ], [ 128.627778, 36.0 ], [ 128.627778, 35.9166667 ] ] ] } },
{ "type": "Feature", "properties": { "Id": 0, "Sheet_ID": "釜山要塞近傍 23", "label": "釜山要塞近傍 23", "call_short": "G7900 S25 .J3", "call_num": "G7900 S25 .J3 SHEET M-9", "recid": "xh589st4976", "websiteUrl": "https://purl.stanford.edu/xh589st4976", "title": "[朝鮮] 二万五千分一地形圖 釜山要塞近傍", "ckey": 10167801, "available": true, "iiifUrl": "https://purl.stanford.edu/xh589st4976/iiif/manifest" }, "geometry": { "type": "Polygon", "coordinates": [ [ [ 128.75, 35.0 ], [ 128.875, 35.0 ], [ 128.875, 35.0833333 ], [ 128.75, 35.0833333 ], [ 128.75, 35.0 ] ] ] } },
{ "type": "Feature", "properties": { "Id": 0, "Sheet_ID": "釜山要塞近傍 15", "label": "釜山要塞近傍 15", "call_short": "G7900 S25 .J3", "call_num": "G7900 S25 .J3 SHEET M-3", "recid": "xv887vz5476", "websiteUrl": "https://purl.stanford.edu/xv887vz5476", "title": "[朝鮮] 二万五千分一地形圖 釜山要塞近傍", "ckey": 10167801, "available": true, "iiifUrl": "https://purl.stanford.edu/xv887vz5476/iiif/manifest" }, "geometry": { "type": "Polygon", "coordinates": [ [ [ 129.0, 35.0 ], [ 129.125, 35.0 ], [ 129.125, 35.0833333 ], [ 129.0, 35.0833333 ], [ 129.0, 35.0 ] ] ] } },
{ "type": "Feature", "properties": { "Id": 0, "Sheet_ID": "釜山要塞近傍 22", "label": "釜山要塞近傍 22", "call_short": "G7900 S25 .J3", "call_num": "G7900 S25 .J3 SHEET M-8", "recid": "gr076nv6450", "websiteUrl": "https://purl.stanford.edu/gr076nv6450", "title": "[朝鮮] 二万五千分一地形圖 釜山要塞近傍", "ckey": 10167801, "available": true, "iiifUrl": "https://purl.stanford.edu/gr076nv6450/iiif/manifest" }, "geometry": { "type": "Polygon", "coordinates": [ [ [ 128.75, 35.0833333 ], [ 128.875, 35.0833333 ], [ 128.875, 35.1666667 ], [ 128.75, 35.1666667 ], [ 128.75, 35.0833333 ] ] ] } },
{ "type": "Feature", "properties": { "Id": 0, "Sheet_ID": "釜山要塞近傍 18", "label": "釜山要塞近傍 18", "call_short": "G7900 S25 .J3", "call_num": "G7900 S25 .J3 SHEET M-5", "recid": "mk346xq3283", "websiteUrl": "https://purl.stanford.edu/mk346xq3283", "title": "[朝鮮] 二万五千分一地形圖 釜山要塞近傍", "ckey": 10167801, "available": true, "iiifUrl": "https://purl.stanford.edu/mk346xq3283/iiif/manifest" }, "geometry": { "type": "Polygon", "coordinates": [ [ [ 128.875, 35.0833333 ], [ 129.0, 35.0833333 ], [ 129.0, 35.1666667 ], [ 128.875, 35.1666667 ], [ 128.875, 35.0833333 ] ] ] } },
{ "type": "Feature", "properties": { "Id": 0, "Sheet_ID": "釜山要塞近傍 14", "label": "釜山要塞近傍 14", "call_short": "G7900 S25 .J3", "call_num": "G7900 S25 .J3 SHEET M-2", "recid": "rr245wf7541", "websiteUrl": "https://purl.stanford.edu/rr245wf7541", "title": "[朝鮮] 二万五千分一地形圖 釜山要塞近傍", "ckey": 10167801, "available": true, "iiifUrl": "https://purl.stanford.edu/rr245wf7541/iiif/manifest" }, "geometry": { "type": "Polygon", "coordinates": [ [ [ 129.0, 35.0833333 ], [ 129.125, 35.0833333 ], [ 129.125, 35.1666667 ], [ 129.0, 35.1666667 ], [ 129.0, 35.0833333 ] ] ] } },
{ "type": "Feature", "properties": { "Id": 0, "Sheet_ID": "釜山要塞近傍 21", "label": "釜山要塞近傍 21", "call_short": "G7900 S25 .J3", "call_num": "G7900 S25 .J3 SHEET M-7", "recid": "fj719mn2543", "websiteUrl": "https://purl.stanford.edu/fj719mn2543", "title": "[朝鮮] 二万五千分一地形圖 釜山要塞近傍", "ckey": 10167801, "available": true, "iiifUrl": "https://purl.stanford.edu/fj719mn2543/iiif/manifest" }, "geometry": { "type": "Polygon", "coordinates": [ [ [ 128.75, 35.1666667 ], [ 128.875, 35.1666667 ], [ 128.875, 35.25 ], [ 128.75, 35.25 ], [ 128.75, 35.1666667 ] ] ] } },
{ "type": "Feature", "properties": { "Id": 0, "Sheet_ID": "釜山要塞近傍 13", "label": "釜山要塞近傍 13", "call_short": "G7900 S25 .J3", "call_num": "G7900 S25 .J3 SHEET M-1", "recid": "dh270pv9783", "websiteUrl": "https://purl.stanford.edu/dh270pv9783", "title": "[朝鮮] 二万五千分一地形圖 釜山要塞近傍", "ckey": 10167801, "available": true, "iiifUrl": "https://purl.stanford.edu/dh270pv9783/iiif/manifest" }, "geometry": { "type": "Polygon", "coordinates": [ [ [ 129.0, 35.1666667 ], [ 129.125, 35.1666667 ], [ 129.125, 35.25 ], [ 129.0, 35.25 ], [ 129.0, 35.1666667 ] ] ] } },
{ "type": "Feature", "properties": { "Id": 0, "Sheet_ID": "釜山要塞近傍 8", "label": "釜山要塞近傍 8", "call_short": "G7900 S25 .J3", "call_num": "G7900 S25 .J3 SHEET M-1E", "recid": "hw251fv6842", "websiteUrl": "https://purl.stanford.edu/hw251fv6842", "title": "[朝鮮] 二万五千分一地形圖 釜山要塞近傍", "ckey": 10167801, "available": true, "iiifUrl": "https://purl.stanford.edu/hw251fv6842/iiif/manifest" }, "geometry": { "type": "Polygon", "coordinates": [ [ [ 129.125, 35.1666667 ], [ 129.25, 35.1666667 ], [ 129.25, 35.25 ], [ 129.125, 35.25 ], [ 129.125, 35.1666667 ] ] ] } },
{ "type": "Feature", "properties": { "Id": 0, "Sheet_ID": "鎭海灣要塞近傍 21", "label": "鎭海灣要塞近傍 21", "call_short": "G7900 S25 .J3", "call_num": "G7900 S25 .J3 SHEET M-21", "recid": "pm081pr0300", "websiteUrl": "https://purl.stanford.edu/pm081pr0300", "title": "[朝鮮] 二万五千分一地形圖 鎭海灣要塞近傍", "ckey": 10167801, "available": true, "iiifUrl": "https://purl.stanford.edu/pm081pr0300/iiif/manifest" }, "geometry": { "type": "Polygon", "coordinates": [ [ [ 128.377778, 34.916667 ], [ 128.502778, 34.916667 ], [ 128.502778, 35.0000002 ], [ 128.377778, 35.0000002 ], [ 128.377778, 34.916667 ] ] ] } },
{ "type": "Feature", "properties": { "Id": 0, "Sheet_ID": "鎭海灣要塞近傍 18", "label": "鎭海灣要塞近傍 18", "call_short": "G7900 S25 .J3", "call_num": "G7900 S25 .J3 SHEET M-18", "recid": "my093bf0739", "websiteUrl": "https://purl.stanford.edu/my093bf0739", "title": "[朝鮮] 二万五千分一地形圖 鎭海灣要塞近傍", "ckey": 10167801, "available": true, "iiifUrl": "https://purl.stanford.edu/my093bf0739/iiif/manifest" }, "geometry": { "type": "Polygon", "coordinates": [ [ [ 128.502778, 34.916667 ], [ 128.627778, 34.916667 ], [ 128.627778, 35.0000002 ], [ 128.502778, 35.0000002 ], [ 128.502778, 34.916667 ] ] ] } },
{ "type": "Feature", "properties": { "Id": 0, "Sheet_ID": "鎭海灣要塞近傍 14", "label": "鎭海灣要塞近傍 14", "call_short": "G7900 S25 .J3", "call_num": "G7900 S25 .J3 SHEET M-14", "recid": "rm798vz2431", "websiteUrl": "https://purl.stanford.edu/rm798vz2431", "title": "[朝鮮] 二万五千分一地形圖 鎭海灣要塞近傍", "ckey": 10167801, "available": true, "iiifUrl": "https://purl.stanford.edu/rm798vz2431/iiif/manifest" }, "geometry": { "type": "Polygon", "coordinates": [ [ [ 128.627778, 34.916667 ], [ 128.752778, 34.916667 ], [ 128.752778, 35.0000002 ], [ 128.627778, 35.0000002 ], [ 128.627778, 34.916667 ] ] ] } },
{ "type": "Feature", "properties": { "Id": 0, "Sheet_ID": "鎭海灣要塞近傍 10", "label": "鎭海灣要塞近傍 10", "call_short": "G7900 S25 .J3", "call_num": "G7900 S25 .J3 SHEET M-10", "recid": "jv077fz5363", "websiteUrl": "https://purl.stanford.edu/jv077fz5363", "title": "[朝鮮] 二万五千分一地形圖 鎭海灣要塞近傍", "ckey": 10167801, "available": true, "iiifUrl": "https://purl.stanford.edu/jv077fz5363/iiif/manifest" }, "geometry": { "type": "Polygon", "coordinates": [ [ [ 128.752778, 34.916667 ], [ 128.877778, 34.916667 ], [ 128.877778, 35.0000002 ], [ 128.752778, 35.0000002 ], [ 128.752778, 34.916667 ] ] ] } },
{ "type": "Feature", "properties": { "Id": 0, "Sheet_ID": "鎭海灣要塞近傍 20", "label": "鎭海灣要塞近傍 20", "call_short": "G7900 S25 .J3", "call_num": "G7900 S25 .J3 SHEET M-20", "recid": "ps652tv0444", "websiteUrl": "https://purl.stanford.edu/ps652tv0444", "title": "[朝鮮] 二万五千分一地形圖 鎭海灣要塞近傍", "ckey": 10167801, "available": true, "iiifUrl": "https://purl.stanford.edu/ps652tv0444/iiif/manifest" }, "geometry": { "type": "Polygon", "coordinates": [ [ [ 128.377778, 35.0000002 ], [ 128.502778, 35.0000002 ], [ 128.502778, 35.0833335 ], [ 128.377778, 35.0833335 ], [ 128.377778, 35.0000002 ] ] ] } },
{ "type": "Feature", "properties": { "Id": 0, "Sheet_ID": "鎭海灣要塞近傍 17", "label": "鎭海灣要塞近傍 17", "call_short": "G7900 S25 .J3", "call_num": "G7900 S25 .J3 SHEET M-17", "recid": "mt795st6417", "websiteUrl": "https://purl.stanford.edu/mt795st6417", "title": "[朝鮮] 二万五千分一地形圖 鎭海灣要塞近傍", "ckey": 10167801, "available": true, "iiifUrl": "https://purl.stanford.edu/mt795st6417/iiif/manifest" }, "geometry": { "type": "Polygon", "coordinates": [ [ [ 128.502778, 35.0000002 ], [ 128.627778, 35.0000002 ], [ 128.627778, 35.0833335 ], [ 128.502778, 35.0833335 ], [ 128.502778, 35.0000002 ] ] ] } },
{ "type": "Feature", "properties": { "Id": 0, "Sheet_ID": "鎭海灣要塞近傍 13", "label": "鎭海灣要塞近傍 13", "call_short": "G7900 S25 .J3", "call_num": "G7900 S25 .J3 SHEET M-13", "recid": "wh796wb6010", "websiteUrl": "https://purl.stanford.edu/wh796wb6010", "title": "[朝鮮] 二万五千分一地形圖 鎭海灣要塞近傍", "ckey": 10167801, "available": true, "iiifUrl": "https://purl.stanford.edu/wh796wb6010/iiif/manifest" }, "geometry": { "type": "Polygon", "coordinates": [ [ [ 128.627778, 35.0000002 ], [ 128.752778, 35.0000002 ], [ 128.752778, 35.0833335 ], [ 128.627778, 35.0833335 ], [ 128.627778, 35.0000002 ] ] ] } },
{ "type": "Feature", "properties": { "Id": 0, "Sheet_ID": "鎭海灣要塞近傍 6", "label": "鎭海灣要塞近傍 6", "call_short": "G7900 S25 .J3", "call_num": "G7900 S25 .J3 SHEET M-6", "recid": "zm870zw9207", "websiteUrl": "https://purl.stanford.edu/zm870zw9207", "title": "[朝鮮] 二万五千分一地形圖 鎭海灣要塞近傍", "ckey": 10167801, "available": true, "iiifUrl": "https://purl.stanford.edu/zm870zw9207/iiif/manifest" }, "geometry": { "type": "Polygon", "coordinates": [ [ [ 128.877778, 35.0000002 ], [ 129.002778, 35.0000002 ], [ 129.002778, 35.0833335 ], [ 128.877778, 35.0833335 ], [ 128.877778, 35.0000002 ] ] ] } },
{ "type": "Feature", "properties": { "Id": 0, "Sheet_ID": "鎭海灣要塞近傍 19", "label": "鎭海灣要塞近傍 19", "call_short": "G7900 S25 .J3", "call_num": "G7900 S25 .J3 SHEET M-19", "recid": "pm519sv3923", "websiteUrl": "https://purl.stanford.edu/pm519sv3923", "title": "[朝鮮] 二万五千分一地形圖 鎭海灣要塞近傍", "ckey": 10167801, "available": true, "iiifUrl": "https://purl.stanford.edu/pm519sv3923/iiif/manifest" }, "geometry": { "type": "Polygon", "coordinates": [ [ [ 128.377778, 35.0833335 ], [ 128.502778, 35.0833335 ], [ 128.502778, 35.1666667 ], [ 128.377778, 35.1666667 ], [ 128.377778, 35.0833335 ] ] ] } },
{ "type": "Feature", "properties": { "Id": 0, "Sheet_ID": "鎭海灣要塞近傍 16", "label": "鎭海灣要塞近傍 16", "call_short": "G7900 S25 .J3", "call_num": "G7900 S25 .J3 SHEET M-16", "recid": "gx875hv3447", "websiteUrl": "https://purl.stanford.edu/gx875hv3447", "title": "[朝鮮] 二万五千分一地形圖 鎭海灣要塞近傍", "ckey": 10167801, "available": true, "iiifUrl": "https://purl.stanford.edu/gx875hv3447/iiif/manifest" }, "geometry": { "type": "Polygon", "coordinates": [ [ [ 128.502778, 35.0833335 ], [ 128.627778, 35.0833335 ], [ 128.627778, 35.1666667 ], [ 128.502778, 35.1666667 ], [ 128.502778, 35.0833335 ] ] ] } },
{ "type": "Feature", "properties": { "Id": 0, "Sheet_ID": "鎭海灣要塞近傍 12", "label": "鎭海灣要塞近傍 12", "call_short": "G7900 S25 .J3", "call_num": "G7900 S25 .J3 SHEET M-12", "recid": "vy945md9291", "websiteUrl": "https://purl.stanford.edu/vy945md9291", "title": "[朝鮮] 二万五千分一地形圖 鎭海灣要塞近傍", "ckey": 10167801, "available": true, "iiifUrl": "https://purl.stanford.edu/vy945md9291/iiif/manifest" }, "geometry": { "type": "Polygon", "coordinates": [ [ [ 128.627778, 35.0833335 ], [ 128.752778, 35.0833335 ], [ 128.752778, 35.1666667 ], [ 128.627778, 35.1666667 ], [ 128.627778, 35.0833335 ] ] ] } },
{ "type": "Feature", "properties": { "Id": 0, "Sheet_ID": "鎭海灣要塞近傍 15", "label": "鎭海灣要塞近傍 15", "call_short": "G7900 S25 .J3", "call_num": "G7900 S25 .J3 SHEET M-15", "recid": "jt302sk9759", "websiteUrl": "https://purl.stanford.edu/jt302sk9759", "title": "[朝鮮] 二万五千分一地形圖 鎭海灣要塞近傍", "ckey": 10167801, "available": true, "iiifUrl": "https://purl.stanford.edu/jt302sk9759/iiif/manifest" }, "geometry": { "type": "Polygon", "coordinates": [ [ [ 128.502778, 35.1666667 ], [ 128.627778, 35.1666667 ], [ 128.627778, 35.25 ], [ 128.502778, 35.25 ], [ 128.502778, 35.1666667 ] ] ] } },
{ "type": "Feature", "properties": { "Id": 0, "Sheet_ID": "鎭海灣要塞近傍 11", "label": "鎭海灣要塞近傍 11", "call_short": "G7900 S25 .J3", "call_num": "G7900 S25 .J3 SHEET M-11", "recid": "wh826hp4822", "websiteUrl": "https://purl.stanford.edu/wh826hp4822", "title": "[朝鮮] 二万五千分一地形圖 鎭海灣要塞近傍", "ckey": 10167801, "available": true, "iiifUrl": "https://purl.stanford.edu/wh826hp4822/iiif/manifest" }, "geometry": { "type": "Polygon", "coordinates": [ [ [ 128.627778, 35.1666667 ], [ 128.752778, 35.1666667 ], [ 128.752778, 35.25 ], [ 128.627778, 35.25 ], [ 128.627778, 35.1666667 ] ] ] } },
{ "type": "Feature", "properties": { "Id": 0, "Sheet_ID": "鎭海灣要塞近傍 4", "label": "鎭海灣要塞近傍 4", "call_short": "G7900 S25 .J3", "call_num": "G7900 S25 .J3 SHEET M-4", "recid": "sk962rh4554", "websiteUrl": "https://purl.stanford.edu/sk962rh4554", "title": "[朝鮮] 二万五千分一地形圖 鎭海灣要塞近傍", "ckey": 10167801, "available": true, "iiifUrl": "https://purl.stanford.edu/sk962rh4554/iiif/manifest" }, "geometry": { "type": "Polygon", "coordinates": [ [ [ 128.877778, 35.1666667 ], [ 129.002778, 35.1666667 ], [ 129.002778, 35.25 ], [ 128.877778, 35.25 ], [ 128.877778, 35.1666667 ] ] ] } },
{ "type": "Feature", "properties": { "Id": 0, "Sheet_ID": "木浦地方 6", "label": "木浦地方 6", "call_short": "G7900 S25 .J3", "call_num": "G7900 S25 .J3 SHEET N-6", "recid": "rh483zt3375", "websiteUrl": "https://purl.stanford.edu/rh483zt3375", "title": "[朝鮮] 木浦地方", "ckey": 10167801, "available": true, "iiifUrl": "https://purl.stanford.edu/rh483zt3375/iiif/manifest" }, "geometry": { "type": "Polygon", "coordinates": [ [ [ 126.252778, 34.666667 ], [ 126.377778, 34.666667 ], [ 126.377778, 34.7500003 ], [ 126.252778, 34.7500003 ], [ 126.252778, 34.666667 ] ] ] } },
{ "type": "Feature", "properties": { "Id": 0, "Sheet_ID": "木浦地方 3", "label": "木浦地方 3", "call_short": "G7900 S25 .J3", "call_num": "G7900 S25 .J3 SHEET N-3", "recid": "dj807pq7149", "websiteUrl": "https://purl.stanford.edu/dj807pq7149", "title": "[朝鮮] 木浦地方", "ckey": 10167801, "available": true, "iiifUrl": "https://purl.stanford.edu/dj807pq7149/iiif/manifest" }, "geometry": { "type": "Polygon", "coordinates": [ [ [ 126.377778, 34.666667 ], [ 126.502778, 34.666667 ], [ 126.502778, 34.7500003 ], [ 126.377778, 34.7500003 ], [ 126.377778, 34.666667 ] ] ] } },
{ "type": "Feature", "properties": { "Id": 0, "Sheet_ID": "木浦地方 5", "label": "木浦地方 5", "call_short": "G7900 S25 .J3", "call_num": "G7900 S25 .J3 SHEET N-5", "recid": "wf729bt8047", "websiteUrl": "https://purl.stanford.edu/wf729bt8047", "title": "[朝鮮] 木浦地方", "ckey": 10167801, "available": true, "iiifUrl": "https://purl.stanford.edu/wf729bt8047/iiif/manifest" }, "geometry": { "type": "Polygon", "coordinates": [ [ [ 126.252778, 34.7500003 ], [ 126.377778, 34.7500003 ], [ 126.377778, 34.8333337 ], [ 126.252778, 34.8333337 ], [ 126.252778, 34.7500003 ] ] ] } },
{ "type": "Feature", "properties": { "Id": 0, "Sheet_ID": "木浦地方 2", "label": "木浦地方 2", "call_short": null, "call_num": null, "recid": null, "websiteUrl": null, "title": null, "ckey": 0, "available": false, "iiifUrl": null }, "geometry": { "type": "Polygon", "coordinates": [ [ [ 126.377778, 34.7500003 ], [ 126.502778, 34.7500003 ], [ 126.502778, 34.8333337 ], [ 126.377778, 34.8333337 ], [ 126.377778, 34.7500003 ] ] ] } },
{ "type": "Feature", "properties": { "Id": 0, "Sheet_ID": "木浦地方 4", "label": "木浦地方 4", "call_short": "G7900 S25 .J3", "call_num": "G7900 S25 .J3 SHEET N-4", "recid": "cy885tw3964", "websiteUrl": "https://purl.stanford.edu/cy885tw3964", "title": "[朝鮮] 木浦地方", "ckey": 10167801, "available": true, "iiifUrl": "https://purl.stanford.edu/cy885tw3964/iiif/manifest" }, "geometry": { "type": "Polygon", "coordinates": [ [ [ 126.252778, 34.8333337 ], [ 126.377778, 34.8333337 ], [ 126.377778, 34.916667 ], [ 126.252778, 34.916667 ], [ 126.252778, 34.8333337 ] ] ] } },
{ "type": "Feature", "properties": { "Id": 0, "Sheet_ID": "木浦地方 1", "label": "木浦地方 1", "call_short": "G7900 S25 .J3", "call_num": "G7900 S25 .J3 SHEET N-1", "recid": "yw856mz5086", "websiteUrl": "https://purl.stanford.edu/yw856mz5086", "title": "[朝鮮] 木浦地方", "ckey": 10167801, "available": true, "iiifUrl": "https://purl.stanford.edu/yw856mz5086/iiif/manifest" }, "geometry": { "type": "Polygon", "coordinates": [ [ [ 126.377778, 34.8333337 ], [ 126.502778, 34.8333337 ], [ 126.502778, 34.916667 ], [ 126.377778, 34.916667 ], [ 126.377778, 34.8333337 ] ] ] } }
]
}
