{
"type": "FeatureCollection",
"name": "index_map",
"features": [
{ "type": "Feature", "properties": { "Id": 0, "Sheet_ID": "サイパン/テニアン/アギグァン/ロタ/グアム", "label": "サイパン/テニアン/アギグァン/ロタ/グアム", "call_short": "G9410 1944 .J3", "call_num": "G9410 1944 .J3", "recid": "vt197hd5731", "websiteUrl": "https://purl.stanford.edu/vt197hd5731", "title": "十万分一グァム島附近 / 十万分一マリアナ諸島集成圖", "ckey": 10652405, "web_map": null, "available": true, "iiifUrl": "https://purl.stanford.edu/vt197hd5731/iiif/manifest" }, "geometry": { "type": "Polygon", "coordinates": [ [ [ 144.5, 13.166667 ], [ 145.916667, 13.166667 ], [ 145.916667, 15.333333 ], [ 144.5, 15.333333 ], [ 144.5, 13.166667 ] ] ] } }
]
}
