{
"type": "FeatureCollection",
"name": "index_map",
"xy_coordinate_resolution": 1e-07,
"features": [
{ "type": "Feature", "properties": { "Id": 0, "Sheet_ID": "[3.] 東部右", "label": "[3.] 東部右", "call_short": "G7824 .S2 1941 .J3", "call_num": "G7824 .S2 1941 .J3 SHEET 3", "recid": "qk468mx2283", "websiteUrl": "https://purl.stanford.edu/qk468mx2283", "title": "上海共同租界圖", "ckey": 9689696, "available": true, "iiifUrl": "https://purl.stanford.edu/qk468mx2283/iiif/manifest" }, "geometry": { "type": "Polygon", "coordinates": [ [ [ 121.5301582, 31.2516998 ], [ 121.5627106, 31.2713045 ], [ 121.5539401, 31.2858674 ], [ 121.5213877, 31.2662626 ], [ 121.5301582, 31.2516998 ] ] ] } },
{ "type": "Feature", "properties": { "Id": 0, "Sheet_ID": "[2.] 東部左", "label": "[2.] 東部左", "call_short": "G7824 .S2 1941 .J3", "call_num": "G7824 .S2 1941 .J3 SHEET 2", "recid": "ty031xg3667", "websiteUrl": "https://purl.stanford.edu/ty031xg3667", "title": "上海共同租界圖", "ckey": 9689696, "available": true, "iiifUrl": "https://purl.stanford.edu/ty031xg3667/iiif/manifest" }, "geometry": { "type": "Polygon", "coordinates": [ [ [ 121.4852635, 31.2437718 ], [ 121.5344952, 31.2525032 ], [ 121.5313694, 31.2701282 ], [ 121.4821377, 31.2613968 ], [ 121.4852635, 31.2437718 ] ] ] } },
{ "type": "Feature", "properties": { "Id": 0, "Sheet_ID": "[1.] 中央", "label": "[1.] 中央", "call_short": "G7824 .S2 1941 .J3", "call_num": "G7824 .S2 1941 .J3 SHEET 1", "recid": "dy375bd5077", "websiteUrl": "https://purl.stanford.edu/dy375bd5077", "title": "上海共同租界圖", "ckey": 9689696, "available": true, "iiifUrl": "https://purl.stanford.edu/dy375bd5077/iiif/manifest" }, "geometry": { "type": "Polygon", "coordinates": [ [ [ 121.471052, 31.2274036 ], [ 121.4919599, 31.234249 ], [ 121.4866703, 31.2504051 ], [ 121.4657624, 31.2435598 ], [ 121.471052, 31.2274036 ] ] ] } }
]
}
