{"type":"FeatureCollection","features":[{"type":"Feature","properties":{"Id":0,"Sheet_ID":"プル島","label":"プル島","call_short":"G8062 .C23 1944 .J3","call_num":"G8062 .C23 1944 .J3","recid":"dv198bk6496","websiteUrl":"https://purl.stanford.edu/dv198bk6496","title":"「プル島」兵要地誌資料圖 / 五千分一圖 プル島","ckey":10475219,"web_map":"","available":"true","iiifUrl":"https://purl.stanford.edu/dv198bk6496/iiif/manifest"},"geometry":{"bbox":[131.941667,4.647222,131.966667,4.666667],"type":"Polygon","coordinates":[[[131.941667,4.647222],[131.941667,4.666667],[131.966667,4.666667],[131.966667,4.647222],[131.941667,4.647222]]]}}],"name":"index_10475219"}
