{
"type": "FeatureCollection",
"name": "index_map",
"features": [
{ "type": "Feature", "properties": { "Id": 0, "Sheet_ID": "桑名", "label": "桑名", "call_short": "G7964 .K96 1946 .N4", "call_num": "G7964 .K96 1946 .N4", "recid": "sp849hm7726", "websiteUrl": "https://purl.stanford.edu/sp849hm7726", "title": "桑名航空寫真測量圖", "ckey": 10429439, "available": true, "iiifUrl": "https://purl.stanford.edu/sp849hm7726/iiif/manifest" }, "geometry": { "type": "Polygon", "coordinates": [ [ [ 136.665278, 35.036111 ], [ 136.706944, 35.036111 ], [ 136.706944, 35.088889 ], [ 136.665278, 35.088889 ], [ 136.665278, 35.036111 ] ] ] } }
]
}
