{"type":"FeatureCollection","features":[{"type":"Feature","properties":{"Id":0,"sheet_ID":"42J","label":"42J","call_short":"G7405 S250 .J3","call_num":"G7405 S250 .J3 SHEET 42J","recid":"rs215mk6728","websiteUrl":"https://purl.stanford.edu/rs215mk6728","title":"二十五万分一圖印度","ckey":13887054,"web_map":"","available":"true","iiiUrl":"https://purl.stanford.edu/rs215mk6728/iiif/manifest"},"geometry":{"bbox":[74,38,75,39],"type":"Polygon","coordinates":[[[74,38],[74,39],[75,39],[75,38],[74,38]]]}},{"type":"Feature","properties":{"Id":0,"sheet_ID":"42A","label":"42A","call_short":"G7405 S250 .J3","call_num":"G7405 S250 .J3 SHEET 42A","recid":"pg343cs8088","websiteUrl":"https://purl.stanford.edu/pg343cs8088","title":"二十五万分一圖印度","ckey":13887054,"web_map":"","available":"true","iiiUrl":"https://purl.stanford.edu/pg343cs8088/iiif/manifest"},"geometry":{"bbox":[72,39,73,40],"type":"Polygon","coordinates":[[[72,39],[72,40],[73,40],[73,39],[72,39]]]}},{"type":"Feature","properties":{"Id":0,"sheet_ID":"42E","label":"42E","call_short":"G7405 S250 .J3","call_num":"G7405 S250 .J3 SHEET 42E","recid":"gs788cw4057","websiteUrl":"https://purl.stanford.edu/gs788cw4057","title":"二十五万分一圖印度","ckey":13887054,"web_map":"","available":"true","iiiUrl":"https://purl.stanford.edu/gs788cw4057/iiif/manifest"},"geometry":{"bbox":[73,39,74,40],"type":"Polygon","coordinates":[[[73,39],[73,40],[74,40],[74,39],[73,39]]]}}],"name":"index_13887054"}
