{
"type": "FeatureCollection",
"name": "index_map",
"xy_coordinate_resolution": 1e-07,
"features": [
{ "type": "Feature", "properties": { "Id": 0, "Sheet_ID": "アムール州_アルハラ", "label": "アムール州_アルハラ", "call_short": "G7000 S25 .J37", "call_num": "G7000 S25 .J37 A-1", "recid": "dz518qz0288", "websiteUrl": "https://purl.stanford.edu/dz518qz0288", "title": "二万五千分一極東ソ領市街圖", "ckey": 13902125, "available": true, "iiifUrl": "https://purl.stanford.edu/dz518qz0288/iiif/manifest" }, "geometry": { "type": "Polygon", "coordinates": [ [ [ 130.0, 49.3 ], [ 130.2, 49.3 ], [ 130.2, 49.5 ], [ 130.0, 49.5 ], [ 130.0, 49.3 ] ] ] } },
{ "type": "Feature", "properties": { "Id": 0, "Sheet_ID": "アムール州_スウォボドヌイ", "label": "アムール州_スウォボドヌイ", "call_short": "G7000 S25 .J37", "call_num": "G7000 S25 .J37 A-7", "recid": "xx363jv8575", "websiteUrl": "https://purl.stanford.edu/xx363jv8575", "title": "二万五千分一極東ソ領市街圖", "ckey": 13902125, "available": true, "iiifUrl": "https://purl.stanford.edu/xx363jv8575/iiif/manifest" }, "geometry": { "type": "Polygon", "coordinates": [ [ [ 128.063889, 51.283333 ], [ 128.263889, 51.283333 ], [ 128.263889, 51.483333 ], [ 128.063889, 51.483333 ], [ 128.063889, 51.283333 ] ] ] } },
{ "type": "Feature", "properties": { "Id": 0, "Sheet_ID": "猶太自治州_バブストーワ", "label": "猶太自治州_バブストーワ", "call_short": "G7000 S25 .J37", "call_num": "G7000 S25 .J37 J-3", "recid": "ty067dg7609", "websiteUrl": "https://purl.stanford.edu/ty067dg7609", "title": "二万五千分一極東ソ領市街圖", "ckey": 13902125, "available": true, "iiifUrl": "https://purl.stanford.edu/ty067dg7609/iiif/manifest" }, "geometry": { "type": "Polygon", "coordinates": [ [ [ 132.3, 48.058333 ], [ 132.5, 48.058333 ], [ 132.5, 48.258333 ], [ 132.3, 48.258333 ], [ 132.3, 48.058333 ] ] ] } },
{ "type": "Feature", "properties": { "Id": 0, "Sheet_ID": "ハバロフスク州_ローゼンガルトフカ", "label": "ハバロフスク州_ローゼンガルトフカ", "call_short": "G7000 S25 .J37", "call_num": "G7000 S25 .J37 K-6", "recid": "yh791xy5961", "websiteUrl": "https://purl.stanford.edu/yh791xy5961", "title": "二万五千分一極東ソ領市街圖", "ckey": 13902125, "available": true, "iiifUrl": "https://purl.stanford.edu/yh791xy5961/iiif/manifest" }, "geometry": { "type": "Polygon", "coordinates": [ [ [ 134.2, 47.041667 ], [ 134.4, 47.041667 ], [ 134.4, 47.241667 ], [ 134.2, 47.241667 ], [ 134.2, 47.041667 ] ] ] } },
{ "type": "Feature", "properties": { "Id": 0, "Sheet_ID": "ウスリー州_チェルヌイシェフカ", "label": "ウスリー州_チェルヌイシェフカ", "call_short": "G7000 S25 .J37", "call_num": "G7000 S25 .J37 U-2", "recid": "pm859hq8663", "websiteUrl": "https://purl.stanford.edu/pm859hq8663", "title": "二万五千分一極東ソ領市街圖", "ckey": 13902125, "available": true, "iiifUrl": "https://purl.stanford.edu/pm859hq8663/iiif/manifest" }, "geometry": { "type": "Polygon", "coordinates": [ [ [ 133.041667, 44.133333 ], [ 133.291667, 44.133333 ], [ 133.291667, 44.258333 ], [ 133.041667, 44.258333 ], [ 133.041667, 44.133333 ] ] ] } },
{ "type": "Feature", "properties": { "Id": 0, "Sheet_ID": "ウスリー州_スパスク", "label": "ウスリー州_スパスク", "call_short": "G7000 S25 .J37", "call_num": "G7000 S25 .J37 U-8", "recid": "vz979gt7142", "websiteUrl": "https://purl.stanford.edu/vz979gt7142", "title": "二万五千分一極東ソ領市街圖", "ckey": 13902125, "available": true, "iiifUrl": "https://purl.stanford.edu/vz979gt7142/iiif/manifest" }, "geometry": { "type": "Polygon", "coordinates": [ [ [ 132.625, 44.479167 ], [ 132.933333, 44.479167 ], [ 132.933333, 44.629167 ], [ 132.625, 44.629167 ], [ 132.625, 44.479167 ] ] ] } }
]
}
