{
"type": "FeatureCollection",
"name": "index_map",
"features": [
{ "type": "Feature", "properties": { "Id": 0, "Sheet_ID": "SW_左下", "label": "SW_左下", "call_short": null, "call_num": null, "recid": null, "websiteUrl": null, "title": null, "ckey": 0, "available": false, "iiifUrl": null }, "geometry": { "type": "Polygon", "coordinates": [ [ [ 103.683333, 19.35 ], [ 105.85, 19.35 ], [ 105.85, 21.6 ], [ 103.683333, 21.6 ], [ 103.683333, 19.35 ] ] ] } },
{ "type": "Feature", "properties": { "Id": 0, "Sheet_ID": "SE_右下", "label": "SE_右下", "call_short": "G8005 S400 .J3", "call_num": "G8005 S400 .J3 SHEET SE", "recid": "bm413zt7270", "websiteUrl": "https://purl.stanford.edu/bm413zt7270", "title": "四十万分一佛領印度支那北部", "ckey": 13887565, "available": true, "iiifUrl": "https://purl.stanford.edu/bm413zt7270/iiif/manifest" }, "geometry": { "type": "Polygon", "coordinates": [ [ [ 105.85, 19.35 ], [ 108.016667, 19.35 ], [ 108.016667, 21.6 ], [ 105.85, 21.6 ], [ 105.85, 19.35 ] ] ] } },
{ "type": "Feature", "properties": { "Id": 0, "Sheet_ID": "NW_左上", "label": "NW_左上", "call_short": null, "call_num": null, "recid": null, "websiteUrl": null, "title": null, "ckey": 0, "available": false, "iiifUrl": null }, "geometry": { "type": "Polygon", "coordinates": [ [ [ 103.683333, 21.6 ], [ 105.85, 21.6 ], [ 105.85, 23.85 ], [ 103.683333, 23.85 ], [ 103.683333, 21.6 ] ] ] } },
{ "type": "Feature", "properties": { "Id": 0, "Sheet_ID": "NE_右上", "label": "NE_右上", "call_short": "G8005 S400 .J3", "call_num": "G8005 S400 .J3 SHEET NE", "recid": "ny254vk1321", "websiteUrl": "https://purl.stanford.edu/ny254vk1321", "title": "四十万分一佛領印度支那北部", "ckey": 13887565, "available": true, "iiifUrl": "https://purl.stanford.edu/ny254vk1321/iiif/manifest" }, "geometry": { "type": "Polygon", "coordinates": [ [ [ 105.85, 21.6 ], [ 108.016667, 21.6 ], [ 108.016667, 23.85 ], [ 105.85, 23.85 ], [ 105.85, 21.6 ] ] ] } }
]
}
