{"type":"FeatureCollection","features":[{"type":"Feature","properties":{"Id":0,"Sheet_ID":"[6.] ニコリスク・ウッスリースキー","label":"[6.] ニコリスク・ウッスリースキー","call_short":"G7322 .U8 S50 .J3","call_num":"G7322 .U8 S50 .J3 SHEET 6","recid":"pd780qr6327","websiteUrl":"https://purl.stanford.edu/pd780qr6327","title":"西伯利五万分一圖","ckey":10496629,"web_map":"","available":"true","iiiUrl":"https://purl.stanford.edu/pd780qr6327/iiif/manifest"},"geometry":{"bbox":[131.5,43.666667,132,44.00000033333333],"type":"Polygon","coordinates":[[[131.5,43.666667],[131.5,44.00000033333333],[132,44.00000033333333],[132,43.666667],[131.5,43.666667]]]}},{"type":"Feature","properties":{"Id":0,"Sheet_ID":"[3.] オシノーフカ","label":"[3.] オシノーフカ","call_short":"G7322 .U8 S50 .J3","call_num":"G7322 .U8 S50 .J3 SHEET 3","recid":"md718vn5492","websiteUrl":"https://purl.stanford.edu/md718vn5492","title":"西伯利五万分一圖","ckey":10496629,"web_map":"","available":"true","iiiUrl":"https://purl.stanford.edu/md718vn5492/iiif/manifest"},"geometry":{"bbox":[132,43.666667,132.5,44.00000033333333],"type":"Polygon","coordinates":[[[132,43.666667],[132,44.00000033333333],[132.5,44.00000033333333],[132.5,43.666667],[132,43.666667]]]}},{"type":"Feature","properties":{"Id":0,"Sheet_ID":"[5.] リポーフツィ","label":"[5.] リポーフツィ","call_short":"G7322 .U8 S50 .J3","call_num":"G7322 .U8 S50 .J3 SHEET 5","recid":"fp963yq9637","websiteUrl":"https://purl.stanford.edu/fp963yq9637","title":"西伯利五万分一圖","ckey":10496629,"web_map":"","available":"true","iiiUrl":"https://purl.stanford.edu/fp963yq9637/iiif/manifest"},"geometry":{"bbox":[131.5,44.00000033333333,132,44.33333366666667],"type":"Polygon","coordinates":[[[131.5,44.00000033333333],[131.5,44.33333366666667],[132,44.33333366666667],[132,44.00000033333333],[131.5,44.00000033333333]]]}},{"type":"Feature","properties":{"Id":0,"Sheet_ID":"[2.] モナストィリシチェ","label":"[2.] モナストィリシチェ","call_short":"G7322 .U8 S50 .J3","call_num":"G7322 .U8 S50 .J3 SHEET 2","recid":"pw900py1547","websiteUrl":"https://purl.stanford.edu/pw900py1547","title":"西伯利五万分一圖","ckey":10496629,"web_map":"","available":"true","iiiUrl":"https://purl.stanford.edu/pw900py1547/iiif/manifest"},"geometry":{"bbox":[132,44.00000033333333,132.5,44.33333366666667],"type":"Polygon","coordinates":[[[132,44.00000033333333],[132,44.33333366666667],[132.5,44.33333366666667],[132.5,44.00000033333333],[132,44.00000033333333]]]}},{"type":"Feature","properties":{"Id":0,"Sheet_ID":"[4.] ジァリコーヴォ","label":"[4.] ジァリコーヴォ","call_short":"G7322 .U8 S50 .J3","call_num":"G7322 .U8 S50 .J3 SHEET 4","recid":"vj804vc8480","websiteUrl":"https://purl.stanford.edu/vj804vc8480","title":"西伯利五万分一圖","ckey":10496629,"web_map":"","available":"true","iiiUrl":"https://purl.stanford.edu/vj804vc8480/iiif/manifest"},"geometry":{"bbox":[131.5,44.33333366666666,132,44.666667],"type":"Polygon","coordinates":[[[131.5,44.33333366666666],[131.5,44.666667],[132,44.666667],[132,44.33333366666666],[131.5,44.33333366666666]]]}},{"type":"Feature","properties":{"Id":0,"Sheet_ID":"[1.] ホロリスコエ","label":"[1.] ホロリスコエ","call_short":"G7322 .U8 S50 .J3","call_num":"G7322 .U8 S50 .J3 SHEET 1","recid":"qj959dg6677","websiteUrl":"https://purl.stanford.edu/qj959dg6677","title":"西伯利五万分一圖","ckey":10496629,"web_map":"","available":"true","iiiUrl":"https://purl.stanford.edu/qj959dg6677/iiif/manifest"},"geometry":{"bbox":[132,44.33333366666666,132.5,44.666667],"type":"Polygon","coordinates":[[[132,44.33333366666666],[132,44.666667],[132.5,44.666667],[132.5,44.33333366666666],[132,44.33333366666666]]]}}],"name":"index_10496629"}
