{
"type": "FeatureCollection",
"name": "index_map",
"features": [
{ "type": "Feature", "properties": { "Id": 0, "Sheet_ID": "36行/18段 復州", "label": "36行/18段 復州", "call_short": "G7830 S200 .J31", "call_num": "G7830 S200 .J31 B-13", "recid": "pt040tf5832", "websiteUrl": "https://purl.stanford.edu/pt040tf5832", "title": "滿洲二十万分一圖", "ckey": 9751459, "available": true, "iiifUrl": "https://purl.stanford.edu/pt040tf5832/iiif/manifest" }, "geometry": { "type": "Polygon", "coordinates": [ [ [ 121.0, 39.333333 ], [ 122.0, 39.333333 ], [ 122.0, 39.9999997 ], [ 121.0, 39.9999997 ], [ 121.0, 39.333333 ] ] ] } },
{ "type": "Feature", "properties": { "Id": 0, "Sheet_ID": "35行/18段 貔子窩", "label": "35行/18段 貔子窩", "call_short": "G7830 S200 .J31", "call_num": "G7830 S200 .J31 C-13", "recid": "kh224hh9203", "websiteUrl": "https://purl.stanford.edu/kh224hh9203", "title": "滿洲二十万分一圖", "ckey": 9751459, "available": true, "iiifUrl": "https://purl.stanford.edu/kh224hh9203/iiif/manifest" }, "geometry": { "type": "Polygon", "coordinates": [ [ [ 122.0, 39.333333 ], [ 123.0, 39.333333 ], [ 123.0, 39.9999997 ], [ 122.0, 39.9999997 ], [ 122.0, 39.333333 ] ] ] } },
{ "type": "Feature", "properties": { "Id": 0, "Sheet_ID": "34行/18段 大弧山", "label": "34行/18段 大弧山", "call_short": "G7830 S200 .J31", "call_num": "G7830 S200 .J31 D-13", "recid": "jh249dz9846", "websiteUrl": "https://purl.stanford.edu/jh249dz9846", "title": "滿洲二十万分一圖", "ckey": 9751459, "available": true, "iiifUrl": "https://purl.stanford.edu/jh249dz9846/iiif/manifest" }, "geometry": { "type": "Polygon", "coordinates": [ [ [ 123.0, 39.333333 ], [ 124.0, 39.333333 ], [ 124.0, 39.9999997 ], [ 123.0, 39.9999997 ], [ 123.0, 39.333333 ] ] ] } },
{ "type": "Feature", "properties": { "Id": 0, "Sheet_ID": "37行/17段 綏中", "label": "37行/17段 綏中", "call_short": "G7830 S200 .J31", "call_num": "G7830 S200 .J31 A-12", "recid": "js226kt8888", "websiteUrl": "https://purl.stanford.edu/js226kt8888", "title": "滿洲二十万分一圖", "ckey": 9751459, "available": true, "iiifUrl": "https://purl.stanford.edu/js226kt8888/iiif/manifest" }, "geometry": { "type": "Polygon", "coordinates": [ [ [ 120.0, 39.9999997 ], [ 121.0, 39.9999997 ], [ 121.0, 40.6666664 ], [ 120.0, 40.6666664 ], [ 120.0, 39.9999997 ] ] ] } },
{ "type": "Feature", "properties": { "Id": 0, "Sheet_ID": "36行/17段 復州北部", "label": "36行/17段 復州北部", "call_short": "G7830 S200 .J31", "call_num": "G7830 S200 .J31 B-12", "recid": "fc823jy7494", "websiteUrl": "https://purl.stanford.edu/fc823jy7494", "title": "滿洲二十万分一圖", "ckey": 9751459, "available": true, "iiifUrl": "https://purl.stanford.edu/fc823jy7494/iiif/manifest" }, "geometry": { "type": "Polygon", "coordinates": [ [ [ 121.0, 39.9999997 ], [ 122.0, 39.9999997 ], [ 122.0, 40.6666664 ], [ 121.0, 40.6666664 ], [ 121.0, 39.9999997 ] ] ] } },
{ "type": "Feature", "properties": { "Id": 0, "Sheet_ID": "35行/17段 蓋平", "label": "35行/17段 蓋平", "call_short": "G7830 S200 .J31", "call_num": "G7830 S200 .J31 C-12", "recid": "ww222gg3039", "websiteUrl": "https://purl.stanford.edu/ww222gg3039", "title": "滿洲二十万分一圖", "ckey": 9751459, "available": true, "iiifUrl": "https://purl.stanford.edu/ww222gg3039/iiif/manifest" }, "geometry": { "type": "Polygon", "coordinates": [ [ [ 122.0, 39.9999997 ], [ 123.0, 39.9999997 ], [ 123.0, 40.6666664 ], [ 122.0, 40.6666664 ], [ 122.0, 39.9999997 ] ] ] } },
{ "type": "Feature", "properties": { "Id": 0, "Sheet_ID": "34行/17段 岫巌", "label": "34行/17段 岫巌", "call_short": "G7830 S200 .J31", "call_num": "G7830 S200 .J31 D-12", "recid": "by402tk4222", "websiteUrl": "https://purl.stanford.edu/by402tk4222", "title": "滿洲二十万分一圖", "ckey": 9751459, "available": true, "iiifUrl": "https://purl.stanford.edu/by402tk4222/iiif/manifest" }, "geometry": { "type": "Polygon", "coordinates": [ [ [ 123.0, 39.9999997 ], [ 124.0, 39.9999997 ], [ 124.0, 40.6666664 ], [ 123.0, 40.6666664 ], [ 123.0, 39.9999997 ] ] ] } },
{ "type": "Feature", "properties": { "Id": 0, "Sheet_ID": "33行/17段 安東", "label": "33行/17段 安東", "call_short": "G7830 S200 .J31", "call_num": "G7830 S200 .J31 E-12", "recid": "hv255nk1535", "websiteUrl": "https://purl.stanford.edu/hv255nk1535", "title": "滿洲二十万分一圖", "ckey": 9751459, "available": true, "iiifUrl": "https://purl.stanford.edu/hv255nk1535/iiif/manifest" }, "geometry": { "type": "Polygon", "coordinates": [ [ [ 124.0, 39.9999997 ], [ 125.0, 39.9999997 ], [ 125.0, 40.6666664 ], [ 124.0, 40.6666664 ], [ 124.0, 39.9999997 ] ] ] } },
{ "type": "Feature", "properties": { "Id": 0, "Sheet_ID": "37行/16段 錦西", "label": "37行/16段 錦西", "call_short": "G7830 S200 .J31", "call_num": "G7830 S200 .J31 A-11", "recid": "wh128gg2031", "websiteUrl": "https://purl.stanford.edu/wh128gg2031", "title": "滿洲二十万分一圖", "ckey": 9751459, "available": true, "iiifUrl": "https://purl.stanford.edu/wh128gg2031/iiif/manifest" }, "geometry": { "type": "Polygon", "coordinates": [ [ [ 120.0, 40.6666664 ], [ 121.0, 40.6666664 ], [ 121.0, 41.3333331 ], [ 120.0, 41.3333331 ], [ 120.0, 40.6666664 ] ] ] } },
{ "type": "Feature", "properties": { "Id": 0, "Sheet_ID": "36行/16段 錦州", "label": "36行/16段 錦州", "call_short": "G7830 S200 .J31", "call_num": "G7830 S200 .J31 B-11", "recid": "mn091pw3251", "websiteUrl": "https://purl.stanford.edu/mn091pw3251", "title": "滿洲二十万分一圖", "ckey": 9751459, "available": true, "iiifUrl": "https://purl.stanford.edu/mn091pw3251/iiif/manifest" }, "geometry": { "type": "Polygon", "coordinates": [ [ [ 121.0, 40.6666664 ], [ 122.0, 40.6666664 ], [ 122.0, 41.3333331 ], [ 121.0, 41.3333331 ], [ 121.0, 40.6666664 ] ] ] } },
{ "type": "Feature", "properties": { "Id": 0, "Sheet_ID": "35行/16段 海城", "label": "35行/16段 海城", "call_short": "G7830 S200 .J31", "call_num": "G7830 S200 .J31 C-11", "recid": "zz534yd1439", "websiteUrl": "https://purl.stanford.edu/zz534yd1439", "title": "滿洲二十万分一圖", "ckey": 9751459, "available": true, "iiifUrl": "https://purl.stanford.edu/zz534yd1439/iiif/manifest" }, "geometry": { "type": "Polygon", "coordinates": [ [ [ 122.0, 40.6666664 ], [ 123.0, 40.6666664 ], [ 123.0, 41.3333331 ], [ 122.0, 41.3333331 ], [ 122.0, 40.6666664 ] ] ] } },
{ "type": "Feature", "properties": { "Id": 0, "Sheet_ID": "34行/16段 遼陽", "label": "34行/16段 遼陽", "call_short": "G7830 S200 .J31", "call_num": "G7830 S200 .J31 D-11", "recid": "gc389cy2058", "websiteUrl": "https://purl.stanford.edu/gc389cy2058", "title": "滿洲二十万分一圖", "ckey": 9751459, "available": true, "iiifUrl": "https://purl.stanford.edu/gc389cy2058/iiif/manifest" }, "geometry": { "type": "Polygon", "coordinates": [ [ [ 123.0, 40.6666664 ], [ 124.0, 40.6666664 ], [ 124.0, 41.3333331 ], [ 123.0, 41.3333331 ], [ 123.0, 40.6666664 ] ] ] } },
{ "type": "Feature", "properties": { "Id": 0, "Sheet_ID": "36行/15段 義州", "label": "36行/15段 義州", "call_short": "G7830 S200 .J31", "call_num": "G7830 S200 .J31 B-10", "recid": "td972pf8587", "websiteUrl": "https://purl.stanford.edu/td972pf8587", "title": "滿洲二十万分一圖", "ckey": 9751459, "available": true, "iiifUrl": "https://purl.stanford.edu/td972pf8587/iiif/manifest" }, "geometry": { "type": "Polygon", "coordinates": [ [ [ 121.0, 41.3333331 ], [ 122.0, 41.3333331 ], [ 122.0, 41.9999998 ], [ 121.0, 41.9999998 ], [ 121.0, 41.3333331 ] ] ] } },
{ "type": "Feature", "properties": { "Id": 0, "Sheet_ID": "35行/15段 黒山", "label": "35行/15段 黒山", "call_short": "G7830 S200 .J31", "call_num": "G7830 S200 .J31 C-10", "recid": "fw390fp9088", "websiteUrl": "https://purl.stanford.edu/fw390fp9088", "title": "滿洲二十万分一圖", "ckey": 9751459, "available": true, "iiifUrl": "https://purl.stanford.edu/fw390fp9088/iiif/manifest" }, "geometry": { "type": "Polygon", "coordinates": [ [ [ 122.0, 41.3333331 ], [ 123.0, 41.3333331 ], [ 123.0, 41.9999998 ], [ 122.0, 41.9999998 ], [ 122.0, 41.3333331 ] ] ] } },
{ "type": "Feature", "properties": { "Id": 0, "Sheet_ID": "34行/15段 奉天", "label": "34行/15段 奉天", "call_short": "G7830 S200 .J31", "call_num": "G7830 S200 .J31 D-10", "recid": "cc619gt6205", "websiteUrl": "https://purl.stanford.edu/cc619gt6205", "title": "滿洲二十万分一圖", "ckey": 9751459, "available": true, "iiifUrl": "https://purl.stanford.edu/cc619gt6205/iiif/manifest" }, "geometry": { "type": "Polygon", "coordinates": [ [ [ 123.0, 41.3333331 ], [ 124.0, 41.3333331 ], [ 124.0, 41.9999998 ], [ 123.0, 41.9999998 ], [ 123.0, 41.3333331 ] ] ] } },
{ "type": "Feature", "properties": { "Id": 0, "Sheet_ID": "36行/14段 阜新", "label": "36行/14段 阜新", "call_short": "G7830 S200 .J31", "call_num": "G7830 S200 .J31 B-9", "recid": "wf609hp1935", "websiteUrl": "https://purl.stanford.edu/wf609hp1935", "title": "滿洲二十万分一圖", "ckey": 9751459, "available": true, "iiifUrl": "https://purl.stanford.edu/wf609hp1935/iiif/manifest" }, "geometry": { "type": "Polygon", "coordinates": [ [ [ 121.0, 41.9999998 ], [ 122.0, 41.9999998 ], [ 122.0, 42.6666665 ], [ 121.0, 42.6666665 ], [ 121.0, 41.9999998 ] ] ] } },
{ "type": "Feature", "properties": { "Id": 0, "Sheet_ID": "35行/14段 彰武", "label": "35行/14段 彰武", "call_short": "G7830 S200 .J31", "call_num": "G7830 S200 .J31 C-9", "recid": "dh982sy7581", "websiteUrl": "https://purl.stanford.edu/dh982sy7581", "title": "滿洲二十万分一圖", "ckey": 9751459, "available": true, "iiifUrl": "https://purl.stanford.edu/dh982sy7581/iiif/manifest" }, "geometry": { "type": "Polygon", "coordinates": [ [ [ 122.0, 41.9999998 ], [ 123.0, 41.9999998 ], [ 123.0, 42.6666665 ], [ 122.0, 42.6666665 ], [ 122.0, 41.9999998 ] ] ] } },
{ "type": "Feature", "properties": { "Id": 0, "Sheet_ID": "34行/14段 鐵嶺", "label": "34行/14段 鐵嶺", "call_short": "G7830 S200 .J31", "call_num": "G7830 S200 .J31 D-9", "recid": "vz214kv7353", "websiteUrl": "https://purl.stanford.edu/vz214kv7353", "title": "滿洲二十万分一圖", "ckey": 9751459, "available": true, "iiifUrl": "https://purl.stanford.edu/vz214kv7353/iiif/manifest" }, "geometry": { "type": "Polygon", "coordinates": [ [ [ 123.0, 41.9999998 ], [ 124.0, 41.9999998 ], [ 124.0, 42.6666665 ], [ 123.0, 42.6666665 ], [ 123.0, 41.9999998 ] ] ] } },
{ "type": "Feature", "properties": { "Id": 0, "Sheet_ID": "33行/14段 開原", "label": "33行/14段 開原", "call_short": "G7830 S200 .J31", "call_num": "G7830 S200 .J31 E-9", "recid": "rk698fh9350", "websiteUrl": "https://purl.stanford.edu/rk698fh9350", "title": "滿洲二十万分一圖", "ckey": 9751459, "available": true, "iiifUrl": "https://purl.stanford.edu/rk698fh9350/iiif/manifest" }, "geometry": { "type": "Polygon", "coordinates": [ [ [ 124.0, 41.9999998 ], [ 125.0, 41.9999998 ], [ 125.0, 42.6666665 ], [ 124.0, 42.6666665 ], [ 124.0, 41.9999998 ] ] ] } },
{ "type": "Feature", "properties": { "Id": 0, "Sheet_ID": "32行/14段 海龍城", "label": "32行/14段 海龍城", "call_short": "G7830 S200 .J31", "call_num": "G7830 S200 .J31 F-9", "recid": "ps405vq6590", "websiteUrl": "https://purl.stanford.edu/ps405vq6590", "title": "滿洲二十万分一圖", "ckey": 9751459, "available": true, "iiifUrl": "https://purl.stanford.edu/ps405vq6590/iiif/manifest" }, "geometry": { "type": "Polygon", "coordinates": [ [ [ 125.0, 41.9999998 ], [ 126.0, 41.9999998 ], [ 126.0, 42.6666665 ], [ 125.0, 42.6666665 ], [ 125.0, 41.9999998 ] ] ] } },
{ "type": "Feature", "properties": { "Id": 0, "Sheet_ID": "28行/14段 茂山", "label": "28行/14段 茂山", "call_short": "G7830 S200 .J31", "call_num": "G7830 S200 .J31 J-9", "recid": "pv564yb1711", "websiteUrl": "https://purl.stanford.edu/pv564yb1711", "title": "滿洲二十万分一圖", "ckey": 9751459, "available": true, "iiifUrl": "https://purl.stanford.edu/pv564yb1711/iiif/manifest" }, "geometry": { "type": "Polygon", "coordinates": [ [ [ 129.0, 41.9999998 ], [ 130.0, 41.9999998 ], [ 130.0, 42.6666665 ], [ 129.0, 42.6666665 ], [ 129.0, 41.9999998 ] ] ] } },
{ "type": "Feature", "properties": { "Id": 0, "Sheet_ID": "36行/13段 綏東", "label": "36行/13段 綏東", "call_short": "G7830 S200 .J31", "call_num": "G7830 S200 .J31 B-8", "recid": "ry943fb8412", "websiteUrl": "https://purl.stanford.edu/ry943fb8412", "title": "滿洲二十万分一圖", "ckey": 9751459, "available": true, "iiifUrl": "https://purl.stanford.edu/ry943fb8412/iiif/manifest" }, "geometry": { "type": "Polygon", "coordinates": [ [ [ 121.0, 42.6666665 ], [ 122.0, 42.6666665 ], [ 122.0, 43.3333332 ], [ 121.0, 43.3333332 ], [ 121.0, 42.6666665 ] ] ] } },
{ "type": "Feature", "properties": { "Id": 0, "Sheet_ID": "35行/13段 賓圖王府", "label": "35行/13段 賓圖王府", "call_short": "G7830 S200 .J31", "call_num": "G7830 S200 .J31 C-8", "recid": "bh559cs9672", "websiteUrl": "https://purl.stanford.edu/bh559cs9672", "title": "滿洲二十万分一圖", "ckey": 9751459, "available": true, "iiifUrl": "https://purl.stanford.edu/bh559cs9672/iiif/manifest" }, "geometry": { "type": "Polygon", "coordinates": [ [ [ 122.0, 42.6666665 ], [ 123.0, 42.6666665 ], [ 123.0, 43.3333332 ], [ 122.0, 43.3333332 ], [ 122.0, 42.6666665 ] ] ] } },
{ "type": "Feature", "properties": { "Id": 0, "Sheet_ID": "34行/13段 康平", "label": "34行/13段 康平", "call_short": "G7830 S200 .J31", "call_num": "G7830 S200 .J31 D-8", "recid": "pn177sr9104", "websiteUrl": "https://purl.stanford.edu/pn177sr9104", "title": "滿洲二十万分一圖", "ckey": 9751459, "available": true, "iiifUrl": "https://purl.stanford.edu/pn177sr9104/iiif/manifest" }, "geometry": { "type": "Polygon", "coordinates": [ [ [ 123.0, 42.6666665 ], [ 124.0, 42.6666665 ], [ 124.0, 43.3333332 ], [ 123.0, 43.3333332 ], [ 123.0, 42.6666665 ] ] ] } },
{ "type": "Feature", "properties": { "Id": 0, "Sheet_ID": "33行/13段 四平街", "label": "33行/13段 四平街", "call_short": "G7830 S200 .J31", "call_num": "G7830 S200 .J31 E-8", "recid": "fp174zv8175", "websiteUrl": "https://purl.stanford.edu/fp174zv8175", "title": "滿洲二十万分一圖", "ckey": 9751459, "available": true, "iiifUrl": "https://purl.stanford.edu/fp174zv8175/iiif/manifest" }, "geometry": { "type": "Polygon", "coordinates": [ [ [ 124.0, 42.6666665 ], [ 125.0, 42.6666665 ], [ 125.0, 43.3333332 ], [ 124.0, 43.3333332 ], [ 124.0, 42.6666665 ] ] ] } },
{ "type": "Feature", "properties": { "Id": 0, "Sheet_ID": "32行/13段 西安", "label": "32行/13段 西安", "call_short": "G7830 S200 .J31", "call_num": "G7830 S200 .J31 F-8", "recid": "hq996zx0444", "websiteUrl": "https://purl.stanford.edu/hq996zx0444", "title": "滿洲二十万分一圖", "ckey": 9751459, "available": true, "iiifUrl": "https://purl.stanford.edu/hq996zx0444/iiif/manifest" }, "geometry": { "type": "Polygon", "coordinates": [ [ [ 125.0, 42.6666665 ], [ 126.0, 42.6666665 ], [ 126.0, 43.3333332 ], [ 125.0, 43.3333332 ], [ 125.0, 42.6666665 ] ] ] } },
{ "type": "Feature", "properties": { "Id": 0, "Sheet_ID": "29行/13段 天寶山", "label": "29行/13段 天寶山", "call_short": "G7830 S200 .J31", "call_num": "G7830 S200 .J31 I-8", "recid": "bw894pf6373", "websiteUrl": "https://purl.stanford.edu/bw894pf6373", "title": "滿洲二十万分一圖", "ckey": 9751459, "available": true, "iiifUrl": "https://purl.stanford.edu/bw894pf6373/iiif/manifest" }, "geometry": { "type": "Polygon", "coordinates": [ [ [ 128.0, 42.6666665 ], [ 129.0, 42.6666665 ], [ 129.0, 43.3333332 ], [ 128.0, 43.3333332 ], [ 128.0, 42.6666665 ] ] ] } },
{ "type": "Feature", "properties": { "Id": 0, "Sheet_ID": "28行/13段 頭道溝", "label": "28行/13段 頭道溝", "call_short": "G7830 S200 .J31", "call_num": "G7830 S200 .J31 J-8", "recid": "wm789pp7537", "websiteUrl": "https://purl.stanford.edu/wm789pp7537", "title": "滿洲二十万分一圖", "ckey": 9751459, "available": true, "iiifUrl": "https://purl.stanford.edu/wm789pp7537/iiif/manifest" }, "geometry": { "type": "Polygon", "coordinates": [ [ [ 129.0, 42.6666665 ], [ 130.0, 42.6666665 ], [ 130.0, 43.3333332 ], [ 129.0, 43.3333332 ], [ 129.0, 42.6666665 ] ] ] } },
{ "type": "Feature", "properties": { "Id": 0, "Sheet_ID": "36行/12段 開魯", "label": "36行/12段 開魯", "call_short": "G7830 S200 .J31", "call_num": "G7830 S200 .J31 B-7", "recid": "zq283sb0024", "websiteUrl": "https://purl.stanford.edu/zq283sb0024", "title": "滿洲二十万分一圖", "ckey": 9751459, "available": true, "iiifUrl": "https://purl.stanford.edu/zq283sb0024/iiif/manifest" }, "geometry": { "type": "Polygon", "coordinates": [ [ [ 121.0, 43.3333332 ], [ 122.0, 43.3333332 ], [ 122.0, 43.9999998 ], [ 121.0, 43.9999998 ], [ 121.0, 43.3333332 ] ] ] } },
{ "type": "Feature", "properties": { "Id": 0, "Sheet_ID": "35行/12段 通遼", "label": "35行/12段 通遼", "call_short": "G7830 S200 .J31", "call_num": "G7830 S200 .J31 C-7", "recid": "zw351wc3323", "websiteUrl": "https://purl.stanford.edu/zw351wc3323", "title": "滿洲二十万分一圖", "ckey": 9751459, "available": true, "iiifUrl": "https://purl.stanford.edu/zw351wc3323/iiif/manifest" }, "geometry": { "type": "Polygon", "coordinates": [ [ [ 122.0, 43.3333332 ], [ 123.0, 43.3333332 ], [ 123.0, 43.9999998 ], [ 122.0, 43.9999998 ], [ 122.0, 43.3333332 ] ] ] } },
{ "type": "Feature", "properties": { "Id": 0, "Sheet_ID": "34行/12段 鄭家屯", "label": "34行/12段 鄭家屯", "call_short": "G7830 S200 .J31", "call_num": "G7830 S200 .J31 D-7", "recid": "cb436jd0923", "websiteUrl": "https://purl.stanford.edu/cb436jd0923", "title": "滿洲二十万分一圖", "ckey": 9751459, "available": true, "iiifUrl": "https://purl.stanford.edu/cb436jd0923/iiif/manifest" }, "geometry": { "type": "Polygon", "coordinates": [ [ [ 123.0, 43.3333332 ], [ 124.0, 43.3333332 ], [ 124.0, 43.9999998 ], [ 123.0, 43.9999998 ], [ 123.0, 43.3333332 ] ] ] } },
{ "type": "Feature", "properties": { "Id": 0, "Sheet_ID": "33行/12段 公主嶺", "label": "33行/12段 公主嶺", "call_short": "G7830 S200 .J31", "call_num": "G7830 S200 .J31 E-7", "recid": "xp678fk1590", "websiteUrl": "https://purl.stanford.edu/xp678fk1590", "title": "滿洲二十万分一圖", "ckey": 9751459, "available": true, "iiifUrl": "https://purl.stanford.edu/xp678fk1590/iiif/manifest" }, "geometry": { "type": "Polygon", "coordinates": [ [ [ 124.0, 43.3333332 ], [ 125.0, 43.3333332 ], [ 125.0, 43.9999998 ], [ 124.0, 43.9999998 ], [ 124.0, 43.3333332 ] ] ] } },
{ "type": "Feature", "properties": { "Id": 0, "Sheet_ID": "32行/12段 新京", "label": "32行/12段 新京", "call_short": "G7830 S200 .J31", "call_num": "G7830 S200 .J31 F-7", "recid": "sh402fx2397", "websiteUrl": "https://purl.stanford.edu/sh402fx2397", "title": "滿洲二十万分一圖", "ckey": 9751459, "available": true, "iiifUrl": "https://purl.stanford.edu/sh402fx2397/iiif/manifest" }, "geometry": { "type": "Polygon", "coordinates": [ [ [ 125.0, 43.3333332 ], [ 126.0, 43.3333332 ], [ 126.0, 43.9999998 ], [ 125.0, 43.9999998 ], [ 125.0, 43.3333332 ] ] ] } },
{ "type": "Feature", "properties": { "Id": 0, "Sheet_ID": "31行/12段 吉林", "label": "31行/12段 吉林", "call_short": "G7830 S200 .J31", "call_num": "G7830 S200 .J31 G-7", "recid": "wd852jy5207", "websiteUrl": "https://purl.stanford.edu/wd852jy5207", "title": "滿洲二十万分一圖", "ckey": 9751459, "available": true, "iiifUrl": "https://purl.stanford.edu/wd852jy5207/iiif/manifest" }, "geometry": { "type": "Polygon", "coordinates": [ [ [ 126.0, 43.3333332 ], [ 127.0, 43.3333332 ], [ 127.0, 43.9999998 ], [ 126.0, 43.9999998 ], [ 126.0, 43.3333332 ] ] ] } },
{ "type": "Feature", "properties": { "Id": 0, "Sheet_ID": "30行/12段 拉法站", "label": "30行/12段 拉法站", "call_short": "G7830 S200 .J31", "call_num": "G7830 S200 .J31 H-7", "recid": "tq054dp0803", "websiteUrl": "https://purl.stanford.edu/tq054dp0803", "title": "滿洲二十万分一圖", "ckey": 9751459, "available": true, "iiifUrl": "https://purl.stanford.edu/tq054dp0803/iiif/manifest" }, "geometry": { "type": "Polygon", "coordinates": [ [ [ 127.0, 43.3333332 ], [ 128.0, 43.3333332 ], [ 128.0, 43.9999998 ], [ 127.0, 43.9999998 ], [ 127.0, 43.3333332 ] ] ] } },
{ "type": "Feature", "properties": { "Id": 0, "Sheet_ID": "29行/12段 敦化", "label": "29行/12段 敦化", "call_short": "G7830 S200 .J31", "call_num": "G7830 S200 .J31 I-7", "recid": "rk262vk1563", "websiteUrl": "https://purl.stanford.edu/rk262vk1563", "title": "滿洲二十万分一圖", "ckey": 9751459, "available": true, "iiifUrl": "https://purl.stanford.edu/rk262vk1563/iiif/manifest" }, "geometry": { "type": "Polygon", "coordinates": [ [ [ 128.0, 43.3333332 ], [ 129.0, 43.3333332 ], [ 129.0, 43.9999998 ], [ 128.0, 43.9999998 ], [ 128.0, 43.3333332 ] ] ] } },
{ "type": "Feature", "properties": { "Id": 0, "Sheet_ID": "28行/12段 王把街子", "label": "28行/12段 王把街子", "call_short": "G7830 S200 .J31", "call_num": "G7830 S200 .J31 J-7", "recid": "tf355tz9598", "websiteUrl": "https://purl.stanford.edu/tf355tz9598", "title": "滿洲二十万分一圖", "ckey": 9751459, "available": true, "iiifUrl": "https://purl.stanford.edu/tf355tz9598/iiif/manifest" }, "geometry": { "type": "Polygon", "coordinates": [ [ [ 129.0, 43.3333332 ], [ 130.0, 43.3333332 ], [ 130.0, 43.9999998 ], [ 129.0, 43.9999998 ], [ 129.0, 43.3333332 ] ] ] } },
{ "type": "Feature", "properties": { "Id": 0, "Sheet_ID": "34行/11段 長嶺", "label": "34行/11段 長嶺", "call_short": "G7830 S200 .J31", "call_num": "G7830 S200 .J31 D-6", "recid": "rm323gk4873", "websiteUrl": "https://purl.stanford.edu/rm323gk4873", "title": "滿洲二十万分一圖", "ckey": 9751459, "available": true, "iiifUrl": "https://purl.stanford.edu/rm323gk4873/iiif/manifest" }, "geometry": { "type": "Polygon", "coordinates": [ [ [ 123.0, 43.9999998 ], [ 124.0, 43.9999998 ], [ 124.0, 44.6666665 ], [ 123.0, 44.6666665 ], [ 123.0, 43.9999998 ] ] ] } },
{ "type": "Feature", "properties": { "Id": 0, "Sheet_ID": "33行/11段 伏隆泉", "label": "33行/11段 伏隆泉", "call_short": "G7830 S200 .J31", "call_num": "G7830 S200 .J31 E-6", "recid": "cq018pr9034", "websiteUrl": "https://purl.stanford.edu/cq018pr9034", "title": "滿洲二十万分一圖", "ckey": 9751459, "available": true, "iiifUrl": "https://purl.stanford.edu/cq018pr9034/iiif/manifest" }, "geometry": { "type": "Polygon", "coordinates": [ [ [ 124.0, 43.9999998 ], [ 125.0, 43.9999998 ], [ 125.0, 44.6666665 ], [ 124.0, 44.6666665 ], [ 124.0, 43.9999998 ] ] ] } },
{ "type": "Feature", "properties": { "Id": 0, "Sheet_ID": "32行/11段 農安", "label": "32行/11段 農安", "call_short": "G7830 S200 .J31", "call_num": "G7830 S200 .J31 F-6", "recid": "vd483pr5688", "websiteUrl": "https://purl.stanford.edu/vd483pr5688", "title": "滿洲二十万分一圖", "ckey": 9751459, "available": true, "iiifUrl": "https://purl.stanford.edu/vd483pr5688/iiif/manifest" }, "geometry": { "type": "Polygon", "coordinates": [ [ [ 125.0, 43.9999998 ], [ 126.0, 43.9999998 ], [ 126.0, 44.6666665 ], [ 125.0, 44.6666665 ], [ 125.0, 43.9999998 ] ] ] } },
{ "type": "Feature", "properties": { "Id": 0, "Sheet_ID": "31行/11段 烏拉街", "label": "31行/11段 烏拉街", "call_short": "G7830 S200 .J31", "call_num": "G7830 S200 .J31 G-6", "recid": "ky400mz4683", "websiteUrl": "https://purl.stanford.edu/ky400mz4683", "title": "滿洲二十万分一圖", "ckey": 9751459, "available": true, "iiifUrl": "https://purl.stanford.edu/ky400mz4683/iiif/manifest" }, "geometry": { "type": "Polygon", "coordinates": [ [ [ 126.0, 43.9999998 ], [ 127.0, 43.9999998 ], [ 127.0, 44.6666665 ], [ 126.0, 44.6666665 ], [ 126.0, 43.9999998 ] ] ] } },
{ "type": "Feature", "properties": { "Id": 0, "Sheet_ID": "30行/11段 向陽山", "label": "30行/11段 向陽山", "call_short": "G7830 S200 .J31", "call_num": "G7830 S200 .J31 H-6", "recid": "hb360pw0277", "websiteUrl": "https://purl.stanford.edu/hb360pw0277", "title": "滿洲二十万分一圖", "ckey": 9751459, "available": true, "iiifUrl": "https://purl.stanford.edu/hb360pw0277/iiif/manifest" }, "geometry": { "type": "Polygon", "coordinates": [ [ [ 127.0, 43.9999998 ], [ 128.0, 43.9999998 ], [ 128.0, 44.6666665 ], [ 127.0, 44.6666665 ], [ 127.0, 43.9999998 ] ] ] } },
{ "type": "Feature", "properties": { "Id": 0, "Sheet_ID": "35行/10段 洮南南部", "label": "35行/10段 洮南南部", "call_short": "G7830 S200 .J31", "call_num": "G7830 S200 .J31 C-5", "recid": "tg333bf2929", "websiteUrl": "https://purl.stanford.edu/tg333bf2929", "title": "滿洲二十万分一圖", "ckey": 9751459, "available": true, "iiifUrl": "https://purl.stanford.edu/tg333bf2929/iiif/manifest" }, "geometry": { "type": "Polygon", "coordinates": [ [ [ 122.0, 44.6666665 ], [ 123.0, 44.6666665 ], [ 123.0, 45.3333332 ], [ 122.0, 45.3333332 ], [ 122.0, 44.6666665 ] ] ] } },
{ "type": "Feature", "properties": { "Id": 0, "Sheet_ID": "34行/10段 開通", "label": "34行/10段 開通", "call_short": "G7830 S200 .J31", "call_num": "G7830 S200 .J31 D-5", "recid": "dm058ss3230", "websiteUrl": "https://purl.stanford.edu/dm058ss3230", "title": "滿洲二十万分一圖", "ckey": 9751459, "available": true, "iiifUrl": "https://purl.stanford.edu/dm058ss3230/iiif/manifest" }, "geometry": { "type": "Polygon", "coordinates": [ [ [ 123.0, 44.6666665 ], [ 124.0, 44.6666665 ], [ 124.0, 45.3333332 ], [ 123.0, 45.3333332 ], [ 123.0, 44.6666665 ] ] ] } },
{ "type": "Feature", "properties": { "Id": 0, "Sheet_ID": "33行/10段 伯都訥", "label": "33行/10段 伯都訥", "call_short": "G7830 S200 .J31", "call_num": "G7830 S200 .J31 E-5", "recid": "zs712pg9174", "websiteUrl": "https://purl.stanford.edu/zs712pg9174", "title": "滿洲二十万分一圖", "ckey": 9751459, "available": true, "iiifUrl": "https://purl.stanford.edu/zs712pg9174/iiif/manifest" }, "geometry": { "type": "Polygon", "coordinates": [ [ [ 124.0, 44.6666665 ], [ 125.0, 44.6666665 ], [ 125.0, 45.3333332 ], [ 124.0, 45.3333332 ], [ 124.0, 44.6666665 ] ] ] } },
{ "type": "Feature", "properties": { "Id": 0, "Sheet_ID": "32行/10段 陶頼昭", "label": "32行/10段 陶頼昭", "call_short": "G7830 S200 .J31", "call_num": "G7830 S200 .J31 F-5", "recid": "ty966nj1718", "websiteUrl": "https://purl.stanford.edu/ty966nj1718", "title": "滿洲二十万分一圖", "ckey": 9751459, "available": true, "iiifUrl": "https://purl.stanford.edu/ty966nj1718/iiif/manifest" }, "geometry": { "type": "Polygon", "coordinates": [ [ [ 125.0, 44.6666665 ], [ 126.0, 44.6666665 ], [ 126.0, 45.3333332 ], [ 125.0, 45.3333332 ], [ 125.0, 44.6666665 ] ] ] } },
{ "type": "Feature", "properties": { "Id": 0, "Sheet_ID": "31行/10段 楡樹", "label": "31行/10段 楡樹", "call_short": "G7830 S200 .J31", "call_num": "G7830 S200 .J31 G-5", "recid": "bd891df0936", "websiteUrl": "https://purl.stanford.edu/bd891df0936", "title": "滿洲二十万分一圖", "ckey": 9751459, "available": true, "iiifUrl": "https://purl.stanford.edu/bd891df0936/iiif/manifest" }, "geometry": { "type": "Polygon", "coordinates": [ [ [ 126.0, 44.6666665 ], [ 127.0, 44.6666665 ], [ 127.0, 45.3333332 ], [ 126.0, 45.3333332 ], [ 126.0, 44.6666665 ] ] ] } },
{ "type": "Feature", "properties": { "Id": 0, "Sheet_ID": "30行/10段 五常", "label": "30行/10段 五常", "call_short": "G7830 S200 .J31", "call_num": "G7830 S200 .J31 H-5", "recid": "tf151wm5341", "websiteUrl": "https://purl.stanford.edu/tf151wm5341", "title": "滿洲二十万分一圖", "ckey": 9751459, "available": true, "iiifUrl": "https://purl.stanford.edu/tf151wm5341/iiif/manifest" }, "geometry": { "type": "Polygon", "coordinates": [ [ [ 127.0, 44.6666665 ], [ 128.0, 44.6666665 ], [ 128.0, 45.3333332 ], [ 127.0, 45.3333332 ], [ 127.0, 44.6666665 ] ] ] } },
{ "type": "Feature", "properties": { "Id": 0, "Sheet_ID": "35行/9段 洮南", "label": "35行/9段 洮南", "call_short": "G7830 S200 .J31", "call_num": "G7830 S200 .J31 C-4", "recid": "dk855tv7457", "websiteUrl": "https://purl.stanford.edu/dk855tv7457", "title": "滿洲二十万分一圖", "ckey": 9751459, "available": true, "iiifUrl": "https://purl.stanford.edu/dk855tv7457/iiif/manifest" }, "geometry": { "type": "Polygon", "coordinates": [ [ [ 122.0, 45.3333332 ], [ 123.0, 45.3333332 ], [ 123.0, 45.9999999 ], [ 122.0, 45.9999999 ], [ 122.0, 45.3333332 ] ] ] } },
{ "type": "Feature", "properties": { "Id": 0, "Sheet_ID": "34行/9段 鎮東", "label": "34行/9段 鎮東", "call_short": "G7830 S200 .J31", "call_num": "G7830 S200 .J31 D-4", "recid": "ry420qy7866", "websiteUrl": "https://purl.stanford.edu/ry420qy7866", "title": "滿洲二十万分一圖", "ckey": 9751459, "available": true, "iiifUrl": "https://purl.stanford.edu/ry420qy7866/iiif/manifest" }, "geometry": { "type": "Polygon", "coordinates": [ [ [ 123.0, 45.3333332 ], [ 124.0, 45.3333332 ], [ 124.0, 45.9999999 ], [ 123.0, 45.9999999 ], [ 123.0, 45.3333332 ] ] ] } },
{ "type": "Feature", "properties": { "Id": 0, "Sheet_ID": "33行/9段 大賚", "label": "33行/9段 大賚", "call_short": "G7830 S200 .J31", "call_num": "G7830 S200 .J31 E-4", "recid": "fb591zv0203", "websiteUrl": "https://purl.stanford.edu/fb591zv0203", "title": "滿洲二十万分一圖", "ckey": 9751459, "available": true, "iiifUrl": "https://purl.stanford.edu/fb591zv0203/iiif/manifest" }, "geometry": { "type": "Polygon", "coordinates": [ [ [ 124.0, 45.3333332 ], [ 125.0, 45.3333332 ], [ 125.0, 45.9999999 ], [ 124.0, 45.9999999 ], [ 124.0, 45.3333332 ] ] ] } },
{ "type": "Feature", "properties": { "Id": 0, "Sheet_ID": "32行/9段 肇州", "label": "32行/9段 肇州", "call_short": "G7830 S200 .J31", "call_num": "G7830 S200 .J31 F-4", "recid": "tb505zm6212", "websiteUrl": "https://purl.stanford.edu/tb505zm6212", "title": "滿洲二十万分一圖", "ckey": 9751459, "available": true, "iiifUrl": "https://purl.stanford.edu/tb505zm6212/iiif/manifest" }, "geometry": { "type": "Polygon", "coordinates": [ [ [ 125.0, 45.3333332 ], [ 126.0, 45.3333332 ], [ 126.0, 45.9999999 ], [ 125.0, 45.9999999 ], [ 125.0, 45.3333332 ] ] ] } },
{ "type": "Feature", "properties": { "Id": 0, "Sheet_ID": "31行/9段 哈爾賓", "label": "31行/9段 哈爾賓", "call_short": "G7830 S200 .J31", "call_num": "G7830 S200 .J31 G-4", "recid": "yr752wy7664", "websiteUrl": "https://purl.stanford.edu/yr752wy7664", "title": "滿洲二十万分一圖", "ckey": 9751459, "available": true, "iiifUrl": "https://purl.stanford.edu/yr752wy7664/iiif/manifest" }, "geometry": { "type": "Polygon", "coordinates": [ [ [ 126.0, 45.3333332 ], [ 127.0, 45.3333332 ], [ 127.0, 45.9999999 ], [ 126.0, 45.9999999 ], [ 126.0, 45.3333332 ] ] ] } },
{ "type": "Feature", "properties": { "Id": 0, "Sheet_ID": "34行/8段 泰來", "label": "34行/8段 泰來", "call_short": "G7830 S200 .J31", "call_num": "G7830 S200 .J31 D-3", "recid": "cq393qs4974", "websiteUrl": "https://purl.stanford.edu/cq393qs4974", "title": "滿洲二十万分一圖", "ckey": 9751459, "available": true, "iiifUrl": "https://purl.stanford.edu/cq393qs4974/iiif/manifest" }, "geometry": { "type": "Polygon", "coordinates": [ [ [ 123.0, 45.9999999 ], [ 124.0, 45.9999999 ], [ 124.0, 46.6666666 ], [ 123.0, 46.6666666 ], [ 123.0, 45.9999999 ] ] ] } },
{ "type": "Feature", "properties": { "Id": 0, "Sheet_ID": "33行/8段 大通", "label": "33行/8段 大通", "call_short": "G7830 S200 .J31", "call_num": "G7830 S200 .J31 E-3", "recid": "bj719cc4183", "websiteUrl": "https://purl.stanford.edu/bj719cc4183", "title": "滿洲二十万分一圖", "ckey": 9751459, "available": true, "iiifUrl": "https://purl.stanford.edu/bj719cc4183/iiif/manifest" }, "geometry": { "type": "Polygon", "coordinates": [ [ [ 124.0, 45.9999999 ], [ 125.0, 45.9999999 ], [ 125.0, 46.6666666 ], [ 124.0, 46.6666666 ], [ 124.0, 45.9999999 ] ] ] } },
{ "type": "Feature", "properties": { "Id": 0, "Sheet_ID": "32行/8段 安達", "label": "32行/8段 安達", "call_short": "G7830 S200 .J31", "call_num": "G7830 S200 .J31 F-3", "recid": "bd780yc7276", "websiteUrl": "https://purl.stanford.edu/bd780yc7276", "title": "滿洲二十万分一圖", "ckey": 9751459, "available": true, "iiifUrl": "https://purl.stanford.edu/bd780yc7276/iiif/manifest" }, "geometry": { "type": "Polygon", "coordinates": [ [ [ 125.0, 45.9999999 ], [ 126.0, 45.9999999 ], [ 126.0, 46.6666666 ], [ 125.0, 46.6666666 ], [ 125.0, 45.9999999 ] ] ] } },
{ "type": "Feature", "properties": { "Id": 0, "Sheet_ID": "31行/8段 綏化", "label": "31行/8段 綏化", "call_short": "G7830 S200 .J31", "call_num": "G7830 S200 .J31 G-3", "recid": "zc580nr6229", "websiteUrl": "https://purl.stanford.edu/zc580nr6229", "title": "滿洲二十万分一圖", "ckey": 9751459, "available": true, "iiifUrl": "https://purl.stanford.edu/zc580nr6229/iiif/manifest" }, "geometry": { "type": "Polygon", "coordinates": [ [ [ 126.0, 45.9999999 ], [ 127.0, 45.9999999 ], [ 127.0, 46.6666666 ], [ 126.0, 46.6666666 ], [ 126.0, 45.9999999 ] ] ] } },
{ "type": "Feature", "properties": { "Id": 0, "Sheet_ID": "34行/7段 昂昂溪", "label": "34行/7段 昂昂溪", "call_short": "G7830 S200 .J31", "call_num": "G7830 S200 .J31 D-2", "recid": "nk388vf1083", "websiteUrl": "https://purl.stanford.edu/nk388vf1083", "title": "滿洲二十万分一圖", "ckey": 9751459, "available": true, "iiifUrl": "https://purl.stanford.edu/nk388vf1083/iiif/manifest" }, "geometry": { "type": "Polygon", "coordinates": [ [ [ 123.0, 46.6666666 ], [ 124.0, 46.6666666 ], [ 124.0, 47.3333333 ], [ 123.0, 47.3333333 ], [ 123.0, 46.6666666 ] ] ] } },
{ "type": "Feature", "properties": { "Id": 0, "Sheet_ID": "33行/7段 林甸", "label": "33行/7段 林甸", "call_short": "G7830 S200 .J31", "call_num": "G7830 S200 .J31 E-2", "recid": "qm653cg8310", "websiteUrl": "https://purl.stanford.edu/qm653cg8310", "title": "滿洲二十万分一圖", "ckey": 9751459, "available": true, "iiifUrl": "https://purl.stanford.edu/qm653cg8310/iiif/manifest" }, "geometry": { "type": "Polygon", "coordinates": [ [ [ 124.0, 46.6666666 ], [ 125.0, 46.6666666 ], [ 125.0, 47.3333333 ], [ 124.0, 47.3333333 ], [ 124.0, 46.6666666 ] ] ] } },
{ "type": "Feature", "properties": { "Id": 0, "Sheet_ID": "32行/7段 明水", "label": "32行/7段 明水", "call_short": "G7830 S200 .J31", "call_num": "G7830 S200 .J31 F-2", "recid": "vx139jt5457", "websiteUrl": "https://purl.stanford.edu/vx139jt5457", "title": "滿洲二十万分一圖", "ckey": 9751459, "available": true, "iiifUrl": "https://purl.stanford.edu/vx139jt5457/iiif/manifest" }, "geometry": { "type": "Polygon", "coordinates": [ [ [ 125.0, 46.6666666 ], [ 126.0, 46.6666666 ], [ 126.0, 47.3333333 ], [ 125.0, 47.3333333 ], [ 125.0, 46.6666666 ] ] ] } },
{ "type": "Feature", "properties": { "Id": 0, "Sheet_ID": "31行/7段 望奎", "label": "31行/7段 望奎", "call_short": "G7830 S200 .J31", "call_num": "G7830 S200 .J31 G-2", "recid": "vq702kp8333", "websiteUrl": "https://purl.stanford.edu/vq702kp8333", "title": "滿洲二十万分一圖", "ckey": 9751459, "available": true, "iiifUrl": "https://purl.stanford.edu/vq702kp8333/iiif/manifest" }, "geometry": { "type": "Polygon", "coordinates": [ [ [ 126.0, 46.6666666 ], [ 127.0, 46.6666666 ], [ 127.0, 47.3333333 ], [ 126.0, 47.3333333 ], [ 126.0, 46.6666666 ] ] ] } },
{ "type": "Feature", "properties": { "Id": 0, "Sheet_ID": "34行/6段 斉斉哈爾", "label": "34行/6段 斉斉哈爾", "call_short": "G7830 S200 .J31", "call_num": "G7830 S200 .J31 D-1", "recid": "rh905ks4564", "websiteUrl": "https://purl.stanford.edu/rh905ks4564", "title": "滿洲二十万分一圖", "ckey": 9751459, "available": true, "iiifUrl": "https://purl.stanford.edu/rh905ks4564/iiif/manifest" }, "geometry": { "type": "Polygon", "coordinates": [ [ [ 123.0, 47.3333333 ], [ 124.0, 47.3333333 ], [ 124.0, 48.0 ], [ 123.0, 48.0 ], [ 123.0, 47.3333333 ] ] ] } },
{ "type": "Feature", "properties": { "Id": 0, "Sheet_ID": "33行/6段 寧年站", "label": "33行/6段 寧年站", "call_short": "G7830 S200 .J31", "call_num": "G7830 S200 .J31 E-1", "recid": "ss420xm2567", "websiteUrl": "https://purl.stanford.edu/ss420xm2567", "title": "滿洲二十万分一圖", "ckey": 9751459, "available": true, "iiifUrl": "https://purl.stanford.edu/ss420xm2567/iiif/manifest" }, "geometry": { "type": "Polygon", "coordinates": [ [ [ 124.0, 47.3333333 ], [ 125.0, 47.3333333 ], [ 125.0, 48.0 ], [ 124.0, 48.0 ], [ 124.0, 47.3333333 ] ] ] } },
{ "type": "Feature", "properties": { "Id": 0, "Sheet_ID": "32行/6段 依安", "label": "32行/6段 依安", "call_short": "G7830 S200 .J31", "call_num": "G7830 S200 .J31 F-1", "recid": "vr702dq3477", "websiteUrl": "https://purl.stanford.edu/vr702dq3477", "title": "滿洲二十万分一圖", "ckey": 9751459, "available": true, "iiifUrl": "https://purl.stanford.edu/vr702dq3477/iiif/manifest" }, "geometry": { "type": "Polygon", "coordinates": [ [ [ 125.0, 47.3333333 ], [ 126.0, 47.3333333 ], [ 126.0, 48.0 ], [ 125.0, 48.0 ], [ 125.0, 47.3333333 ] ] ] } },
{ "type": "Feature", "properties": { "Id": 0, "Sheet_ID": "31行/6段 海倫", "label": "31行/6段 海倫", "call_short": "G7830 S200 .J31", "call_num": "G7830 S200 .J31 G-1", "recid": "st654vc8728", "websiteUrl": "https://purl.stanford.edu/st654vc8728", "title": "滿洲二十万分一圖", "ckey": 9751459, "available": true, "iiifUrl": "https://purl.stanford.edu/st654vc8728/iiif/manifest" }, "geometry": { "type": "Polygon", "coordinates": [ [ [ 126.0, 47.3333333 ], [ 127.0, 47.3333333 ], [ 127.0, 48.0 ], [ 126.0, 48.0 ], [ 126.0, 47.3333333 ] ] ] } },
{ "type": "Feature", "properties": { "Id": 0, "Sheet_ID": "33行/5段 拉哈站", "label": "33行/5段 拉哈站", "call_short": null, "call_num": null, "recid": null, "websiteUrl": null, "title": null, "ckey": 0, "available": false, "iiifUrl": null }, "geometry": { "type": "Polygon", "coordinates": [ [ [ 124.0, 48.666667 ], [ 124.0, 48.0 ], [ 125.0, 48.0 ], [ 125.0, 48.666667 ], [ 124.0, 48.666667 ] ] ] } },
{ "type": "Feature", "properties": { "Id": 0, "Sheet_ID": "38行/17段 山海關", "label": "38行/17段 山海關", "call_short": null, "call_num": null, "recid": null, "websiteUrl": null, "title": null, "ckey": 0, "available": false, "iiifUrl": null }, "geometry": { "type": "Polygon", "coordinates": [ [ [ 120.0, 39.9999997 ], [ 120.0, 40.6666664 ], [ 119.0, 40.6666664 ], [ 119.0, 39.9999997 ], [ 120.0, 39.9999997 ] ] ] } },
{ "type": "Feature", "properties": { "Id": 0, "Sheet_ID": "38行/18段 泰皇島", "label": "38行/18段 泰皇島", "call_short": null, "call_num": null, "recid": null, "websiteUrl": null, "title": null, "ckey": 0, "available": false, "iiifUrl": null }, "geometry": { "type": "Polygon", "coordinates": [ [ [ 119.0, 39.333333 ], [ 120.0, 39.333333 ], [ 120.0, 39.9999997 ], [ 119.0, 39.9999997 ], [ 119.0, 39.333333 ] ] ] } }
]
}
