{
"type": "FeatureCollection",
"name": "index_map",
"features": [
{ "type": "Feature", "properties": { "Id": 0, "Sheet_ID": "金剛山", "label": "金剛山", "call_short": "G7907 .D5 1917 .J3", "call_num": "G7907 .D5 1917 .J3", "recid": "vr314pz2469", "websiteUrl": "https://purl.stanford.edu/vr314pz2469", "title": "金剛山_ KEUM-GANG-SAN (Diamond Mountains)", "ckey": 13887543, "web_map": null, "available": true, "iiifUrl": "https://purl.stanford.edu/vr314pz2469/iiif/manifest" }, "geometry": { "type": "Polygon", "coordinates": [ [ [ 127.966667, 38.766667 ], [ 127.966667, 38.566667 ], [ 128.375, 38.566667 ], [ 128.375, 38.766667 ], [ 127.966667, 38.766667 ] ] ] } }
]
}
