{"type":"FeatureCollection","features":[{"type":"Feature","properties":{"Id":0,"Sheet_ID":"5. 大荒溝","label":"5. 大荒溝","call_short":"G7822 .M2 S100 .J338","call_num":"G7822 .M2 S100 .J338 SHEET 5","recid":"wr874np7737","websiteUrl":"https://purl.stanford.edu/wr874np7737","title":"満州十万分一圖 哈爾濱及新京","ckey":12284145,"web_map":"","available":"true","iiifUrl":"https://purl.stanford.edu/wr874np7737/iiif/manifest"},"geometry":{"bbox":[129,43.333333,130,43.999999800000005],"type":"Polygon","coordinates":[[[129,43.333333],[129,43.999999800000005],[130,43.999999800000005],[130,43.333333],[129,43.333333]]]}},{"type":"Feature","properties":{"Id":0,"Sheet_ID":"4. 牡丹河","label":"4. 牡丹河","call_short":"","call_num":"","recid":"","websiteUrl":"","title":"","ckey":0,"web_map":"","available":"false","iiifUrl":""},"geometry":{"bbox":[129,43.999999800000005,130,44.666666600000006],"type":"Polygon","coordinates":[[[129,43.999999800000005],[129,44.666666600000006],[130,44.666666600000006],[130,43.999999800000005],[129,43.999999800000005]]]}},{"type":"Feature","properties":{"Id":0,"Sheet_ID":"3. 横道河子","label":"3. 横道河子","call_short":"G7822 .M2 S100 .J338","call_num":"G7822 .M2 S100 .J338 SHEET 3","recid":"nc075kn4782","websiteUrl":"https://purl.stanford.edu/nc075kn4782","title":"満州十万分一圖 哈爾濱及新京","ckey":12284145,"web_map":"","available":"true","iiifUrl":"https://purl.stanford.edu/nc075kn4782/iiif/manifest"},"geometry":{"bbox":[129,44.6666666,130,45.3333334],"type":"Polygon","coordinates":[[[129,44.6666666],[129,45.3333334],[130,45.3333334],[130,44.6666666],[129,44.6666666]]]}},{"type":"Feature","properties":{"Id":0,"Sheet_ID":"7. 通河","label":"7. 通河","call_short":"G7822 .M2 S100 .J338","call_num":"G7822 .M2 S100 .J338 SHEET 7","recid":"jw511gh1554","websiteUrl":"https://purl.stanford.edu/jw511gh1554","title":"満州十万分一圖 哈爾濱及新京","ckey":12284145,"web_map":"","available":"true","iiifUrl":"https://purl.stanford.edu/jw511gh1554/iiif/manifest"},"geometry":{"bbox":[128,45.3333334,129,46.0000002],"type":"Polygon","coordinates":[[[128,45.3333334],[128,46.0000002],[129,46.0000002],[129,45.3333334],[128,45.3333334]]]}},{"type":"Feature","properties":{"Id":0,"Sheet_ID":"2. 大羅勒密","label":"2. 大羅勒密","call_short":"G7822 .M2 S100 .J338","call_num":"G7822 .M2 S100 .J338 SHEET 2","recid":"nr139zb3356","websiteUrl":"https://purl.stanford.edu/nr139zb3356","title":"満州十万分一圖 哈爾濱及新京","ckey":12284145,"web_map":"","available":"true","iiifUrl":"https://purl.stanford.edu/nr139zb3356/iiif/manifest"},"geometry":{"bbox":[129,45.3333334,130,46.0000002],"type":"Polygon","coordinates":[[[129,45.3333334],[129,46.0000002],[130,46.0000002],[130,45.3333334],[129,45.3333334]]]}},{"type":"Feature","properties":{"Id":0,"Sheet_ID":"6. 鳳山","label":"6. 鳳山","call_short":"G7822 .M2 S100 .J338","call_num":"G7822 .M2 S100 .J338 SHEET 6","recid":"jq248pt1420","websiteUrl":"https://purl.stanford.edu/jq248pt1420","title":"満州十万分一圖 哈爾濱及新京","ckey":12284145,"web_map":"","available":"true","iiifUrl":"https://purl.stanford.edu/jq248pt1420/iiif/manifest"},"geometry":{"bbox":[128,46.000000199999995,129,46.666667],"type":"Polygon","coordinates":[[[128,46.000000199999995],[128,46.666667],[129,46.666667],[129,46.000000199999995],[128,46.000000199999995]]]}},{"type":"Feature","properties":{"Id":0,"Sheet_ID":"1. 依蘭","label":"1. 依蘭","call_short":"G7822 .M2 S100 .J338","call_num":"G7822 .M2 S100 .J338 SHEET 1","recid":"bk408bq2466","websiteUrl":"https://purl.stanford.edu/bk408bq2466","title":"満州十万分一圖 哈爾濱及新京","ckey":12284145,"web_map":"","available":"true","iiifUrl":"https://purl.stanford.edu/bk408bq2466/iiif/manifest"},"geometry":{"bbox":[129,46.000000199999995,130,46.666667],"type":"Polygon","coordinates":[[[129,46.000000199999995],[129,46.666667],[130,46.666667],[130,46.000000199999995],[129,46.000000199999995]]]}}],"name":"index_12284145"}
