{
"type": "FeatureCollection",
"name": "index_map",
"xy_coordinate_resolution": 1e-07,
"features": [
{ "type": "Feature", "properties": { "Id": 0, "Sheet_ID": "楊家灣", "label": "楊家灣", "call_short": "0", "call_num": "0", "recid": "0", "websiteUrl": "0", "title": "0", "ckey": 0, "available": false, "iiifUrl": "0" }, "geometry": { "type": "Polygon", "coordinates": [ [ [ 110.5, 38.666667 ], [ 111.0, 38.666667 ], [ 111.0, 39.0000003 ], [ 110.5, 39.0000003 ], [ 110.5, 38.666667 ] ] ] } },
{ "type": "Feature", "properties": { "Id": 0, "Sheet_ID": "保徳縣", "label": "保徳縣", "call_short": "0", "call_num": "0", "recid": "0", "websiteUrl": "0", "title": "0", "ckey": 0, "available": false, "iiifUrl": "0" }, "geometry": { "type": "Polygon", "coordinates": [ [ [ 111.0, 38.666667 ], [ 111.5, 38.666667 ], [ 111.5, 39.0000003 ], [ 111.0, 39.0000003 ], [ 111.0, 38.666667 ] ] ] } },
{ "type": "Feature", "properties": { "Id": 0, "Sheet_ID": "五寨縣", "label": "五寨縣", "call_short": "0", "call_num": "0", "recid": "0", "websiteUrl": "0", "title": "0", "ckey": 0, "available": false, "iiifUrl": "0" }, "geometry": { "type": "Polygon", "coordinates": [ [ [ 111.5, 38.666667 ], [ 112.0, 38.666667 ], [ 112.0, 39.0000003 ], [ 111.5, 39.0000003 ], [ 111.5, 38.666667 ] ] ] } },
{ "type": "Feature", "properties": { "Id": 0, "Sheet_ID": "壹四オ193. 河神廟", "label": "壹四オ193. 河神廟", "call_short": "G7820 S100 .J4", "call_num": "G7820 S100 .J4 14-O-193", "recid": "vy321sd1464", "websiteUrl": "https://purl.stanford.edu/vy321sd1464", "title": "要圖（空中寫眞測量）北支那十万分一圖", "ckey": 9614758, "available": true, "iiifUrl": "https://purl.stanford.edu/vy321sd1464/iiif/manifest" }, "geometry": { "type": "Polygon", "coordinates": [ [ [ 110.0, 39.0000003 ], [ 110.5, 39.0000003 ], [ 110.5, 39.3333336 ], [ 110.0, 39.3333336 ], [ 110.0, 39.0000003 ] ] ] } },
{ "type": "Feature", "properties": { "Id": 0, "Sheet_ID": "壹四オ183. 沙梁鎮", "label": "壹四オ183. 沙梁鎮", "call_short": "G7820 S100 .J4", "call_num": "G7820 S100 .J4 14-O-183", "recid": "bq188dk4351", "websiteUrl": "https://purl.stanford.edu/bq188dk4351", "title": "要圖（空中寫眞測量）北支那十万分一圖", "ckey": 9614758, "available": true, "iiifUrl": "https://purl.stanford.edu/bq188dk4351/iiif/manifest" }, "geometry": { "type": "Polygon", "coordinates": [ [ [ 110.5, 39.0000003 ], [ 111.0, 39.0000003 ], [ 111.0, 39.3333336 ], [ 110.5, 39.3333336 ], [ 110.5, 39.0000003 ] ] ] } },
{ "type": "Feature", "properties": { "Id": 0, "Sheet_ID": "壹四オ173. 巡検司", "label": "壹四オ173. 巡検司", "call_short": "G7820 S100 .J4", "call_num": "G7820 S100 .J4 14-O-173", "recid": "fx922ty6354", "websiteUrl": "https://purl.stanford.edu/fx922ty6354", "title": "要圖（空中寫眞測量）北支那十万分一圖", "ckey": 9614758, "available": true, "iiifUrl": "https://purl.stanford.edu/fx922ty6354/iiif/manifest" }, "geometry": { "type": "Polygon", "coordinates": [ [ [ 111.0, 39.0000003 ], [ 111.5, 39.0000003 ], [ 111.5, 39.3333336 ], [ 111.0, 39.3333336 ], [ 111.0, 39.0000003 ] ] ] } },
{ "type": "Feature", "properties": { "Id": 0, "Sheet_ID": "三岔堡", "label": "三岔堡", "call_short": "0", "call_num": "0", "recid": "0", "websiteUrl": "0", "title": "0", "ckey": 0, "available": false, "iiifUrl": "0" }, "geometry": { "type": "Polygon", "coordinates": [ [ [ 111.5, 39.0000003 ], [ 112.0, 39.0000003 ], [ 112.0, 39.3333336 ], [ 111.5, 39.3333336 ], [ 111.5, 39.0000003 ] ] ] } },
{ "type": "Feature", "properties": { "Id": 0, "Sheet_ID": "上寨鎮", "label": "上寨鎮", "call_short": "0", "call_num": "0", "recid": "0", "websiteUrl": "0", "title": "0", "ckey": 0, "available": false, "iiifUrl": "0" }, "geometry": { "type": "Polygon", "coordinates": [ [ [ 114.0, 39.0000003 ], [ 114.5, 39.0000003 ], [ 114.5, 39.3333336 ], [ 114.0, 39.3333336 ], [ 114.0, 39.0000003 ] ] ] } },
{ "type": "Feature", "properties": { "Id": 0, "Sheet_ID": "倒馬關", "label": "倒馬關", "call_short": "0", "call_num": "0", "recid": "0", "websiteUrl": "0", "title": "0", "ckey": 0, "available": false, "iiifUrl": "0" }, "geometry": { "type": "Polygon", "coordinates": [ [ [ 114.5, 39.0000003 ], [ 115.0, 39.0000003 ], [ 115.0, 39.3333336 ], [ 114.5, 39.3333336 ], [ 114.5, 39.0000003 ] ] ] } },
{ "type": "Feature", "properties": { "Id": 0, "Sheet_ID": "壹五オ132. 察汗廟西部", "label": "壹五オ132. 察汗廟西部", "call_short": "G7820 S100 .J4", "call_num": "G7820 S100 .J4 15-O-132", "recid": "rv277dj7715", "websiteUrl": "https://purl.stanford.edu/rv277dj7715", "title": "要圖（空中寫眞測量）北支那十万分一圖", "ckey": 9614758, "available": true, "iiifUrl": "https://purl.stanford.edu/rv277dj7715/iiif/manifest" }, "geometry": { "type": "Polygon", "coordinates": [ [ [ 108.0, 39.3333336 ], [ 108.5, 39.3333336 ], [ 108.5, 39.6666669 ], [ 108.0, 39.6666669 ], [ 108.0, 39.3333336 ] ] ] } },
{ "type": "Feature", "properties": { "Id": 0, "Sheet_ID": "察汗廟", "label": "察汗廟", "call_short": "0", "call_num": "0", "recid": "0", "websiteUrl": "0", "title": "0", "ckey": 0, "available": false, "iiifUrl": "0" }, "geometry": { "type": "Polygon", "coordinates": [ [ [ 108.5, 39.3333336 ], [ 109.0, 39.3333336 ], [ 109.0, 39.6666669 ], [ 108.5, 39.6666669 ], [ 108.5, 39.3333336 ] ] ] } },
{ "type": "Feature", "properties": { "Id": 0, "Sheet_ID": "壹五オ112. 察汗蓋臺", "label": "壹五オ112. 察汗蓋臺", "call_short": "G7820 S100 .J4", "call_num": "G7820 S100 .J4 15-O-112", "recid": "wv490hw8863", "websiteUrl": "https://purl.stanford.edu/wv490hw8863", "title": "要圖（空中寫眞測量）北支那十万分一圖", "ckey": 9614758, "available": true, "iiifUrl": "https://purl.stanford.edu/wv490hw8863/iiif/manifest" }, "geometry": { "type": "Polygon", "coordinates": [ [ [ 109.0, 39.3333336 ], [ 109.5, 39.3333336 ], [ 109.5, 39.6666669 ], [ 109.0, 39.6666669 ], [ 109.0, 39.3333336 ] ] ] } },
{ "type": "Feature", "properties": { "Id": 0, "Sheet_ID": "壹五オ102. オルドス左翼中旗王府", "label": "壹五オ102. オルドス左翼中旗王府", "call_short": "G7820 S100 .J4", "call_num": "G7820 S100 .J4 15-O-102", "recid": "hy851tv9152", "websiteUrl": "https://purl.stanford.edu/hy851tv9152", "title": "要圖（空中寫眞測量）北支那十万分一圖", "ckey": 9614758, "available": true, "iiifUrl": "https://purl.stanford.edu/hy851tv9152/iiif/manifest" }, "geometry": { "type": "Polygon", "coordinates": [ [ [ 109.5, 39.3333336 ], [ 110.0, 39.3333336 ], [ 110.0, 39.6666669 ], [ 109.5, 39.6666669 ], [ 109.5, 39.3333336 ] ] ] } },
{ "type": "Feature", "properties": { "Id": 0, "Sheet_ID": "壹四オ192. 準噶召", "label": "壹四オ192. 準噶召", "call_short": "G7820 S100 .J4", "call_num": "G7820 S100 .J4 14-O-192", "recid": "zv853jd5550", "websiteUrl": "https://purl.stanford.edu/zv853jd5550", "title": "要圖（空中寫眞測量）北支那十万分一圖", "ckey": 9614758, "available": true, "iiifUrl": "https://purl.stanford.edu/zv853jd5550/iiif/manifest" }, "geometry": { "type": "Polygon", "coordinates": [ [ [ 110.0, 39.3333336 ], [ 110.5, 39.3333336 ], [ 110.5, 39.6666669 ], [ 110.0, 39.6666669 ], [ 110.0, 39.3333336 ] ] ] } },
{ "type": "Feature", "properties": { "Id": 0, "Sheet_ID": "壹四オ182. 哈拉寨", "label": "壹四オ182. 哈拉寨", "call_short": "G7820 S100 .J4", "call_num": "G7820 S100 .J4 14-O-182", "recid": "db784mv3125", "websiteUrl": "https://purl.stanford.edu/db784mv3125", "title": "要圖（空中寫眞測量）北支那十万分一圖", "ckey": 9614758, "available": true, "iiifUrl": "https://purl.stanford.edu/db784mv3125/iiif/manifest" }, "geometry": { "type": "Polygon", "coordinates": [ [ [ 110.5, 39.3333336 ], [ 111.0, 39.3333336 ], [ 111.0, 39.6666669 ], [ 110.5, 39.6666669 ], [ 110.5, 39.3333336 ] ] ] } },
{ "type": "Feature", "properties": { "Id": 0, "Sheet_ID": "壹四オ172. 河曲", "label": "壹四オ172. 河曲", "call_short": "G7820 S100 .J4", "call_num": "G7820 S100 .J4 14-O-172", "recid": "jx617zw4267", "websiteUrl": "https://purl.stanford.edu/jx617zw4267", "title": "要圖（空中寫眞測量）北支那十万分一圖", "ckey": 9614758, "available": true, "iiifUrl": "https://purl.stanford.edu/jx617zw4267/iiif/manifest" }, "geometry": { "type": "Polygon", "coordinates": [ [ [ 111.0, 39.3333336 ], [ 111.5, 39.3333336 ], [ 111.5, 39.6666669 ], [ 111.0, 39.6666669 ], [ 111.0, 39.3333336 ] ] ] } },
{ "type": "Feature", "properties": { "Id": 0, "Sheet_ID": "偏関縣", "label": "偏関縣", "call_short": "0", "call_num": "0", "recid": "0", "websiteUrl": "0", "title": "0", "ckey": 0, "available": false, "iiifUrl": "0" }, "geometry": { "type": "Polygon", "coordinates": [ [ [ 111.5, 39.3333336 ], [ 112.0, 39.3333336 ], [ 112.0, 39.6666669 ], [ 111.5, 39.6666669 ], [ 111.5, 39.3333336 ] ] ] } },
{ "type": "Feature", "properties": { "Id": 0, "Sheet_ID": "壹四オ112. 三山鎮", "label": "壹四オ112. 三山鎮", "call_short": "G7820 S100 .J4", "call_num": "G7820 S100 .J4 14-O-112", "recid": "zj188bs6744", "websiteUrl": "https://purl.stanford.edu/zj188bs6744", "title": "要圖（空中寫眞測量）北支那十万分一圖", "ckey": 9614758, "available": true, "iiifUrl": "https://purl.stanford.edu/zj188bs6744/iiif/manifest" }, "geometry": { "type": "Polygon", "coordinates": [ [ [ 114.0, 39.3333336 ], [ 114.5, 39.3333336 ], [ 114.5, 39.6666669 ], [ 114.0, 39.6666669 ], [ 114.0, 39.3333336 ] ] ] } },
{ "type": "Feature", "properties": { "Id": 0, "Sheet_ID": "涞源", "label": "涞源", "call_short": "0", "call_num": "0", "recid": "0", "websiteUrl": "0", "title": "0", "ckey": 0, "available": false, "iiifUrl": "0" }, "geometry": { "type": "Polygon", "coordinates": [ [ [ 114.5, 39.3333336 ], [ 115.0, 39.3333336 ], [ 115.0, 39.6666669 ], [ 114.5, 39.6666669 ], [ 114.5, 39.3333336 ] ] ] } },
{ "type": "Feature", "properties": { "Id": 0, "Sheet_ID": "桃梨廟", "label": "桃梨廟", "call_short": "0", "call_num": "0", "recid": "0", "websiteUrl": "0", "title": "0", "ckey": 0, "available": false, "iiifUrl": "0" }, "geometry": { "type": "Polygon", "coordinates": [ [ [ 108.0, 39.6666669 ], [ 108.5, 39.6666669 ], [ 108.5, 40.0000002 ], [ 108.0, 40.0000002 ], [ 108.0, 39.6666669 ] ] ] } },
{ "type": "Feature", "properties": { "Id": 0, "Sheet_ID": "條柱廟", "label": "條柱廟", "call_short": "0", "call_num": "0", "recid": "0", "websiteUrl": "0", "title": "0", "ckey": 0, "available": false, "iiifUrl": "0" }, "geometry": { "type": "Polygon", "coordinates": [ [ [ 108.5, 39.6666669 ], [ 109.0, 39.6666669 ], [ 109.0, 40.0000002 ], [ 108.5, 40.0000002 ], [ 108.5, 39.6666669 ] ] ] } },
{ "type": "Feature", "properties": { "Id": 0, "Sheet_ID": "壹五オ111. 陶里廟", "label": "壹五オ111. 陶里廟", "call_short": "G7820 S100 .J4", "call_num": "G7820 S100 .J4 15-O-111", "recid": "gh653gf3860", "websiteUrl": "https://purl.stanford.edu/gh653gf3860", "title": "要圖（空中寫眞測量）北支那十万分一圖", "ckey": 9614758, "available": true, "iiifUrl": "https://purl.stanford.edu/gh653gf3860/iiif/manifest" }, "geometry": { "type": "Polygon", "coordinates": [ [ [ 109.0, 39.6666669 ], [ 109.5, 39.6666669 ], [ 109.5, 40.0000002 ], [ 109.0, 40.0000002 ], [ 109.0, 39.6666669 ] ] ] } },
{ "type": "Feature", "properties": { "Id": 0, "Sheet_ID": "壹五オ101. 東勝", "label": "壹五オ101. 東勝", "call_short": "G7820 S100 .J4", "call_num": "G7820 S100 .J4 15-O-101", "recid": "gy385jn1388", "websiteUrl": "https://purl.stanford.edu/gy385jn1388", "title": "要圖（空中寫眞測量）北支那十万分一圖", "ckey": 9614758, "available": true, "iiifUrl": "https://purl.stanford.edu/gy385jn1388/iiif/manifest" }, "geometry": { "type": "Polygon", "coordinates": [ [ [ 109.5, 39.6666669 ], [ 110.0, 39.6666669 ], [ 110.0, 40.0000002 ], [ 109.5, 40.0000002 ], [ 109.5, 39.6666669 ] ] ] } },
{ "type": "Feature", "properties": { "Id": 0, "Sheet_ID": "壹四オ191. 庫倫溝", "label": "壹四オ191. 庫倫溝", "call_short": "G7820 S100 .J4", "call_num": "G7820 S100 .J4 14-O-191", "recid": "kv430yr1952", "websiteUrl": "https://purl.stanford.edu/kv430yr1952", "title": "要圖（空中寫眞測量）北支那十万分一圖", "ckey": 9614758, "available": true, "iiifUrl": "https://purl.stanford.edu/kv430yr1952/iiif/manifest" }, "geometry": { "type": "Polygon", "coordinates": [ [ [ 110.0, 39.6666669 ], [ 110.5, 39.6666669 ], [ 110.5, 40.0000002 ], [ 110.0, 40.0000002 ], [ 110.0, 39.6666669 ] ] ] } },
{ "type": "Feature", "properties": { "Id": 0, "Sheet_ID": "壹四オ181. 後壕賴灣", "label": "壹四オ181. 後壕賴灣", "call_short": "G7820 S100 .J4", "call_num": "G7820 S100 .J4 14-O-181", "recid": "nm810hk6398", "websiteUrl": "https://purl.stanford.edu/nm810hk6398", "title": "要圖（空中寫眞測量）北支那十万分一圖", "ckey": 9614758, "available": true, "iiifUrl": "https://purl.stanford.edu/nm810hk6398/iiif/manifest" }, "geometry": { "type": "Polygon", "coordinates": [ [ [ 110.5, 39.6666669 ], [ 111.0, 39.6666669 ], [ 111.0, 40.0000002 ], [ 110.5, 40.0000002 ], [ 110.5, 39.6666669 ] ] ] } },
{ "type": "Feature", "properties": { "Id": 0, "Sheet_ID": "壹四オ171. 下城灣", "label": "壹四オ171. 下城灣", "call_short": "G7820 S100 .J4", "call_num": "G7820 S100 .J4 14-O-171", "recid": "mt015yg8420", "websiteUrl": "https://purl.stanford.edu/mt015yg8420", "title": "要圖（空中寫眞測量）北支那十万分一圖", "ckey": 9614758, "available": true, "iiifUrl": "https://purl.stanford.edu/mt015yg8420/iiif/manifest" }, "geometry": { "type": "Polygon", "coordinates": [ [ [ 111.0, 39.6666669 ], [ 111.5, 39.6666669 ], [ 111.5, 40.0000002 ], [ 111.0, 40.0000002 ], [ 111.0, 39.6666669 ] ] ] } },
{ "type": "Feature", "properties": { "Id": 0, "Sheet_ID": "壹四オ161. 淸水川", "label": "壹四オ161. 淸水川", "call_short": "G7820 S100 .J4", "call_num": "G7820 S100 .J4 14-O-161", "recid": "jz250pn3368", "websiteUrl": "https://purl.stanford.edu/jz250pn3368", "title": "要圖（空中寫眞測量）北支那十万分一圖", "ckey": 9614758, "available": true, "iiifUrl": "https://purl.stanford.edu/jz250pn3368/iiif/manifest" }, "geometry": { "type": "Polygon", "coordinates": [ [ [ 111.5, 39.6666669 ], [ 112.0, 39.6666669 ], [ 112.0, 40.0000002 ], [ 111.5, 40.0000002 ], [ 111.5, 39.6666669 ] ] ] } },
{ "type": "Feature", "properties": { "Id": 0, "Sheet_ID": "壹四オ151. 七墩鎮", "label": "壹四オ151. 七墩鎮", "call_short": "G7820 S100 .J4", "call_num": "G7820 S100 .J4 14-O-151", "recid": "wg450nx1850", "websiteUrl": "https://purl.stanford.edu/wg450nx1850", "title": "要圖（空中寫眞測量）北支那十万分一圖", "ckey": 9614758, "available": true, "iiifUrl": "https://purl.stanford.edu/wg450nx1850/iiif/manifest" }, "geometry": { "type": "Polygon", "coordinates": [ [ [ 112.0, 39.6666669 ], [ 112.5, 39.6666669 ], [ 112.5, 40.0000002 ], [ 112.0, 40.0000002 ], [ 112.0, 39.6666669 ] ] ] } },
{ "type": "Feature", "properties": { "Id": 0, "Sheet_ID": "暖泉鎮", "label": "暖泉鎮", "call_short": "0", "call_num": "0", "recid": "0", "websiteUrl": "0", "title": "0", "ckey": 0, "available": false, "iiifUrl": "0" }, "geometry": { "type": "Polygon", "coordinates": [ [ [ 114.0, 39.6666669 ], [ 114.5, 39.6666669 ], [ 114.5, 40.0000002 ], [ 114.0, 40.0000002 ], [ 114.0, 39.6666669 ] ] ] } },
{ "type": "Feature", "properties": { "Id": 0, "Sheet_ID": "西合營/蔚縣", "label": "西合營/蔚縣", "call_short": "0", "call_num": "0", "recid": "0", "websiteUrl": "0", "title": "0", "ckey": 0, "available": false, "iiifUrl": "0" }, "geometry": { "type": "Polygon", "coordinates": [ [ [ 114.5, 39.6666669 ], [ 115.0, 39.6666669 ], [ 115.0, 40.0000002 ], [ 114.5, 40.0000002 ], [ 114.5, 39.6666669 ] ] ] } },
{ "type": "Feature", "properties": { "Id": 0, "Sheet_ID": "壹五ワ140. 蘇畢海廟", "label": "壹五ワ140. 蘇畢海廟", "call_short": "G7820 S100 .J4", "call_num": "G7820 S100 .J4 15-WA-140", "recid": "hg030gt5207", "websiteUrl": "https://purl.stanford.edu/hg030gt5207", "title": "要圖（空中寫眞測量）北支那十万分一圖", "ckey": 9614758, "available": true, "iiifUrl": "https://purl.stanford.edu/hg030gt5207/iiif/manifest" }, "geometry": { "type": "Polygon", "coordinates": [ [ [ 108.0, 40.0000002 ], [ 108.5, 40.0000002 ], [ 108.5, 40.3333335 ], [ 108.0, 40.3333335 ], [ 108.0, 40.0000002 ] ] ] } },
{ "type": "Feature", "properties": { "Id": 0, "Sheet_ID": "壹五ワ130. 什克烏蘇廟", "label": "壹五ワ130. 什克烏蘇廟", "call_short": "G7820 S100 .J4", "call_num": "G7820 S100 .J4 15-WA-130", "recid": "wg069nw8374", "websiteUrl": "https://purl.stanford.edu/wg069nw8374", "title": "要圖（空中寫眞測量）北支那十万分一圖", "ckey": 9614758, "available": true, "iiifUrl": "https://purl.stanford.edu/wg069nw8374/iiif/manifest" }, "geometry": { "type": "Polygon", "coordinates": [ [ [ 108.5, 40.0000002 ], [ 109.0, 40.0000002 ], [ 109.0, 40.3333335 ], [ 108.5, 40.3333335 ], [ 108.5, 40.0000002 ] ] ] } },
{ "type": "Feature", "properties": { "Id": 0, "Sheet_ID": "張煥子油房", "label": "張煥子油房", "call_short": "0", "call_num": "0", "recid": "0", "websiteUrl": "0", "title": "0", "ckey": 0, "available": false, "iiifUrl": "0" }, "geometry": { "type": "Polygon", "coordinates": [ [ [ 109.0, 40.0000002 ], [ 109.5, 40.0000002 ], [ 109.5, 40.3333335 ], [ 109.0, 40.3333335 ], [ 109.0, 40.0000002 ] ] ] } },
{ "type": "Feature", "properties": { "Id": 0, "Sheet_ID": "塔井召", "label": "塔井召", "call_short": "0", "call_num": "0", "recid": "0", "websiteUrl": "0", "title": "0", "ckey": 0, "available": false, "iiifUrl": "0" }, "geometry": { "type": "Polygon", "coordinates": [ [ [ 109.5, 40.0000002 ], [ 110.0, 40.0000002 ], [ 110.0, 40.3333335 ], [ 109.5, 40.3333335 ], [ 109.5, 40.0000002 ] ] ] } },
{ "type": "Feature", "properties": { "Id": 0, "Sheet_ID": "新民堡", "label": "新民堡", "call_short": "0", "call_num": "0", "recid": "0", "websiteUrl": "0", "title": "0", "ckey": 0, "available": false, "iiifUrl": "0" }, "geometry": { "type": "Polygon", "coordinates": [ [ [ 110.0, 40.0000002 ], [ 110.5, 40.0000002 ], [ 110.5, 40.3333335 ], [ 110.0, 40.3333335 ], [ 110.0, 40.0000002 ] ] ] } },
{ "type": "Feature", "properties": { "Id": 0, "Sheet_ID": "壹四ワ190. 胡四大河", "label": "壹四ワ190. 胡四大河", "call_short": "G7820 S100 .J4", "call_num": "G7820 S100 .J4 14-WA-190", "recid": "gg306kq5965", "websiteUrl": "https://purl.stanford.edu/gg306kq5965", "title": "要圖（空中寫眞測量）北支那十万分一圖", "ckey": 9614758, "available": true, "iiifUrl": "https://purl.stanford.edu/gg306kq5965/iiif/manifest" }, "geometry": { "type": "Polygon", "coordinates": [ [ [ 110.5, 40.0000002 ], [ 111.0, 40.0000002 ], [ 111.0, 40.3333335 ], [ 110.5, 40.3333335 ], [ 110.5, 40.0000002 ] ] ] } },
{ "type": "Feature", "properties": { "Id": 0, "Sheet_ID": "壹四ワ180. 托克托", "label": "壹四ワ180. 托克托", "call_short": "G7820 S100 .J4", "call_num": "G7820 S100 .J4 14-WA-180", "recid": "qt520yc5909", "websiteUrl": "https://purl.stanford.edu/qt520yc5909", "title": "要圖（空中寫眞測量）北支那十万分一圖", "ckey": 9614758, "available": true, "iiifUrl": "https://purl.stanford.edu/qt520yc5909/iiif/manifest" }, "geometry": { "type": "Polygon", "coordinates": [ [ [ 111.0, 40.0000002 ], [ 111.5, 40.0000002 ], [ 111.5, 40.3333335 ], [ 111.0, 40.3333335 ], [ 111.0, 40.0000002 ] ] ] } },
{ "type": "Feature", "properties": { "Id": 0, "Sheet_ID": "大紅城", "label": "大紅城", "call_short": "0", "call_num": "0", "recid": "0", "websiteUrl": "0", "title": "0", "ckey": 0, "available": false, "iiifUrl": "0" }, "geometry": { "type": "Polygon", "coordinates": [ [ [ 111.5, 40.0000002 ], [ 112.0, 40.0000002 ], [ 112.0, 40.3333335 ], [ 111.5, 40.3333335 ], [ 111.5, 40.0000002 ] ] ] } },
{ "type": "Feature", "properties": { "Id": 0, "Sheet_ID": "殺虎口", "label": "殺虎口", "call_short": "0", "call_num": "0", "recid": "0", "websiteUrl": "0", "title": "0", "ckey": 0, "available": false, "iiifUrl": "0" }, "geometry": { "type": "Polygon", "coordinates": [ [ [ 112.0, 40.0000002 ], [ 112.5, 40.0000002 ], [ 112.5, 40.3333335 ], [ 112.0, 40.3333335 ], [ 112.0, 40.0000002 ] ] ] } },
{ "type": "Feature", "properties": { "Id": 0, "Sheet_ID": "廠漢營", "label": "廠漢營", "call_short": "0", "call_num": "0", "recid": "0", "websiteUrl": "0", "title": "0", "ckey": 0, "available": false, "iiifUrl": "0" }, "geometry": { "type": "Polygon", "coordinates": [ [ [ 112.5, 40.0000002 ], [ 113.0, 40.0000002 ], [ 113.0, 40.3333335 ], [ 112.5, 40.3333335 ], [ 112.5, 40.0000002 ] ] ] } },
{ "type": "Feature", "properties": { "Id": 0, "Sheet_ID": "聚楽堡", "label": "聚楽堡", "call_short": "0", "call_num": "0", "recid": "0", "websiteUrl": "0", "title": "0", "ckey": 0, "available": false, "iiifUrl": "0" }, "geometry": { "type": "Polygon", "coordinates": [ [ [ 113.5, 40.0000002 ], [ 114.0, 40.0000002 ], [ 114.0, 40.3333335 ], [ 113.5, 40.3333335 ], [ 113.5, 40.0000002 ] ] ] } },
{ "type": "Feature", "properties": { "Id": 0, "Sheet_ID": "壹四ワ120. 陽原", "label": "壹四ワ120. 陽原", "call_short": "G7820 S100 .J4", "call_num": "G7820 S100 .J4 14-WA-120", "recid": "hb942hg6760", "websiteUrl": "https://purl.stanford.edu/hb942hg6760", "title": "要圖（空中寫眞測量）北支那十万分一圖", "ckey": 9614758, "available": true, "iiifUrl": "https://purl.stanford.edu/hb942hg6760/iiif/manifest" }, "geometry": { "type": "Polygon", "coordinates": [ [ [ 114.0, 40.0000002 ], [ 114.5, 40.0000002 ], [ 114.5, 40.3333335 ], [ 114.0, 40.3333335 ], [ 114.0, 40.0000002 ] ] ] } },
{ "type": "Feature", "properties": { "Id": 0, "Sheet_ID": "椛花堡", "label": "椛花堡", "call_short": "0", "call_num": "0", "recid": "0", "websiteUrl": "0", "title": "0", "ckey": 0, "available": false, "iiifUrl": "0" }, "geometry": { "type": "Polygon", "coordinates": [ [ [ 114.5, 40.0000002 ], [ 115.0, 40.0000002 ], [ 115.0, 40.3333335 ], [ 114.5, 40.3333335 ], [ 114.5, 40.0000002 ] ] ] } },
{ "type": "Feature", "properties": { "Id": 0, "Sheet_ID": "鎮邊城", "label": "鎮邊城", "call_short": "0", "call_num": "0", "recid": "0", "websiteUrl": "0", "title": "0", "ckey": 0, "available": false, "iiifUrl": "0" }, "geometry": { "type": "Polygon", "coordinates": [ [ [ 115.5, 40.0000002 ], [ 116.0, 40.0000002 ], [ 116.0, 40.3333335 ], [ 115.5, 40.3333335 ], [ 115.5, 40.0000002 ] ] ] } },
{ "type": "Feature", "properties": { "Id": 0, "Sheet_ID": "壹参ワ180. 南口", "label": "壹参ワ180. 南口", "call_short": "G7820 S100 .J4", "call_num": "G7820 S100 .J4 13-WA-180", "recid": "yq780sd8767", "websiteUrl": "https://purl.stanford.edu/yq780sd8767", "title": "要圖（空中寫眞測量）北支那十万分一圖", "ckey": 9614758, "available": true, "iiifUrl": "https://purl.stanford.edu/yq780sd8767/iiif/manifest" }, "geometry": { "type": "Polygon", "coordinates": [ [ [ 116.0, 40.0000002 ], [ 116.5, 40.0000002 ], [ 116.5, 40.3333335 ], [ 116.0, 40.3333335 ], [ 116.0, 40.0000002 ] ] ] } },
{ "type": "Feature", "properties": { "Id": 0, "Sheet_ID": "壹五ワ139. 什拉召西部", "label": "壹五ワ139. 什拉召西部", "call_short": "G7820 S100 .J4", "call_num": "G7820 S100 .J4 15-WA-139", "recid": "ky817vy9482", "websiteUrl": "https://purl.stanford.edu/ky817vy9482", "title": "要圖（空中寫眞測量）北支那十万分一圖", "ckey": 9614758, "available": true, "iiifUrl": "https://purl.stanford.edu/ky817vy9482/iiif/manifest" }, "geometry": { "type": "Polygon", "coordinates": [ [ [ 108.0, 40.3333335 ], [ 108.5, 40.3333335 ], [ 108.5, 40.6666668 ], [ 108.0, 40.6666668 ], [ 108.0, 40.3333335 ] ] ] } },
{ "type": "Feature", "properties": { "Id": 0, "Sheet_ID": "壹五ワ129. 什拉召", "label": "壹五ワ129. 什拉召", "call_short": "G7820 S100 .J4", "call_num": "G7820 S100 .J4 15-WA-129", "recid": "wz634bq8231", "websiteUrl": "https://purl.stanford.edu/wz634bq8231", "title": "要圖（空中寫眞測量）北支那十万分一圖", "ckey": 9614758, "available": true, "iiifUrl": "https://purl.stanford.edu/wz634bq8231/iiif/manifest" }, "geometry": { "type": "Polygon", "coordinates": [ [ [ 108.5, 40.3333335 ], [ 109.0, 40.3333335 ], [ 109.0, 40.6666668 ], [ 108.5, 40.6666668 ], [ 108.5, 40.3333335 ] ] ] } },
{ "type": "Feature", "properties": { "Id": 0, "Sheet_ID": "蘭虎坑堵", "label": "蘭虎坑堵", "call_short": "0", "call_num": "0", "recid": "0", "websiteUrl": "0", "title": "0", "ckey": 0, "available": false, "iiifUrl": "0" }, "geometry": { "type": "Polygon", "coordinates": [ [ [ 109.0, 40.3333335 ], [ 109.5, 40.3333335 ], [ 109.5, 40.6666668 ], [ 109.0, 40.6666668 ], [ 109.0, 40.3333335 ] ] ] } },
{ "type": "Feature", "properties": { "Id": 0, "Sheet_ID": "四村", "label": "四村", "call_short": "0", "call_num": "0", "recid": "0", "websiteUrl": "0", "title": "0", "ckey": 0, "available": false, "iiifUrl": "0" }, "geometry": { "type": "Polygon", "coordinates": [ [ [ 109.5, 40.3333335 ], [ 110.0, 40.3333335 ], [ 110.0, 40.6666668 ], [ 109.5, 40.6666668 ], [ 109.5, 40.3333335 ] ] ] } },
{ "type": "Feature", "properties": { "Id": 0, "Sheet_ID": "小淖兒", "label": "小淖兒", "call_short": "0", "call_num": "0", "recid": "0", "websiteUrl": "0", "title": "0", "ckey": 0, "available": false, "iiifUrl": "0" }, "geometry": { "type": "Polygon", "coordinates": [ [ [ 110.0, 40.3333335 ], [ 110.5, 40.3333335 ], [ 110.5, 40.6666668 ], [ 110.0, 40.6666668 ], [ 110.0, 40.3333335 ] ] ] } },
{ "type": "Feature", "properties": { "Id": 0, "Sheet_ID": "壹四ワ189. 梦達橋", "label": "壹四ワ189. 梦達橋", "call_short": "G7820 S100 .J4", "call_num": "G7820 S100 .J4 14-WA-189", "recid": "ws735rv7575", "websiteUrl": "https://purl.stanford.edu/ws735rv7575", "title": "要圖（空中寫眞測量）北支那十万分一圖", "ckey": 9614758, "available": true, "iiifUrl": "https://purl.stanford.edu/ws735rv7575/iiif/manifest" }, "geometry": { "type": "Polygon", "coordinates": [ [ [ 110.5, 40.3333335 ], [ 111.0, 40.3333335 ], [ 111.0, 40.6666668 ], [ 110.5, 40.6666668 ], [ 110.5, 40.3333335 ] ] ] } },
{ "type": "Feature", "properties": { "Id": 0, "Sheet_ID": "壹四ワ179. 三兩村", "label": "壹四ワ179. 三兩村", "call_short": "G7820 S100 .J4", "call_num": "G7820 S100 .J4 14-WA-179", "recid": "gc848nv0256", "websiteUrl": "https://purl.stanford.edu/gc848nv0256", "title": "要圖（空中寫眞測量）北支那十万分一圖", "ckey": 9614758, "available": true, "iiifUrl": "https://purl.stanford.edu/gc848nv0256/iiif/manifest" }, "geometry": { "type": "Polygon", "coordinates": [ [ [ 111.0, 40.3333335 ], [ 111.5, 40.3333335 ], [ 111.5, 40.6666668 ], [ 111.0, 40.6666668 ], [ 111.0, 40.3333335 ] ] ] } },
{ "type": "Feature", "properties": { "Id": 0, "Sheet_ID": "和林", "label": "和林", "call_short": "0", "call_num": "0", "recid": "0", "websiteUrl": "0", "title": "0", "ckey": 0, "available": false, "iiifUrl": "0" }, "geometry": { "type": "Polygon", "coordinates": [ [ [ 111.5, 40.3333335 ], [ 112.0, 40.3333335 ], [ 112.0, 40.6666668 ], [ 111.5, 40.6666668 ], [ 111.5, 40.3333335 ] ] ] } },
{ "type": "Feature", "properties": { "Id": 0, "Sheet_ID": "壹四ワ159. 涼城", "label": "壹四ワ159. 涼城", "call_short": "G7820 S100 .J4", "call_num": "G7820 S100 .J4 14-WA-159", "recid": "nr143hv5500", "websiteUrl": "https://purl.stanford.edu/nr143hv5500", "title": "要圖（空中寫眞測量）北支那十万分一圖", "ckey": 9614758, "available": true, "iiifUrl": "https://purl.stanford.edu/nr143hv5500/iiif/manifest" }, "geometry": { "type": "Polygon", "coordinates": [ [ [ 112.0, 40.3333335 ], [ 112.5, 40.3333335 ], [ 112.5, 40.6666668 ], [ 112.0, 40.6666668 ], [ 112.0, 40.3333335 ] ] ] } },
{ "type": "Feature", "properties": { "Id": 0, "Sheet_ID": "天城村", "label": "天城村", "call_short": "0", "call_num": "0", "recid": "0", "websiteUrl": "0", "title": "0", "ckey": 0, "available": false, "iiifUrl": "0" }, "geometry": { "type": "Polygon", "coordinates": [ [ [ 112.5, 40.3333335 ], [ 113.0, 40.3333335 ], [ 113.0, 40.6666668 ], [ 112.5, 40.6666668 ], [ 112.5, 40.3333335 ] ] ] } },
{ "type": "Feature", "properties": { "Id": 0, "Sheet_ID": "陽髙", "label": "陽髙", "call_short": "0", "call_num": "0", "recid": "0", "websiteUrl": "0", "title": "0", "ckey": 0, "available": false, "iiifUrl": "0" }, "geometry": { "type": "Polygon", "coordinates": [ [ [ 113.5, 40.3333335 ], [ 114.0, 40.3333335 ], [ 114.0, 40.6666668 ], [ 113.5, 40.6666668 ], [ 113.5, 40.3333335 ] ] ] } },
{ "type": "Feature", "properties": { "Id": 0, "Sheet_ID": "壹四ワ119. 天鎮", "label": "壹四ワ119. 天鎮", "call_short": "G7820 S100 .J4", "call_num": "G7820 S100 .J4 14-WA-119", "recid": "cy351zm1671", "websiteUrl": "https://purl.stanford.edu/cy351zm1671", "title": "要圖（空中寫眞測量）北支那十万分一圖", "ckey": 9614758, "available": true, "iiifUrl": "https://purl.stanford.edu/cy351zm1671/iiif/manifest" }, "geometry": { "type": "Polygon", "coordinates": [ [ [ 114.0, 40.3333335 ], [ 114.5, 40.3333335 ], [ 114.5, 40.6666668 ], [ 114.0, 40.6666668 ], [ 114.0, 40.3333335 ] ] ] } },
{ "type": "Feature", "properties": { "Id": 0, "Sheet_ID": "深井堡", "label": "深井堡", "call_short": "0", "call_num": "0", "recid": "0", "websiteUrl": "0", "title": "0", "ckey": 0, "available": false, "iiifUrl": "0" }, "geometry": { "type": "Polygon", "coordinates": [ [ [ 114.5, 40.3333335 ], [ 115.0, 40.3333335 ], [ 115.0, 40.6666668 ], [ 114.5, 40.6666668 ], [ 114.5, 40.3333335 ] ] ] } },
{ "type": "Feature", "properties": { "Id": 0, "Sheet_ID": "懐來", "label": "懐來", "call_short": "0", "call_num": "0", "recid": "0", "websiteUrl": "0", "title": "0", "ckey": 0, "available": false, "iiifUrl": "0" }, "geometry": { "type": "Polygon", "coordinates": [ [ [ 115.5, 40.3333335 ], [ 116.0, 40.3333335 ], [ 116.0, 40.6666668 ], [ 115.5, 40.6666668 ], [ 115.5, 40.3333335 ] ] ] } },
{ "type": "Feature", "properties": { "Id": 0, "Sheet_ID": "永寧", "label": "永寧", "call_short": "0", "call_num": "0", "recid": "0", "websiteUrl": "0", "title": "0", "ckey": 0, "available": false, "iiifUrl": "0" }, "geometry": { "type": "Polygon", "coordinates": [ [ [ 116.0, 40.3333335 ], [ 116.5, 40.3333335 ], [ 116.5, 40.6666668 ], [ 116.0, 40.6666668 ], [ 116.0, 40.3333335 ] ] ] } },
{ "type": "Feature", "properties": { "Id": 0, "Sheet_ID": "壹五ワ138. 王二歌", "label": "壹五ワ138. 王二歌", "call_short": "G7820 S100 .J4", "call_num": "G7820 S100 .J4 15-WA-138", "recid": "rq616td4503", "websiteUrl": "https://purl.stanford.edu/rq616td4503", "title": "要圖（空中寫眞測量）北支那十万分一圖", "ckey": 9614758, "available": true, "iiifUrl": "https://purl.stanford.edu/rq616td4503/iiif/manifest" }, "geometry": { "type": "Polygon", "coordinates": [ [ [ 108.0, 40.6666668 ], [ 108.5, 40.6666668 ], [ 108.5, 41.0000001 ], [ 108.0, 41.0000001 ], [ 108.0, 40.6666668 ] ] ] } },
{ "type": "Feature", "properties": { "Id": 0, "Sheet_ID": "壹五ワ128. 恊尼廟", "label": "壹五ワ128. 恊尼廟", "call_short": "G7820 S100 .J4", "call_num": "G7820 S100 .J4 15-WA-128", "recid": "fy255jp7492", "websiteUrl": "https://purl.stanford.edu/fy255jp7492", "title": "要圖（空中寫眞測量）北支那十万分一圖", "ckey": 9614758, "available": true, "iiifUrl": "https://purl.stanford.edu/fy255jp7492/iiif/manifest" }, "geometry": { "type": "Polygon", "coordinates": [ [ [ 108.5, 40.6666668 ], [ 109.0, 40.6666668 ], [ 109.0, 41.0000001 ], [ 108.5, 41.0000001 ], [ 108.5, 40.6666668 ] ] ] } },
{ "type": "Feature", "properties": { "Id": 0, "Sheet_ID": "壹四ワ188. 土城子", "label": "壹四ワ188. 土城子", "call_short": "G7820 S100 .J4", "call_num": "G7820 S100 .J4 14-WA-188", "recid": "tk512rm0548", "websiteUrl": "https://purl.stanford.edu/tk512rm0548", "title": "要圖（空中寫眞測量）北支那十万分一圖", "ckey": 9614758, "available": true, "iiifUrl": "https://purl.stanford.edu/tk512rm0548/iiif/manifest" }, "geometry": { "type": "Polygon", "coordinates": [ [ [ 110.5, 40.6666668 ], [ 111.0, 40.6666668 ], [ 111.0, 41.0000001 ], [ 110.5, 41.0000001 ], [ 110.5, 40.6666668 ] ] ] } },
{ "type": "Feature", "properties": { "Id": 0, "Sheet_ID": "壹四ワ178. 察素齊", "label": "壹四ワ178. 察素齊", "call_short": "G7820 S100 .J4", "call_num": "G7820 S100 .J4 14-WA-178", "recid": "rr881hk3900", "websiteUrl": "https://purl.stanford.edu/rr881hk3900", "title": "要圖（空中寫眞測量）北支那十万分一圖", "ckey": 9614758, "available": true, "iiifUrl": "https://purl.stanford.edu/rr881hk3900/iiif/manifest" }, "geometry": { "type": "Polygon", "coordinates": [ [ [ 111.0, 40.6666668 ], [ 111.5, 40.6666668 ], [ 111.5, 41.0000001 ], [ 111.0, 41.0000001 ], [ 111.0, 40.6666668 ] ] ] } },
{ "type": "Feature", "properties": { "Id": 0, "Sheet_ID": "壹四ワ168. 厚和", "label": "壹四ワ168. 厚和", "call_short": "G7820 S100 .J4", "call_num": "G7820 S100 .J4 14-WA-168", "recid": "zv489tv6282", "websiteUrl": "https://purl.stanford.edu/zv489tv6282", "title": "要圖（空中寫眞測量）北支那十万分一圖", "ckey": 9614758, "available": true, "iiifUrl": "https://purl.stanford.edu/zv489tv6282/iiif/manifest" }, "geometry": { "type": "Polygon", "coordinates": [ [ [ 111.5, 40.6666668 ], [ 112.0, 40.6666668 ], [ 112.0, 41.0000001 ], [ 111.5, 41.0000001 ], [ 111.5, 40.6666668 ] ] ] } },
{ "type": "Feature", "properties": { "Id": 0, "Sheet_ID": "壹四ワ158. 旗下營", "label": "壹四ワ158. 旗下營", "call_short": "G7820 S100 .J4", "call_num": "G7820 S100 .J4 14-WA-158", "recid": "mt775fg7417", "websiteUrl": "https://purl.stanford.edu/mt775fg7417", "title": "要圖（空中寫眞測量）北支那十万分一圖", "ckey": 9614758, "available": true, "iiifUrl": "https://purl.stanford.edu/mt775fg7417/iiif/manifest" }, "geometry": { "type": "Polygon", "coordinates": [ [ [ 112.0, 40.6666668 ], [ 112.5, 40.6666668 ], [ 112.5, 41.0000001 ], [ 112.0, 41.0000001 ], [ 112.0, 40.6666668 ] ] ] } },
{ "type": "Feature", "properties": { "Id": 0, "Sheet_ID": "八蘇木", "label": "八蘇木", "call_short": "0", "call_num": "0", "recid": "0", "websiteUrl": "0", "title": "0", "ckey": 0, "available": false, "iiifUrl": "0" }, "geometry": { "type": "Polygon", "coordinates": [ [ [ 112.5, 40.6666668 ], [ 113.0, 40.6666668 ], [ 113.0, 41.0000001 ], [ 112.5, 41.0000001 ], [ 112.5, 40.6666668 ] ] ] } },
{ "type": "Feature", "properties": { "Id": 0, "Sheet_ID": "隆盛荘", "label": "隆盛荘", "call_short": "0", "call_num": "0", "recid": "0", "websiteUrl": "0", "title": "0", "ckey": 0, "available": false, "iiifUrl": "0" }, "geometry": { "type": "Polygon", "coordinates": [ [ [ 113.0, 40.6666668 ], [ 113.5, 40.6666668 ], [ 113.5, 41.0000001 ], [ 113.0, 41.0000001 ], [ 113.0, 40.6666668 ] ] ] } },
{ "type": "Feature", "properties": { "Id": 0, "Sheet_ID": "興和", "label": "興和", "call_short": "0", "call_num": "0", "recid": "0", "websiteUrl": "0", "title": "0", "ckey": 0, "available": false, "iiifUrl": "0" }, "geometry": { "type": "Polygon", "coordinates": [ [ [ 113.5, 40.6666668 ], [ 114.0, 40.6666668 ], [ 114.0, 41.0000001 ], [ 113.5, 41.0000001 ], [ 113.5, 40.6666668 ] ] ] } },
{ "type": "Feature", "properties": { "Id": 0, "Sheet_ID": "萬安", "label": "萬安", "call_short": "0", "call_num": "0", "recid": "0", "websiteUrl": "0", "title": "0", "ckey": 0, "available": false, "iiifUrl": "0" }, "geometry": { "type": "Polygon", "coordinates": [ [ [ 114.0, 40.6666668 ], [ 114.5, 40.6666668 ], [ 114.5, 41.0000001 ], [ 114.0, 41.0000001 ], [ 114.0, 40.6666668 ] ] ] } },
{ "type": "Feature", "properties": { "Id": 0, "Sheet_ID": "張家口", "label": "張家口", "call_short": "0", "call_num": "0", "recid": "0", "websiteUrl": "0", "title": "0", "ckey": 0, "available": false, "iiifUrl": "0" }, "geometry": { "type": "Polygon", "coordinates": [ [ [ 114.5, 40.6666668 ], [ 115.0, 40.6666668 ], [ 115.0, 41.0000001 ], [ 114.5, 41.0000001 ], [ 114.5, 40.6666668 ] ] ] } },
{ "type": "Feature", "properties": { "Id": 0, "Sheet_ID": "龍關", "label": "龍關", "call_short": "0", "call_num": "0", "recid": "0", "websiteUrl": "0", "title": "0", "ckey": 0, "available": false, "iiifUrl": "0" }, "geometry": { "type": "Polygon", "coordinates": [ [ [ 115.5, 40.6666668 ], [ 116.0, 40.6666668 ], [ 116.0, 41.0000001 ], [ 115.5, 41.0000001 ], [ 115.5, 40.6666668 ] ] ] } },
{ "type": "Feature", "properties": { "Id": 0, "Sheet_ID": "壹参ワ178. 河村", "label": "壹参ワ178. 河村", "call_short": "G7820 S100 .J4", "call_num": "G7820 S100 .J4 13-WA-178", "recid": "xd977xb5899", "websiteUrl": "https://purl.stanford.edu/xd977xb5899", "title": "要圖（空中寫眞測量）北支那十万分一圖", "ckey": 9614758, "available": true, "iiifUrl": "https://purl.stanford.edu/xd977xb5899/iiif/manifest" }, "geometry": { "type": "Polygon", "coordinates": [ [ [ 116.0, 40.6666668 ], [ 116.5, 40.6666668 ], [ 116.5, 41.0000001 ], [ 116.0, 41.0000001 ], [ 116.0, 40.6666668 ] ] ] } },
{ "type": "Feature", "properties": { "Id": 0, "Sheet_ID": "五原北部", "label": "五原北部", "call_short": "0", "call_num": "0", "recid": "0", "websiteUrl": "0", "title": "0", "ckey": 0, "available": false, "iiifUrl": "0" }, "geometry": { "type": "Polygon", "coordinates": [ [ [ 108.0, 41.0000001 ], [ 108.5, 41.0000001 ], [ 108.5, 41.3333334 ], [ 108.0, 41.3333334 ], [ 108.0, 41.0000001 ] ] ] } },
{ "type": "Feature", "properties": { "Id": 0, "Sheet_ID": "烏鎮", "label": "烏鎮", "call_short": "0", "call_num": "0", "recid": "0", "websiteUrl": "0", "title": "0", "ckey": 0, "available": false, "iiifUrl": "0" }, "geometry": { "type": "Polygon", "coordinates": [ [ [ 108.5, 41.0000001 ], [ 109.0, 41.0000001 ], [ 109.0, 41.3333334 ], [ 108.5, 41.3333334 ], [ 108.5, 41.0000001 ] ] ] } },
{ "type": "Feature", "properties": { "Id": 0, "Sheet_ID": "東埧", "label": "東埧", "call_short": "0", "call_num": "0", "recid": "0", "websiteUrl": "0", "title": "0", "ckey": 0, "available": false, "iiifUrl": "0" }, "geometry": { "type": "Polygon", "coordinates": [ [ [ 109.0, 41.0000001 ], [ 109.5, 41.0000001 ], [ 109.5, 41.3333334 ], [ 109.0, 41.3333334 ], [ 109.0, 41.0000001 ] ] ] } },
{ "type": "Feature", "properties": { "Id": 0, "Sheet_ID": "固陽", "label": "固陽", "call_short": "0", "call_num": "0", "recid": "0", "websiteUrl": "0", "title": "0", "ckey": 0, "available": false, "iiifUrl": "0" }, "geometry": { "type": "Polygon", "coordinates": [ [ [ 110.0, 41.0000001 ], [ 110.5, 41.0000001 ], [ 110.5, 41.3333334 ], [ 110.0, 41.3333334 ], [ 110.0, 41.0000001 ] ] ] } },
{ "type": "Feature", "properties": { "Id": 0, "Sheet_ID": "壹四ワ187. 烏蘭不浪", "label": "壹四ワ187. 烏蘭不浪", "call_short": "G7820 S100 .J4", "call_num": "G7820 S100 .J4 14-WA-187", "recid": "tq770yt2156", "websiteUrl": "https://purl.stanford.edu/tq770yt2156", "title": "要圖（空中寫眞測量）北支那十万分一圖", "ckey": 9614758, "available": true, "iiifUrl": "https://purl.stanford.edu/tq770yt2156/iiif/manifest" }, "geometry": { "type": "Polygon", "coordinates": [ [ [ 110.5, 41.0000001 ], [ 111.0, 41.0000001 ], [ 111.0, 41.3333334 ], [ 110.5, 41.3333334 ], [ 110.5, 41.0000001 ] ] ] } },
{ "type": "Feature", "properties": { "Id": 0, "Sheet_ID": "壹四ワ177. 武川", "label": "壹四ワ177. 武川", "call_short": "G7820 S100 .J4", "call_num": "G7820 S100 .J4 14-WA-177", "recid": "wq590kr5398", "websiteUrl": "https://purl.stanford.edu/wq590kr5398", "title": "要圖（空中寫眞測量）北支那十万分一圖", "ckey": 9614758, "available": true, "iiifUrl": "https://purl.stanford.edu/wq590kr5398/iiif/manifest" }, "geometry": { "type": "Polygon", "coordinates": [ [ [ 111.0, 41.0000001 ], [ 111.5, 41.0000001 ], [ 111.5, 41.3333334 ], [ 111.0, 41.3333334 ], [ 111.0, 41.0000001 ] ] ] } },
{ "type": "Feature", "properties": { "Id": 0, "Sheet_ID": "合樂鎮", "label": "合樂鎮", "call_short": "0", "call_num": "0", "recid": "0", "websiteUrl": "0", "title": "0", "ckey": 0, "available": false, "iiifUrl": "0" }, "geometry": { "type": "Polygon", "coordinates": [ [ [ 111.5, 41.0000001 ], [ 112.0, 41.0000001 ], [ 112.0, 41.3333334 ], [ 111.5, 41.3333334 ], [ 111.5, 41.0000001 ] ] ] } },
{ "type": "Feature", "properties": { "Id": 0, "Sheet_ID": "壹四ワ157. 大灘", "label": "壹四ワ157. 大灘", "call_short": "G7820 S100 .J4", "call_num": "G7820 S100 .J4 14-WA-157", "recid": "tb984ty1052", "websiteUrl": "https://purl.stanford.edu/tb984ty1052", "title": "要圖（空中寫眞測量）北支那十万分一圖", "ckey": 9614758, "available": true, "iiifUrl": "https://purl.stanford.edu/tb984ty1052/iiif/manifest" }, "geometry": { "type": "Polygon", "coordinates": [ [ [ 112.0, 41.0000001 ], [ 112.5, 41.0000001 ], [ 112.5, 41.3333334 ], [ 112.0, 41.3333334 ], [ 112.0, 41.0000001 ] ] ] } },
{ "type": "Feature", "properties": { "Id": 0, "Sheet_ID": "壹四ワ147. 陶林", "label": "壹四ワ147. 陶林", "call_short": "G7820 S100 .J4", "call_num": "G7820 S100 .J4 14-WA-147", "recid": "zk135df9744", "websiteUrl": "https://purl.stanford.edu/zk135df9744", "title": "要圖（空中寫眞測量）北支那十万分一圖", "ckey": 9614758, "available": true, "iiifUrl": "https://purl.stanford.edu/zk135df9744/iiif/manifest" }, "geometry": { "type": "Polygon", "coordinates": [ [ [ 112.5, 41.0000001 ], [ 113.0, 41.0000001 ], [ 113.0, 41.3333334 ], [ 112.5, 41.3333334 ], [ 112.5, 41.0000001 ] ] ] } },
{ "type": "Feature", "properties": { "Id": 0, "Sheet_ID": "壹四ワ137. 平地泉", "label": "壹四ワ137. 平地泉", "call_short": "G7820 S100 .J4", "call_num": "G7820 S100 .J4 14-WA-137", "recid": "nh424ft1980", "websiteUrl": "https://purl.stanford.edu/nh424ft1980", "title": "要圖（空中寫眞測量）北支那十万分一圖", "ckey": 9614758, "available": true, "iiifUrl": "https://purl.stanford.edu/nh424ft1980/iiif/manifest" }, "geometry": { "type": "Polygon", "coordinates": [ [ [ 113.0, 41.0000001 ], [ 113.5, 41.0000001 ], [ 113.5, 41.3333334 ], [ 113.0, 41.3333334 ], [ 113.0, 41.0000001 ] ] ] } },
{ "type": "Feature", "properties": { "Id": 0, "Sheet_ID": "壹四ワ127. 南壕塹", "label": "壹四ワ127. 南壕塹", "call_short": "G7820 S100 .J4", "call_num": "G7820 S100 .J4 14-WA-127", "recid": "mz487kj9032", "websiteUrl": "https://purl.stanford.edu/mz487kj9032", "title": "要圖（空中寫眞測量）北支那十万分一圖", "ckey": 9614758, "available": true, "iiifUrl": "https://purl.stanford.edu/mz487kj9032/iiif/manifest" }, "geometry": { "type": "Polygon", "coordinates": [ [ [ 113.5, 41.0000001 ], [ 114.0, 41.0000001 ], [ 114.0, 41.3333334 ], [ 113.5, 41.3333334 ], [ 113.5, 41.0000001 ] ] ] } },
{ "type": "Feature", "properties": { "Id": 0, "Sheet_ID": "大清溝/尚義", "label": "大清溝/尚義", "call_short": "0", "call_num": "0", "recid": "0", "websiteUrl": "0", "title": "0", "ckey": 0, "available": false, "iiifUrl": "0" }, "geometry": { "type": "Polygon", "coordinates": [ [ [ 114.0, 41.0000001 ], [ 114.5, 41.0000001 ], [ 114.5, 41.3333334 ], [ 114.0, 41.3333334 ], [ 114.0, 41.0000001 ] ] ] } },
{ "type": "Feature", "properties": { "Id": 0, "Sheet_ID": "獨石口", "label": "獨石口", "call_short": "0", "call_num": "0", "recid": "0", "websiteUrl": "0", "title": "0", "ckey": 0, "available": false, "iiifUrl": "0" }, "geometry": { "type": "Polygon", "coordinates": [ [ [ 115.5, 41.0000001 ], [ 116.0, 41.0000001 ], [ 116.0, 41.3333334 ], [ 115.5, 41.3333334 ], [ 115.5, 41.0000001 ] ] ] } },
{ "type": "Feature", "properties": { "Id": 0, "Sheet_ID": "海流圖", "label": "海流圖", "call_short": "0", "call_num": "0", "recid": "0", "websiteUrl": "0", "title": "0", "ckey": 0, "available": false, "iiifUrl": "0" }, "geometry": { "type": "Polygon", "coordinates": [ [ [ 108.5, 41.3333334 ], [ 109.0, 41.3333334 ], [ 109.0, 41.6666667 ], [ 108.5, 41.6666667 ], [ 108.5, 41.3333334 ] ] ] } },
{ "type": "Feature", "properties": { "Id": 0, "Sheet_ID": "烏蘭忽同", "label": "烏蘭忽同", "call_short": "0", "call_num": "0", "recid": "0", "websiteUrl": "0", "title": "0", "ckey": 0, "available": false, "iiifUrl": "0" }, "geometry": { "type": "Polygon", "coordinates": [ [ [ 110.0, 41.3333334 ], [ 110.5, 41.3333334 ], [ 110.5, 41.6666667 ], [ 110.0, 41.6666667 ], [ 110.0, 41.3333334 ] ] ] } },
{ "type": "Feature", "properties": { "Id": 0, "Sheet_ID": "壹四ワ186. 叉叉", "label": "壹四ワ186. 叉叉", "call_short": "G7820 S100 .J4", "call_num": "G7820 S100 .J4 14-WA-186", "recid": "rx633wz3789", "websiteUrl": "https://purl.stanford.edu/rx633wz3789", "title": "要圖（空中寫眞測量）北支那十万分一圖", "ckey": 9614758, "available": true, "iiifUrl": "https://purl.stanford.edu/rx633wz3789/iiif/manifest" }, "geometry": { "type": "Polygon", "coordinates": [ [ [ 110.5, 41.3333334 ], [ 111.0, 41.3333334 ], [ 111.0, 41.6666667 ], [ 110.5, 41.6666667 ], [ 110.5, 41.3333334 ] ] ] } },
{ "type": "Feature", "properties": { "Id": 0, "Sheet_ID": "壹四ワ176. 鴻記", "label": "壹四ワ176. 鴻記", "call_short": "G7820 S100 .J4", "call_num": "G7820 S100 .J4 14-WA-176", "recid": "jg273ch5289", "websiteUrl": "https://purl.stanford.edu/jg273ch5289", "title": "要圖（空中寫眞測量）北支那十万分一圖", "ckey": 9614758, "available": true, "iiifUrl": "https://purl.stanford.edu/jg273ch5289/iiif/manifest" }, "geometry": { "type": "Polygon", "coordinates": [ [ [ 111.0, 41.3333334 ], [ 111.5, 41.3333334 ], [ 111.5, 41.6666667 ], [ 111.0, 41.6666667 ], [ 111.0, 41.3333334 ] ] ] } },
{ "type": "Feature", "properties": { "Id": 0, "Sheet_ID": "烏藍花", "label": "烏藍花", "call_short": "0", "call_num": "0", "recid": "0", "websiteUrl": "0", "title": "0", "ckey": 0, "available": false, "iiifUrl": "0" }, "geometry": { "type": "Polygon", "coordinates": [ [ [ 111.5, 41.3333334 ], [ 112.0, 41.3333334 ], [ 112.0, 41.6666667 ], [ 111.5, 41.6666667 ], [ 111.5, 41.3333334 ] ] ] } },
{ "type": "Feature", "properties": { "Id": 0, "Sheet_ID": "壹四ワ156. 三元井", "label": "壹四ワ156. 三元井", "call_short": "G7820 S100 .J4", "call_num": "G7820 S100 .J4 14-WA-156", "recid": "sg792wr8904", "websiteUrl": "https://purl.stanford.edu/sg792wr8904", "title": "要圖（空中寫眞測量）北支那十万分一圖", "ckey": 9614758, "available": true, "iiifUrl": "https://purl.stanford.edu/sg792wr8904/iiif/manifest" }, "geometry": { "type": "Polygon", "coordinates": [ [ [ 112.0, 41.3333334 ], [ 112.5, 41.3333334 ], [ 112.5, 41.6666667 ], [ 112.0, 41.6666667 ], [ 112.0, 41.3333334 ] ] ] } },
{ "type": "Feature", "properties": { "Id": 0, "Sheet_ID": "壹四ワ146. 三道溝", "label": "壹四ワ146. 三道溝", "call_short": "G7820 S100 .J4", "call_num": "G7820 S100 .J4 14-WA-146", "recid": "wj593sy8119", "websiteUrl": "https://purl.stanford.edu/wj593sy8119", "title": "要圖（空中寫眞測量）北支那十万分一圖", "ckey": 9614758, "available": true, "iiifUrl": "https://purl.stanford.edu/wj593sy8119/iiif/manifest" }, "geometry": { "type": "Polygon", "coordinates": [ [ [ 112.5, 41.3333334 ], [ 113.0, 41.3333334 ], [ 113.0, 41.6666667 ], [ 112.5, 41.6666667 ], [ 112.5, 41.3333334 ] ] ] } },
{ "type": "Feature", "properties": { "Id": 0, "Sheet_ID": "壹四ワ136. 商都西部", "label": "壹四ワ136. 商都西部", "call_short": "G7820 S100 .J4", "call_num": "G7820 S100 .J4 14-WA-136", "recid": "hp406mq1758", "websiteUrl": "https://purl.stanford.edu/hp406mq1758", "title": "要圖（空中寫眞測量）北支那十万分一圖", "ckey": 9614758, "available": true, "iiifUrl": "https://purl.stanford.edu/hp406mq1758/iiif/manifest" }, "geometry": { "type": "Polygon", "coordinates": [ [ [ 113.0, 41.3333334 ], [ 113.5, 41.3333334 ], [ 113.5, 41.6666667 ], [ 113.0, 41.6666667 ], [ 113.0, 41.3333334 ] ] ] } },
{ "type": "Feature", "properties": { "Id": 0, "Sheet_ID": "壹四ワ126. 商都", "label": "壹四ワ126. 商都", "call_short": "G7820 S100 .J4", "call_num": "G7820 S100 .J4 14-WA-126", "recid": "tt364rx4037", "websiteUrl": "https://purl.stanford.edu/tt364rx4037", "title": "要圖（空中寫眞測量）北支那十万分一圖", "ckey": 9614758, "available": true, "iiifUrl": "https://purl.stanford.edu/tt364rx4037/iiif/manifest" }, "geometry": { "type": "Polygon", "coordinates": [ [ [ 113.5, 41.3333334 ], [ 114.0, 41.3333334 ], [ 114.0, 41.6666667 ], [ 113.5, 41.6666667 ], [ 113.5, 41.3333334 ] ] ] } },
{ "type": "Feature", "properties": { "Id": 0, "Sheet_ID": "安林諾爾", "label": "安林諾爾", "call_short": "0", "call_num": "0", "recid": "0", "websiteUrl": "0", "title": "0", "ckey": 0, "available": false, "iiifUrl": "0" }, "geometry": { "type": "Polygon", "coordinates": [ [ [ 114.0, 41.3333334 ], [ 114.5, 41.3333334 ], [ 114.5, 41.6666667 ], [ 114.0, 41.6666667 ], [ 114.0, 41.3333334 ] ] ] } },
{ "type": "Feature", "properties": { "Id": 0, "Sheet_ID": "百霊廟", "label": "百霊廟", "call_short": "0", "call_num": "0", "recid": "0", "websiteUrl": "0", "title": "0", "ckey": 0, "available": false, "iiifUrl": "0" }, "geometry": { "type": "Polygon", "coordinates": [ [ [ 110.0, 41.6666667 ], [ 110.5, 41.6666667 ], [ 110.5, 42.0 ], [ 110.0, 42.0 ], [ 110.0, 41.6666667 ] ] ] } },
{ "type": "Feature", "properties": { "Id": 0, "Sheet_ID": "トエラマスーム", "label": "トエラマスーム", "call_short": "0", "call_num": "0", "recid": "0", "websiteUrl": "0", "title": "0", "ckey": 0, "available": false, "iiifUrl": "0" }, "geometry": { "type": "Polygon", "coordinates": [ [ [ 110.5, 41.6666667 ], [ 111.0, 41.6666667 ], [ 111.0, 42.0 ], [ 110.5, 42.0 ], [ 110.5, 41.6666667 ] ] ] } },
{ "type": "Feature", "properties": { "Id": 0, "Sheet_ID": "ハットンゴルスーム", "label": "ハットンゴルスーム", "call_short": "0", "call_num": "0", "recid": "0", "websiteUrl": "0", "title": "0", "ckey": 0, "available": false, "iiifUrl": "0" }, "geometry": { "type": "Polygon", "coordinates": [ [ [ 111.0, 41.6666667 ], [ 111.5, 41.6666667 ], [ 111.5, 42.0 ], [ 111.0, 42.0 ], [ 111.0, 41.6666667 ] ] ] } },
{ "type": "Feature", "properties": { "Id": 0, "Sheet_ID": "四子王府", "label": "四子王府", "call_short": "0", "call_num": "0", "recid": "0", "websiteUrl": "0", "title": "0", "ckey": 0, "available": false, "iiifUrl": "0" }, "geometry": { "type": "Polygon", "coordinates": [ [ [ 111.5, 41.6666667 ], [ 112.0, 41.6666667 ], [ 112.0, 42.0 ], [ 111.5, 42.0 ], [ 111.5, 41.6666667 ] ] ] } },
{ "type": "Feature", "properties": { "Id": 0, "Sheet_ID": "タテムスーム", "label": "タテムスーム", "call_short": "0", "call_num": "0", "recid": "0", "websiteUrl": "0", "title": "0", "ckey": 0, "available": false, "iiifUrl": "0" }, "geometry": { "type": "Polygon", "coordinates": [ [ [ 112.0, 41.6666667 ], [ 112.5, 41.6666667 ], [ 112.5, 42.0 ], [ 112.0, 42.0 ], [ 112.0, 41.6666667 ] ] ] } },
{ "type": "Feature", "properties": { "Id": 0, "Sheet_ID": "ウーチンハーター", "label": "ウーチンハーター", "call_short": "0", "call_num": "0", "recid": "0", "websiteUrl": "0", "title": "0", "ckey": 0, "available": false, "iiifUrl": "0" }, "geometry": { "type": "Polygon", "coordinates": [ [ [ 112.5, 41.6666667 ], [ 113.0, 41.6666667 ], [ 113.0, 42.0 ], [ 112.5, 42.0 ], [ 112.5, 41.6666667 ] ] ] } },
{ "type": "Feature", "properties": { "Id": 0, "Sheet_ID": "土牧爾臺", "label": "土牧爾臺", "call_short": "0", "call_num": "0", "recid": "0", "websiteUrl": "0", "title": "0", "ckey": 0, "available": false, "iiifUrl": "0" }, "geometry": { "type": "Polygon", "coordinates": [ [ [ 113.0, 41.6666667 ], [ 113.5, 41.6666667 ], [ 113.5, 42.0 ], [ 113.0, 42.0 ], [ 113.0, 41.6666667 ] ] ] } },
{ "type": "Feature", "properties": { "Id": 0, "Sheet_ID": "德化西部", "label": "德化西部", "call_short": "0", "call_num": "0", "recid": "0", "websiteUrl": "0", "title": "0", "ckey": 0, "available": false, "iiifUrl": "0" }, "geometry": { "type": "Polygon", "coordinates": [ [ [ 113.5, 41.6666667 ], [ 114.0, 41.6666667 ], [ 114.0, 42.0 ], [ 113.5, 42.0 ], [ 113.5, 41.6666667 ] ] ] } },
{ "type": "Feature", "properties": { "Id": 0, "Sheet_ID": "徳化東部", "label": "徳化東部", "call_short": "0", "call_num": "0", "recid": "0", "websiteUrl": "0", "title": "0", "ckey": 0, "available": false, "iiifUrl": "0" }, "geometry": { "type": "Polygon", "coordinates": [ [ [ 114.0, 41.6666667 ], [ 114.5, 41.6666667 ], [ 114.5, 42.0 ], [ 114.0, 42.0 ], [ 114.0, 41.6666667 ] ] ] } }
]
}
