{
"type": "FeatureCollection",
"name": "index_map",
"features": [
{ "type": "Feature", "properties": { "Id": 0, "Sheet_ID": "5. ケラバット川上流", "label": "5. ケラバット川上流", "call_short": null, "call_num": null, "recid": null, "websiteUrl": null, "title": null, "ckey": 0, "available": false, "iiifUrl": null }, "geometry": { "type": "Polygon", "coordinates": [ [ [ 151.916667, -4.541667 ], [ 152.0833337, -4.541667 ], [ 152.0833337, -4.3333335 ], [ 151.916667, -4.3333335 ], [ 151.916667, -4.541667 ] ] ] } },
{ "type": "Feature", "properties": { "Id": 0, "Sheet_ID": "3. ココポ西部", "label": "3. ココポ西部", "call_short": null, "call_num": null, "recid": null, "websiteUrl": null, "title": null, "ckey": 0, "available": false, "iiifUrl": null }, "geometry": { "type": "Polygon", "coordinates": [ [ [ 152.0833337, -4.541667 ], [ 152.2500003, -4.541667 ], [ 152.2500003, -4.3333335 ], [ 152.0833337, -4.3333335 ], [ 152.0833337, -4.541667 ] ] ] } },
{ "type": "Feature", "properties": { "Id": 0, "Sheet_ID": "1. ココポ", "label": "1. ココポ", "call_short": "G8182 .R3 S50 .J3", "call_num": "G8182 .R3 S50 .J3 SHEET 1", "recid": "mc334cr8716", "websiteUrl": "https://purl.stanford.edu/mc334cr8716", "title": "空中寫眞要圖 五万分一圖「ビスマルク」群島「ラバウル」近傍", "ckey": 10469078, "available": true, "iiifUrl": "https://purl.stanford.edu/mc334cr8716/iiif/manifest" }, "geometry": { "type": "Polygon", "coordinates": [ [ [ 152.2500003, -4.541667 ], [ 152.416667, -4.541667 ], [ 152.416667, -4.32 ], [ 152.2500003, -4.32 ], [ 152.2500003, -4.541667 ] ] ] } },
{ "type": "Feature", "properties": { "Id": 0, "Sheet_ID": "4. 西崎", "label": "4. 西崎", "call_short": null, "call_num": null, "recid": null, "websiteUrl": null, "title": null, "ckey": 0, "available": false, "iiifUrl": null }, "geometry": { "type": "Polygon", "coordinates": [ [ [ 151.916667, -4.3333335 ], [ 152.0833337, -4.3333335 ], [ 152.0833337, -4.125 ], [ 151.916667, -4.125 ], [ 151.916667, -4.3333335 ] ] ] } },
{ "type": "Feature", "properties": { "Id": 0, "Sheet_ID": "2. ラバウル", "label": "2. ラバウル", "call_short": null, "call_num": null, "recid": null, "websiteUrl": null, "title": null, "ckey": 0, "available": false, "iiifUrl": null }, "geometry": { "type": "Polygon", "coordinates": [ [ [ 152.0833337, -4.3333335 ], [ 152.2500003, -4.3333335 ], [ 152.2500003, -4.125 ], [ 152.0833337, -4.125 ], [ 152.0833337, -4.3333335 ] ] ] } },
{ "type": "Feature", "properties": { "Id": 0, "Sheet_ID": "6. マンドレス", "label": "6. マンドレス", "call_short": null, "call_num": null, "recid": null, "websiteUrl": null, "title": null, "ckey": 0, "available": false, "iiifUrl": null }, "geometry": { "type": "Polygon", "coordinates": [ [ [ 151.916667, -4.3333335 ], [ 151.916667, -4.183333 ], [ 151.691667, -4.183333 ], [ 151.691667, -4.3333335 ], [ 151.916667, -4.3333335 ] ] ] } },
{ "type": "Feature", "properties": { "Id": 0, "Sheet_ID": "7. マンドレス南部", "label": "7. マンドレス南部", "call_short": null, "call_num": null, "recid": null, "websiteUrl": null, "title": null, "ckey": 0, "available": false, "iiifUrl": null }, "geometry": { "type": "Polygon", "coordinates": [ [ [ 151.916667, -4.3333335 ], [ 151.691667, -4.3333335 ], [ 151.691667, -4.4 ], [ 151.916667, -4.4 ], [ 151.916667, -4.3333335 ] ] ] } }
]
}
