{"type":"FeatureCollection","features":[{"type":"Feature","properties":{"Id":0,"Sheet_ID":"SOUTH","label":"SOUTH","call_short":"G9230 1942 .J3","call_num":"G9230 1942 .J3 SOUTH SHEET","recid":"wf408kt4672","websiteUrl":"https://purl.stanford.edu/wf408kt4672","title":"六百万分一 太平洋諸島輿地圖","ckey":9591370,"web_map":"","available":"true","iiifUrl":"https://purl.stanford.edu/wf408kt4672/iiif/manifest"},"geometry":{"bbox":[-179.99999999999994,-32.49999999999994,180,5.684341886080802e-14],"type":"MultiPolygon","coordinates":[[[[-149.99999999999997,-32.49999999999994],[-179.99999999999994,-32.49999999999994],[-179.99999999999994,5.684341886080802e-14],[-149.99999999999997,5.684341886080802e-14],[-149.99999999999997,-32.49999999999994]]],[[[180,-32.49999999999994],[150.0000000000001,-32.49999999999994],[150.0000000000001,5.684341886080802e-14],[180,5.684341886080802e-14],[180,-32.49999999999994]]]]}},{"type":"Feature","properties":{"Id":0,"Sheet_ID":"NORTH","label":"NORTH","call_short":"G9230 1942 .J3","call_num":"G9230 1942 .J3 NORTH SHEET","recid":"td070bz1257","websiteUrl":"https://purl.stanford.edu/td070bz1257","title":"六百万分一 太平洋諸島輿地圖","ckey":9591370,"web_map":"","available":"true","iiifUrl":"https://purl.stanford.edu/td070bz1257/iiif/manifest"},"geometry":{"bbox":[-179.99999999999994,5.684341886080802e-14,180,30.500000000000057],"type":"MultiPolygon","coordinates":[[[[-149.99999999999997,5.684341886080802e-14],[-179.99999999999994,5.684341886080802e-14],[-179.99999999999994,30.500000000000057],[-149.99999999999997,30.500000000000057],[-149.99999999999997,5.684341886080802e-14]]],[[[180,5.684341886080802e-14],[150.0000000000001,5.684341886080802e-14],[150.0000000000001,30.500000000000057],[180,30.500000000000057],[180,5.684341886080802e-14]]]]}}],"name":"index_9591370"}
