{
"type": "FeatureCollection",
"name": "index_map",
"features": [
{ "type": "Feature", "properties": { "Id": 0, "Sheet_ID": "ニューヂョーヂア", "label": "ニューヂョーヂア", "call_short": "G9282 .N4 1943 .J3", "call_num": "G9282 .N4 1943 .J3", "recid": "bz884rq0631", "websiteUrl": "https://purl.stanford.edu/bz884rq0631", "title": "「ニューヂョーヂア」島附近素圖", "ckey": 12284229, "web_map": null, "available": true, "iiifUrl": "https://purl.stanford.edu/bz884rq0631/iiif/manifest" }, "geometry": { "type": "Polygon", "coordinates": [ [ [ 156.916667, -8.833333 ], [ 158.25, -8.833333 ], [ 158.25, -7.816667 ], [ 156.916667, -7.816667 ], [ 156.916667, -8.833333 ] ] ] } }
]
}
