{"type":"FeatureCollection","features":[{"type":"Feature","properties":{"Id":0,"Sheet_ID":"11. 稲毛","label":"11. 稲毛","call_short":"G7963 .C4 S10 .J3","call_num":"G7963 .C4 S10 .J3 SHEET 11","recid":"wp277sm3519","websiteUrl":"https://purl.stanford.edu/wp277sm3519","title":"一万分一地形圖下志津及習志野原近傍","ckey":10645352,"web_map":"","available":"true","iiifUrl":"https://purl.stanford.edu/wp277sm3519/iiif/manifest"},"geometry":{"bbox":[140.052778,35.6,140.102778,35.63333325],"type":"Polygon","coordinates":[[[140.052778,35.6],[140.052778,35.63333325],[140.102778,35.63333325],[140.102778,35.6],[140.052778,35.6]]]}},{"type":"Feature","properties":{"Id":0,"Sheet_ID":"7. 千葉","label":"7. 千葉","call_short":"","call_num":"","recid":"","websiteUrl":"","title":"","ckey":0,"web_map":"","available":"false","iiifUrl":""},"geometry":{"bbox":[140.102778,35.6,140.152778,35.63333325],"type":"Polygon","coordinates":[[[140.102778,35.6],[140.102778,35.63333325],[140.152778,35.63333325],[140.152778,35.6],[140.102778,35.6]]]}},{"type":"Feature","properties":{"Id":0,"Sheet_ID":"14. 幕張","label":"14. 幕張","call_short":"","call_num":"","recid":"","websiteUrl":"","title":"","ckey":0,"web_map":"","available":"false","iiifUrl":""},"geometry":{"bbox":[140.002778,35.63333325,140.052778,35.6666665],"type":"Polygon","coordinates":[[[140.002778,35.63333325],[140.002778,35.6666665],[140.052778,35.6666665],[140.052778,35.63333325],[140.002778,35.63333325]]]}},{"type":"Feature","properties":{"Id":0,"Sheet_ID":"10. 検見川","label":"10. 検見川","call_short":"","call_num":"","recid":"","websiteUrl":"","title":"","ckey":0,"web_map":"","available":"false","iiifUrl":""},"geometry":{"bbox":[140.052778,35.63333325,140.102778,35.6666665],"type":"Polygon","coordinates":[[[140.052778,35.63333325],[140.052778,35.6666665],[140.102778,35.6666665],[140.102778,35.63333325],[140.052778,35.63333325]]]}},{"type":"Feature","properties":{"Id":0,"Sheet_ID":"6. 六方野原","label":"6. 六方野原","call_short":"","call_num":"","recid":"","websiteUrl":"","title":"","ckey":0,"web_map":"","available":"false","iiifUrl":""},"geometry":{"bbox":[140.102778,35.63333325,140.152778,35.6666665],"type":"Polygon","coordinates":[[[140.102778,35.63333325],[140.102778,35.6666665],[140.152778,35.6666665],[140.152778,35.63333325],[140.102778,35.63333325]]]}},{"type":"Feature","properties":{"Id":0,"Sheet_ID":"3. 四街道","label":"3. 四街道","call_short":"","call_num":"","recid":"","websiteUrl":"","title":"","ckey":0,"web_map":"","available":"false","iiifUrl":""},"geometry":{"bbox":[140.152778,35.63333325,140.20277800000002,35.6666665],"type":"Polygon","coordinates":[[[140.152778,35.63333325],[140.152778,35.6666665],[140.20277800000002,35.6666665],[140.20277800000002,35.63333325],[140.152778,35.63333325]]]}},{"type":"Feature","properties":{"Id":0,"Sheet_ID":"13. 津田沼","label":"13. 津田沼","call_short":"","call_num":"","recid":"","websiteUrl":"","title":"","ckey":0,"web_map":"","available":"false","iiifUrl":""},"geometry":{"bbox":[140.002778,35.666666500000005,140.052778,35.69999975],"type":"Polygon","coordinates":[[[140.002778,35.666666500000005],[140.002778,35.69999975],[140.052778,35.69999975],[140.052778,35.666666500000005],[140.002778,35.666666500000005]]]}},{"type":"Feature","properties":{"Id":0,"Sheet_ID":"9. 大久保","label":"9. 大久保","call_short":"","call_num":"","recid":"","websiteUrl":"","title":"","ckey":0,"web_map":"","available":"false","iiifUrl":""},"geometry":{"bbox":[140.052778,35.666666500000005,140.102778,35.69999975],"type":"Polygon","coordinates":[[[140.052778,35.666666500000005],[140.052778,35.69999975],[140.102778,35.69999975],[140.102778,35.666666500000005],[140.052778,35.666666500000005]]]}},{"type":"Feature","properties":{"Id":0,"Sheet_ID":"5. 三角原","label":"5. 三角原","call_short":"","call_num":"","recid":"","websiteUrl":"","title":"","ckey":0,"web_map":"","available":"false","iiifUrl":""},"geometry":{"bbox":[140.102778,35.666666500000005,140.152778,35.69999975],"type":"Polygon","coordinates":[[[140.102778,35.666666500000005],[140.102778,35.69999975],[140.152778,35.69999975],[140.152778,35.666666500000005],[140.102778,35.666666500000005]]]}},{"type":"Feature","properties":{"Id":0,"Sheet_ID":"2. 下志津原","label":"2. 下志津原","call_short":"G7963 .C4 S10 .J3","call_num":"G7963 .C4 S10 .J3 SHEET 2","recid":"tk832wx7244","websiteUrl":"https://purl.stanford.edu/tk832wx7244","title":"一万分一地形圖下志津及習志野原近傍","ckey":10645352,"web_map":"","available":"true","iiifUrl":"https://purl.stanford.edu/tk832wx7244/iiif/manifest"},"geometry":{"bbox":[140.152778,35.666666500000005,140.20277800000002,35.69999975],"type":"Polygon","coordinates":[[[140.152778,35.666666500000005],[140.152778,35.69999975],[140.20277800000002,35.69999975],[140.20277800000002,35.666666500000005],[140.152778,35.666666500000005]]]}},{"type":"Feature","properties":{"Id":0,"Sheet_ID":"12. 藥園臺","label":"12. 藥園臺","call_short":"","call_num":"","recid":"","websiteUrl":"","title":"","ckey":0,"web_map":"","available":"false","iiifUrl":""},"geometry":{"bbox":[140.002778,35.69999975,140.052778,35.733333],"type":"Polygon","coordinates":[[[140.002778,35.69999975],[140.002778,35.733333],[140.052778,35.733333],[140.052778,35.69999975],[140.002778,35.69999975]]]}},{"type":"Feature","properties":{"Id":0,"Sheet_ID":"8. 習志野原","label":"8. 習志野原","call_short":"","call_num":"","recid":"","websiteUrl":"","title":"","ckey":0,"web_map":"","available":"false","iiifUrl":""},"geometry":{"bbox":[140.052778,35.69999975,140.102778,35.733333],"type":"Polygon","coordinates":[[[140.052778,35.69999975],[140.052778,35.733333],[140.102778,35.733333],[140.102778,35.69999975],[140.052778,35.69999975]]]}},{"type":"Feature","properties":{"Id":0,"Sheet_ID":"4. 大和田","label":"4. 大和田","call_short":"","call_num":"","recid":"","websiteUrl":"","title":"","ckey":0,"web_map":"","available":"false","iiifUrl":""},"geometry":{"bbox":[140.102778,35.69999975,140.152778,35.733333],"type":"Polygon","coordinates":[[[140.102778,35.69999975],[140.102778,35.733333],[140.152778,35.733333],[140.152778,35.69999975],[140.102778,35.69999975]]]}},{"type":"Feature","properties":{"Id":0,"Sheet_ID":"1. 下志津","label":"1. 下志津","call_short":"","call_num":"","recid":"","websiteUrl":"","title":"","ckey":0,"web_map":"","available":"false","iiifUrl":""},"geometry":{"bbox":[140.152778,35.69999975,140.20277800000002,35.733333],"type":"Polygon","coordinates":[[[140.152778,35.69999975],[140.152778,35.733333],[140.20277800000002,35.733333],[140.20277800000002,35.69999975],[140.152778,35.69999975]]]}}],"name":"index_10645352"}
