{
"type": "FeatureCollection",
"name": "index_map",
"xy_coordinate_resolution": 1e-07,
"features": [
{ "type": "Feature", "properties": { "Id": 0, "Sheet_ID": "32. Kalo", "label": "32. Kalo", "call_short": "0", "call_num": "0", "recid": "0", "websiteUrl": "0", "title": "0", "ckey": 0, "available": false, "iiifUrl": "0" }, "geometry": { "type": "Polygon", "coordinates": [ [ [ 147.0, -11.0 ], [ 148.5, -11.0 ], [ 148.5, -10.0 ], [ 147.0, -10.0 ], [ 147.0, -11.0 ] ] ] } },
{ "type": "Feature", "properties": { "Id": 0, "Sheet_ID": "35. Abau", "label": "35. Abau", "call_short": "0", "call_num": "0", "recid": "0", "websiteUrl": "0", "title": "0", "ckey": 0, "available": false, "iiifUrl": "0" }, "geometry": { "type": "Polygon", "coordinates": [ [ [ 148.5, -11.0 ], [ 150.0, -11.0 ], [ 150.0, -10.0 ], [ 148.5, -10.0 ], [ 148.5, -11.0 ] ] ] } },
{ "type": "Feature", "properties": { "Id": 0, "Sheet_ID": "38. Samarai", "label": "38. Samarai", "call_short": "0", "call_num": "0", "recid": "0", "websiteUrl": "0", "title": "0", "ckey": 0, "available": false, "iiifUrl": "0" }, "geometry": { "type": "Polygon", "coordinates": [ [ [ 150.0, -11.0 ], [ 151.5, -11.0 ], [ 151.5, -10.0 ], [ 150.0, -10.0 ], [ 150.0, -11.0 ] ] ] } },
{ "type": "Feature", "properties": { "Id": 0, "Sheet_ID": "8. Boigu", "label": "8. Boigu", "call_short": "0", "call_num": "0", "recid": "0", "websiteUrl": "0", "title": "0", "ckey": 0, "available": false, "iiifUrl": "0" }, "geometry": { "type": "Polygon", "coordinates": [ [ [ 141.0, -10.0 ], [ 142.5, -10.0 ], [ 142.5, -9.0 ], [ 141.0, -9.0 ], [ 141.0, -10.0 ] ] ] } },
{ "type": "Feature", "properties": { "Id": 0, "Sheet_ID": "15. Daru", "label": "15. Daru", "call_short": "0", "call_num": "0", "recid": "0", "websiteUrl": "0", "title": "0", "ckey": 0, "available": false, "iiifUrl": "0" }, "geometry": { "type": "Polygon", "coordinates": [ [ [ 142.5, -10.0 ], [ 144.0, -10.0 ], [ 144.0, -9.0 ], [ 142.5, -9.0 ], [ 142.5, -10.0 ] ] ] } },
{ "type": "Feature", "properties": { "Id": 0, "Sheet_ID": "26. Aroa", "label": "26. Aroa", "call_short": "0", "call_num": "0", "recid": "0", "websiteUrl": "0", "title": "0", "ckey": 0, "available": false, "iiifUrl": "0" }, "geometry": { "type": "Polygon", "coordinates": [ [ [ 145.5, -10.0 ], [ 147.0, -10.0 ], [ 147.0, -9.0 ], [ 145.5, -9.0 ], [ 145.5, -10.0 ] ] ] } },
{ "type": "Feature", "properties": { "Id": 0, "Sheet_ID": "31. Port Moresby", "label": "31. Port Moresby", "call_short": "0", "call_num": "0", "recid": "0", "websiteUrl": "0", "title": "0", "ckey": 0, "available": false, "iiifUrl": "0" }, "geometry": { "type": "Polygon", "coordinates": [ [ [ 147.0, -10.0 ], [ 148.5, -10.0 ], [ 148.5, -9.0 ], [ 147.0, -9.0 ], [ 147.0, -10.0 ] ] ] } },
{ "type": "Feature", "properties": { "Id": 0, "Sheet_ID": "34. Tufi", "label": "34. Tufi", "call_short": "0", "call_num": "0", "recid": "0", "websiteUrl": "0", "title": "0", "ckey": 0, "available": false, "iiifUrl": "0" }, "geometry": { "type": "Polygon", "coordinates": [ [ [ 148.5, -10.0 ], [ 150.0, -10.0 ], [ 150.0, -9.0 ], [ 148.5, -9.0 ], [ 148.5, -10.0 ] ] ] } },
{ "type": "Feature", "properties": { "Id": 0, "Sheet_ID": "37. N/A", "label": "37. N/A", "call_short": "0", "call_num": "0", "recid": "0", "websiteUrl": "0", "title": "0", "ckey": 0, "available": false, "iiifUrl": "0" }, "geometry": { "type": "Polygon", "coordinates": [ [ [ 150.0, -10.0 ], [ 151.5, -10.0 ], [ 151.5, -9.0 ], [ 150.0, -9.0 ], [ 150.0, -10.0 ] ] ] } },
{ "type": "Feature", "properties": { "Id": 0, "Sheet_ID": "7. Fly River", "label": "7. Fly River", "call_short": "0", "call_num": "0", "recid": "0", "websiteUrl": "0", "title": "0", "ckey": 0, "available": false, "iiifUrl": "0" }, "geometry": { "type": "Polygon", "coordinates": [ [ [ 141.0, -9.0 ], [ 142.5, -9.0 ], [ 142.5, -8.0 ], [ 141.0, -8.0 ], [ 141.0, -9.0 ] ] ] } },
{ "type": "Feature", "properties": { "Id": 0, "Sheet_ID": "14. Kiwai", "label": "14. Kiwai", "call_short": "0", "call_num": "0", "recid": "0", "websiteUrl": "0", "title": "0", "ckey": 0, "available": false, "iiifUrl": "0" }, "geometry": { "type": "Polygon", "coordinates": [ [ [ 142.5, -9.0 ], [ 144.0, -9.0 ], [ 144.0, -8.0 ], [ 142.5, -8.0 ], [ 142.5, -9.0 ] ] ] } },
{ "type": "Feature", "properties": { "Id": 0, "Sheet_ID": "25. Yule", "label": "25. Yule", "call_short": "0", "call_num": "0", "recid": "0", "websiteUrl": "0", "title": "0", "ckey": 0, "available": false, "iiifUrl": "0" }, "geometry": { "type": "Polygon", "coordinates": [ [ [ 145.5, -9.0 ], [ 147.0, -9.0 ], [ 147.0, -8.0 ], [ 145.5, -8.0 ], [ 145.5, -9.0 ] ] ] } },
{ "type": "Feature", "properties": { "Id": 0, "Sheet_ID": "30. Buna", "label": "30. Buna", "call_short": "0", "call_num": "0", "recid": "0", "websiteUrl": "0", "title": "0", "ckey": 0, "available": false, "iiifUrl": "0" }, "geometry": { "type": "Polygon", "coordinates": [ [ [ 147.0, -9.0 ], [ 148.5, -9.0 ], [ 148.5, -8.0 ], [ 147.0, -8.0 ], [ 147.0, -9.0 ] ] ] } },
{ "type": "Feature", "properties": { "Id": 0, "Sheet_ID": "33. N/A", "label": "33. N/A", "call_short": "0", "call_num": "0", "recid": "0", "websiteUrl": "0", "title": "0", "ckey": 0, "available": false, "iiifUrl": "0" }, "geometry": { "type": "Polygon", "coordinates": [ [ [ 148.5, -9.0 ], [ 150.0, -9.0 ], [ 150.0, -8.0 ], [ 148.5, -8.0 ], [ 148.5, -9.0 ] ] ] } },
{ "type": "Feature", "properties": { "Id": 0, "Sheet_ID": "36. N/A", "label": "36. N/A", "call_short": "0", "call_num": "0", "recid": "0", "websiteUrl": "0", "title": "0", "ckey": 0, "available": false, "iiifUrl": "0" }, "geometry": { "type": "Polygon", "coordinates": [ [ [ 150.0, -9.0 ], [ 151.5, -9.0 ], [ 151.5, -8.0 ], [ 150.0, -8.0 ], [ 150.0, -9.0 ] ] ] } },
{ "type": "Feature", "properties": { "Id": 0, "Sheet_ID": "6. N/A", "label": "6. N/A", "call_short": "0", "call_num": "0", "recid": "0", "websiteUrl": "0", "title": "0", "ckey": 0, "available": false, "iiifUrl": "0" }, "geometry": { "type": "Polygon", "coordinates": [ [ [ 141.0, -8.0 ], [ 142.5, -8.0 ], [ 142.5, -7.0 ], [ 141.0, -7.0 ], [ 141.0, -8.0 ] ] ] } },
{ "type": "Feature", "properties": { "Id": 0, "Sheet_ID": "13. Aworra River", "label": "13. Aworra River", "call_short": "0", "call_num": "0", "recid": "0", "websiteUrl": "0", "title": "0", "ckey": 0, "available": false, "iiifUrl": "0" }, "geometry": { "type": "Polygon", "coordinates": [ [ [ 142.5, -8.0 ], [ 144.0, -8.0 ], [ 144.0, -7.0 ], [ 142.5, -7.0 ], [ 142.5, -8.0 ] ] ] } },
{ "type": "Feature", "properties": { "Id": 0, "Sheet_ID": "20. Kikori", "label": "20. Kikori", "call_short": "0", "call_num": "0", "recid": "0", "websiteUrl": "0", "title": "0", "ckey": 0, "available": false, "iiifUrl": "0" }, "geometry": { "type": "Polygon", "coordinates": [ [ [ 144.0, -8.0 ], [ 145.5, -8.0 ], [ 145.5, -7.0 ], [ 144.0, -7.0 ], [ 144.0, -8.0 ] ] ] } },
{ "type": "Feature", "properties": { "Id": 0, "Sheet_ID": "24. Wau", "label": "24. Wau", "call_short": "0", "call_num": "0", "recid": "0", "websiteUrl": "0", "title": "0", "ckey": 0, "available": false, "iiifUrl": "0" }, "geometry": { "type": "Polygon", "coordinates": [ [ [ 145.5, -8.0 ], [ 147.0, -8.0 ], [ 147.0, -7.0 ], [ 145.5, -7.0 ], [ 145.5, -8.0 ] ] ] } },
{ "type": "Feature", "properties": { "Id": 0, "Sheet_ID": "29. Salamaua", "label": "29. Salamaua", "call_short": "0", "call_num": "0", "recid": "0", "websiteUrl": "0", "title": "0", "ckey": 0, "available": false, "iiifUrl": "0" }, "geometry": { "type": "Polygon", "coordinates": [ [ [ 147.0, -8.0 ], [ 148.5, -8.0 ], [ 148.5, -7.0 ], [ 147.0, -7.0 ], [ 147.0, -8.0 ] ] ] } },
{ "type": "Feature", "properties": { "Id": 0, "Sheet_ID": "5. N/A", "label": "5. N/A", "call_short": "0", "call_num": "0", "recid": "0", "websiteUrl": "0", "title": "0", "ckey": 0, "available": false, "iiifUrl": "0" }, "geometry": { "type": "Polygon", "coordinates": [ [ [ 141.0, -7.0 ], [ 142.5, -7.0 ], [ 142.5, -6.0 ], [ 141.0, -6.0 ], [ 141.0, -7.0 ] ] ] } },
{ "type": "Feature", "properties": { "Id": 0, "Sheet_ID": "12. N/A", "label": "12. N/A", "call_short": "0", "call_num": "0", "recid": "0", "websiteUrl": "0", "title": "0", "ckey": 0, "available": false, "iiifUrl": "0" }, "geometry": { "type": "Polygon", "coordinates": [ [ [ 142.5, -7.0 ], [ 144.0, -7.0 ], [ 144.0, -6.0 ], [ 142.5, -6.0 ], [ 142.5, -7.0 ] ] ] } },
{ "type": "Feature", "properties": { "Id": 0, "Sheet_ID": "19. N/A", "label": "19. N/A", "call_short": "0", "call_num": "0", "recid": "0", "websiteUrl": "0", "title": "0", "ckey": 0, "available": false, "iiifUrl": "0" }, "geometry": { "type": "Polygon", "coordinates": [ [ [ 144.0, -7.0 ], [ 145.5, -7.0 ], [ 145.5, -6.0 ], [ 144.0, -6.0 ], [ 144.0, -7.0 ] ] ] } },
{ "type": "Feature", "properties": { "Id": 0, "Sheet_ID": "23. Markham", "label": "23. Markham", "call_short": "G8160 S250 .J36", "call_num": "G8160 S250 .J36 SHEET 23", "recid": "py462ns4922", "websiteUrl": "https://purl.stanford.edu/py462ns4922", "title": "二十五万分一圖東部パプア島", "ckey": 13898477, "available": true, "iiifUrl": "https://purl.stanford.edu/py462ns4922/iiif/manifest" }, "geometry": { "type": "Polygon", "coordinates": [ [ [ 145.5, -7.0 ], [ 147.0, -7.0 ], [ 147.0, -6.0 ], [ 145.5, -6.0 ], [ 145.5, -7.0 ] ] ] } },
{ "type": "Feature", "properties": { "Id": 0, "Sheet_ID": "28. Lae", "label": "28. Lae", "call_short": "0", "call_num": "0", "recid": "0", "websiteUrl": "0", "title": "0", "ckey": 0, "available": false, "iiifUrl": "0" }, "geometry": { "type": "Polygon", "coordinates": [ [ [ 147.0, -7.0 ], [ 148.5, -7.0 ], [ 148.5, -6.0 ], [ 147.0, -6.0 ], [ 147.0, -7.0 ] ] ] } },
{ "type": "Feature", "properties": { "Id": 0, "Sheet_ID": "4. N/A", "label": "4. N/A", "call_short": "0", "call_num": "0", "recid": "0", "websiteUrl": "0", "title": "0", "ckey": 0, "available": false, "iiifUrl": "0" }, "geometry": { "type": "Polygon", "coordinates": [ [ [ 141.0, -6.0 ], [ 142.5, -6.0 ], [ 142.5, -5.0 ], [ 141.0, -5.0 ], [ 141.0, -6.0 ] ] ] } },
{ "type": "Feature", "properties": { "Id": 0, "Sheet_ID": "11. N/A", "label": "11. N/A", "call_short": "0", "call_num": "0", "recid": "0", "websiteUrl": "0", "title": "0", "ckey": 0, "available": false, "iiifUrl": "0" }, "geometry": { "type": "Polygon", "coordinates": [ [ [ 142.5, -6.0 ], [ 144.0, -6.0 ], [ 144.0, -5.0 ], [ 142.5, -5.0 ], [ 142.5, -6.0 ] ] ] } },
{ "type": "Feature", "properties": { "Id": 0, "Sheet_ID": "18. Ramu", "label": "18. Ramu", "call_short": "0", "call_num": "0", "recid": "0", "websiteUrl": "0", "title": "0", "ckey": 0, "available": false, "iiifUrl": "0" }, "geometry": { "type": "Polygon", "coordinates": [ [ [ 144.0, -6.0 ], [ 145.5, -6.0 ], [ 145.5, -5.0 ], [ 144.0, -5.0 ], [ 144.0, -6.0 ] ] ] } },
{ "type": "Feature", "properties": { "Id": 0, "Sheet_ID": "22. Madang", "label": "22. Madang", "call_short": "0", "call_num": "0", "recid": "0", "websiteUrl": "0", "title": "0", "ckey": 0, "available": false, "iiifUrl": "0" }, "geometry": { "type": "Polygon", "coordinates": [ [ [ 145.5, -6.0 ], [ 147.0, -6.0 ], [ 147.0, -5.0 ], [ 145.5, -5.0 ], [ 145.5, -6.0 ] ] ] } },
{ "type": "Feature", "properties": { "Id": 0, "Sheet_ID": "27. Sagsag / Sio", "label": "27. Sagsag / Sio", "call_short": "0", "call_num": "0", "recid": "0", "websiteUrl": "0", "title": "0", "ckey": 0, "available": false, "iiifUrl": "0" }, "geometry": { "type": "Polygon", "coordinates": [ [ [ 147.0, -6.0 ], [ 148.5, -6.0 ], [ 148.5, -5.0 ], [ 147.0, -5.0 ], [ 147.0, -6.0 ] ] ] } },
{ "type": "Feature", "properties": { "Id": 0, "Sheet_ID": "3. N/A", "label": "3. N/A", "call_short": "0", "call_num": "0", "recid": "0", "websiteUrl": "0", "title": "0", "ckey": 0, "available": false, "iiifUrl": "0" }, "geometry": { "type": "Polygon", "coordinates": [ [ [ 141.0, -5.0 ], [ 142.5, -5.0 ], [ 142.5, -4.0 ], [ 141.0, -4.0 ], [ 141.0, -5.0 ] ] ] } },
{ "type": "Feature", "properties": { "Id": 0, "Sheet_ID": "10. Ambunti", "label": "10. Ambunti", "call_short": "0", "call_num": "0", "recid": "0", "websiteUrl": "0", "title": "0", "ckey": 0, "available": false, "iiifUrl": "0" }, "geometry": { "type": "Polygon", "coordinates": [ [ [ 142.5, -5.0 ], [ 144.0, -5.0 ], [ 144.0, -4.0 ], [ 142.5, -4.0 ], [ 142.5, -5.0 ] ] ] } },
{ "type": "Feature", "properties": { "Id": 0, "Sheet_ID": "17. Bogia", "label": "17. Bogia", "call_short": "0", "call_num": "0", "recid": "0", "websiteUrl": "0", "title": "0", "ckey": 0, "available": false, "iiifUrl": "0" }, "geometry": { "type": "Polygon", "coordinates": [ [ [ 144.0, -5.0 ], [ 145.5, -5.0 ], [ 145.5, -4.0 ], [ 144.0, -4.0 ], [ 144.0, -5.0 ] ] ] } },
{ "type": "Feature", "properties": { "Id": 0, "Sheet_ID": "21. Karkar", "label": "21. Karkar", "call_short": "0", "call_num": "0", "recid": "0", "websiteUrl": "0", "title": "0", "ckey": 0, "available": false, "iiifUrl": "0" }, "geometry": { "type": "Polygon", "coordinates": [ [ [ 145.5, -5.0 ], [ 147.0, -5.0 ], [ 147.0, -4.0 ], [ 145.5, -4.0 ], [ 145.5, -5.0 ] ] ] } },
{ "type": "Feature", "properties": { "Id": 0, "Sheet_ID": "2. Aitape", "label": "2. Aitape", "call_short": "G8160 S250 .J36", "call_num": "G8160 S250 .J36 SHEET 2", "recid": "jp460jx0431", "websiteUrl": "https://purl.stanford.edu/jp460jx0431", "title": "二十五万分一圖東部パプア島", "ckey": 13898477, "available": true, "iiifUrl": "https://purl.stanford.edu/jp460jx0431/iiif/manifest" }, "geometry": { "type": "Polygon", "coordinates": [ [ [ 141.0, -4.0 ], [ 142.5, -4.0 ], [ 142.5, -3.0 ], [ 141.0, -3.0 ], [ 141.0, -4.0 ] ] ] } },
{ "type": "Feature", "properties": { "Id": 0, "Sheet_ID": "9. Wewak", "label": "9. Wewak", "call_short": "0", "call_num": "0", "recid": "0", "websiteUrl": "0", "title": "0", "ckey": 0, "available": false, "iiifUrl": "0" }, "geometry": { "type": "Polygon", "coordinates": [ [ [ 142.5, -4.0 ], [ 144.0, -4.0 ], [ 144.0, -3.0 ], [ 142.5, -3.0 ], [ 142.5, -4.0 ] ] ] } },
{ "type": "Feature", "properties": { "Id": 0, "Sheet_ID": "16. Sepik / Waskurin", "label": "16. Sepik / Waskurin", "call_short": "0", "call_num": "0", "recid": "0", "websiteUrl": "0", "title": "0", "ckey": 0, "available": false, "iiifUrl": "0" }, "geometry": { "type": "Polygon", "coordinates": [ [ [ 144.0, -4.0 ], [ 145.5, -4.0 ], [ 145.5, -3.0 ], [ 144.0, -3.0 ], [ 144.0, -4.0 ] ] ] } },
{ "type": "Feature", "properties": { "Id": 0, "Sheet_ID": "1. Vanimo", "label": "1. Vanimo", "call_short": "0", "call_num": "0", "recid": "0", "websiteUrl": "0", "title": "0", "ckey": 0, "available": false, "iiifUrl": "0" }, "geometry": { "type": "Polygon", "coordinates": [ [ [ 141.0, -3.0 ], [ 142.5, -3.0 ], [ 142.5, -2.0 ], [ 141.0, -2.0 ], [ 141.0, -3.0 ] ] ] } }
]
}
