{"type":"FeatureCollection","features":[{"type":"Feature","properties":{"Id":0,"Sheet_ID":"臺北 20","label":"臺北 20","call_short":"G7910 S20 .J3","call_num":"G7910 S20 .J3 B2-20","recid":"tq545hp5227","websiteUrl":"https://purl.stanford.edu/tq545hp5227","title":"堡圖原圖","ckey":10454676,"web_map":"","available":"true","iiiUrl":"https://purl.stanford.edu/tq545hp5227/iiif/manifest"},"geometry":{"bbox":[121.6,25,121.69999999999999,25.0666666],"type":"Polygon","coordinates":[[[121.6,25],[121.6,25.0666666],[121.69999999999999,25.0666666],[121.69999999999999,25],[121.6,25]]]}},{"type":"Feature","properties":{"Id":0,"Sheet_ID":"臺北 15","label":"臺北 15","call_short":"G7910 S20 .J3","call_num":"G7910 S20 .J3 B2-15","recid":"pt741cy7517","websiteUrl":"https://purl.stanford.edu/pt741cy7517","title":"堡圖原圖","ckey":10454676,"web_map":"","available":"true","iiiUrl":"https://purl.stanford.edu/pt741cy7517/iiif/manifest"},"geometry":{"bbox":[121.69999999999999,25,121.79999999999998,25.0666666],"type":"Polygon","coordinates":[[[121.69999999999999,25],[121.69999999999999,25.0666666],[121.79999999999998,25.0666666],[121.79999999999998,25],[121.69999999999999,25]]]}},{"type":"Feature","properties":{"Id":0,"Sheet_ID":"臺北 10","label":"臺北 10","call_short":"G7910 S20 .J3","call_num":"G7910 S20 .J3 B2-10","recid":"wx380sc0283","websiteUrl":"https://purl.stanford.edu/wx380sc0283","title":"堡圖原圖","ckey":10454676,"web_map":"","available":"true","iiiUrl":"https://purl.stanford.edu/wx380sc0283/iiif/manifest"},"geometry":{"bbox":[121.80000000000001,25,121.9,25.0666666],"type":"Polygon","coordinates":[[[121.80000000000001,25],[121.80000000000001,25.0666666],[121.9,25.0666666],[121.9,25],[121.80000000000001,25]]]}},{"type":"Feature","properties":{"Id":0,"Sheet_ID":"臺北 5","label":"臺北 5","call_short":"G7910 S20 .J3","call_num":"G7910 S20 .J3 B2-5","recid":"qf105sp7128","websiteUrl":"https://purl.stanford.edu/qf105sp7128","title":"堡圖原圖","ckey":10454676,"web_map":"","available":"true","iiiUrl":"https://purl.stanford.edu/qf105sp7128/iiif/manifest"},"geometry":{"bbox":[121.9,25,122,25.0666666],"type":"Polygon","coordinates":[[[121.9,25],[121.9,25.0666666],[122,25.0666666],[122,25],[121.9,25]]]}},{"type":"Feature","properties":{"Id":0,"Sheet_ID":"臺北 19","label":"臺北 19","call_short":"G7910 S20 .J3","call_num":"G7910 S20 .J3 B2-19","recid":"py196vt6136","websiteUrl":"https://purl.stanford.edu/py196vt6136","title":"堡圖原圖","ckey":10454676,"web_map":"","available":"true","iiiUrl":"https://purl.stanford.edu/py196vt6136/iiif/manifest"},"geometry":{"bbox":[121.6,25.0666666,121.69999999999999,25.133333200000003],"type":"Polygon","coordinates":[[[121.6,25.0666666],[121.6,25.133333200000003],[121.69999999999999,25.133333200000003],[121.69999999999999,25.0666666],[121.6,25.0666666]]]}},{"type":"Feature","properties":{"Id":0,"Sheet_ID":"臺北 14","label":"臺北 14","call_short":"G7910 S20 .J3","call_num":"G7910 S20 .J3 B2-14","recid":"yy208pb9421","websiteUrl":"https://purl.stanford.edu/yy208pb9421","title":"堡圖原圖","ckey":10454676,"web_map":"","available":"true","iiiUrl":"https://purl.stanford.edu/yy208pb9421/iiif/manifest"},"geometry":{"bbox":[121.69999999999999,25.0666666,121.79999999999998,25.133333200000003],"type":"Polygon","coordinates":[[[121.69999999999999,25.0666666],[121.69999999999999,25.133333200000003],[121.79999999999998,25.133333200000003],[121.79999999999998,25.0666666],[121.69999999999999,25.0666666]]]}},{"type":"Feature","properties":{"Id":0,"Sheet_ID":"臺北 9","label":"臺北 9","call_short":"G7910 S20 .J3","call_num":"G7910 S20 .J3 B2-9","recid":"wt022vd8908","websiteUrl":"https://purl.stanford.edu/wt022vd8908","title":"堡圖原圖","ckey":10454676,"web_map":"","available":"true","iiiUrl":"https://purl.stanford.edu/wt022vd8908/iiif/manifest"},"geometry":{"bbox":[121.80000000000001,25.0666666,121.9,25.133333200000003],"type":"Polygon","coordinates":[[[121.80000000000001,25.0666666],[121.80000000000001,25.133333200000003],[121.9,25.133333200000003],[121.9,25.0666666],[121.80000000000001,25.0666666]]]}},{"type":"Feature","properties":{"Id":0,"Sheet_ID":"臺北 4","label":"臺北 4","call_short":"G7910 S20 .J3","call_num":"G7910 S20 .J3 B2-4","recid":"mg625ty0075","websiteUrl":"https://purl.stanford.edu/mg625ty0075","title":"堡圖原圖","ckey":10454676,"web_map":"","available":"true","iiiUrl":"https://purl.stanford.edu/mg625ty0075/iiif/manifest"},"geometry":{"bbox":[121.9,25.0666666,122,25.133333200000003],"type":"Polygon","coordinates":[[[121.9,25.0666666],[121.9,25.133333200000003],[122,25.133333200000003],[122,25.0666666],[121.9,25.0666666]]]}},{"type":"Feature","properties":{"Id":0,"Sheet_ID":"臺北 18","label":"臺北 18","call_short":"G7910 S20 .J3","call_num":"G7910 S20 .J3 B2-18","recid":"zn874dn0164","websiteUrl":"https://purl.stanford.edu/zn874dn0164","title":"堡圖原圖","ckey":10454676,"web_map":"","available":"true","iiiUrl":"https://purl.stanford.edu/zn874dn0164/iiif/manifest"},"geometry":{"bbox":[121.6,25.1333332,121.69999999999999,25.1999998],"type":"Polygon","coordinates":[[[121.6,25.1333332],[121.6,25.1999998],[121.69999999999999,25.1999998],[121.69999999999999,25.1333332],[121.6,25.1333332]]]}},{"type":"Feature","properties":{"Id":0,"Sheet_ID":"臺北 13","label":"臺北 13","call_short":"G7910 S20 .J3","call_num":"G7910 S20 .J3 B2-13","recid":"bx136hg7200","websiteUrl":"https://purl.stanford.edu/bx136hg7200","title":"堡圖原圖","ckey":10454676,"web_map":"","available":"true","iiiUrl":"https://purl.stanford.edu/bx136hg7200/iiif/manifest"},"geometry":{"bbox":[121.69999999999999,25.1333332,121.79999999999998,25.1999998],"type":"Polygon","coordinates":[[[121.69999999999999,25.1333332],[121.69999999999999,25.1999998],[121.79999999999998,25.1999998],[121.79999999999998,25.1333332],[121.69999999999999,25.1333332]]]}},{"type":"Feature","properties":{"Id":0,"Sheet_ID":"臺北 17","label":"臺北 17","call_short":"G7910 S20 .J3","call_num":"G7910 S20 .J3 B2-17","recid":"hj275sf5339","websiteUrl":"https://purl.stanford.edu/hj275sf5339","title":"堡圖原圖","ckey":10454676,"web_map":"","available":"true","iiiUrl":"https://purl.stanford.edu/hj275sf5339/iiif/manifest"},"geometry":{"bbox":[121.6,25.1999998,121.69999999999999,25.266666400000002],"type":"Polygon","coordinates":[[[121.6,25.1999998],[121.6,25.266666400000002],[121.69999999999999,25.266666400000002],[121.69999999999999,25.1999998],[121.6,25.1999998]]]}},{"type":"Feature","properties":{"Id":0,"Sheet_ID":"臺北 16","label":"臺北 16","call_short":"G7910 S20 .J3","call_num":"G7910 S20 .J3 B2-16","recid":"hx345nq8079","websiteUrl":"https://purl.stanford.edu/hx345nq8079","title":"堡圖原圖","ckey":10454676,"web_map":"","available":"true","iiiUrl":"https://purl.stanford.edu/hx345nq8079/iiif/manifest"},"geometry":{"bbox":[121.6,25.2666664,121.69999999999999,25.333333],"type":"Polygon","coordinates":[[[121.6,25.2666664],[121.6,25.333333],[121.69999999999999,25.333333],[121.69999999999999,25.2666664],[121.6,25.2666664]]]}},{"type":"Feature","properties":{"Id":0,"Sheet_ID":"東吉嶼 22","label":"東吉嶼 22","call_short":"G7910 S20 .J3","call_num":"G7910 S20 .J3 F8-22","recid":"rw768wv2920","websiteUrl":"https://purl.stanford.edu/rw768wv2920","title":"堡圖原圖","ckey":10454676,"web_map":"","available":"true","iiiUrl":"https://purl.stanford.edu/rw768wv2920/iiif/manifest"},"geometry":{"bbox":[119.5,23.2,119.6,23.2666665],"type":"Polygon","coordinates":[[[119.5,23.2],[119.5,23.2666665],[119.6,23.2666665],[119.6,23.2],[119.5,23.2]]]}},{"type":"Feature","properties":{"Id":0,"Sheet_ID":"東吉嶼 17","label":"東吉嶼 17","call_short":"G7910 S20 .J3","call_num":"G7910 S20 .J3 F8-17","recid":"rq535pb6883","websiteUrl":"https://purl.stanford.edu/rq535pb6883","title":"堡圖原圖","ckey":10454676,"web_map":"","available":"true","iiiUrl":"https://purl.stanford.edu/rq535pb6883/iiif/manifest"},"geometry":{"bbox":[119.6,23.2,119.69999999999999,23.2666665],"type":"Polygon","coordinates":[[[119.6,23.2],[119.6,23.2666665],[119.69999999999999,23.2666665],[119.69999999999999,23.2],[119.6,23.2]]]}},{"type":"Feature","properties":{"Id":0,"Sheet_ID":"東吉嶼 21","label":"東吉嶼 21","call_short":"G7910 S20 .J3","call_num":"G7910 S20 .J3 F8-21","recid":"xb048gq7731","websiteUrl":"https://purl.stanford.edu/xb048gq7731","title":"堡圖原圖","ckey":10454676,"web_map":"","available":"true","iiiUrl":"https://purl.stanford.edu/xb048gq7731/iiif/manifest"},"geometry":{"bbox":[119.5,23.2666665,119.6,23.333333],"type":"Polygon","coordinates":[[[119.5,23.2666665],[119.5,23.333333],[119.6,23.333333],[119.6,23.2666665],[119.5,23.2666665]]]}},{"type":"Feature","properties":{"Id":0,"Sheet_ID":"媽宮 25","label":"媽宮 25","call_short":"G7910 S20 .J3","call_num":"G7910 S20 .J3 F7-25","recid":"sg025mb0555","websiteUrl":"https://purl.stanford.edu/sg025mb0555","title":"堡圖原圖","ckey":10454676,"web_map":"","available":"true","iiiUrl":"https://purl.stanford.edu/sg025mb0555/iiif/manifest"},"geometry":{"bbox":[119.5,23.333333,119.6,23.3999998],"type":"Polygon","coordinates":[[[119.5,23.333333],[119.5,23.3999998],[119.6,23.3999998],[119.6,23.333333],[119.5,23.333333]]]}},{"type":"Feature","properties":{"Id":0,"Sheet_ID":"媽宮 23","label":"媽宮 23","call_short":"G7910 S20 .J3","call_num":"G7910 S20 .J3 F7-23","recid":"tb984jm0616","websiteUrl":"https://purl.stanford.edu/tb984jm0616","title":"堡圖原圖","ckey":10454676,"web_map":"","available":"true","iiiUrl":"https://purl.stanford.edu/tb984jm0616/iiif/manifest"},"geometry":{"bbox":[119.5,23.4666666,119.6,23.533333400000004],"type":"Polygon","coordinates":[[[119.5,23.4666666],[119.5,23.533333400000004],[119.6,23.533333400000004],[119.6,23.4666666],[119.5,23.4666666]]]}},{"type":"Feature","properties":{"Id":0,"Sheet_ID":"媽宮 18","label":"媽宮 18","call_short":"G7910 S20 .J3","call_num":"G7910 S20 .J3 F7-18","recid":"zz695mz4037","websiteUrl":"https://purl.stanford.edu/zz695mz4037","title":"堡圖原圖","ckey":10454676,"web_map":"","available":"true","iiiUrl":"https://purl.stanford.edu/zz695mz4037/iiif/manifest"},"geometry":{"bbox":[119.6,23.4666666,119.69999999999999,23.533333400000004],"type":"Polygon","coordinates":[[[119.6,23.4666666],[119.6,23.533333400000004],[119.69999999999999,23.533333400000004],[119.69999999999999,23.4666666],[119.6,23.4666666]]]}},{"type":"Feature","properties":{"Id":0,"Sheet_ID":"媽宮 13","label":"媽宮 13","call_short":"G7910 S20 .J3","call_num":"G7910 S20 .J3 F7-13","recid":"fm126zs6092","websiteUrl":"https://purl.stanford.edu/fm126zs6092","title":"堡圖原圖","ckey":10454676,"web_map":"","available":"true","iiiUrl":"https://purl.stanford.edu/fm126zs6092/iiif/manifest"},"geometry":{"bbox":[119.7,23.4666666,119.8,23.533333400000004],"type":"Polygon","coordinates":[[[119.7,23.4666666],[119.7,23.533333400000004],[119.8,23.533333400000004],[119.8,23.4666666],[119.7,23.4666666]]]}},{"type":"Feature","properties":{"Id":0,"Sheet_ID":"媽宮 22","label":"媽宮 22","call_short":"G7910 S20 .J3","call_num":"G7910 S20 .J3 F7-22","recid":"fx461ct5637","websiteUrl":"https://purl.stanford.edu/fx461ct5637","title":"堡圖原圖","ckey":10454676,"web_map":"","available":"true","iiiUrl":"https://purl.stanford.edu/fx461ct5637/iiif/manifest"},"geometry":{"bbox":[119.5,23.533333400000004,119.6,23.6000002],"type":"Polygon","coordinates":[[[119.5,23.533333400000004],[119.5,23.6000002],[119.6,23.6000002],[119.6,23.533333400000004],[119.5,23.533333400000004]]]}},{"type":"Feature","properties":{"Id":0,"Sheet_ID":"媽宮 17","label":"媽宮 17","call_short":"G7910 S20 .J3","call_num":"G7910 S20 .J3 F7-17","recid":"dk211nh4799","websiteUrl":"https://purl.stanford.edu/dk211nh4799","title":"堡圖原圖","ckey":10454676,"web_map":"","available":"true","iiiUrl":"https://purl.stanford.edu/dk211nh4799/iiif/manifest"},"geometry":{"bbox":[119.6,23.533333400000004,119.69999999999999,23.6000002],"type":"Polygon","coordinates":[[[119.6,23.533333400000004],[119.6,23.6000002],[119.69999999999999,23.6000002],[119.69999999999999,23.533333400000004],[119.6,23.533333400000004]]]}},{"type":"Feature","properties":{"Id":0,"Sheet_ID":"媽宮 21","label":"媽宮 21","call_short":"G7910 S20 .J3","call_num":"G7910 S20 .J3 F7-21","recid":"nd971wp5744","websiteUrl":"https://purl.stanford.edu/nd971wp5744","title":"堡圖原圖","ckey":10454676,"web_map":"","available":"true","iiiUrl":"https://purl.stanford.edu/nd971wp5744/iiif/manifest"},"geometry":{"bbox":[119.5,23.6000002,119.6,23.666667],"type":"Polygon","coordinates":[[[119.5,23.6000002],[119.5,23.666667],[119.6,23.666667],[119.6,23.6000002],[119.5,23.6000002]]]}},{"type":"Feature","properties":{"Id":0,"Sheet_ID":"媽宮 16","label":"媽宮 16","call_short":"G7910 S20 .J3","call_num":"G7910 S20 .J3 F7-16","recid":"vk545wb7447","websiteUrl":"https://purl.stanford.edu/vk545wb7447","title":"堡圖原圖","ckey":10454676,"web_map":"","available":"true","iiiUrl":"https://purl.stanford.edu/vk545wb7447/iiif/manifest"},"geometry":{"bbox":[119.6,23.6000002,119.69999999999999,23.666667],"type":"Polygon","coordinates":[[[119.6,23.6000002],[119.6,23.666667],[119.69999999999999,23.666667],[119.69999999999999,23.6000002],[119.6,23.6000002]]]}},{"type":"Feature","properties":{"Id":0,"Sheet_ID":"吉貝嶼 25","label":"吉貝嶼 25","call_short":"G7910 S20 .J3","call_num":"G7910 S20 .J3 F6-25","recid":"fh878cy9197","websiteUrl":"https://purl.stanford.edu/fh878cy9197","title":"堡圖原圖","ckey":10454676,"web_map":"","available":"true","iiiUrl":"https://purl.stanford.edu/fh878cy9197/iiif/manifest"},"geometry":{"bbox":[119.5,23.666667,119.6,23.7333335],"type":"Polygon","coordinates":[[[119.5,23.666667],[119.5,23.7333335],[119.6,23.7333335],[119.6,23.666667],[119.5,23.666667]]]}},{"type":"Feature","properties":{"Id":0,"Sheet_ID":"吉貝嶼 20","label":"吉貝嶼 20","call_short":"G7910 S20 .J3","call_num":"G7910 S20 .J3 F6-20","recid":"nw201pr7775","websiteUrl":"https://purl.stanford.edu/nw201pr7775","title":"堡圖原圖","ckey":10454676,"web_map":"","available":"true","iiiUrl":"https://purl.stanford.edu/nw201pr7775/iiif/manifest"},"geometry":{"bbox":[119.6,23.666667,119.69999999999999,23.7333335],"type":"Polygon","coordinates":[[[119.6,23.666667],[119.6,23.7333335],[119.69999999999999,23.7333335],[119.69999999999999,23.666667],[119.6,23.666667]]]}},{"type":"Feature","properties":{"Id":0,"Sheet_ID":"吉貝嶼 24","label":"吉貝嶼 24","call_short":"G7910 S20 .J3","call_num":"G7910 S20 .J3 F6-24","recid":"nc727tq3729","websiteUrl":"https://purl.stanford.edu/nc727tq3729","title":"堡圖原圖","ckey":10454676,"web_map":"","available":"true","iiiUrl":"https://purl.stanford.edu/nc727tq3729/iiif/manifest"},"geometry":{"bbox":[119.5,23.7333335,119.6,23.8],"type":"Polygon","coordinates":[[[119.5,23.7333335],[119.5,23.8],[119.6,23.8],[119.6,23.7333335],[119.5,23.7333335]]]}},{"type":"Feature","properties":{"Id":0,"Sheet_ID":"大嶼 3","label":"大嶼 3","call_short":"G7910 S20 .J3","call_num":"G7910 S20 .J3 G8-3","recid":"rj135cp7434","websiteUrl":"https://purl.stanford.edu/rj135cp7434","title":"堡圖原圖","ckey":10454676,"web_map":"","available":"true","iiiUrl":"https://purl.stanford.edu/rj135cp7434/iiif/manifest"},"geometry":{"bbox":[119.4,23.133333,119.5,23.199999666666667],"type":"Polygon","coordinates":[[[119.4,23.133333],[119.4,23.199999666666667],[119.5,23.199999666666667],[119.5,23.133333],[119.4,23.133333]]]}},{"type":"Feature","properties":{"Id":0,"Sheet_ID":"大嶼 2","label":"大嶼 2","call_short":"G7910 S20 .J3","call_num":"G7910 S20 .J3 G8-2","recid":"ss378zm4907","websiteUrl":"https://purl.stanford.edu/ss378zm4907","title":"堡圖原圖","ckey":10454676,"web_map":"","available":"true","iiiUrl":"https://purl.stanford.edu/ss378zm4907/iiif/manifest"},"geometry":{"bbox":[119.4,23.199999666666667,119.5,23.266666333333333],"type":"Polygon","coordinates":[[[119.4,23.199999666666667],[119.4,23.266666333333333],[119.5,23.266666333333333],[119.5,23.199999666666667],[119.4,23.199999666666667]]]}},{"type":"Feature","properties":{"Id":0,"Sheet_ID":"大嶼 6","label":"大嶼 6","call_short":"G7910 S20 .J3","call_num":"G7910 S20 .J3 G8-6","recid":"xq248nd0732","websiteUrl":"https://purl.stanford.edu/xq248nd0732","title":"堡圖原圖","ckey":10454676,"web_map":"","available":"true","iiiUrl":"https://purl.stanford.edu/xq248nd0732/iiif/manifest"},"geometry":{"bbox":[119.30000000000001,23.266666333333333,119.4,23.333333],"type":"Polygon","coordinates":[[[119.30000000000001,23.266666333333333],[119.30000000000001,23.333333],[119.4,23.333333],[119.4,23.266666333333333],[119.30000000000001,23.266666333333333]]]}},{"type":"Feature","properties":{"Id":0,"Sheet_ID":"大嶼 1","label":"大嶼 1","call_short":"G7910 S20 .J3","call_num":"G7910 S20 .J3 G8-1","recid":"rx436rn5578","websiteUrl":"https://purl.stanford.edu/rx436rn5578","title":"堡圖原圖","ckey":10454676,"web_map":"","available":"true","iiiUrl":"https://purl.stanford.edu/rx436rn5578/iiif/manifest"},"geometry":{"bbox":[119.4,23.266666333333333,119.5,23.333333],"type":"Polygon","coordinates":[[[119.4,23.266666333333333],[119.4,23.333333],[119.5,23.333333],[119.5,23.266666333333333],[119.4,23.266666333333333]]]}},{"type":"Feature","properties":{"Id":0,"Sheet_ID":"漁翁島 10","label":"漁翁島 10","call_short":"G7910 S20 .J3","call_num":"G7910 S20 .J3 G7-10","recid":"cv679sw7301","websiteUrl":"https://purl.stanford.edu/cv679sw7301","title":"堡圖原圖","ckey":10454676,"web_map":"","available":"true","iiiUrl":"https://purl.stanford.edu/cv679sw7301/iiif/manifest"},"geometry":{"bbox":[119.30000000000001,23.333333,119.4,23.3999998],"type":"Polygon","coordinates":[[[119.30000000000001,23.333333],[119.30000000000001,23.3999998],[119.4,23.3999998],[119.4,23.333333],[119.30000000000001,23.333333]]]}},{"type":"Feature","properties":{"Id":0,"Sheet_ID":"漁翁島 5","label":"漁翁島 5","call_short":"G7910 S20 .J3","call_num":"G7910 S20 .J3 G7-5","recid":"qz018rx9208","websiteUrl":"https://purl.stanford.edu/qz018rx9208","title":"堡圖原圖","ckey":10454676,"web_map":"","available":"true","iiiUrl":"https://purl.stanford.edu/qz018rx9208/iiif/manifest"},"geometry":{"bbox":[119.4,23.333333,119.5,23.3999998],"type":"Polygon","coordinates":[[[119.4,23.333333],[119.4,23.3999998],[119.5,23.3999998],[119.5,23.333333],[119.4,23.333333]]]}},{"type":"Feature","properties":{"Id":0,"Sheet_ID":"漁翁島 4","label":"漁翁島 4","call_short":"G7910 S20 .J3","call_num":"G7910 S20 .J3 G7-4","recid":"dg681fs3977","websiteUrl":"https://purl.stanford.edu/dg681fs3977","title":"堡圖原圖","ckey":10454676,"web_map":"","available":"true","iiiUrl":"https://purl.stanford.edu/dg681fs3977/iiif/manifest"},"geometry":{"bbox":[119.4,23.3999998,119.5,23.4666666],"type":"Polygon","coordinates":[[[119.4,23.3999998],[119.4,23.4666666],[119.5,23.4666666],[119.5,23.3999998],[119.4,23.3999998]]]}},{"type":"Feature","properties":{"Id":0,"Sheet_ID":"漁翁島 2","label":"漁翁島 2","call_short":"G7910 S20 .J3","call_num":"G7910 S20 .J3 G7-2","recid":"pb687bb2277","websiteUrl":"https://purl.stanford.edu/pb687bb2277","title":"堡圖原圖","ckey":10454676,"web_map":"","available":"true","iiiUrl":"https://purl.stanford.edu/pb687bb2277/iiif/manifest"},"geometry":{"bbox":[119.4,23.533333400000004,119.5,23.6000002],"type":"Polygon","coordinates":[[[119.4,23.533333400000004],[119.4,23.6000002],[119.5,23.6000002],[119.5,23.533333400000004],[119.4,23.533333400000004]]]}},{"type":"Feature","properties":{"Id":0,"Sheet_ID":"漁翁島 1","label":"漁翁島 1","call_short":"G7910 S20 .J3","call_num":"G7910 S20 .J3 G7-1","recid":"qx982cb1709","websiteUrl":"https://purl.stanford.edu/qx982cb1709","title":"堡圖原圖","ckey":10454676,"web_map":"","available":"true","iiiUrl":"https://purl.stanford.edu/qx982cb1709/iiif/manifest"},"geometry":{"bbox":[119.4,23.6000002,119.5,23.666667],"type":"Polygon","coordinates":[[[119.4,23.6000002],[119.4,23.666667],[119.5,23.666667],[119.5,23.6000002],[119.4,23.6000002]]]}},{"type":"Feature","properties":{"Id":0,"Sheet_ID":"鳳山 4","label":"鳳山 4","call_short":"G7910 S20 .J3","call_num":"G7910 S20 .J3 E10-4","recid":"pb421cd6483","websiteUrl":"https://purl.stanford.edu/pb421cd6483","title":"堡圖原圖","ckey":10454676,"web_map":"","available":"true","iiiUrl":"https://purl.stanford.edu/pb421cd6483/iiif/manifest"},"geometry":{"bbox":[120.40000000000002,22.4,120.50000000000001,22.466666749999998],"type":"Polygon","coordinates":[[[120.40000000000002,22.4],[120.40000000000002,22.466666749999998],[120.50000000000001,22.466666749999998],[120.50000000000001,22.4],[120.40000000000002,22.4]]]}},{"type":"Feature","properties":{"Id":0,"Sheet_ID":"鳳山 8","label":"鳳山 8","call_short":"G7910 S20 .J3","call_num":"G7910 S20 .J3 E10-8","recid":"vq399nr4908","websiteUrl":"https://purl.stanford.edu/vq399nr4908","title":"堡圖原圖","ckey":10454676,"web_map":"","available":"true","iiiUrl":"https://purl.stanford.edu/vq399nr4908/iiif/manifest"},"geometry":{"bbox":[120.3,22.466666749999998,120.39999999999999,22.533333499999998],"type":"Polygon","coordinates":[[[120.3,22.466666749999998],[120.3,22.533333499999998],[120.39999999999999,22.533333499999998],[120.39999999999999,22.466666749999998],[120.3,22.466666749999998]]]}},{"type":"Feature","properties":{"Id":0,"Sheet_ID":"鳳山 3","label":"鳳山 3","call_short":"G7910 S20 .J3","call_num":"G7910 S20 .J3 E10-3","recid":"vh584mz6688","websiteUrl":"https://purl.stanford.edu/vh584mz6688","title":"堡圖原圖","ckey":10454676,"web_map":"","available":"true","iiiUrl":"https://purl.stanford.edu/vh584mz6688/iiif/manifest"},"geometry":{"bbox":[120.40000000000002,22.466666749999998,120.50000000000001,22.533333499999998],"type":"Polygon","coordinates":[[[120.40000000000002,22.466666749999998],[120.40000000000002,22.533333499999998],[120.50000000000001,22.533333499999998],[120.50000000000001,22.466666749999998],[120.40000000000002,22.466666749999998]]]}},{"type":"Feature","properties":{"Id":0,"Sheet_ID":"鳳山 12","label":"鳳山 12","call_short":"G7910 S20 .J3","call_num":"G7910 S20 .J3 E10-12","recid":"nw621rp6256","websiteUrl":"https://purl.stanford.edu/nw621rp6256","title":"堡圖原圖","ckey":10454676,"web_map":"","available":"true","iiiUrl":"https://purl.stanford.edu/nw621rp6256/iiif/manifest"},"geometry":{"bbox":[120.2,22.533333499999998,120.3,22.600000249999997],"type":"Polygon","coordinates":[[[120.2,22.533333499999998],[120.2,22.600000249999997],[120.3,22.600000249999997],[120.3,22.533333499999998],[120.2,22.533333499999998]]]}},{"type":"Feature","properties":{"Id":0,"Sheet_ID":"鳳山 7","label":"鳳山 7","call_short":"G7910 S20 .J3","call_num":"G7910 S20 .J3 E10-7","recid":"yc059hc8690","websiteUrl":"https://purl.stanford.edu/yc059hc8690","title":"堡圖原圖","ckey":10454676,"web_map":"","available":"true","iiiUrl":"https://purl.stanford.edu/yc059hc8690/iiif/manifest"},"geometry":{"bbox":[120.3,22.533333499999998,120.39999999999999,22.600000249999997],"type":"Polygon","coordinates":[[[120.3,22.533333499999998],[120.3,22.600000249999997],[120.39999999999999,22.600000249999997],[120.39999999999999,22.533333499999998],[120.3,22.533333499999998]]]}},{"type":"Feature","properties":{"Id":0,"Sheet_ID":"鳳山 2","label":"鳳山 2","call_short":"G7910 S20 .J3","call_num":"G7910 S20 .J3 E10-2","recid":"cd964xg4744","websiteUrl":"https://purl.stanford.edu/cd964xg4744","title":"堡圖原圖","ckey":10454676,"web_map":"","available":"true","iiiUrl":"https://purl.stanford.edu/cd964xg4744/iiif/manifest"},"geometry":{"bbox":[120.40000000000002,22.533333499999998,120.50000000000001,22.600000249999997],"type":"Polygon","coordinates":[[[120.40000000000002,22.533333499999998],[120.40000000000002,22.600000249999997],[120.50000000000001,22.600000249999997],[120.50000000000001,22.533333499999998],[120.40000000000002,22.533333499999998]]]}},{"type":"Feature","properties":{"Id":0,"Sheet_ID":"鳳山 11","label":"鳳山 11","call_short":"G7910 S20 .J3","call_num":"G7910 S20 .J3 E10-11","recid":"gh441mf9156","websiteUrl":"https://purl.stanford.edu/gh441mf9156","title":"堡圖原圖","ckey":10454676,"web_map":"","available":"true","iiiUrl":"https://purl.stanford.edu/gh441mf9156/iiif/manifest"},"geometry":{"bbox":[120.2,22.60000025,120.3,22.666667],"type":"Polygon","coordinates":[[[120.2,22.60000025],[120.2,22.666667],[120.3,22.666667],[120.3,22.60000025],[120.2,22.60000025]]]}},{"type":"Feature","properties":{"Id":0,"Sheet_ID":"鳳山 6","label":"鳳山 6","call_short":"G7910 S20 .J3","call_num":"G7910 S20 .J3 E10-6","recid":"wh468vz3500","websiteUrl":"https://purl.stanford.edu/wh468vz3500","title":"堡圖原圖","ckey":10454676,"web_map":"","available":"true","iiiUrl":"https://purl.stanford.edu/wh468vz3500/iiif/manifest"},"geometry":{"bbox":[120.3,22.60000025,120.39999999999999,22.666667],"type":"Polygon","coordinates":[[[120.3,22.60000025],[120.3,22.666667],[120.39999999999999,22.666667],[120.39999999999999,22.60000025],[120.3,22.60000025]]]}},{"type":"Feature","properties":{"Id":0,"Sheet_ID":"鳳山 1","label":"鳳山 1","call_short":"G7910 S20 .J3","call_num":"G7910 S20 .J3 E10-1","recid":"ws534xk6077","websiteUrl":"https://purl.stanford.edu/ws534xk6077","title":"堡圖原圖","ckey":10454676,"web_map":"","available":"true","iiiUrl":"https://purl.stanford.edu/ws534xk6077/iiif/manifest"},"geometry":{"bbox":[120.40000000000002,22.60000025,120.50000000000001,22.666667],"type":"Polygon","coordinates":[[[120.40000000000002,22.60000025],[120.40000000000002,22.666667],[120.50000000000001,22.666667],[120.50000000000001,22.60000025],[120.40000000000002,22.60000025]]]}},{"type":"Feature","properties":{"Id":0,"Sheet_ID":"臺南 15","label":"臺南 15","call_short":"G7910 S20 .J3","call_num":"G7910 S20 .J3 E9-15","recid":"bn520yz4311","websiteUrl":"https://purl.stanford.edu/bn520yz4311","title":"堡圖原圖","ckey":10454676,"web_map":"","available":"true","iiiUrl":"https://purl.stanford.edu/bn520yz4311/iiif/manifest"},"geometry":{"bbox":[120.2,22.666667,120.3,22.733333666666667],"type":"Polygon","coordinates":[[[120.2,22.666667],[120.2,22.733333666666667],[120.3,22.733333666666667],[120.3,22.666667],[120.2,22.666667]]]}},{"type":"Feature","properties":{"Id":0,"Sheet_ID":"臺南 10","label":"臺南 10","call_short":"G7910 S20 .J3","call_num":"G7910 S20 .J3 E9-10","recid":"xr245bv9693","websiteUrl":"https://purl.stanford.edu/xr245bv9693","title":"堡圖原圖","ckey":10454676,"web_map":"","available":"true","iiiUrl":"https://purl.stanford.edu/xr245bv9693/iiif/manifest"},"geometry":{"bbox":[120.3,22.666667,120.39999999999999,22.733333666666667],"type":"Polygon","coordinates":[[[120.3,22.666667],[120.3,22.733333666666667],[120.39999999999999,22.733333666666667],[120.39999999999999,22.666667],[120.3,22.666667]]]}},{"type":"Feature","properties":{"Id":0,"Sheet_ID":"臺南 5","label":"臺南 5","call_short":"G7910 S20 .J3","call_num":"G7910 S20 .J3 E9-5","recid":"fc995py4985","websiteUrl":"https://purl.stanford.edu/fc995py4985","title":"堡圖原圖","ckey":10454676,"web_map":"","available":"true","iiiUrl":"https://purl.stanford.edu/fc995py4985/iiif/manifest"},"geometry":{"bbox":[120.40000000000002,22.666667,120.50000000000001,22.733333666666667],"type":"Polygon","coordinates":[[[120.40000000000002,22.666667],[120.40000000000002,22.733333666666667],[120.50000000000001,22.733333666666667],[120.50000000000001,22.666667],[120.40000000000002,22.666667]]]}},{"type":"Feature","properties":{"Id":0,"Sheet_ID":"臺南 14","label":"臺南 14","call_short":"G7910 S20 .J3","call_num":"G7910 S20 .J3 E9-14","recid":"tc317hm2795","websiteUrl":"https://purl.stanford.edu/tc317hm2795","title":"堡圖原圖","ckey":10454676,"web_map":"","available":"true","iiiUrl":"https://purl.stanford.edu/tc317hm2795/iiif/manifest"},"geometry":{"bbox":[120.2,22.733333666666667,120.3,22.800000333333333],"type":"Polygon","coordinates":[[[120.2,22.733333666666667],[120.2,22.800000333333333],[120.3,22.800000333333333],[120.3,22.733333666666667],[120.2,22.733333666666667]]]}},{"type":"Feature","properties":{"Id":0,"Sheet_ID":"臺南 9","label":"臺南 9","call_short":"G7910 S20 .J3","call_num":"G7910 S20 .J3 E9-9","recid":"fn204mp7533","websiteUrl":"https://purl.stanford.edu/fn204mp7533","title":"堡圖原圖","ckey":10454676,"web_map":"","available":"true","iiiUrl":"https://purl.stanford.edu/fn204mp7533/iiif/manifest"},"geometry":{"bbox":[120.3,22.733333666666667,120.39999999999999,22.800000333333333],"type":"Polygon","coordinates":[[[120.3,22.733333666666667],[120.3,22.800000333333333],[120.39999999999999,22.800000333333333],[120.39999999999999,22.733333666666667],[120.3,22.733333666666667]]]}},{"type":"Feature","properties":{"Id":0,"Sheet_ID":"臺南 4","label":"臺南 4","call_short":"G7910 S20 .J3","call_num":"G7910 S20 .J3 E9-4","recid":"sm742wm9681","websiteUrl":"https://purl.stanford.edu/sm742wm9681","title":"堡圖原圖","ckey":10454676,"web_map":"","available":"true","iiiUrl":"https://purl.stanford.edu/sm742wm9681/iiif/manifest"},"geometry":{"bbox":[120.40000000000002,22.733333666666667,120.50000000000001,22.800000333333333],"type":"Polygon","coordinates":[[[120.40000000000002,22.733333666666667],[120.40000000000002,22.800000333333333],[120.50000000000001,22.800000333333333],[120.50000000000001,22.733333666666667],[120.40000000000002,22.733333666666667]]]}},{"type":"Feature","properties":{"Id":0,"Sheet_ID":"臺南 13","label":"臺南 13","call_short":"G7910 S20 .J3","call_num":"G7910 S20 .J3 E9-13","recid":"vn236rh4100","websiteUrl":"https://purl.stanford.edu/vn236rh4100","title":"堡圖原圖","ckey":10454676,"web_map":"","available":"true","iiiUrl":"https://purl.stanford.edu/vn236rh4100/iiif/manifest"},"geometry":{"bbox":[120.2,22.800000333333333,120.3,22.866667],"type":"Polygon","coordinates":[[[120.2,22.800000333333333],[120.2,22.866667],[120.3,22.866667],[120.3,22.800000333333333],[120.2,22.800000333333333]]]}},{"type":"Feature","properties":{"Id":0,"Sheet_ID":"枋寮 20","label":"枋寮 20","call_short":"G7910 S20 .J3","call_num":"G7910 S20 .J3 D10-20","recid":"kc065jf7269","websiteUrl":"https://purl.stanford.edu/kc065jf7269","title":"堡圖原圖","ckey":10454676,"web_map":"","available":"true","iiiUrl":"https://purl.stanford.edu/kc065jf7269/iiif/manifest"},"geometry":{"bbox":[120.60000000000001,22.333333,120.7,22.3999998],"type":"Polygon","coordinates":[[[120.60000000000001,22.333333],[120.60000000000001,22.3999998],[120.7,22.3999998],[120.7,22.333333],[120.60000000000001,22.333333]]]}},{"type":"Feature","properties":{"Id":0,"Sheet_ID":"枋寮 23","label":"枋寮 23","call_short":"G7910 S20 .J3","call_num":"G7910 S20 .J3 D10-23","recid":"bh895qm2440","websiteUrl":"https://purl.stanford.edu/bh895qm2440","title":"堡圖原圖","ckey":10454676,"web_map":"","available":"true","iiiUrl":"https://purl.stanford.edu/bh895qm2440/iiif/manifest"},"geometry":{"bbox":[120.50000000000001,22.4666666,120.60000000000001,22.5333334],"type":"Polygon","coordinates":[[[120.50000000000001,22.4666666],[120.50000000000001,22.5333334],[120.60000000000001,22.5333334],[120.60000000000001,22.4666666],[120.50000000000001,22.4666666]]]}},{"type":"Feature","properties":{"Id":0,"Sheet_ID":"枋寮 22","label":"枋寮 22","call_short":"G7910 S20 .J3","call_num":"G7910 S20 .J3 D10-22","recid":"wr827ng4467","websiteUrl":"https://purl.stanford.edu/wr827ng4467","title":"堡圖原圖","ckey":10454676,"web_map":"","available":"true","iiiUrl":"https://purl.stanford.edu/wr827ng4467/iiif/manifest"},"geometry":{"bbox":[120.50000000000001,22.5333334,120.60000000000001,22.600000200000004],"type":"Polygon","coordinates":[[[120.50000000000001,22.5333334],[120.50000000000001,22.600000200000004],[120.60000000000001,22.600000200000004],[120.60000000000001,22.5333334],[120.50000000000001,22.5333334]]]}},{"type":"Feature","properties":{"Id":0,"Sheet_ID":"枋寮 21","label":"枋寮 21","call_short":"G7910 S20 .J3","call_num":"G7910 S20 .J3 D10-21","recid":"pd589rv0575","websiteUrl":"https://purl.stanford.edu/pd589rv0575","title":"堡圖原圖","ckey":10454676,"web_map":"","available":"true","iiiUrl":"https://purl.stanford.edu/pd589rv0575/iiif/manifest"},"geometry":{"bbox":[120.50000000000001,22.600000200000004,120.60000000000001,22.666667],"type":"Polygon","coordinates":[[[120.50000000000001,22.600000200000004],[120.50000000000001,22.666667],[120.60000000000001,22.666667],[120.60000000000001,22.600000200000004],[120.50000000000001,22.600000200000004]]]}}],"name":"index_10454676"}
