{
"type": "FeatureCollection",
"name": "index_map",
"xy_coordinate_resolution": 1e-07,
"features": [
{ "type": "Feature", "properties": { "Id": 0, "Sheet_ID": "SHEET 12", "label": "SHEET 12", "call_short": "0", "call_num": "0", "recid": "0", "websiteUrl": "0", "title": "0", "ckey": 0, "available": false, "iiifUrl": "0" }, "geometry": { "type": "Polygon", "coordinates": [ [ [ 142.0, 49.933333 ], [ 143.0, 49.933333 ], [ 143.0, 50.6666667 ], [ 142.0, 50.6666667 ], [ 142.0, 49.933333 ] ] ] } },
{ "type": "Feature", "properties": { "Id": 0, "Sheet_ID": "SHEET 5", "label": "SHEET 5", "call_short": "0", "call_num": "0", "recid": "0", "websiteUrl": "0", "title": "0", "ckey": 0, "available": false, "iiifUrl": "0" }, "geometry": { "type": "Polygon", "coordinates": [ [ [ 143.0, 49.933333 ], [ 144.0, 49.933333 ], [ 144.0, 50.6666667 ], [ 143.0, 50.6666667 ], [ 143.0, 49.933333 ] ] ] } },
{ "type": "Feature", "properties": { "Id": 0, "Sheet_ID": "SHEET 11", "label": "SHEET 11", "call_short": "0", "call_num": "0", "recid": "0", "websiteUrl": "0", "title": "0", "ckey": 0, "available": false, "iiifUrl": "0" }, "geometry": { "type": "Polygon", "coordinates": [ [ [ 142.0, 50.6666667 ], [ 143.0, 50.6666667 ], [ 143.0, 51.3333334 ], [ 142.0, 51.3333334 ], [ 142.0, 50.6666667 ] ] ] } },
{ "type": "Feature", "properties": { "Id": 0, "Sheet_ID": "SHEET 4. ロパチナ山", "label": "SHEET 4. ロパチナ山", "call_short": "G7330 S200 .J3", "call_num": "G7330 S200 .J3 SHEET 4", "recid": "wc910fg0200", "websiteUrl": "https://purl.stanford.edu/wc910fg0200", "title": "二十万分一圖東部\"ソ\"領サハリン州", "ckey": 12123015, "available": true, "iiifUrl": "https://purl.stanford.edu/wc910fg0200/iiif/manifest" }, "geometry": { "type": "Polygon", "coordinates": [ [ [ 143.0, 50.6666667 ], [ 144.0, 50.6666667 ], [ 144.0, 51.3333334 ], [ 143.0, 51.3333334 ], [ 143.0, 50.6666667 ] ] ] } },
{ "type": "Feature", "properties": { "Id": 0, "Sheet_ID": "SHEET 10", "label": "SHEET 10", "call_short": "0", "call_num": "0", "recid": "0", "websiteUrl": "0", "title": "0", "ckey": 0, "available": false, "iiifUrl": "0" }, "geometry": { "type": "Polygon", "coordinates": [ [ [ 141.583333, 51.3333334 ], [ 143.0, 51.3333334 ], [ 143.0, 52.0000001 ], [ 141.583333, 52.0000001 ], [ 141.583333, 51.3333334 ] ] ] } },
{ "type": "Feature", "properties": { "Id": 0, "Sheet_ID": "SHEET 3", "label": "SHEET 3", "call_short": "0", "call_num": "0", "recid": "0", "websiteUrl": "0", "title": "0", "ckey": 0, "available": false, "iiifUrl": "0" }, "geometry": { "type": "Polygon", "coordinates": [ [ [ 143.0, 51.3333334 ], [ 144.0, 51.3333334 ], [ 144.0, 52.0000001 ], [ 143.0, 52.0000001 ], [ 143.0, 51.3333334 ] ] ] } },
{ "type": "Feature", "properties": { "Id": 0, "Sheet_ID": "SHEET 9", "label": "SHEET 9", "call_short": "0", "call_num": "0", "recid": "0", "websiteUrl": "0", "title": "0", "ckey": 0, "available": false, "iiifUrl": "0" }, "geometry": { "type": "Polygon", "coordinates": [ [ [ 141.583333, 52.0000001 ], [ 143.0, 52.0000001 ], [ 143.0, 52.6666669 ], [ 141.583333, 52.6666669 ], [ 141.583333, 52.0000001 ] ] ] } },
{ "type": "Feature", "properties": { "Id": 0, "Sheet_ID": "SHEET 2. ハンドゥザ", "label": "SHEET 2. ハンドゥザ", "call_short": "G7330 S200 .J3", "call_num": "G7330 S200 .J3 SHEET 2", "recid": "fc670rf3227", "websiteUrl": "https://purl.stanford.edu/fc670rf3227", "title": "二十万分一圖東部\"ソ\"領サハリン州", "ckey": 12123015, "available": true, "iiifUrl": "https://purl.stanford.edu/fc670rf3227/iiif/manifest" }, "geometry": { "type": "Polygon", "coordinates": [ [ [ 143.0, 52.0000001 ], [ 144.0, 52.0000001 ], [ 144.0, 52.6666669 ], [ 143.0, 52.6666669 ], [ 143.0, 52.0000001 ] ] ] } },
{ "type": "Feature", "properties": { "Id": 0, "Sheet_ID": "SHEET 8. ラングルイ", "label": "SHEET 8. ラングルイ", "call_short": "G7330 S200 .J3", "call_num": "G7330 S200 .J3 SHEET 8", "recid": "ks224hj4708", "websiteUrl": "https://purl.stanford.edu/ks224hj4708", "title": "二十万分一圖東部\"ソ\"領サハリン州", "ckey": 12123015, "available": true, "iiifUrl": "https://purl.stanford.edu/ks224hj4708/iiif/manifest" }, "geometry": { "type": "Polygon", "coordinates": [ [ [ 141.583333, 52.6666669 ], [ 143.0, 52.6666669 ], [ 143.0, 53.3333336 ], [ 141.583333, 53.3333336 ], [ 141.583333, 52.6666669 ] ] ] } },
{ "type": "Feature", "properties": { "Id": 0, "Sheet_ID": "SHEET 1. ピリトゥン", "label": "SHEET 1. ピリトゥン", "call_short": "G7330 S200 .J3", "call_num": "G7330 S200 .J3 SHEET 1", "recid": "df704gw3480", "websiteUrl": "https://purl.stanford.edu/df704gw3480", "title": "二十万分一圖東部\"ソ\"領サハリン州", "ckey": 12123015, "available": true, "iiifUrl": "https://purl.stanford.edu/df704gw3480/iiif/manifest" }, "geometry": { "type": "Polygon", "coordinates": [ [ [ 143.0, 52.6666669 ], [ 144.0, 52.6666669 ], [ 144.0, 53.3333336 ], [ 143.0, 53.3333336 ], [ 143.0, 52.6666669 ] ] ] } },
{ "type": "Feature", "properties": { "Id": 0, "Sheet_ID": "SHEET 7", "label": "SHEET 7", "call_short": "0", "call_num": "0", "recid": "0", "websiteUrl": "0", "title": "0", "ckey": 0, "available": false, "iiifUrl": "0" }, "geometry": { "type": "Polygon", "coordinates": [ [ [ 141.583333, 53.3333336 ], [ 143.22, 53.3333336 ], [ 143.22, 54.0000003 ], [ 141.583333, 54.0000003 ], [ 141.583333, 53.3333336 ] ] ] } },
{ "type": "Feature", "properties": { "Id": 0, "Sheet_ID": "SHEET 6. シミット半島", "label": "SHEET 6. シミット半島", "call_short": "G7330 S200 .J3", "call_num": "G7330 S200 .J3 SHEET 6", "recid": "xs184gv8658", "websiteUrl": "https://purl.stanford.edu/xs184gv8658", "title": "二十万分一圖東部\"ソ\"領サハリン州", "ckey": 12123015, "available": true, "iiifUrl": "https://purl.stanford.edu/xs184gv8658/iiif/manifest" }, "geometry": { "type": "Polygon", "coordinates": [ [ [ 142.0, 54.0000003 ], [ 143.0, 54.0000003 ], [ 143.0, 54.666667 ], [ 142.0, 54.666667 ], [ 142.0, 54.0000003 ] ] ] } }
]
}
