{
"type": "FeatureCollection",
"name": "index_map",
"features": [
{ "type": "Feature", "properties": { "Id": 0, "Sheet_ID": "25. 奈如穆圖", "label": "25. 奈如穆圖", "call_short": "G7822 .M2 S100 .J3", "call_num": "G7822 .M2 S100 .J3 SHEET 25", "recid": "bq919js5114", "websiteUrl": "https://purl.stanford.edu/bq919js5114", "title": "満州十万分一圖 北部大興安嶺", "ckey": 12373586, "available": true, "iiifUrl": "https://purl.stanford.edu/bq919js5114/iiif/manifest" }, "geometry": { "type": "Polygon", "coordinates": [ [ [ 120.0, 50.0 ], [ 121.0, 50.0 ], [ 121.0, 50.6666666 ], [ 120.0, 50.6666666 ], [ 120.0, 50.0 ] ] ] } },
{ "type": "Feature", "properties": { "Id": 0, "Sheet_ID": "20-1. 根河 (1)", "label": "20-1. 根河 (1)", "call_short": "G7822 .M2 S100 .J3", "call_num": "G7822 .M2 S100 .J3 SHEET 20-1", "recid": "hd158ps0231", "websiteUrl": "https://purl.stanford.edu/hd158ps0231", "title": "満州十万分一圖 北部大興安嶺", "ckey": 12373586, "available": true, "iiifUrl": "https://purl.stanford.edu/hd158ps0231/iiif/manifest" }, "geometry": { "type": "Polygon", "coordinates": [ [ [ 121.0, 50.333333 ], [ 122.0, 50.333333 ], [ 122.0, 50.6666666 ], [ 121.0, 50.6666666 ], [ 121.0, 50.333333 ] ] ] } },
{ "type": "Feature", "properties": { "Id": 0, "Sheet_ID": "15-1. 諾敏大山 (1)", "label": "15-1. 諾敏大山 (1)", "call_short": "G7822 .M2 S100 .J3", "call_num": "G7822 .M2 S100 .J3 SHEET 15-1", "recid": "ng633jb3787", "websiteUrl": "https://purl.stanford.edu/ng633jb3787", "title": "満州十万分一圖 北部大興安嶺", "ckey": 12373586, "available": true, "iiifUrl": "https://purl.stanford.edu/ng633jb3787/iiif/manifest" }, "geometry": { "type": "Polygon", "coordinates": [ [ [ 122.0, 50.333333 ], [ 123.0, 50.333333 ], [ 123.0, 50.6666666 ], [ 122.0, 50.6666666 ], [ 122.0, 50.333333 ] ] ] } },
{ "type": "Feature", "properties": { "Id": 0, "Sheet_ID": "24. 吉拉林金鑛 ED.2", "label": "24. 吉拉林金鑛 ED.2", "call_short": "G7822 .M2 S100 .J3", "call_num": "G7822 .M2 S100 .J3 SHEET 24 ED.2", "recid": "rp485xz7132", "websiteUrl": "https://purl.stanford.edu/rp485xz7132", "title": "満州十万分一圖 北部大興安嶺", "ckey": 12373586, "available": true, "iiifUrl": "https://purl.stanford.edu/rp485xz7132/iiif/manifest" }, "geometry": { "type": "Polygon", "coordinates": [ [ [ 120.0, 50.6666666 ], [ 121.0, 50.6666666 ], [ 121.0, 51.3333332 ], [ 120.0, 51.3333332 ], [ 120.0, 50.6666666 ] ] ] } },
{ "type": "Feature", "properties": { "Id": 0, "Sheet_ID": "19. 哈拉爾河", "label": "19. 哈拉爾河", "call_short": "G7822 .M2 S100 .J3", "call_num": "G7822 .M2 S100 .J3 SHEET 19", "recid": "gx617dn6382", "websiteUrl": "https://purl.stanford.edu/gx617dn6382", "title": "満州十万分一圖 北部大興安嶺", "ckey": 12373586, "available": true, "iiifUrl": "https://purl.stanford.edu/gx617dn6382/iiif/manifest" }, "geometry": { "type": "Polygon", "coordinates": [ [ [ 121.0, 50.6666666 ], [ 122.0, 50.6666666 ], [ 122.0, 51.3333332 ], [ 121.0, 51.3333332 ], [ 121.0, 50.6666666 ] ] ] } },
{ "type": "Feature", "properties": { "Id": 0, "Sheet_ID": "14. 伊吉奇山", "label": "14. 伊吉奇山", "call_short": "G7822 .M2 S100 .J3", "call_num": "G7822 .M2 S100 .J3 SHEET 14", "recid": "nf098kd1341", "websiteUrl": "https://purl.stanford.edu/nf098kd1341", "title": "満州十万分一圖 北部大興安嶺", "ckey": 12373586, "available": true, "iiifUrl": "https://purl.stanford.edu/nf098kd1341/iiif/manifest" }, "geometry": { "type": "Polygon", "coordinates": [ [ [ 122.0, 50.6666666 ], [ 123.0, 50.6666666 ], [ 123.0, 51.3333332 ], [ 122.0, 51.3333332 ], [ 122.0, 50.6666666 ] ] ] } },
{ "type": "Feature", "properties": { "Id": 0, "Sheet_ID": "23. アルグンスカヤ", "label": "23. アルグンスカヤ", "call_short": "G7822 .M2 S100 .J3", "call_num": "G7822 .M2 S100 .J3 SHEET 23", "recid": "px627gr5870", "websiteUrl": "https://purl.stanford.edu/px627gr5870", "title": "満州及西伯利十万分一圖 北部大興安嶺", "ckey": 12373586, "available": true, "iiifUrl": "https://purl.stanford.edu/px627gr5870/iiif/manifest" }, "geometry": { "type": "Polygon", "coordinates": [ [ [ 120.0, 51.3333332 ], [ 121.0, 51.3333332 ], [ 121.0, 51.9999998 ], [ 120.0, 51.9999998 ], [ 120.0, 51.3333332 ] ] ] } },
{ "type": "Feature", "properties": { "Id": 0, "Sheet_ID": "22. ウスチウローフ", "label": "22. ウスチウローフ", "call_short": "G7822 .M2 S100 .J3", "call_num": "G7822 .M2 S100 .J3 SHEET 22", "recid": "vg361fj3784", "websiteUrl": "https://purl.stanford.edu/vg361fj3784", "title": "満州及西伯利十万分一圖 北部大興安嶺", "ckey": 12373586, "available": true, "iiifUrl": "https://purl.stanford.edu/vg361fj3784/iiif/manifest" }, "geometry": { "type": "Polygon", "coordinates": [ [ [ 120.0, 51.9999998 ], [ 121.0, 51.9999998 ], [ 121.0, 52.6666664 ], [ 120.0, 52.6666664 ], [ 120.0, 51.9999998 ] ] ] } },
{ "type": "Feature", "properties": { "Id": 0, "Sheet_ID": "21. 西口子", "label": "21. 西口子", "call_short": null, "call_num": null, "recid": null, "websiteUrl": null, "title": null, "ckey": 0, "available": false, "iiifUrl": null }, "geometry": { "type": "Polygon", "coordinates": [ [ [ 120.0, 52.6666664 ], [ 121.0, 52.6666664 ], [ 121.0, 53.333333 ], [ 120.0, 53.333333 ], [ 120.0, 52.6666664 ] ] ] } },
{ "type": "Feature", "properties": { "Id": 0, "Sheet_ID": "15-2. 諾敏大山 (2)", "label": "15-2. 諾敏大山 (2)", "call_short": "G7822 .M2 S100 .J3", "call_num": "G7822 .M2 S100 .J3 SHEET 15-2", "recid": "mj927ms1691", "websiteUrl": "https://purl.stanford.edu/mj927ms1691", "title": "満州十万分一圖 北部大興安嶺", "ckey": 12373586, "available": true, "iiifUrl": "https://purl.stanford.edu/mj927ms1691/iiif/manifest" }, "geometry": { "type": "Polygon", "coordinates": [ [ [ 122.0, 50.0 ], [ 123.0, 50.0 ], [ 123.0, 50.333333 ], [ 122.0, 50.333333 ], [ 122.0, 50.0 ] ] ] } },
{ "type": "Feature", "properties": { "Id": 0, "Sheet_ID": "20-2. 根河 (2)", "label": "20-2. 根河 (2)", "call_short": "G7822 .M2 S100 .J3", "call_num": "G7822 .M2 S100 .J3 SHEET 20-2", "recid": "qt616cx1209", "websiteUrl": "https://purl.stanford.edu/qt616cx1209", "title": "満州十万分一圖 北部大興安嶺", "ckey": 12373586, "available": true, "iiifUrl": "https://purl.stanford.edu/qt616cx1209/iiif/manifest" }, "geometry": { "type": "Polygon", "coordinates": [ [ [ 121.0, 50.0 ], [ 122.0, 50.0 ], [ 122.0, 50.333333 ], [ 121.0, 50.333333 ], [ 121.0, 50.0 ] ] ] } },
{ "type": "Feature", "properties": { "Id": 0, "Sheet_ID": "24. 吉拉林金鑛", "label": "24. 吉拉林金鑛", "call_short": "G7822 .M2 S100 .J3", "call_num": "G7822 .M2 S100 .J3 SHEET 24", "recid": "yf519zn3140", "websiteUrl": "https://purl.stanford.edu/yf519zn3140", "title": "満州十万分一圖 北部大興安嶺", "ckey": 12373586, "available": true, "iiifUrl": "https://purl.stanford.edu/yf519zn3140/iiif/manifest" }, "geometry": { "type": "Polygon", "coordinates": [ [ [ 120.0, 50.6666666 ], [ 121.0, 50.6666666 ], [ 121.0, 51.3333332 ], [ 120.0, 51.3333332 ], [ 120.0, 50.6666666 ] ] ] } }
]
}
