{"type":"FeatureCollection","features":[{"type":"Feature","properties":{"Id":0,"Sheet_ID":"アノール近傍 11","label":"アノール近傍 11","call_short":"G7330 S25 .J33","call_num":"G7330 S25 .J33 8TA150-11","recid":"yr928zy0837","websiteUrl":"https://purl.stanford.edu/yr928zy0837","title":"北樺太二万五千分一圖","ckey":12284207,"web_map":"","available":"true","iiiUrl":"https://purl.stanford.edu/yr928zy0837/iiif/manifest"},"geometry":{"bbox":[142.625,50.083333,142.75,50.16666636363637],"type":"Polygon","coordinates":[[[142.625,50.083333],[142.625,50.16666636363637],[142.75,50.16666636363637],[142.75,50.083333],[142.625,50.083333]]]}},{"type":"Feature","properties":{"Id":0,"Sheet_ID":"アノール近傍 7","label":"アノール近傍 7","call_short":"G7330 S25 .J33","call_num":"G7330 S25 .J33 8TA150-7","recid":"vr543cf8150","websiteUrl":"https://purl.stanford.edu/vr543cf8150","title":"北樺太二万五千分一圖","ckey":12284207,"web_map":"","available":"true","iiiUrl":"https://purl.stanford.edu/vr543cf8150/iiif/manifest"},"geometry":{"bbox":[142.75,50.083333,142.875,50.16666636363637],"type":"Polygon","coordinates":[[[142.75,50.083333],[142.75,50.16666636363637],[142.875,50.16666636363637],[142.875,50.083333],[142.75,50.083333]]]}},{"type":"Feature","properties":{"Id":0,"Sheet_ID":"アノール近傍 3","label":"アノール近傍 3","call_short":"G7330 S25 .J33","call_num":"G7330 S25 .J33 8TA150-3","recid":"tr006qv1927","websiteUrl":"https://purl.stanford.edu/tr006qv1927","title":"北樺太二万五千分一圖","ckey":12284207,"web_map":"","available":"true","iiiUrl":"https://purl.stanford.edu/tr006qv1927/iiif/manifest"},"geometry":{"bbox":[142.875,50.083333,143,50.16666636363637],"type":"Polygon","coordinates":[[[142.875,50.083333],[142.875,50.16666636363637],[143,50.16666636363637],[143,50.083333],[142.875,50.083333]]]}},{"type":"Feature","properties":{"Id":0,"Sheet_ID":"アノール近傍 14","label":"アノール近傍 14","call_short":"G7330 S25 .J33","call_num":"G7330 S25 .J33 8TA150-14","recid":"jb140nk2779","websiteUrl":"https://purl.stanford.edu/jb140nk2779","title":"北樺太二万五千分一圖","ckey":12284207,"web_map":"","available":"true","iiiUrl":"https://purl.stanford.edu/jb140nk2779/iiif/manifest"},"geometry":{"bbox":[142.5,50.16666636363637,142.625,50.24999972727273],"type":"Polygon","coordinates":[[[142.5,50.16666636363637],[142.5,50.24999972727273],[142.625,50.24999972727273],[142.625,50.16666636363637],[142.5,50.16666636363637]]]}},{"type":"Feature","properties":{"Id":0,"Sheet_ID":"アノール近傍 10","label":"アノール近傍 10","call_short":"G7330 S25 .J33","call_num":"G7330 S25 .J33 8TA150-10","recid":"bh797xh4678","websiteUrl":"https://purl.stanford.edu/bh797xh4678","title":"北樺太二万五千分一圖","ckey":12284207,"web_map":"","available":"true","iiiUrl":"https://purl.stanford.edu/bh797xh4678/iiif/manifest"},"geometry":{"bbox":[142.625,50.16666636363637,142.75,50.24999972727273],"type":"Polygon","coordinates":[[[142.625,50.16666636363637],[142.625,50.24999972727273],[142.75,50.24999972727273],[142.75,50.16666636363637],[142.625,50.16666636363637]]]}},{"type":"Feature","properties":{"Id":0,"Sheet_ID":"アノール近傍 6","label":"アノール近傍 6","call_short":"G7330 S25 .J33","call_num":"G7330 S25 .J33 8TA150-6","recid":"wb278rw5850","websiteUrl":"https://purl.stanford.edu/wb278rw5850","title":"北樺太二万五千分一圖","ckey":12284207,"web_map":"","available":"true","iiiUrl":"https://purl.stanford.edu/wb278rw5850/iiif/manifest"},"geometry":{"bbox":[142.75,50.16666636363637,142.875,50.24999972727273],"type":"Polygon","coordinates":[[[142.75,50.16666636363637],[142.75,50.24999972727273],[142.875,50.24999972727273],[142.875,50.16666636363637],[142.75,50.16666636363637]]]}},{"type":"Feature","properties":{"Id":0,"Sheet_ID":"アノール近傍 2","label":"アノール近傍 2","call_short":"G7330 S25 .J33","call_num":"G7330 S25 .J33 8TA150-2","recid":"kv889yn8554","websiteUrl":"https://purl.stanford.edu/kv889yn8554","title":"北樺太二万五千分一圖","ckey":12284207,"web_map":"","available":"true","iiiUrl":"https://purl.stanford.edu/kv889yn8554/iiif/manifest"},"geometry":{"bbox":[142.875,50.16666636363637,143,50.24999972727273],"type":"Polygon","coordinates":[[[142.875,50.16666636363637],[142.875,50.24999972727273],[143,50.24999972727273],[143,50.16666636363637],[142.875,50.16666636363637]]]}},{"type":"Feature","properties":{"Id":0,"Sheet_ID":"ルイコフ近傍 12","label":"ルイコフ近傍 12","call_short":"G7330 S25 .J33","call_num":"G7330 S25 .J33 8TA148-12","recid":"kt491hj8952","websiteUrl":"https://purl.stanford.edu/kt491hj8952","title":"北樺太二万五千分一圖","ckey":12284207,"web_map":"","available":"true","iiiUrl":"https://purl.stanford.edu/kt491hj8952/iiif/manifest"},"geometry":{"bbox":[142.625,50.666666545454554,142.75,50.74999990909091],"type":"Polygon","coordinates":[[[142.625,50.666666545454554],[142.625,50.74999990909091],[142.75,50.74999990909091],[142.75,50.666666545454554],[142.625,50.666666545454554]]]}},{"type":"Feature","properties":{"Id":0,"Sheet_ID":"ルイコフ近傍 15","label":"ルイコフ近傍 15","call_short":"G7330 S25 .J33","call_num":"G7330 S25 .J33 8TA148-15","recid":"ms736cf2280","websiteUrl":"https://purl.stanford.edu/ms736cf2280","title":"北樺太二万五千分一圖","ckey":12284207,"web_map":"","available":"true","iiiUrl":"https://purl.stanford.edu/ms736cf2280/iiif/manifest"},"geometry":{"bbox":[142.5,50.74999990909091,142.625,50.83333327272727],"type":"Polygon","coordinates":[[[142.5,50.74999990909091],[142.5,50.83333327272727],[142.625,50.83333327272727],[142.625,50.74999990909091],[142.5,50.74999990909091]]]}},{"type":"Feature","properties":{"Id":0,"Sheet_ID":"ルイコフ近傍 11","label":"ルイコフ近傍 11","call_short":"G7330 S25 .J33","call_num":"G7330 S25 .J33 8TA148-11","recid":"hb672hs8283","websiteUrl":"https://purl.stanford.edu/hb672hs8283","title":"北樺太二万五千分一圖","ckey":12284207,"web_map":"","available":"true","iiiUrl":"https://purl.stanford.edu/hb672hs8283/iiif/manifest"},"geometry":{"bbox":[142.625,50.74999990909091,142.75,50.83333327272727],"type":"Polygon","coordinates":[[[142.625,50.74999990909091],[142.625,50.83333327272727],[142.75,50.83333327272727],[142.75,50.74999990909091],[142.625,50.74999990909091]]]}},{"type":"Feature","properties":{"Id":0,"Sheet_ID":"亜港近傍 14","label":"亜港近傍 14","call_short":"G7330 S25 .J33","call_num":"G7330 S25 .J33 8TA158-14","recid":"zr576yy7039","websiteUrl":"https://purl.stanford.edu/zr576yy7039","title":"北樺太二万五千分一圖","ckey":12284207,"web_map":"","available":"true","iiiUrl":"https://purl.stanford.edu/zr576yy7039/iiif/manifest"},"geometry":{"bbox":[142,50.83333327272727,142.12500000000003,50.91666663636364],"type":"Polygon","coordinates":[[[142,50.83333327272727],[142,50.91666663636364],[142.12500000000003,50.91666663636364],[142.12500000000003,50.83333327272727],[142,50.83333327272727]]]}},{"type":"Feature","properties":{"Id":0,"Sheet_ID":"亜港近傍 10","label":"亜港近傍 10","call_short":"G7330 S25 .J33","call_num":"G7330 S25 .J33 8TA158-10","recid":"hf418pt5255","websiteUrl":"https://purl.stanford.edu/hf418pt5255","title":"北樺太二万五千分一圖","ckey":12284207,"web_map":"","available":"true","iiiUrl":"https://purl.stanford.edu/hf418pt5255/iiif/manifest"},"geometry":{"bbox":[142.12500000000003,50.83333327272727,142.25,50.91666663636364],"type":"Polygon","coordinates":[[[142.12500000000003,50.83333327272727],[142.12500000000003,50.91666663636364],[142.25,50.91666663636364],[142.25,50.83333327272727],[142.12500000000003,50.83333327272727]]]}},{"type":"Feature","properties":{"Id":0,"Sheet_ID":"ルイコフ近傍 14","label":"ルイコフ近傍 14","call_short":"G7330 S25 .J33","call_num":"G7330 S25 .J33 8TA148-14","recid":"mg726dz4505","websiteUrl":"https://purl.stanford.edu/mg726dz4505","title":"北樺太二万五千分一圖","ckey":12284207,"web_map":"","available":"true","iiiUrl":"https://purl.stanford.edu/mg726dz4505/iiif/manifest"},"geometry":{"bbox":[142.5,50.83333327272727,142.625,50.91666663636364],"type":"Polygon","coordinates":[[[142.5,50.83333327272727],[142.5,50.91666663636364],[142.625,50.91666663636364],[142.625,50.83333327272727],[142.5,50.83333327272727]]]}},{"type":"Feature","properties":{"Id":0,"Sheet_ID":"ルイコフ近傍 10","label":"ルイコフ近傍 10","call_short":"G7330 S25 .J33","call_num":"G7330 S25 .J33 8TA148-10","recid":"sf751dp4503","websiteUrl":"https://purl.stanford.edu/sf751dp4503","title":"北樺太二万五千分一圖","ckey":12284207,"web_map":"","available":"true","iiiUrl":"https://purl.stanford.edu/sf751dp4503/iiif/manifest"},"geometry":{"bbox":[142.625,50.83333327272727,142.75,50.91666663636364],"type":"Polygon","coordinates":[[[142.625,50.83333327272727],[142.625,50.91666663636364],[142.75,50.91666663636364],[142.75,50.83333327272727],[142.625,50.83333327272727]]]}},{"type":"Feature","properties":{"Id":0,"Sheet_ID":"亜港近傍 9","label":"亜港近傍 9","call_short":"G7330 S25 .J33","call_num":"G7330 S25 .J33 8TA158-9","recid":"zc246hc1394","websiteUrl":"https://purl.stanford.edu/zc246hc1394","title":"北樺太二万五千分一圖","ckey":12284207,"web_map":"","available":"true","iiiUrl":"https://purl.stanford.edu/zc246hc1394/iiif/manifest"},"geometry":{"bbox":[142.12500000000003,50.91666663636364,142.25,51],"type":"Polygon","coordinates":[[[142.12500000000003,50.91666663636364],[142.12500000000003,51],[142.25,51],[142.25,50.91666663636364],[142.12500000000003,50.91666663636364]]]}},{"type":"Feature","properties":{"Id":0,"Sheet_ID":"バイカル灣近傍 2","label":"バイカル灣近傍 2","call_short":"G7330 S25 .J33","call_num":"G7330 S25 .J33 8RE160-2","recid":"gf141ws6920","websiteUrl":"https://purl.stanford.edu/gf141ws6920","title":"北樺太二万五千分一圖","ckey":12284207,"web_map":"","available":"true","iiiUrl":"https://purl.stanford.edu/gf141ws6920/iiif/manifest"},"geometry":{"bbox":[142.375,53.5,142.5,53.583333499999995],"type":"Polygon","coordinates":[[[142.375,53.5],[142.375,53.583333499999995],[142.5,53.583333499999995],[142.5,53.5],[142.375,53.5]]]}},{"type":"Feature","properties":{"Id":0,"Sheet_ID":"オハ近傍 14","label":"オハ近傍 14","call_short":"G7330 S25 .J33","call_num":"G7330 S25 .J33 8RE150-14","recid":"rz059mr3985","websiteUrl":"https://purl.stanford.edu/rz059mr3985","title":"北樺太二万五千分一圖","ckey":12284207,"web_map":"","available":"true","iiiUrl":"https://purl.stanford.edu/rz059mr3985/iiif/manifest"},"geometry":{"bbox":[142.5,53.5,142.625,53.583333499999995],"type":"Polygon","coordinates":[[[142.5,53.5],[142.5,53.583333499999995],[142.625,53.583333499999995],[142.625,53.5],[142.5,53.5]]]}},{"type":"Feature","properties":{"Id":0,"Sheet_ID":"オハ近傍 10","label":"オハ近傍 10","call_short":"G7330 S25 .J33","call_num":"G7330 S25 .J33 8RE150-10","recid":"pc260sx2133","websiteUrl":"https://purl.stanford.edu/pc260sx2133","title":"北樺太二万五千分一圖","ckey":12284207,"web_map":"","available":"true","iiiUrl":"https://purl.stanford.edu/pc260sx2133/iiif/manifest"},"geometry":{"bbox":[142.625,53.5,142.75,53.583333499999995],"type":"Polygon","coordinates":[[[142.625,53.5],[142.625,53.583333499999995],[142.75,53.583333499999995],[142.75,53.5],[142.625,53.5]]]}},{"type":"Feature","properties":{"Id":0,"Sheet_ID":"オハ近傍 6","label":"オハ近傍 6","call_short":"G7330 S25 .J33","call_num":"G7330 S25 .J33 8RE150-6","recid":"bw544mb4728","websiteUrl":"https://purl.stanford.edu/bw544mb4728","title":"北樺太二万五千分一圖","ckey":12284207,"web_map":"","available":"true","iiiUrl":"https://purl.stanford.edu/bw544mb4728/iiif/manifest"},"geometry":{"bbox":[142.75,53.5,142.875,53.583333499999995],"type":"Polygon","coordinates":[[[142.75,53.5],[142.75,53.583333499999995],[142.875,53.583333499999995],[142.875,53.5],[142.75,53.5]]]}},{"type":"Feature","properties":{"Id":0,"Sheet_ID":"オハ近傍 2","label":"オハ近傍 2","call_short":"G7330 S25 .J33","call_num":"G7330 S25 .J33 8RE150-2","recid":"mp715hg2723","websiteUrl":"https://purl.stanford.edu/mp715hg2723","title":"北樺太二万五千分一圖","ckey":12284207,"web_map":"","available":"true","iiiUrl":"https://purl.stanford.edu/mp715hg2723/iiif/manifest"},"geometry":{"bbox":[142.875,53.5,143,53.583333499999995],"type":"Polygon","coordinates":[[[142.875,53.5],[142.875,53.583333499999995],[143,53.583333499999995],[143,53.5],[142.875,53.5]]]}},{"type":"Feature","properties":{"Id":0,"Sheet_ID":"エホビ灣近傍 14","label":"エホビ灣近傍 14","call_short":"G7330 S25 .J33","call_num":"G7330 S25 .J33 8RE140-14","recid":"fq185hk4862","websiteUrl":"https://purl.stanford.edu/fq185hk4862","title":"北樺太二万五千分一圖","ckey":12284207,"web_map":"","available":"true","iiiUrl":"https://purl.stanford.edu/fq185hk4862/iiif/manifest"},"geometry":{"bbox":[143,53.5,143.125,53.583333499999995],"type":"Polygon","coordinates":[[[143,53.5],[143,53.583333499999995],[143.125,53.583333499999995],[143.125,53.5],[143,53.5]]]}},{"type":"Feature","properties":{"Id":0,"Sheet_ID":"バイカル灣近傍 1","label":"バイカル灣近傍 1","call_short":"G7330 S25 .J33","call_num":"G7330 S25 .J33 8RE160-1","recid":"fs476qp1256","websiteUrl":"https://purl.stanford.edu/fs476qp1256","title":"北樺太二万五千分一圖","ckey":12284207,"web_map":"","available":"true","iiiUrl":"https://purl.stanford.edu/fs476qp1256/iiif/manifest"},"geometry":{"bbox":[142.375,53.583333499999995,142.5,53.66666699999999],"type":"Polygon","coordinates":[[[142.375,53.583333499999995],[142.375,53.66666699999999],[142.5,53.66666699999999],[142.5,53.583333499999995],[142.375,53.583333499999995]]]}},{"type":"Feature","properties":{"Id":0,"Sheet_ID":"オハ近傍 13","label":"オハ近傍 13","call_short":"G7330 S25 .J33","call_num":"G7330 S25 .J33 8RE150-13","recid":"kt290jr3956","websiteUrl":"https://purl.stanford.edu/kt290jr3956","title":"北樺太二万五千分一圖","ckey":12284207,"web_map":"","available":"true","iiiUrl":"https://purl.stanford.edu/kt290jr3956/iiif/manifest"},"geometry":{"bbox":[142.5,53.583333499999995,142.625,53.66666699999999],"type":"Polygon","coordinates":[[[142.5,53.583333499999995],[142.5,53.66666699999999],[142.625,53.66666699999999],[142.625,53.583333499999995],[142.5,53.583333499999995]]]}},{"type":"Feature","properties":{"Id":0,"Sheet_ID":"オハ近傍 9","label":"オハ近傍 9","call_short":"G7330 S25 .J33","call_num":"G7330 S25 .J33 8RE150-9","recid":"dw642vh4592","websiteUrl":"https://purl.stanford.edu/dw642vh4592","title":"北樺太二万五千分一圖","ckey":12284207,"web_map":"","available":"true","iiiUrl":"https://purl.stanford.edu/dw642vh4592/iiif/manifest"},"geometry":{"bbox":[142.625,53.583333499999995,142.75,53.66666699999999],"type":"Polygon","coordinates":[[[142.625,53.583333499999995],[142.625,53.66666699999999],[142.75,53.66666699999999],[142.75,53.583333499999995],[142.625,53.583333499999995]]]}},{"type":"Feature","properties":{"Id":0,"Sheet_ID":"オハ近傍 5","label":"オハ近傍 5","call_short":"G7330 S25 .J33","call_num":"G7330 S25 .J33 8RE150-5","recid":"kq263yw8876","websiteUrl":"https://purl.stanford.edu/kq263yw8876","title":"北樺太二万五千分一圖","ckey":12284207,"web_map":"","available":"true","iiiUrl":"https://purl.stanford.edu/kq263yw8876/iiif/manifest"},"geometry":{"bbox":[142.75,53.583333499999995,142.875,53.66666699999999],"type":"Polygon","coordinates":[[[142.75,53.583333499999995],[142.75,53.66666699999999],[142.875,53.66666699999999],[142.875,53.583333499999995],[142.75,53.583333499999995]]]}},{"type":"Feature","properties":{"Id":0,"Sheet_ID":"オハ近傍 1","label":"オハ近傍 1","call_short":"G7330 S25 .J33","call_num":"G7330 S25 .J33 8RE150-1","recid":"wc650mb4368","websiteUrl":"https://purl.stanford.edu/wc650mb4368","title":"北樺太二万五千分一圖","ckey":12284207,"web_map":"","available":"true","iiiUrl":"https://purl.stanford.edu/wc650mb4368/iiif/manifest"},"geometry":{"bbox":[142.875,53.583333499999995,143,53.66666699999999],"type":"Polygon","coordinates":[[[142.875,53.583333499999995],[142.875,53.66666699999999],[143,53.66666699999999],[143,53.583333499999995],[142.875,53.583333499999995]]]}},{"type":"Feature","properties":{"Id":0,"Sheet_ID":"エホビ灣近傍 13","label":"エホビ灣近傍 13","call_short":"G7330 S25 .J33","call_num":"G7330 S25 .J33 8RE140-13","recid":"yh977nq3973","websiteUrl":"https://purl.stanford.edu/yh977nq3973","title":"北樺太二万五千分一圖","ckey":12284207,"web_map":"","available":"true","iiiUrl":"https://purl.stanford.edu/yh977nq3973/iiif/manifest"},"geometry":{"bbox":[143,53.583333499999995,143.125,53.66666699999999],"type":"Polygon","coordinates":[[[143,53.583333499999995],[143,53.66666699999999],[143.125,53.66666699999999],[143.125,53.583333499999995],[143,53.583333499999995]]]}}],"name":"index_12284207"}
