{"type":"FeatureCollection","features":[{"type":"Feature","properties":{"Id":0,"Sheet_ID":"雲南 - マンダレー","label":"雲南 - マンダレー","call_short":"G7823 .Y8 1941 .G4","call_num":"G7823 .Y8 1941 .G4","recid":"js825wr9537","websiteUrl":"https://purl.stanford.edu/js825wr9537","title":"百万分一圖","ckey":12271078,"web_map":"","available":"true","iiifUrl":"https://purl.stanford.edu/js825wr9537/iiif/manifest"},"geometry":{"bbox":[96.00000000000001,21.6,104,27.9],"type":"Polygon","coordinates":[[[96.00000000000001,21.6],[96.00000000000001,27.9],[104,27.9],[104,21.6],[96.00000000000001,21.6]]]}}],"name":"index_12271078"}
