{
"type": "FeatureCollection",
"name": "index_map",
"features": [
{ "type": "Feature", "properties": { "Id": 0, "Sheet_ID": "2. ルンビヤ", "label": "2. ルンビヤ", "call_short": "G8064 .C13 1944 .J3", "call_num": "G8064 .C13 1944 .J3 SHEET 2", "recid": "rf010xx6667", "websiteUrl": "https://purl.stanford.edu/rf010xx6667", "title": "カガヤン近傍圖", "ckey": 13835368, "web_map": null, "available": true, "iiifUrl": "https://purl.stanford.edu/rf010xx6667/iiif/manifest" }, "geometry": { "type": "Polygon", "coordinates": [ [ [ 124.5, 8.266667 ], [ 124.75, 8.266667 ], [ 124.75, 8.4333335 ], [ 124.5, 8.4333335 ], [ 124.5, 8.266667 ] ] ] } },
{ "type": "Feature", "properties": { "Id": 0, "Sheet_ID": "1. カガヤン", "label": "1. カガヤン", "call_short": null, "call_num": null, "recid": null, "websiteUrl": null, "title": null, "ckey": 0, "web_map": null, "available": false, "iiifUrl": null }, "geometry": { "type": "Polygon", "coordinates": [ [ [ 124.5, 8.4333335 ], [ 124.75, 8.4333335 ], [ 124.75, 8.6 ], [ 124.5, 8.6 ], [ 124.5, 8.4333335 ] ] ] } }
]
}
