{"type":"FeatureCollection","features":[{"type":"Feature","properties":{"Id":0,"Sheet_ID":"1. マロエラップ島","label":"1. マロエラップ島","call_short":"G9460 S100 .J3","call_num":"G9460 S100 .J3","recid":"wn680yy0358","websiteUrl":"https://purl.stanford.edu/wn680yy0358","title":"十万分一マロエラップ島附近 / 十万分一マーシャル諸島集成圖","ckey":10648587,"web_map":"","available":"true","iiifUrl":"https://purl.stanford.edu/wn680yy0358/iiif/manifest"},"geometry":{"bbox":[170.75000000000003,8.466666999999973,171.2500000000001,9.000000000000057],"type":"Polygon","coordinates":[[[170.75000000000003,8.466666999999973],[170.75000000000003,9.000000000000057],[171.2500000000001,9.000000000000057],[171.2500000000001,8.466666999999973],[170.75000000000003,8.466666999999973]]]}},{"type":"Feature","properties":{"Id":0,"Sheet_ID":"2. アウル島","label":"2. アウル島","call_short":"G9460 S100 .J3","call_num":"G9460 S100 .J3","recid":"wn680yy0358","websiteUrl":"https://purl.stanford.edu/wn680yy0358","title":"十万分一マロエラップ島附近 / 十万分一マーシャル諸島集成圖","ckey":10648587,"web_map":"","available":"true","iiifUrl":"https://purl.stanford.edu/wn680yy0358/iiif/manifest"},"geometry":{"bbox":[171,8.116667000000064,171.2500000000001,8.416667000000075],"type":"Polygon","coordinates":[[[171,8.116667000000064],[171,8.416667000000075],[171.2500000000001,8.416667000000075],[171.2500000000001,8.116667000000064],[171,8.116667000000064]]]}},{"type":"Feature","properties":{"Id":0,"Sheet_ID":"3. アイリングラプラプ島","label":"3. アイリングラプラプ島","call_short":"G9460 S100 .J3","call_num":"G9460 S100 .J3","recid":"wn680yy0358","websiteUrl":"https://purl.stanford.edu/wn680yy0358","title":"十万分一マロエラップ島附近 / 十万分一マーシャル諸島集成圖","ckey":10648587,"web_map":"","available":"true","iiifUrl":"https://purl.stanford.edu/wn680yy0358/iiif/manifest"},"geometry":{"bbox":[168.5,7.2166670000000295,169,7.666667000000019],"type":"Polygon","coordinates":[[[168.5,7.2166670000000295],[168.5,7.666667000000019],[169,7.666667000000019],[169,7.2166670000000295],[168.5,7.2166670000000295]]]}},{"type":"Feature","properties":{"Id":0,"Sheet_ID":"4. ナモ島","label":"4. ナモ島","call_short":"G9460 S100 .J3","call_num":"G9460 S100 .J3","recid":"wn680yy0358","websiteUrl":"https://purl.stanford.edu/wn680yy0358","title":"十万分一マロエラップ島附近 / 十万分一マーシャル諸島集成圖","ckey":10648587,"web_map":"","available":"true","iiifUrl":"https://purl.stanford.edu/wn680yy0358/iiif/manifest"},"geometry":{"bbox":[167.95000000000016,7.716666999999916,168.33333300000004,8.21666700000003],"type":"Polygon","coordinates":[[[167.95000000000016,7.716666999999916],[167.95000000000016,8.21666700000003],[168.33333300000004,8.21666700000003],[168.33333300000004,7.716666999999916],[167.95000000000016,7.716666999999916]]]}}],"name":"index_10648587"}
