{
"type": "FeatureCollection",
"name": "index_map",
"features": [
{ "type": "Feature", "properties": { "Id": 0, "Sheet_ID": "部外秘. 済州島南部", "label": "部外秘. 済州島南部", "call_short": "G7900 S200 .K6", "call_num": "G7900 S200 .K6 SHEET 66", "recid": "jv343tc2961", "websiteUrl": "https://purl.stanford.edu/jv343tc2961", "title": "朝鮮二十萬分一圖", "ckey": 9608397, "available": true, "iiifUrl": "https://purl.stanford.edu/jv343tc2961/iiif/manifest" }, "geometry": { "type": "Polygon", "coordinates": [ [ [ 126.0, 32.666667 ], [ 127.0, 32.666667 ], [ 127.0, 33.3333336 ], [ 126.0, 33.3333336 ], [ 126.0, 32.666667 ] ] ] } },
{ "type": "Feature", "properties": { "Id": 0, "Sheet_ID": "部外秘. 済州島北部", "label": "部外秘. 済州島北部", "call_short": "G7900 S200 .K6", "call_num": "G7900 S200 .K6 SHEET 65", "recid": "fv542gn9774", "websiteUrl": "https://purl.stanford.edu/fv542gn9774", "title": "朝鮮二十萬分一圖", "ckey": 9608397, "available": true, "iiifUrl": "https://purl.stanford.edu/fv542gn9774/iiif/manifest" }, "geometry": { "type": "Polygon", "coordinates": [ [ [ 126.0, 33.3333336 ], [ 127.0, 33.3333336 ], [ 127.0, 34.0000002 ], [ 126.0, 34.0000002 ], [ 126.0, 33.3333336 ] ] ] } },
{ "type": "Feature", "properties": { "Id": 0, "Sheet_ID": "部外秘. 黒山島", "label": "部外秘. 黒山島", "call_short": "G7900 S200 .K6", "call_num": "G7900 S200 .K6 SHEET 61", "recid": "jm767gq3401", "websiteUrl": "https://purl.stanford.edu/jm767gq3401", "title": "朝鮮二十萬分一圖", "ckey": 9608397, "available": true, "iiifUrl": "https://purl.stanford.edu/jm767gq3401/iiif/manifest" }, "geometry": { "type": "Polygon", "coordinates": [ [ [ 125.0, 34.0000002 ], [ 126.0, 34.0000002 ], [ 126.0, 34.6666669 ], [ 125.0, 34.6666669 ], [ 125.0, 34.0000002 ] ] ] } },
{ "type": "Feature", "properties": { "Id": 0, "Sheet_ID": "部外秘. 珍島", "label": "部外秘. 珍島", "call_short": "G7900 S200 .K6", "call_num": "G7900 S200 .K6 SHEET 62", "recid": "rq837gy7998", "websiteUrl": "https://purl.stanford.edu/rq837gy7998", "title": "朝鮮二十萬分一圖", "ckey": 9608397, "available": true, "iiifUrl": "https://purl.stanford.edu/rq837gy7998/iiif/manifest" }, "geometry": { "type": "Polygon", "coordinates": [ [ [ 126.0, 34.0000002 ], [ 127.0, 34.0000002 ], [ 127.0, 34.6666669 ], [ 126.0, 34.6666669 ], [ 126.0, 34.0000002 ] ] ] } },
{ "type": "Feature", "properties": { "Id": 0, "Sheet_ID": "部外秘. 高興", "label": "部外秘. 高興", "call_short": "G7900 S200 .K6", "call_num": "G7900 S200 .K6 SHEET 63", "recid": "rq693yk5681", "websiteUrl": "https://purl.stanford.edu/rq693yk5681", "title": "朝鮮二十萬分一圖", "ckey": 9608397, "available": true, "iiifUrl": "https://purl.stanford.edu/rq693yk5681/iiif/manifest" }, "geometry": { "type": "Polygon", "coordinates": [ [ [ 127.0, 34.0000002 ], [ 128.0, 34.0000002 ], [ 128.0, 34.6666669 ], [ 127.0, 34.6666669 ], [ 127.0, 34.0000002 ] ] ] } },
{ "type": "Feature", "properties": { "Id": 0, "Sheet_ID": "欲知島", "label": "欲知島", "call_short": "G7900 S200 .K6", "call_num": "G7900 S200 .K6 SHEET 64 ED.2", "recid": "mn573vg4795", "websiteUrl": "https://purl.stanford.edu/mn573vg4795", "title": "朝鮮二十萬分一圖", "ckey": 9608397, "available": true, "iiifUrl": "https://purl.stanford.edu/mn573vg4795/iiif/manifest" }, "geometry": { "type": "Polygon", "coordinates": [ [ [ 128.0, 34.0000002 ], [ 129.0, 34.0000002 ], [ 129.0, 34.6666669 ], [ 128.0, 34.6666669 ], [ 128.0, 34.0000002 ] ] ] } },
{ "type": "Feature", "properties": { "Id": 0, "Sheet_ID": "部外秘. 梅加島", "label": "部外秘. 梅加島", "call_short": "G7900 S200 .K6", "call_num": "G7900 S200 .K6 SHEET 56", "recid": "ch555pw8408", "websiteUrl": "https://purl.stanford.edu/ch555pw8408", "title": "朝鮮二十萬分一圖", "ckey": 9608397, "available": true, "iiifUrl": "https://purl.stanford.edu/ch555pw8408/iiif/manifest" }, "geometry": { "type": "Polygon", "coordinates": [ [ [ 125.0, 34.6666669 ], [ 126.0, 34.6666669 ], [ 126.0, 35.3333335 ], [ 125.0, 35.3333335 ], [ 125.0, 34.6666669 ] ] ] } },
{ "type": "Feature", "properties": { "Id": 0, "Sheet_ID": "木浦", "label": "木浦", "call_short": "G7900 S200 .K6", "call_num": "G7900 S200 .K6 SHEET 57", "recid": "bz685xw4079", "websiteUrl": "https://purl.stanford.edu/bz685xw4079", "title": "朝鮮二十萬分一圖", "ckey": 9608397, "available": true, "iiifUrl": "https://purl.stanford.edu/bz685xw4079/iiif/manifest" }, "geometry": { "type": "Polygon", "coordinates": [ [ [ 126.0, 34.6666669 ], [ 127.0, 34.6666669 ], [ 127.0, 35.3333335 ], [ 126.0, 35.3333335 ], [ 126.0, 34.6666669 ] ] ] } },
{ "type": "Feature", "properties": { "Id": 0, "Sheet_ID": "部外秘. 順天", "label": "部外秘. 順天", "call_short": "G7900 S200 .K6", "call_num": "G7900 S200 .K6 SHEET 58", "recid": "yg934jm7916", "websiteUrl": "https://purl.stanford.edu/yg934jm7916", "title": "朝鮮二十萬分一圖", "ckey": 9608397, "available": true, "iiifUrl": "https://purl.stanford.edu/yg934jm7916/iiif/manifest" }, "geometry": { "type": "Polygon", "coordinates": [ [ [ 127.0, 34.6666669 ], [ 128.0, 34.6666669 ], [ 128.0, 35.3333335 ], [ 127.0, 35.3333335 ], [ 127.0, 34.6666669 ] ] ] } },
{ "type": "Feature", "properties": { "Id": 0, "Sheet_ID": "部外秘. 馬山", "label": "部外秘. 馬山", "call_short": "G7900 S200 .K6", "call_num": "G7900 S200 .K6 SHEET 59", "recid": "cj578kx3416", "websiteUrl": "https://purl.stanford.edu/cj578kx3416", "title": "朝鮮二十萬分一圖", "ckey": 9608397, "available": true, "iiifUrl": "https://purl.stanford.edu/cj578kx3416/iiif/manifest" }, "geometry": { "type": "Polygon", "coordinates": [ [ [ 128.0, 34.6666669 ], [ 129.0, 34.6666669 ], [ 129.0, 35.3333335 ], [ 128.0, 35.3333335 ], [ 128.0, 34.6666669 ] ] ] } },
{ "type": "Feature", "properties": { "Id": 0, "Sheet_ID": "部外秘. 釜山", "label": "部外秘. 釜山", "call_short": "G7900 S200 .K6", "call_num": "G7900 S200 .K6 SHEET 60", "recid": "dy253km2613", "websiteUrl": "https://purl.stanford.edu/dy253km2613", "title": "朝鮮二十萬分一圖", "ckey": 9608397, "available": true, "iiifUrl": "https://purl.stanford.edu/dy253km2613/iiif/manifest" }, "geometry": { "type": "Polygon", "coordinates": [ [ [ 129.0, 34.6666669 ], [ 130.0, 34.6666669 ], [ 130.0, 35.3333335 ], [ 129.0, 35.3333335 ], [ 129.0, 34.6666669 ] ] ] } },
{ "type": "Feature", "properties": { "Id": 0, "Sheet_ID": "部外秘. 群山", "label": "部外秘. 群山", "call_short": "G7900 S200 .K6", "call_num": "G7900 S200 .K6 SHEET 52", "recid": "xj099gz7871", "websiteUrl": "https://purl.stanford.edu/xj099gz7871", "title": "朝鮮二十萬分一圖", "ckey": 9608397, "available": true, "iiifUrl": "https://purl.stanford.edu/xj099gz7871/iiif/manifest" }, "geometry": { "type": "Polygon", "coordinates": [ [ [ 126.0, 35.3333335 ], [ 127.0, 35.3333335 ], [ 127.0, 36.0000001 ], [ 126.0, 36.0000001 ], [ 126.0, 35.3333335 ] ] ] } },
{ "type": "Feature", "properties": { "Id": 0, "Sheet_ID": "部外秘. 全州", "label": "部外秘. 全州", "call_short": "G7900 S200 .K6", "call_num": "G7900 S200 .K6 SHEET 53", "recid": "xr191xm2247", "websiteUrl": "https://purl.stanford.edu/xr191xm2247", "title": "朝鮮二十萬分一圖", "ckey": 9608397, "available": true, "iiifUrl": "https://purl.stanford.edu/xr191xm2247/iiif/manifest" }, "geometry": { "type": "Polygon", "coordinates": [ [ [ 127.0, 35.3333335 ], [ 128.0, 35.3333335 ], [ 128.0, 36.0000001 ], [ 127.0, 36.0000001 ], [ 127.0, 35.3333335 ] ] ] } },
{ "type": "Feature", "properties": { "Id": 0, "Sheet_ID": "大邱", "label": "大邱", "call_short": "G7900 S200 .K6", "call_num": "G7900 S200 .K6 SHEET 54", "recid": "rc206hq9541", "websiteUrl": "https://purl.stanford.edu/rc206hq9541", "title": "朝鮮二十萬分一圖", "ckey": 9608397, "available": true, "iiifUrl": "https://purl.stanford.edu/rc206hq9541/iiif/manifest" }, "geometry": { "type": "Polygon", "coordinates": [ [ [ 128.0, 35.3333335 ], [ 129.0, 35.3333335 ], [ 129.0, 36.0000001 ], [ 128.0, 36.0000001 ], [ 128.0, 35.3333335 ] ] ] } },
{ "type": "Feature", "properties": { "Id": 0, "Sheet_ID": "慶州", "label": "慶州", "call_short": "G7900 S200 .K6", "call_num": "G7900 S200 .K6 SHEET 55", "recid": "fn551yd9881", "websiteUrl": "https://purl.stanford.edu/fn551yd9881", "title": "朝鮮二十萬分一圖", "ckey": 9608397, "available": true, "iiifUrl": "https://purl.stanford.edu/fn551yd9881/iiif/manifest" }, "geometry": { "type": "Polygon", "coordinates": [ [ [ 129.0, 35.3333335 ], [ 130.0, 35.3333335 ], [ 130.0, 36.0000001 ], [ 129.0, 36.0000001 ], [ 129.0, 35.3333335 ] ] ] } },
{ "type": "Feature", "properties": { "Id": 0, "Sheet_ID": "部外秘. 於青島", "label": "部外秘. 於青島", "call_short": "G7900 S200 .K6", "call_num": "G7900 S200 .K6 SHEET 47", "recid": "gj478td3544", "websiteUrl": "https://purl.stanford.edu/gj478td3544", "title": "朝鮮二十萬分一圖", "ckey": 9608397, "available": true, "iiifUrl": "https://purl.stanford.edu/gj478td3544/iiif/manifest" }, "geometry": { "type": "Polygon", "coordinates": [ [ [ 125.0, 36.0000001 ], [ 126.0, 36.0000001 ], [ 126.0, 36.6666667 ], [ 125.0, 36.6666667 ], [ 125.0, 36.0000001 ] ] ] } },
{ "type": "Feature", "properties": { "Id": 0, "Sheet_ID": "部外秘. 洪城", "label": "部外秘. 洪城", "call_short": "G7900 S200 .K6", "call_num": "G7900 S200 .K6 SHEET 48", "recid": "bw539sq4765", "websiteUrl": "https://purl.stanford.edu/bw539sq4765", "title": "朝鮮二十萬分一圖", "ckey": 9608397, "available": true, "iiifUrl": "https://purl.stanford.edu/bw539sq4765/iiif/manifest" }, "geometry": { "type": "Polygon", "coordinates": [ [ [ 126.0, 36.0000001 ], [ 127.0, 36.0000001 ], [ 127.0, 36.6666667 ], [ 126.0, 36.6666667 ], [ 126.0, 36.0000001 ] ] ] } },
{ "type": "Feature", "properties": { "Id": 0, "Sheet_ID": "部外秘. 公州", "label": "部外秘. 公州", "call_short": "G7900 S200 .K6", "call_num": "G7900 S200 .K6 SHEET 49", "recid": "bv345vj4373", "websiteUrl": "https://purl.stanford.edu/bv345vj4373", "title": "朝鮮二十萬分一圖", "ckey": 9608397, "available": true, "iiifUrl": "https://purl.stanford.edu/bv345vj4373/iiif/manifest" }, "geometry": { "type": "Polygon", "coordinates": [ [ [ 127.0, 36.0000001 ], [ 128.0, 36.0000001 ], [ 128.0, 36.6666667 ], [ 127.0, 36.6666667 ], [ 127.0, 36.0000001 ] ] ] } },
{ "type": "Feature", "properties": { "Id": 0, "Sheet_ID": "尚州", "label": "尚州", "call_short": "G7900 S200 .K6", "call_num": "G7900 S200 .K6 SHEET 50", "recid": "mc508fj0947", "websiteUrl": "https://purl.stanford.edu/mc508fj0947", "title": "朝鮮二十萬分一圖", "ckey": 9608397, "available": true, "iiifUrl": "https://purl.stanford.edu/mc508fj0947/iiif/manifest" }, "geometry": { "type": "Polygon", "coordinates": [ [ [ 128.0, 36.0000001 ], [ 129.0, 36.0000001 ], [ 129.0, 36.6666667 ], [ 128.0, 36.6666667 ], [ 128.0, 36.0000001 ] ] ] } },
{ "type": "Feature", "properties": { "Id": 0, "Sheet_ID": "盈徳", "label": "盈徳", "call_short": "G7900 S200 .K6", "call_num": "G7900 S200 .K6 SHEET 51", "recid": "mw426rg4117", "websiteUrl": "https://purl.stanford.edu/mw426rg4117", "title": "朝鮮二十萬分一圖", "ckey": 9608397, "available": true, "iiifUrl": "https://purl.stanford.edu/mw426rg4117/iiif/manifest" }, "geometry": { "type": "Polygon", "coordinates": [ [ [ 129.0, 36.0000001 ], [ 130.0, 36.0000001 ], [ 130.0, 36.6666667 ], [ 129.0, 36.6666667 ], [ 129.0, 36.0000001 ] ] ] } },
{ "type": "Feature", "properties": { "Id": 0, "Sheet_ID": "白牙島", "label": "白牙島", "call_short": "G7900 S200 .K6", "call_num": "G7900 S200 .K6 SHEET 42 ED.2", "recid": "np282wm8266", "websiteUrl": "https://purl.stanford.edu/np282wm8266", "title": "朝鮮二十萬分一圖", "ckey": 9608397, "available": true, "iiifUrl": "https://purl.stanford.edu/np282wm8266/iiif/manifest" }, "geometry": { "type": "Polygon", "coordinates": [ [ [ 125.0, 36.6666667 ], [ 126.0, 36.6666667 ], [ 126.0, 37.3333334 ], [ 125.0, 37.3333334 ], [ 125.0, 36.6666667 ] ] ] } },
{ "type": "Feature", "properties": { "Id": 0, "Sheet_ID": "部外秘. 南陽", "label": "部外秘. 南陽", "call_short": "G7900 S200 .K6", "call_num": "G7900 S200 .K6 SHEET 43", "recid": "kt213hq7771", "websiteUrl": "https://purl.stanford.edu/kt213hq7771", "title": "朝鮮二十萬分一圖", "ckey": 9608397, "available": true, "iiifUrl": "https://purl.stanford.edu/kt213hq7771/iiif/manifest" }, "geometry": { "type": "Polygon", "coordinates": [ [ [ 126.0, 36.6666667 ], [ 127.0, 36.6666667 ], [ 127.0, 37.3333334 ], [ 126.0, 37.3333334 ], [ 126.0, 36.6666667 ] ] ] } },
{ "type": "Feature", "properties": { "Id": 0, "Sheet_ID": "部外秘. 忠州", "label": "部外秘. 忠州", "call_short": "G7900 S200 .K6", "call_num": "G7900 S200 .K6 SHEET 44", "recid": "ck044vg5752", "websiteUrl": "https://purl.stanford.edu/ck044vg5752", "title": "朝鮮二十萬分一圖", "ckey": 9608397, "available": true, "iiifUrl": "https://purl.stanford.edu/ck044vg5752/iiif/manifest" }, "geometry": { "type": "Polygon", "coordinates": [ [ [ 127.0, 36.6666667 ], [ 128.0, 36.6666667 ], [ 128.0, 37.3333334 ], [ 127.0, 37.3333334 ], [ 127.0, 36.6666667 ] ] ] } },
{ "type": "Feature", "properties": { "Id": 0, "Sheet_ID": "榮州", "label": "榮州", "call_short": "G7900 S200 .K6", "call_num": "G7900 S200 .K6 SHEET 45", "recid": "jt354zx9089", "websiteUrl": "https://purl.stanford.edu/jt354zx9089", "title": "朝鮮二十萬分一圖", "ckey": 9608397, "available": true, "iiifUrl": "https://purl.stanford.edu/jt354zx9089/iiif/manifest" }, "geometry": { "type": "Polygon", "coordinates": [ [ [ 128.0, 36.6666667 ], [ 129.0, 36.6666667 ], [ 129.0, 37.3333334 ], [ 128.0, 37.3333334 ], [ 128.0, 36.6666667 ] ] ] } },
{ "type": "Feature", "properties": { "Id": 0, "Sheet_ID": "蔚珍", "label": "蔚珍", "call_short": "G7900 S200 .K6", "call_num": "G7900 S200 .K6 SHEET 46", "recid": "yr990rx3913", "websiteUrl": "https://purl.stanford.edu/yr990rx3913", "title": "朝鮮二十萬分一圖", "ckey": 9608397, "available": true, "iiifUrl": "https://purl.stanford.edu/yr990rx3913/iiif/manifest" }, "geometry": { "type": "Polygon", "coordinates": [ [ [ 129.0, 36.6666667 ], [ 130.0, 36.6666667 ], [ 130.0, 37.3333334 ], [ 129.0, 37.3333334 ], [ 129.0, 36.6666667 ] ] ] } },
{ "type": "Feature", "properties": { "Id": 0, "Sheet_ID": "部外秘. 白翎島", "label": "部外秘. 白翎島", "call_short": "G7900 S200 .K6", "call_num": "G7900 S200 .K6 SHEET 35", "recid": "wm960gm2700", "websiteUrl": "https://purl.stanford.edu/wm960gm2700", "title": "朝鮮二十萬分一圖", "ckey": 9608397, "available": true, "iiifUrl": "https://purl.stanford.edu/wm960gm2700/iiif/manifest" }, "geometry": { "type": "Polygon", "coordinates": [ [ [ 124.0, 37.3333334 ], [ 125.0, 37.3333334 ], [ 125.0, 38.0 ], [ 124.0, 38.0 ], [ 124.0, 37.3333334 ] ] ] } },
{ "type": "Feature", "properties": { "Id": 0, "Sheet_ID": "部外秘. 甕津", "label": "部外秘. 甕津", "call_short": "G7900 S200 .K6", "call_num": "G7900 S200 .K6 SHEET 36", "recid": "pn806pf3091", "websiteUrl": "https://purl.stanford.edu/pn806pf3091", "title": "朝鮮二十萬分一圖", "ckey": 9608397, "available": true, "iiifUrl": "https://purl.stanford.edu/pn806pf3091/iiif/manifest" }, "geometry": { "type": "Polygon", "coordinates": [ [ [ 125.0, 37.3333334 ], [ 126.0, 37.3333334 ], [ 126.0, 38.0 ], [ 125.0, 38.0 ], [ 125.0, 37.3333334 ] ] ] } },
{ "type": "Feature", "properties": { "Id": 0, "Sheet_ID": "部外秘. 亰城", "label": "部外秘. 亰城", "call_short": "G7900 S200 .K6", "call_num": "G7900 S200 .K6 SHEET 37", "recid": "sr349tr9193", "websiteUrl": "https://purl.stanford.edu/sr349tr9193", "title": "朝鮮二十萬分一圖", "ckey": 9608397, "available": true, "iiifUrl": "https://purl.stanford.edu/sr349tr9193/iiif/manifest" }, "geometry": { "type": "Polygon", "coordinates": [ [ [ 126.0, 37.3333334 ], [ 127.0, 37.3333334 ], [ 127.0, 38.0 ], [ 126.0, 38.0 ], [ 126.0, 37.3333334 ] ] ] } },
{ "type": "Feature", "properties": { "Id": 0, "Sheet_ID": "部外秘. 春川", "label": "部外秘. 春川", "call_short": "G7900 S200 .K6", "call_num": "G7900 S200 .K6 SHEET 38", "recid": "zw667zh8629", "websiteUrl": "https://purl.stanford.edu/zw667zh8629", "title": "朝鮮二十萬分一圖", "ckey": 9608397, "available": true, "iiifUrl": "https://purl.stanford.edu/zw667zh8629/iiif/manifest" }, "geometry": { "type": "Polygon", "coordinates": [ [ [ 127.0, 37.3333334 ], [ 128.0, 37.3333334 ], [ 128.0, 38.0 ], [ 127.0, 38.0 ], [ 127.0, 37.3333334 ] ] ] } },
{ "type": "Feature", "properties": { "Id": 0, "Sheet_ID": "江陵", "label": "江陵", "call_short": "G7900 S200 .K6", "call_num": "G7900 S200 .K6 SHEET 39", "recid": "bf615kf5966", "websiteUrl": "https://purl.stanford.edu/bf615kf5966", "title": "朝鮮二十萬分一圖", "ckey": 9608397, "available": true, "iiifUrl": "https://purl.stanford.edu/bf615kf5966/iiif/manifest" }, "geometry": { "type": "Polygon", "coordinates": [ [ [ 128.0, 37.3333334 ], [ 129.0, 37.3333334 ], [ 129.0, 38.0 ], [ 128.0, 38.0 ], [ 128.0, 37.3333334 ] ] ] } },
{ "type": "Feature", "properties": { "Id": 0, "Sheet_ID": "三陟", "label": "三陟", "call_short": "G7900 S200 .K6", "call_num": "G7900 S200 .K6 SHEET 40", "recid": "db301mx6787", "websiteUrl": "https://purl.stanford.edu/db301mx6787", "title": "朝鮮二十萬分一圖", "ckey": 9608397, "available": true, "iiifUrl": "https://purl.stanford.edu/db301mx6787/iiif/manifest" }, "geometry": { "type": "Polygon", "coordinates": [ [ [ 129.0, 37.3333334 ], [ 130.0, 37.3333334 ], [ 130.0, 38.0 ], [ 129.0, 38.0 ], [ 129.0, 37.3333334 ] ] ] } },
{ "type": "Feature", "properties": { "Id": 0, "Sheet_ID": "欝陵島", "label": "欝陵島", "call_short": null, "call_num": null, "recid": null, "websiteUrl": null, "title": null, "ckey": 0, "available": false, "iiifUrl": null }, "geometry": { "type": "Polygon", "coordinates": [ [ [ 130.0, 37.3333334 ], [ 131.0, 37.3333334 ], [ 131.0, 38.0 ], [ 130.0, 38.0 ], [ 130.0, 37.3333334 ] ] ] } },
{ "type": "Feature", "properties": { "Id": 0, "Sheet_ID": "部外秘. 長山串", "label": "部外秘. 長山串", "call_short": "G7900 S200 .K6", "call_num": "G7900 S200 .K6 SHEET 30", "recid": "bd878xy6150", "websiteUrl": "https://purl.stanford.edu/bd878xy6150", "title": "朝鮮二十萬分一圖", "ckey": 9608397, "available": true, "iiifUrl": "https://purl.stanford.edu/bd878xy6150/iiif/manifest" }, "geometry": { "type": "Polygon", "coordinates": [ [ [ 124.0, 38.0 ], [ 125.0, 38.0 ], [ 125.0, 38.6666666 ], [ 124.0, 38.6666666 ], [ 124.0, 38.0 ] ] ] } },
{ "type": "Feature", "properties": { "Id": 0, "Sheet_ID": "部外秘. 海州", "label": "部外秘. 海州", "call_short": "G7900 S200 .K6", "call_num": "G7900 S200 .K6 SHEET 31", "recid": "bf164kn6881", "websiteUrl": "https://purl.stanford.edu/bf164kn6881", "title": "朝鮮二十萬分一圖", "ckey": 9608397, "available": true, "iiifUrl": "https://purl.stanford.edu/bf164kn6881/iiif/manifest" }, "geometry": { "type": "Polygon", "coordinates": [ [ [ 125.0, 38.0 ], [ 126.0, 38.0 ], [ 126.0, 38.6666666 ], [ 125.0, 38.6666666 ], [ 125.0, 38.0 ] ] ] } },
{ "type": "Feature", "properties": { "Id": 0, "Sheet_ID": "部外秘. 新幕", "label": "部外秘. 新幕", "call_short": "G7900 S200 .K6", "call_num": "G7900 S200 .K6 SHEET 32", "recid": "hr451gt3439", "websiteUrl": "https://purl.stanford.edu/hr451gt3439", "title": "朝鮮二十萬分一圖", "ckey": 9608397, "available": true, "iiifUrl": "https://purl.stanford.edu/hr451gt3439/iiif/manifest" }, "geometry": { "type": "Polygon", "coordinates": [ [ [ 126.0, 38.0 ], [ 127.0, 38.0 ], [ 127.0, 38.6666666 ], [ 126.0, 38.6666666 ], [ 126.0, 38.0 ] ] ] } },
{ "type": "Feature", "properties": { "Id": 0, "Sheet_ID": "鐵原", "label": "鐵原", "call_short": "G7900 S200 .K6", "call_num": "G7900 S200 .K6 SHEET 33 ED.2", "recid": "vp615vv9756", "websiteUrl": "https://purl.stanford.edu/vp615vv9756", "title": "朝鮮二十萬分一圖", "ckey": 9608397, "available": true, "iiifUrl": "https://purl.stanford.edu/vp615vv9756/iiif/manifest" }, "geometry": { "type": "Polygon", "coordinates": [ [ [ 127.0, 38.0 ], [ 128.0, 38.0 ], [ 128.0, 38.6666666 ], [ 127.0, 38.6666666 ], [ 127.0, 38.0 ] ] ] } },
{ "type": "Feature", "properties": { "Id": 0, "Sheet_ID": "杆城", "label": "杆城", "call_short": "G7900 S200 .K6", "call_num": "G7900 S200 .K6 SHEET 34", "recid": "tw354kd6135", "websiteUrl": "https://purl.stanford.edu/tw354kd6135", "title": "朝鮮二十萬分一圖", "ckey": 9608397, "available": true, "iiifUrl": "https://purl.stanford.edu/tw354kd6135/iiif/manifest" }, "geometry": { "type": "Polygon", "coordinates": [ [ [ 128.0, 38.0 ], [ 129.0, 38.0 ], [ 129.0, 38.6666666 ], [ 128.0, 38.6666666 ], [ 128.0, 38.0 ] ] ] } },
{ "type": "Feature", "properties": { "Id": 0, "Sheet_ID": "平壤", "label": "平壤", "call_short": "G7900 S200 .K6", "call_num": "G7900 S200 .K6 SHEET 26", "recid": "jc142kz3595", "websiteUrl": "https://purl.stanford.edu/jc142kz3595", "title": "朝鮮二十萬分一圖", "ckey": 9608397, "available": true, "iiifUrl": "https://purl.stanford.edu/jc142kz3595/iiif/manifest" }, "geometry": { "type": "Polygon", "coordinates": [ [ [ 125.0, 38.6666666 ], [ 126.0, 38.6666666 ], [ 126.0, 39.3333332 ], [ 125.0, 39.3333332 ], [ 125.0, 38.6666666 ] ] ] } },
{ "type": "Feature", "properties": { "Id": 0, "Sheet_ID": "部外秘. 谷山", "label": "部外秘. 谷山", "call_short": "G7900 S200 .K6", "call_num": "G7900 S200 .K6 SHEET 27", "recid": "gb308nm5259", "websiteUrl": "https://purl.stanford.edu/gb308nm5259", "title": "朝鮮二十萬分一圖", "ckey": 9608397, "available": true, "iiifUrl": "https://purl.stanford.edu/gb308nm5259/iiif/manifest" }, "geometry": { "type": "Polygon", "coordinates": [ [ [ 126.0, 38.6666666 ], [ 127.0, 38.6666666 ], [ 127.0, 39.3333332 ], [ 126.0, 39.3333332 ], [ 126.0, 38.6666666 ] ] ] } },
{ "type": "Feature", "properties": { "Id": 0, "Sheet_ID": "元山", "label": "元山", "call_short": "G7900 S200 .K6", "call_num": "G7900 S200 .K6 SHEET 28 ED.2", "recid": "my501hy2639", "websiteUrl": "https://purl.stanford.edu/my501hy2639", "title": "朝鮮二十萬分一圖", "ckey": 9608397, "available": true, "iiifUrl": "https://purl.stanford.edu/my501hy2639/iiif/manifest" }, "geometry": { "type": "Polygon", "coordinates": [ [ [ 127.0, 38.6666666 ], [ 128.0, 38.6666666 ], [ 128.0, 39.3333332 ], [ 127.0, 39.3333332 ], [ 127.0, 38.6666666 ] ] ] } },
{ "type": "Feature", "properties": { "Id": 0, "Sheet_ID": "部外秘. 長箭", "label": "部外秘. 長箭", "call_short": "G7900 S200 .K6", "call_num": "G7900 S200 .K6 SHEET 29", "recid": "fn539nh3045", "websiteUrl": "https://purl.stanford.edu/fn539nh3045", "title": "朝鮮二十萬分一圖", "ckey": 9608397, "available": true, "iiifUrl": "https://purl.stanford.edu/fn539nh3045/iiif/manifest" }, "geometry": { "type": "Polygon", "coordinates": [ [ [ 128.0, 38.6666666 ], [ 129.0, 38.6666666 ], [ 129.0, 39.3333332 ], [ 128.0, 39.3333332 ], [ 128.0, 38.6666666 ] ] ] } },
{ "type": "Feature", "properties": { "Id": 0, "Sheet_ID": "部外秘. 宣川", "label": "部外秘. 宣川", "call_short": "G7900 S200 .K6", "call_num": "G7900 S200 .K6 SHEET 21", "recid": "vv268ry1454", "websiteUrl": "https://purl.stanford.edu/vv268ry1454", "title": "朝鮮二十萬分一圖", "ckey": 9608397, "available": true, "iiifUrl": "https://purl.stanford.edu/vv268ry1454/iiif/manifest" }, "geometry": { "type": "Polygon", "coordinates": [ [ [ 124.0, 39.3333333 ], [ 125.0, 39.3333333 ], [ 125.0, 39.9999999 ], [ 124.0, 39.9999999 ], [ 124.0, 39.3333333 ] ] ] } },
{ "type": "Feature", "properties": { "Id": 0, "Sheet_ID": "部外秘. 安州", "label": "部外秘. 安州", "call_short": "G7900 S200 .K6", "call_num": "G7900 S200 .K6 SHEET 22", "recid": "hd758qy6257", "websiteUrl": "https://purl.stanford.edu/hd758qy6257", "title": "朝鮮二十萬分一圖", "ckey": 9608397, "available": true, "iiifUrl": "https://purl.stanford.edu/hd758qy6257/iiif/manifest" }, "geometry": { "type": "Polygon", "coordinates": [ [ [ 125.0, 39.3333333 ], [ 126.0, 39.3333333 ], [ 126.0, 39.9999999 ], [ 125.0, 39.9999999 ], [ 125.0, 39.3333333 ] ] ] } },
{ "type": "Feature", "properties": { "Id": 0, "Sheet_ID": "寧遠", "label": "寧遠", "call_short": "G7900 S200 .K6", "call_num": "G7900 S200 .K6 SHEET 23", "recid": "wt145cv2614", "websiteUrl": "https://purl.stanford.edu/wt145cv2614", "title": "朝鮮二十萬分一圖", "ckey": 9608397, "available": true, "iiifUrl": "https://purl.stanford.edu/wt145cv2614/iiif/manifest" }, "geometry": { "type": "Polygon", "coordinates": [ [ [ 126.0, 39.3333333 ], [ 127.0, 39.3333333 ], [ 127.0, 39.9999999 ], [ 126.0, 39.9999999 ], [ 126.0, 39.3333333 ] ] ] } },
{ "type": "Feature", "properties": { "Id": 0, "Sheet_ID": "咸興", "label": "咸興", "call_short": "G7900 S200 .K6", "call_num": "G7900 S200 .K6 SHEET 24", "recid": "vt810xs7413", "websiteUrl": "https://purl.stanford.edu/vt810xs7413", "title": "朝鮮二十萬分一圖", "ckey": 9608397, "available": true, "iiifUrl": "https://purl.stanford.edu/vt810xs7413/iiif/manifest" }, "geometry": { "type": "Polygon", "coordinates": [ [ [ 127.0, 39.3333333 ], [ 128.0, 39.3333333 ], [ 128.0, 39.9999999 ], [ 127.0, 39.9999999 ], [ 127.0, 39.3333333 ] ] ] } },
{ "type": "Feature", "properties": { "Id": 0, "Sheet_ID": "部外秘. 義州", "label": "部外秘. 義州", "call_short": "G7900 S200 .K6", "call_num": "G7900 S200 .K6 SHEET 15", "recid": "fc733rc9715", "websiteUrl": "https://purl.stanford.edu/fc733rc9715", "title": "朝鮮二十萬分一圖", "ckey": 9608397, "available": true, "iiifUrl": "https://purl.stanford.edu/fc733rc9715/iiif/manifest" }, "geometry": { "type": "Polygon", "coordinates": [ [ [ 124.0, 39.9999999 ], [ 125.0, 39.9999999 ], [ 125.0, 40.6666665 ], [ 124.0, 40.6666665 ], [ 124.0, 39.9999999 ] ] ] } },
{ "type": "Feature", "properties": { "Id": 0, "Sheet_ID": "部外秘. 昌城", "label": "部外秘. 昌城", "call_short": "G7900 S200 .K6", "call_num": "G7900 S200 .K6 SHEET 16", "recid": "hp573gv1561", "websiteUrl": "https://purl.stanford.edu/hp573gv1561", "title": "朝鮮二十萬分一圖", "ckey": 9608397, "available": true, "iiifUrl": "https://purl.stanford.edu/hp573gv1561/iiif/manifest" }, "geometry": { "type": "Polygon", "coordinates": [ [ [ 125.0, 39.9999999 ], [ 126.0, 39.9999999 ], [ 126.0, 40.6666665 ], [ 125.0, 40.6666665 ], [ 125.0, 39.9999999 ] ] ] } },
{ "type": "Feature", "properties": { "Id": 0, "Sheet_ID": "部外秘. 熙川", "label": "部外秘. 熙川", "call_short": "G7900 S200 .K6", "call_num": "G7900 S200 .K6 SHEET 17", "recid": "mr719zb1635", "websiteUrl": "https://purl.stanford.edu/mr719zb1635", "title": "朝鮮二十萬分一圖", "ckey": 9608397, "available": true, "iiifUrl": "https://purl.stanford.edu/mr719zb1635/iiif/manifest" }, "geometry": { "type": "Polygon", "coordinates": [ [ [ 126.0, 39.9999999 ], [ 127.0, 39.9999999 ], [ 127.0, 40.6666665 ], [ 126.0, 40.6666665 ], [ 126.0, 39.9999999 ] ] ] } },
{ "type": "Feature", "properties": { "Id": 0, "Sheet_ID": "部外秘. 洪原", "label": "部外秘. 洪原", "call_short": "G7900 S200 .K6", "call_num": "G7900 S200 .K6 SHEET 18", "recid": "qd670gx2633", "websiteUrl": "https://purl.stanford.edu/qd670gx2633", "title": "朝鮮二十萬分一圖", "ckey": 9608397, "available": true, "iiifUrl": "https://purl.stanford.edu/qd670gx2633/iiif/manifest" }, "geometry": { "type": "Polygon", "coordinates": [ [ [ 127.0, 39.9999999 ], [ 128.0, 39.9999999 ], [ 128.0, 40.6666665 ], [ 127.0, 40.6666665 ], [ 127.0, 39.9999999 ] ] ] } },
{ "type": "Feature", "properties": { "Id": 0, "Sheet_ID": "部外秘. 北青", "label": "部外秘. 北青", "call_short": "G7900 S200 .K6", "call_num": "G7900 S200 .K6 SHEET 19", "recid": "pp427hw4370", "websiteUrl": "https://purl.stanford.edu/pp427hw4370", "title": "朝鮮二十萬分一圖", "ckey": 9608397, "available": true, "iiifUrl": "https://purl.stanford.edu/pp427hw4370/iiif/manifest" }, "geometry": { "type": "Polygon", "coordinates": [ [ [ 128.0, 39.9999999 ], [ 129.0, 39.9999999 ], [ 129.0, 40.6666665 ], [ 128.0, 40.6666665 ], [ 128.0, 39.9999999 ] ] ] } },
{ "type": "Feature", "properties": { "Id": 0, "Sheet_ID": "部外秘. 城津", "label": "部外秘. 城津", "call_short": "G7900 S200 .K6", "call_num": "G7900 S200 .K6 SHEET 20", "recid": "gc162tt0767", "websiteUrl": "https://purl.stanford.edu/gc162tt0767", "title": "朝鮮二十萬分一圖", "ckey": 9608397, "available": true, "iiifUrl": "https://purl.stanford.edu/gc162tt0767/iiif/manifest" }, "geometry": { "type": "Polygon", "coordinates": [ [ [ 129.0, 39.9999999 ], [ 130.0, 39.9999999 ], [ 130.0, 40.6666665 ], [ 129.0, 40.6666665 ], [ 129.0, 39.9999999 ] ] ] } },
{ "type": "Feature", "properties": { "Id": 0, "Sheet_ID": "部外秘. 楚山", "label": "部外秘. 楚山", "call_short": "G7900 S200 .K6", "call_num": "G7900 S200 .K6 SHEET 10", "recid": "gw616pb7920", "websiteUrl": "https://purl.stanford.edu/gw616pb7920", "title": "朝鮮二十萬分一圖", "ckey": 9608397, "available": true, "iiifUrl": "https://purl.stanford.edu/gw616pb7920/iiif/manifest" }, "geometry": { "type": "Polygon", "coordinates": [ [ [ 125.0, 40.6666665 ], [ 126.0, 40.6666665 ], [ 126.0, 41.3333331 ], [ 125.0, 41.3333331 ], [ 125.0, 40.6666665 ] ] ] } },
{ "type": "Feature", "properties": { "Id": 0, "Sheet_ID": "江界", "label": "江界", "call_short": "G7900 S200 .K6", "call_num": "G7900 S200 .K6 SHEET 11 ED.2", "recid": "cw108wz0520", "websiteUrl": "https://purl.stanford.edu/cw108wz0520", "title": "朝鮮二十萬分一圖", "ckey": 9608397, "available": true, "iiifUrl": "https://purl.stanford.edu/cw108wz0520/iiif/manifest" }, "geometry": { "type": "Polygon", "coordinates": [ [ [ 126.0, 40.6666665 ], [ 127.0, 40.6666665 ], [ 127.0, 41.3333331 ], [ 126.0, 41.3333331 ], [ 126.0, 40.6666665 ] ] ] } },
{ "type": "Feature", "properties": { "Id": 0, "Sheet_ID": "長津", "label": "長津", "call_short": null, "call_num": null, "recid": null, "websiteUrl": null, "title": null, "ckey": 0, "available": false, "iiifUrl": null }, "geometry": { "type": "Polygon", "coordinates": [ [ [ 127.0, 40.6666665 ], [ 128.0, 40.6666665 ], [ 128.0, 41.3333331 ], [ 127.0, 41.3333331 ], [ 127.0, 40.6666665 ] ] ] } },
{ "type": "Feature", "properties": { "Id": 0, "Sheet_ID": "部外秘. 甲山", "label": "部外秘. 甲山", "call_short": "G7900 S200 .K6", "call_num": "G7900 S200 .K6 SHEET 13", "recid": "tx694mh1955", "websiteUrl": "https://purl.stanford.edu/tx694mh1955", "title": "朝鮮二十萬分一圖", "ckey": 9608397, "available": true, "iiifUrl": "https://purl.stanford.edu/tx694mh1955/iiif/manifest" }, "geometry": { "type": "Polygon", "coordinates": [ [ [ 128.0, 40.6666665 ], [ 129.0, 40.6666665 ], [ 129.0, 41.3333331 ], [ 128.0, 41.3333331 ], [ 128.0, 40.6666665 ] ] ] } },
{ "type": "Feature", "properties": { "Id": 0, "Sheet_ID": "部外秘. 吉州", "label": "部外秘. 吉州", "call_short": "G7900 S200 .K6", "call_num": "G7900 S200 .K6 SHEET 14", "recid": "qh416kb3464", "websiteUrl": "https://purl.stanford.edu/qh416kb3464", "title": "朝鮮二十萬分一圖", "ckey": 9608397, "available": true, "iiifUrl": "https://purl.stanford.edu/qh416kb3464/iiif/manifest" }, "geometry": { "type": "Polygon", "coordinates": [ [ [ 129.0, 40.6666665 ], [ 130.0, 40.6666665 ], [ 130.0, 41.3333331 ], [ 129.0, 41.3333331 ], [ 129.0, 40.6666665 ] ] ] } },
{ "type": "Feature", "properties": { "Id": 0, "Sheet_ID": "部外秘. 慈城", "label": "部外秘. 慈城", "call_short": "G7900 S200 .K6", "call_num": "G7900 S200 .K6 SHEET 06", "recid": "yx246zy0904", "websiteUrl": "https://purl.stanford.edu/yx246zy0904", "title": "朝鮮二十萬分一圖", "ckey": 9608397, "available": true, "iiifUrl": "https://purl.stanford.edu/yx246zy0904/iiif/manifest" }, "geometry": { "type": "Polygon", "coordinates": [ [ [ 126.0, 41.3333331 ], [ 127.0, 41.3333331 ], [ 127.0, 41.9999998 ], [ 126.0, 41.9999998 ], [ 126.0, 41.3333331 ] ] ] } },
{ "type": "Feature", "properties": { "Id": 0, "Sheet_ID": "厚昌", "label": "厚昌", "call_short": null, "call_num": null, "recid": null, "websiteUrl": null, "title": null, "ckey": 0, "available": false, "iiifUrl": null }, "geometry": { "type": "Polygon", "coordinates": [ [ [ 127.0, 41.3333331 ], [ 128.0, 41.3333331 ], [ 128.0, 41.9999998 ], [ 127.0, 41.9999998 ], [ 127.0, 41.3333331 ] ] ] } },
{ "type": "Feature", "properties": { "Id": 0, "Sheet_ID": "惠山鎭", "label": "惠山鎭", "call_short": "G7900 S200 .K6", "call_num": "G7900 S200 .K6 SHEET 08", "recid": "ng563sk2915", "websiteUrl": "https://purl.stanford.edu/ng563sk2915", "title": "朝鮮二十萬分一圖", "ckey": 9608397, "available": true, "iiifUrl": "https://purl.stanford.edu/ng563sk2915/iiif/manifest" }, "geometry": { "type": "Polygon", "coordinates": [ [ [ 128.0, 41.3333331 ], [ 129.0, 41.3333331 ], [ 129.0, 41.9999998 ], [ 128.0, 41.9999998 ], [ 128.0, 41.3333331 ] ] ] } },
{ "type": "Feature", "properties": { "Id": 0, "Sheet_ID": "羅南", "label": "羅南", "call_short": "G7900 S200 .K6", "call_num": "G7900 S200 .K6 SHEET 09", "recid": "fq392xw5501", "websiteUrl": "https://purl.stanford.edu/fq392xw5501", "title": "朝鮮二十萬分一圖", "ckey": 9608397, "available": true, "iiifUrl": "https://purl.stanford.edu/fq392xw5501/iiif/manifest" }, "geometry": { "type": "Polygon", "coordinates": [ [ [ 129.0, 41.3333331 ], [ 130.0, 41.3333331 ], [ 130.0, 41.9999998 ], [ 129.0, 41.9999998 ], [ 129.0, 41.3333331 ] ] ] } },
{ "type": "Feature", "properties": { "Id": 0, "Sheet_ID": "白頭山", "label": "白頭山", "call_short": "G7900 S200 .K6", "call_num": "G7900 S200 .K6 SHEET 03 ED.2", "recid": "jz683qg2360", "websiteUrl": "https://purl.stanford.edu/jz683qg2360", "title": "朝鮮二十萬分一圖", "ckey": 9608397, "available": true, "iiifUrl": "https://purl.stanford.edu/jz683qg2360/iiif/manifest" }, "geometry": { "type": "Polygon", "coordinates": [ [ [ 128.0, 41.9999998 ], [ 129.0, 41.9999998 ], [ 129.0, 42.6666664 ], [ 128.0, 42.6666664 ], [ 128.0, 41.9999998 ] ] ] } },
{ "type": "Feature", "properties": { "Id": 0, "Sheet_ID": "會寧", "label": "會寧", "call_short": "G7900 S200 .K6", "call_num": "G7900 S200 .K6 SHEET 04 ED.2", "recid": "ms357xb9203", "websiteUrl": "https://purl.stanford.edu/ms357xb9203", "title": "朝鮮二十萬分一圖", "ckey": 9608397, "available": true, "iiifUrl": "https://purl.stanford.edu/ms357xb9203/iiif/manifest" }, "geometry": { "type": "Polygon", "coordinates": [ [ [ 129.0, 41.9999998 ], [ 130.0, 41.9999998 ], [ 130.0, 42.6666664 ], [ 129.0, 42.6666664 ], [ 129.0, 41.9999998 ] ] ] } },
{ "type": "Feature", "properties": { "Id": 0, "Sheet_ID": "慶興", "label": "慶興", "call_short": "G7900 S200 .K6", "call_num": "G7900 S200 .K6 SHEET 05 ED.2", "recid": "dk836mt9203", "websiteUrl": "https://purl.stanford.edu/dk836mt9203", "title": "朝鮮二十萬分一圖", "ckey": 9608397, "available": true, "iiifUrl": "https://purl.stanford.edu/dk836mt9203/iiif/manifest" }, "geometry": { "type": "Polygon", "coordinates": [ [ [ 130.0, 41.9999998 ], [ 131.0, 41.9999998 ], [ 131.0, 42.6666664 ], [ 130.0, 42.6666664 ], [ 130.0, 41.9999998 ] ] ] } },
{ "type": "Feature", "properties": { "Id": 0, "Sheet_ID": "部外秘. 鍾城", "label": "部外秘. 鍾城", "call_short": "G7900 S200 .K6", "call_num": "G7900 S200 .K6 SHEET 01", "recid": "ky531gz9550", "websiteUrl": "https://purl.stanford.edu/ky531gz9550", "title": "朝鮮二十萬分一圖", "ckey": 9608397, "available": true, "iiifUrl": "https://purl.stanford.edu/ky531gz9550/iiif/manifest" }, "geometry": { "type": "Polygon", "coordinates": [ [ [ 129.0, 42.6666664 ], [ 130.0, 42.6666664 ], [ 130.0, 43.333333 ], [ 129.0, 43.333333 ], [ 129.0, 42.6666664 ] ] ] } },
{ "type": "Feature", "properties": { "Id": 0, "Sheet_ID": "慶源", "label": "慶源", "call_short": "G7900 S200 .K6", "call_num": "G7900 S200 .K6 SHEET 02 ED.2", "recid": "sq509vg9101", "websiteUrl": "https://purl.stanford.edu/sq509vg9101", "title": "朝鮮二十萬分一圖", "ckey": 9608397, "available": true, "iiifUrl": "https://purl.stanford.edu/sq509vg9101/iiif/manifest" }, "geometry": { "type": "Polygon", "coordinates": [ [ [ 130.0, 42.6666664 ], [ 131.0, 42.6666664 ], [ 131.0, 43.333333 ], [ 130.0, 43.333333 ], [ 130.0, 42.6666664 ] ] ] } },
{ "type": "Feature", "properties": { "Id": 0, "Sheet_ID": "部外秘. 欲知島", "label": "部外秘. 欲知島", "call_short": "G7900 S200 .K6", "call_num": "G7900 S200 .K6 SHEET 64", "recid": "pg551tp9923", "websiteUrl": "https://purl.stanford.edu/pg551tp9923", "title": "朝鮮二十萬分一圖", "ckey": 9608397, "available": true, "iiifUrl": "https://purl.stanford.edu/pg551tp9923/iiif/manifest" }, "geometry": { "type": "Polygon", "coordinates": [ [ [ 128.0, 34.0000003 ], [ 129.0, 34.0000003 ], [ 129.0, 34.6666669 ], [ 128.0, 34.6666669 ], [ 128.0, 34.0000003 ] ] ] } },
{ "type": "Feature", "properties": { "Id": 0, "Sheet_ID": "部外秘. 白牙島", "label": "部外秘. 白牙島", "call_short": "G7900 S200 .K6", "call_num": "G7900 S200 .K6 SHEET 42", "recid": "qm011yg1822", "websiteUrl": "https://purl.stanford.edu/qm011yg1822", "title": "朝鮮二十萬分一圖", "ckey": 9608397, "available": true, "iiifUrl": "https://purl.stanford.edu/qm011yg1822/iiif/manifest" }, "geometry": { "type": "Polygon", "coordinates": [ [ [ 125.0, 36.6666668 ], [ 126.0, 36.6666668 ], [ 126.0, 37.3333334 ], [ 125.0, 37.3333334 ], [ 125.0, 36.6666668 ] ] ] } },
{ "type": "Feature", "properties": { "Id": 0, "Sheet_ID": "部外秘. 鐵原", "label": "部外秘. 鐵原", "call_short": "G7900 S200 .K6", "call_num": "G7900 S200 .K6 SHEET 33", "recid": "gk140wn8045", "websiteUrl": "https://purl.stanford.edu/gk140wn8045", "title": "朝鮮二十萬分一圖", "ckey": 9608397, "available": true, "iiifUrl": "https://purl.stanford.edu/gk140wn8045/iiif/manifest" }, "geometry": { "type": "Polygon", "coordinates": [ [ [ 127.0, 38.0 ], [ 128.0, 38.0 ], [ 128.0, 38.6666666 ], [ 127.0, 38.6666666 ], [ 127.0, 38.0 ] ] ] } },
{ "type": "Feature", "properties": { "Id": 0, "Sheet_ID": "部外秘. 平壤", "label": "部外秘. 平壤", "call_short": "G7900 S200 .K6", "call_num": "G7900 S200 .K6 SHEET 26 ED.2", "recid": "jp784vk7559", "websiteUrl": "https://purl.stanford.edu/jp784vk7559", "title": "朝鮮二十萬分一圖", "ckey": 9608397, "available": true, "iiifUrl": "https://purl.stanford.edu/jp784vk7559/iiif/manifest" }, "geometry": { "type": "Polygon", "coordinates": [ [ [ 125.0, 38.6666666 ], [ 126.0, 38.6666666 ], [ 126.0, 39.3333333 ], [ 125.0, 39.3333333 ], [ 125.0, 38.6666666 ] ] ] } },
{ "type": "Feature", "properties": { "Id": 0, "Sheet_ID": "部外秘. 元山", "label": "部外秘. 元山", "call_short": "G7900 S200 .K6", "call_num": "G7900 S200 .K6 SHEET 28", "recid": "gj411pf3002", "websiteUrl": "https://purl.stanford.edu/gj411pf3002", "title": "朝鮮二十萬分一圖", "ckey": 9608397, "available": true, "iiifUrl": "https://purl.stanford.edu/gj411pf3002/iiif/manifest" }, "geometry": { "type": "Polygon", "coordinates": [ [ [ 127.0, 38.6666666 ], [ 128.0, 38.6666666 ], [ 128.0, 39.3333333 ], [ 127.0, 39.3333333 ], [ 127.0, 38.6666666 ] ] ] } },
{ "type": "Feature", "properties": { "Id": 0, "Sheet_ID": "部外秘. 江界", "label": "部外秘. 江界", "call_short": "G7900 S200 .K6", "call_num": "G7900 S200 .K6 SHEET 11", "recid": "jf573vt0732", "websiteUrl": "https://purl.stanford.edu/jf573vt0732", "title": "朝鮮二十萬分一圖", "ckey": 9608397, "available": true, "iiifUrl": "https://purl.stanford.edu/jf573vt0732/iiif/manifest" }, "geometry": { "type": "Polygon", "coordinates": [ [ [ 126.0, 40.6666665 ], [ 127.0, 40.6666665 ], [ 127.0, 41.3333331 ], [ 126.0, 41.3333331 ], [ 126.0, 40.6666665 ] ] ] } },
{ "type": "Feature", "properties": { "Id": 0, "Sheet_ID": "部外秘. 惠山鎭", "label": "部外秘. 惠山鎭", "call_short": "G7900 S200 .K6", "call_num": "G7900 S200 .K6 SHEET 08 ED.2", "recid": "by628cg6937", "websiteUrl": "https://purl.stanford.edu/by628cg6937", "title": "朝鮮二十萬分一圖", "ckey": 9608397, "available": true, "iiifUrl": "https://purl.stanford.edu/by628cg6937/iiif/manifest" }, "geometry": { "type": "Polygon", "coordinates": [ [ [ 128.0, 41.3333331 ], [ 129.0, 41.3333331 ], [ 129.0, 41.9999998 ], [ 128.0, 41.9999998 ], [ 128.0, 41.3333331 ] ] ] } },
{ "type": "Feature", "properties": { "Id": 0, "Sheet_ID": "部外秘. 白頭山", "label": "部外秘. 白頭山", "call_short": "G7900 S200 .K6", "call_num": "G7900 S200 .K6 SHEET 03", "recid": "dc341qc2796", "websiteUrl": "https://purl.stanford.edu/dc341qc2796", "title": "朝鮮二十萬分一圖", "ckey": 9608397, "available": true, "iiifUrl": "https://purl.stanford.edu/dc341qc2796/iiif/manifest" }, "geometry": { "type": "Polygon", "coordinates": [ [ [ 128.0, 41.9999998 ], [ 129.0, 41.9999998 ], [ 129.0, 42.6666664 ], [ 128.0, 42.6666664 ], [ 128.0, 41.9999998 ] ] ] } },
{ "type": "Feature", "properties": { "Id": 0, "Sheet_ID": "部外秘. 會寧", "label": "部外秘. 會寧", "call_short": "G7900 S200 .K6", "call_num": "G7900 S200 .K6 SHEET 04", "recid": "vr507kr8299", "websiteUrl": "https://purl.stanford.edu/vr507kr8299", "title": "朝鮮二十萬分一圖", "ckey": 9608397, "available": true, "iiifUrl": "https://purl.stanford.edu/vr507kr8299/iiif/manifest" }, "geometry": { "type": "Polygon", "coordinates": [ [ [ 129.0, 41.9999998 ], [ 130.0, 41.9999998 ], [ 130.0, 42.6666664 ], [ 129.0, 42.6666664 ], [ 129.0, 41.9999998 ] ] ] } },
{ "type": "Feature", "properties": { "Id": 0, "Sheet_ID": "部外秘. 慶興", "label": "部外秘. 慶興", "call_short": "G7900 S200 .K6", "call_num": "G7900 S200 .K6 SHEET 05", "recid": "ht926gm0225", "websiteUrl": "https://purl.stanford.edu/ht926gm0225", "title": "朝鮮二十萬分一圖", "ckey": 9608397, "available": true, "iiifUrl": "https://purl.stanford.edu/ht926gm0225/iiif/manifest" }, "geometry": { "type": "Polygon", "coordinates": [ [ [ 130.0, 41.9999998 ], [ 131.0, 41.9999998 ], [ 131.0, 42.6666664 ], [ 130.0, 42.6666664 ], [ 130.0, 41.9999998 ] ] ] } },
{ "type": "Feature", "properties": { "Id": 0, "Sheet_ID": "部外秘. 慶源", "label": "部外秘. 慶源", "call_short": "G7900 S200 .K6", "call_num": "G7900 S200 .K6 SHEET 02", "recid": "nm647sf9490", "websiteUrl": "https://purl.stanford.edu/nm647sf9490", "title": "朝鮮二十萬分一圖", "ckey": 9608397, "available": true, "iiifUrl": "https://purl.stanford.edu/nm647sf9490/iiif/manifest" }, "geometry": { "type": "Polygon", "coordinates": [ [ [ 130.0, 42.6666664 ], [ 131.0, 42.6666664 ], [ 131.0, 43.333333 ], [ 130.0, 43.333333 ], [ 130.0, 42.6666664 ] ] ] } }
]
}
