{
"type": "FeatureCollection",
"name": "index_map",
"xy_coordinate_resolution": 1e-07,
"features": [
{ "type": "Feature", "properties": { "Id": 0, "Sheet_ID": "SHEET 13", "label": "SHEET 13", "call_short": "G7004 .G73 A1 S5 .J3", "call_num": "G7004 .G73 A1 S5 .J3 SHEET 13", "recid": "ck731bp8906", "websiteUrl": "https://purl.stanford.edu/ck731bp8906", "title": "内幌", "ckey": 8930530, "available": true, "iiifUrl": "https://purl.stanford.edu/ck731bp8906/iiif/manifest" }, "geometry": { "type": "Polygon", "coordinates": [ [ [ 141.804167, 46.438889 ], [ 141.8708335, 46.438889 ], [ 141.8708335, 46.4611112 ], [ 141.804167, 46.4611112 ], [ 141.804167, 46.438889 ] ] ] } },
{ "type": "Feature", "properties": { "Id": 0, "Sheet_ID": "SHEET 14", "label": "SHEET 14", "call_short": "G7004 .G73 A1 S5 .J3", "call_num": "G7004 .G73 A1 S5 .J3 SHEET 14", "recid": "mm970qb2916", "websiteUrl": "https://purl.stanford.edu/mm970qb2916", "title": "内幌", "ckey": 8930530, "available": true, "iiifUrl": "https://purl.stanford.edu/mm970qb2916/iiif/manifest" }, "geometry": { "type": "Polygon", "coordinates": [ [ [ 141.8708335, 46.438889 ], [ 141.9375, 46.438889 ], [ 141.9375, 46.4611112 ], [ 141.8708335, 46.4611112 ], [ 141.8708335, 46.438889 ] ] ] } },
{ "type": "Feature", "properties": { "Id": 0, "Sheet_ID": "SHEET 15", "label": "SHEET 15", "call_short": "G7004 .G73 A1 S5 .J3", "call_num": "G7004 .G73 A1 S5 .J3 SHEET 15", "recid": "hf128km3920", "websiteUrl": "https://purl.stanford.edu/hf128km3920", "title": "内幌", "ckey": 8930530, "available": true, "iiifUrl": "https://purl.stanford.edu/hf128km3920/iiif/manifest" }, "geometry": { "type": "Polygon", "coordinates": [ [ [ 141.9375, 46.438889 ], [ 142.0041665, 46.438889 ], [ 142.0041665, 46.4611112 ], [ 141.9375, 46.4611112 ], [ 141.9375, 46.438889 ] ] ] } },
{ "type": "Feature", "properties": { "Id": 0, "Sheet_ID": "SHEET 16", "label": "SHEET 16", "call_short": "G7004 .G73 A1 S5 .J3", "call_num": "G7004 .G73 A1 S5 .J3 SHEET 16", "recid": "yg328ck8321", "websiteUrl": "https://purl.stanford.edu/yg328ck8321", "title": "内幌", "ckey": 8930530, "available": true, "iiifUrl": "https://purl.stanford.edu/yg328ck8321/iiif/manifest" }, "geometry": { "type": "Polygon", "coordinates": [ [ [ 142.0041665, 46.438889 ], [ 142.070833, 46.438889 ], [ 142.070833, 46.4611112 ], [ 142.0041665, 46.4611112 ], [ 142.0041665, 46.438889 ] ] ] } },
{ "type": "Feature", "properties": { "Id": 0, "Sheet_ID": "SHEET 10", "label": "SHEET 10", "call_short": "G7004 .G73 A1 S5 .J3", "call_num": "G7004 .G73 A1 S5 .J3 SHEET 10", "recid": "jw689dg1361", "websiteUrl": "https://purl.stanford.edu/jw689dg1361", "title": "内幌", "ckey": 8930530, "available": true, "iiifUrl": "https://purl.stanford.edu/jw689dg1361/iiif/manifest" }, "geometry": { "type": "Polygon", "coordinates": [ [ [ 141.804167, 46.4611112 ], [ 141.8708335, 46.4611112 ], [ 141.8708335, 46.4833333 ], [ 141.804167, 46.4833333 ], [ 141.804167, 46.4611112 ] ] ] } },
{ "type": "Feature", "properties": { "Id": 0, "Sheet_ID": "SHEET 11", "label": "SHEET 11", "call_short": "G7004 .G73 A1 S5 .J3", "call_num": "G7004 .G73 A1 S5 .J3 SHEET 11", "recid": "hw426mx6806", "websiteUrl": "https://purl.stanford.edu/hw426mx6806", "title": "内幌", "ckey": 8930530, "available": true, "iiifUrl": "https://purl.stanford.edu/hw426mx6806/iiif/manifest" }, "geometry": { "type": "Polygon", "coordinates": [ [ [ 141.8708335, 46.4611112 ], [ 141.9375, 46.4611112 ], [ 141.9375, 46.4833333 ], [ 141.8708335, 46.4833333 ], [ 141.8708335, 46.4611112 ] ] ] } },
{ "type": "Feature", "properties": { "Id": 0, "Sheet_ID": "SHEET 12", "label": "SHEET 12", "call_short": "G7004 .G73 A1 S5 .J3", "call_num": "G7004 .G73 A1 S5 .J3 SHEET 12", "recid": "cx014fv1481", "websiteUrl": "https://purl.stanford.edu/cx014fv1481", "title": "内幌", "ckey": 8930530, "available": true, "iiifUrl": "https://purl.stanford.edu/cx014fv1481/iiif/manifest" }, "geometry": { "type": "Polygon", "coordinates": [ [ [ 141.9375, 46.4611112 ], [ 142.0041665, 46.4611112 ], [ 142.0041665, 46.4833333 ], [ 141.9375, 46.4833333 ], [ 141.9375, 46.4611112 ] ] ] } },
{ "type": "Feature", "properties": { "Id": 0, "Sheet_ID": "SHEET 7", "label": "SHEET 7", "call_short": "G7004 .G73 A1 S5 .J3", "call_num": "G7004 .G73 A1 S5 .J3 SHEET 7", "recid": "xv849gz3167", "websiteUrl": "https://purl.stanford.edu/xv849gz3167", "title": "内幌", "ckey": 8930530, "available": true, "iiifUrl": "https://purl.stanford.edu/xv849gz3167/iiif/manifest" }, "geometry": { "type": "Polygon", "coordinates": [ [ [ 141.804167, 46.4833333 ], [ 141.8708335, 46.4833333 ], [ 141.8708335, 46.5055555 ], [ 141.804167, 46.5055555 ], [ 141.804167, 46.4833333 ] ] ] } },
{ "type": "Feature", "properties": { "Id": 0, "Sheet_ID": "SHEET 8", "label": "SHEET 8", "call_short": "G7004 .G73 A1 S5 .J3", "call_num": "G7004 .G73 A1 S5 .J3 SHEET 8", "recid": "xs612qk9877", "websiteUrl": "https://purl.stanford.edu/xs612qk9877", "title": "内幌", "ckey": 8930530, "available": true, "iiifUrl": "https://purl.stanford.edu/xs612qk9877/iiif/manifest" }, "geometry": { "type": "Polygon", "coordinates": [ [ [ 141.8708335, 46.4833333 ], [ 141.9375, 46.4833333 ], [ 141.9375, 46.5055555 ], [ 141.8708335, 46.5055555 ], [ 141.8708335, 46.4833333 ] ] ] } },
{ "type": "Feature", "properties": { "Id": 0, "Sheet_ID": "SHEET 9", "label": "SHEET 9", "call_short": "G7004 .G73 A1 S5 .J3", "call_num": "G7004 .G73 A1 S5 .J3 SHEET 9", "recid": "fz370cr0558", "websiteUrl": "https://purl.stanford.edu/fz370cr0558", "title": "内幌", "ckey": 8930530, "available": true, "iiifUrl": "https://purl.stanford.edu/fz370cr0558/iiif/manifest" }, "geometry": { "type": "Polygon", "coordinates": [ [ [ 141.9375, 46.4833333 ], [ 142.0041665, 46.4833333 ], [ 142.0041665, 46.5055555 ], [ 141.9375, 46.5055555 ], [ 141.9375, 46.4833333 ] ] ] } },
{ "type": "Feature", "properties": { "Id": 0, "Sheet_ID": "SHEET 5", "label": "SHEET 5", "call_short": "G7004 .G73 A1 S5 .J3", "call_num": "G7004 .G73 A1 S5 .J3 SHEET 5", "recid": "zy050pt0567", "websiteUrl": "https://purl.stanford.edu/zy050pt0567", "title": "内幌", "ckey": 8930530, "available": true, "iiifUrl": "https://purl.stanford.edu/zy050pt0567/iiif/manifest" }, "geometry": { "type": "Polygon", "coordinates": [ [ [ 141.804167, 46.5055555 ], [ 141.8708335, 46.5055555 ], [ 141.8708335, 46.5277777 ], [ 141.804167, 46.5277777 ], [ 141.804167, 46.5055555 ] ] ] } },
{ "type": "Feature", "properties": { "Id": 0, "Sheet_ID": "SHEET 6", "label": "SHEET 6", "call_short": "G7004 .G73 A1 S5 .J3", "call_num": "G7004 .G73 A1 S5 .J3 SHEET 6", "recid": "mb287cm3100", "websiteUrl": "https://purl.stanford.edu/mb287cm3100", "title": "内幌", "ckey": 8930530, "available": true, "iiifUrl": "https://purl.stanford.edu/mb287cm3100/iiif/manifest" }, "geometry": { "type": "Polygon", "coordinates": [ [ [ 141.8708335, 46.5055555 ], [ 141.9375, 46.5055555 ], [ 141.9375, 46.5277777 ], [ 141.8708335, 46.5277777 ], [ 141.8708335, 46.5055555 ] ] ] } },
{ "type": "Feature", "properties": { "Id": 0, "Sheet_ID": "SHEET 3", "label": "SHEET 3", "call_short": "G7004 .G73 A1 S5 .J3", "call_num": "G7004 .G73 A1 S5 .J3 SHEET 3", "recid": "yf886wh3234", "websiteUrl": "https://purl.stanford.edu/yf886wh3234", "title": "内幌", "ckey": 8930530, "available": true, "iiifUrl": "https://purl.stanford.edu/yf886wh3234/iiif/manifest" }, "geometry": { "type": "Polygon", "coordinates": [ [ [ 141.804167, 46.5277777 ], [ 141.8708335, 46.5277777 ], [ 141.8708335, 46.5499998 ], [ 141.804167, 46.5499998 ], [ 141.804167, 46.5277777 ] ] ] } },
{ "type": "Feature", "properties": { "Id": 0, "Sheet_ID": "SHEET 4", "label": "SHEET 4", "call_short": "G7004 .G73 A1 S5 .J3", "call_num": "G7004 .G73 A1 S5 .J3 SHEET 4", "recid": "qh897xh3118", "websiteUrl": "https://purl.stanford.edu/qh897xh3118", "title": "内幌", "ckey": 8930530, "available": true, "iiifUrl": "https://purl.stanford.edu/qh897xh3118/iiif/manifest" }, "geometry": { "type": "Polygon", "coordinates": [ [ [ 141.8708335, 46.5277777 ], [ 141.9375, 46.5277777 ], [ 141.9375, 46.5499998 ], [ 141.8708335, 46.5499998 ], [ 141.8708335, 46.5277777 ] ] ] } },
{ "type": "Feature", "properties": { "Id": 0, "Sheet_ID": "SHEET 1", "label": "SHEET 1", "call_short": "G7004 .G73 A1 S5 .J3", "call_num": "G7004 .G73 A1 S5 .J3 SHEET 1", "recid": "pv301nq1307", "websiteUrl": "https://purl.stanford.edu/pv301nq1307", "title": "内幌", "ckey": 8930530, "available": true, "iiifUrl": "https://purl.stanford.edu/pv301nq1307/iiif/manifest" }, "geometry": { "type": "Polygon", "coordinates": [ [ [ 141.804167, 46.5499998 ], [ 141.8708335, 46.5499998 ], [ 141.8708335, 46.572222 ], [ 141.804167, 46.572222 ], [ 141.804167, 46.5499998 ] ] ] } },
{ "type": "Feature", "properties": { "Id": 0, "Sheet_ID": "SHEET 2", "label": "SHEET 2", "call_short": "G7004 .G73 A1 S5 .J3", "call_num": "G7004 .G73 A1 S5 .J3 SHEET 2", "recid": "pn747ss2224", "websiteUrl": "https://purl.stanford.edu/pn747ss2224", "title": "内幌", "ckey": 8930530, "available": true, "iiifUrl": "https://purl.stanford.edu/pn747ss2224/iiif/manifest" }, "geometry": { "type": "Polygon", "coordinates": [ [ [ 141.8708335, 46.5499998 ], [ 141.9375, 46.5499998 ], [ 141.9375, 46.572222 ], [ 141.8708335, 46.572222 ], [ 141.8708335, 46.5499998 ] ] ] } }
]
}
