{
"type": "FeatureCollection",
"name": "index_map",
"features": [
{ "type": "Feature", "properties": { "Id": 0, "Sheet_ID": "25. オリガ", "label": "25. オリガ", "call_short": "G7270 S100 .J379", "call_num": "G7270 S100 .J379 SHEET 25", "recid": "qv855jh0689", "websiteUrl": "https://purl.stanford.edu/qv855jh0689", "title": "西伯利十万分一圖 オリガ", "ckey": 12284215, "available": true, "iiifUrl": "https://purl.stanford.edu/qv855jh0689/iiif/manifest" }, "geometry": { "type": "Polygon", "coordinates": [ [ [ 135.0, 43.333333 ], [ 136.0, 43.333333 ], [ 136.0, 44.0 ], [ 135.0, 44.0 ], [ 135.0, 43.333333 ] ] ] } },
{ "type": "Feature", "properties": { "Id": 0, "Sheet_ID": "24. スヴォロフカ ED.2", "label": "24. スヴォロフカ ED.2", "call_short": "G7270 S100 .J379", "call_num": "G7270 S100 .J379 SHEET 24 ED.2", "recid": "hq546jd5256", "websiteUrl": "https://purl.stanford.edu/hq546jd5256", "title": "西伯利十万分一圖 オリガ", "ckey": 12284215, "available": true, "iiifUrl": "https://purl.stanford.edu/hq546jd5256/iiif/manifest" }, "geometry": { "type": "Polygon", "coordinates": [ [ [ 135.0, 44.0 ], [ 136.0, 44.0 ], [ 136.0, 44.333333 ], [ 135.0, 44.333333 ], [ 135.0, 44.0 ] ] ] } },
{ "type": "Feature", "properties": { "Id": 0, "Sheet_ID": "24. スヴォロフカ", "label": "24. スヴォロフカ", "call_short": "G7270 S100 .J379", "call_num": "G7270 S100 .J379 SHEET 24", "recid": "ph340nz2457", "websiteUrl": "https://purl.stanford.edu/ph340nz2457", "title": "西伯利十万分一圖 オリガ", "ckey": 12284215, "available": true, "iiifUrl": "https://purl.stanford.edu/ph340nz2457/iiif/manifest" }, "geometry": { "type": "Polygon", "coordinates": [ [ [ 135.0, 44.0 ], [ 136.0, 44.0 ], [ 136.0, 44.333333 ], [ 135.0, 44.333333 ], [ 135.0, 44.0 ] ] ] } }
]
}
