{"type":"FeatureCollection","features":[{"type":"Feature","properties":{"Id":0,"Sheet_ID":"北沿極帯 39","label":"北沿極帯 39","call_short":"G8001 .P6 S1000 .J3","call_num":"G8001 .P6 S1000 .J3 A-39","recid":"wd179sb4539","websiteUrl":"https://purl.stanford.edu/wd179sb4539","title":"百万分一航空圖","ckey":10162336,"web_map":"","available":"true","iiifUrl":"https://purl.stanford.edu/wd179sb4539/iiif/manifest"},"geometry":{"bbox":[103.50000000000011,37,112.50000000000011,43.000000000000064],"type":"Polygon","coordinates":[[[103.50000000000011,37],[103.50000000000011,43.000000000000064],[112.50000000000011,43.000000000000064],[112.50000000000011,37],[103.50000000000011,37]]]}},{"type":"Feature","properties":{"Id":0,"Sheet_ID":"北沿極帯 35","label":"北沿極帯 35","call_short":"","call_num":"","recid":"","websiteUrl":"","title":"","ckey":0,"web_map":"","available":"false","iiifUrl":""},"geometry":{"bbox":[111.50000000000011,37,120.50000000000011,43.000000000000064],"type":"Polygon","coordinates":[[[111.50000000000011,37],[111.50000000000011,43.000000000000064],[120.50000000000011,43.000000000000064],[120.50000000000011,37],[111.50000000000011,37]]]}},{"type":"Feature","properties":{"Id":0,"Sheet_ID":"北沿極帯 31","label":"北沿極帯 31","call_short":"G8001 .P6 S1000 .J3","call_num":"G8001 .P6 S1000 .J3 A-31","recid":"nv256yw6503","websiteUrl":"https://purl.stanford.edu/nv256yw6503","title":"百万分一航空圖","ckey":10162336,"web_map":"","available":"true","iiifUrl":"https://purl.stanford.edu/nv256yw6503/iiif/manifest"},"geometry":{"bbox":[119.50000000000013,37,128.5000000000001,43.000000000000064],"type":"Polygon","coordinates":[[[119.50000000000013,37],[119.50000000000013,43.000000000000064],[128.5000000000001,43.000000000000064],[128.5000000000001,37],[119.50000000000013,37]]]}},{"type":"Feature","properties":{"Id":0,"Sheet_ID":"北沿赤道帶 76","label":"北沿赤道帶 76","call_short":"","call_num":"","recid":"","websiteUrl":"","title":"","ckey":0,"web_map":"","available":"false","iiifUrl":""},"geometry":{"bbox":[79.50000000000006,12.000000000000002,88.50000000000006,18.000000000000057],"type":"Polygon","coordinates":[[[79.50000000000006,12.000000000000002],[79.50000000000006,18.000000000000057],[88.50000000000006,18.000000000000057],[88.50000000000006,12.000000000000002],[79.50000000000006,12.000000000000002]]]}},{"type":"Feature","properties":{"Id":0,"Sheet_ID":"北沿赤道帶 71","label":"北沿赤道帶 71","call_short":"G8001 .P6 S1000 .J3","call_num":"G8001 .P6 S1000 .J3 B-71","recid":"yf443qg1616","websiteUrl":"https://purl.stanford.edu/yf443qg1616","title":"百万分一航空圖","ckey":10162336,"web_map":"","available":"true","iiifUrl":"https://purl.stanford.edu/yf443qg1616/iiif/manifest"},"geometry":{"bbox":[87.50000000000006,12.000000000000002,96.50000000000006,18.000000000000057],"type":"Polygon","coordinates":[[[87.50000000000006,12.000000000000002],[87.50000000000006,18.000000000000057],[96.50000000000006,18.000000000000057],[96.50000000000006,12.000000000000002],[87.50000000000006,12.000000000000002]]]}},{"type":"Feature","properties":{"Id":0,"Sheet_ID":"北沿赤道帶 65","label":"北沿赤道帶 65","call_short":"G8001 .P6 S1000 .J3","call_num":"G8001 .P6 S1000 .J3 B-65","recid":"pj221hd2503","websiteUrl":"https://purl.stanford.edu/pj221hd2503","title":"百万分一航空圖","ckey":10162336,"web_map":"","available":"true","iiifUrl":"https://purl.stanford.edu/pj221hd2503/iiif/manifest"},"geometry":{"bbox":[95.50000000000007,12.000000000000002,104.50000000000007,18.000000000000057],"type":"Polygon","coordinates":[[[95.50000000000007,12.000000000000002],[95.50000000000007,18.000000000000057],[104.50000000000007,18.000000000000057],[104.50000000000007,12.000000000000002],[95.50000000000007,12.000000000000002]]]}},{"type":"Feature","properties":{"Id":0,"Sheet_ID":"北沿赤道帶 53","label":"北沿赤道帶 53","call_short":"G8001 .P6 S1000 .J3","call_num":"G8001 .P6 S1000 .J3 B-53","recid":"zz776jw5058","websiteUrl":"https://purl.stanford.edu/zz776jw5058","title":"百万分一航空圖","ckey":10162336,"web_map":"","available":"true","iiifUrl":"https://purl.stanford.edu/zz776jw5058/iiif/manifest"},"geometry":{"bbox":[111.50000000000011,12.000000000000002,120.50000000000011,18.000000000000057],"type":"Polygon","coordinates":[[[111.50000000000011,12.000000000000002],[111.50000000000011,18.000000000000057],[120.50000000000011,18.000000000000057],[120.50000000000011,12.000000000000002],[111.50000000000011,12.000000000000002]]]}},{"type":"Feature","properties":{"Id":0,"Sheet_ID":"北沿赤道帶 47","label":"北沿赤道帶 47","call_short":"G8001 .P6 S1000 .J3","call_num":"G8001 .P6 S1000 .J3 B-47","recid":"ky764wz5483","websiteUrl":"https://purl.stanford.edu/ky764wz5483","title":"百万分一應急航空圖","ckey":10162336,"web_map":"","available":"true","iiifUrl":"https://purl.stanford.edu/ky764wz5483/iiif/manifest"},"geometry":{"bbox":[119.50000000000013,12.000000000000002,128.5000000000001,18.000000000000057],"type":"Polygon","coordinates":[[[119.50000000000013,12.000000000000002],[119.50000000000013,18.000000000000057],[128.5000000000001,18.000000000000057],[128.5000000000001,12.000000000000002],[119.50000000000013,12.000000000000002]]]}},{"type":"Feature","properties":{"Id":0,"Sheet_ID":"北沿赤道帶 29","label":"北沿赤道帶 29","call_short":"G8001 .P6 S1000 .J3","call_num":"G8001 .P6 S1000 .J3 B-29","recid":"dd057yx4154","websiteUrl":"https://purl.stanford.edu/dd057yx4154","title":"百万分一應急航空圖","ckey":10162336,"web_map":"","available":"true","iiifUrl":"https://purl.stanford.edu/dd057yx4154/iiif/manifest"},"geometry":{"bbox":[143.5000000000001,12.000000000000002,152.5000000000001,18.000000000000057],"type":"Polygon","coordinates":[[[143.5000000000001,12.000000000000002],[143.5000000000001,18.000000000000057],[152.5000000000001,18.000000000000057],[152.5000000000001,12.000000000000002],[143.5000000000001,12.000000000000002]]]}},{"type":"Feature","properties":{"Id":0,"Sheet_ID":"北沿赤道帶 70","label":"北沿赤道帶 70","call_short":"","call_num":"","recid":"","websiteUrl":"","title":"","ckey":0,"web_map":"","available":"false","iiifUrl":""},"geometry":{"bbox":[87.50000000000006,17.000000000000057,96.50000000000006,23.000000000000114],"type":"Polygon","coordinates":[[[87.50000000000006,17.000000000000057],[87.50000000000006,23.000000000000114],[96.50000000000006,23.000000000000114],[96.50000000000006,17.000000000000057],[87.50000000000006,17.000000000000057]]]}},{"type":"Feature","properties":{"Id":0,"Sheet_ID":"北沿赤道帶 64","label":"北沿赤道帶 64","call_short":"G8001 .P6 S1000 .J3","call_num":"G8001 .P6 S1000 .J3 B-64","recid":"dg766xp9065","websiteUrl":"https://purl.stanford.edu/dg766xp9065","title":"百万分一航空圖","ckey":10162336,"web_map":"","available":"true","iiifUrl":"https://purl.stanford.edu/dg766xp9065/iiif/manifest"},"geometry":{"bbox":[95.50000000000007,17.000000000000057,104.50000000000007,23.000000000000114],"type":"Polygon","coordinates":[[[95.50000000000007,17.000000000000057],[95.50000000000007,23.000000000000114],[104.50000000000007,23.000000000000114],[104.50000000000007,17.000000000000057],[95.50000000000007,17.000000000000057]]]}},{"type":"Feature","properties":{"Id":0,"Sheet_ID":"北沿赤道帶 58","label":"北沿赤道帶 58","call_short":"G8001 .P6 S1000 .J3","call_num":"G8001 .P6 S1000 .J3 B-58","recid":"cy846sj4995","websiteUrl":"https://purl.stanford.edu/cy846sj4995","title":"百万分一航空圖","ckey":10162336,"web_map":"","available":"true","iiifUrl":"https://purl.stanford.edu/cy846sj4995/iiif/manifest"},"geometry":{"bbox":[103.50000000000011,17.000000000000057,112.50000000000011,23.000000000000114],"type":"Polygon","coordinates":[[[103.50000000000011,17.000000000000057],[103.50000000000011,23.000000000000114],[112.50000000000011,23.000000000000114],[112.50000000000011,17.000000000000057],[103.50000000000011,17.000000000000057]]]}},{"type":"Feature","properties":{"Id":0,"Sheet_ID":"北沿赤道帶 46","label":"北沿赤道帶 46","call_short":"G8001 .P6 S1000 .J3","call_num":"G8001 .P6 S1000 .J3 B-46","recid":"nb116px5951","websiteUrl":"https://purl.stanford.edu/nb116px5951","title":"百万分一應急航空圖","ckey":10162336,"web_map":"","available":"true","iiifUrl":"https://purl.stanford.edu/nb116px5951/iiif/manifest"},"geometry":{"bbox":[119.50000000000013,17.000000000000057,128.5000000000001,23.000000000000114],"type":"Polygon","coordinates":[[[119.50000000000013,17.000000000000057],[119.50000000000013,23.000000000000114],[128.5000000000001,23.000000000000114],[128.5000000000001,17.000000000000057],[119.50000000000013,17.000000000000057]]]}},{"type":"Feature","properties":{"Id":0,"Sheet_ID":"北沿赤道帶 34","label":"北沿赤道帶 34","call_short":"G8001 .P6 S1000 .J3","call_num":"G8001 .P6 S1000 .J3 B-34","recid":"tk542my9002","websiteUrl":"https://purl.stanford.edu/tk542my9002","title":"百万分一航空圖","ckey":10162336,"web_map":"","available":"true","iiifUrl":"https://purl.stanford.edu/tk542my9002/iiif/manifest"},"geometry":{"bbox":[135.5000000000001,17.000000000000057,144.5000000000001,23.000000000000114],"type":"Polygon","coordinates":[[[135.5000000000001,17.000000000000057],[135.5000000000001,23.000000000000114],[144.5000000000001,23.000000000000114],[144.5000000000001,17.000000000000057],[135.5000000000001,17.000000000000057]]]}},{"type":"Feature","properties":{"Id":0,"Sheet_ID":"北沿赤道帶 28","label":"北沿赤道帶 28","call_short":"G8001 .P6 S1000 .J3","call_num":"G8001 .P6 S1000 .J3 B-28","recid":"bm095gg1356","websiteUrl":"https://purl.stanford.edu/bm095gg1356","title":"百万分一應急航空圖","ckey":10162336,"web_map":"","available":"true","iiifUrl":"https://purl.stanford.edu/bm095gg1356/iiif/manifest"},"geometry":{"bbox":[143.5000000000001,17.000000000000057,152.5000000000001,23.000000000000114],"type":"Polygon","coordinates":[[[143.5000000000001,17.000000000000057],[143.5000000000001,23.000000000000114],[152.5000000000001,23.000000000000114],[152.5000000000001,17.000000000000057],[143.5000000000001,17.000000000000057]]]}},{"type":"Feature","properties":{"Id":0,"Sheet_ID":"北沿赤道帶 69","label":"北沿赤道帶 69","call_short":"","call_num":"","recid":"","websiteUrl":"","title":"","ckey":0,"web_map":"","available":"false","iiifUrl":""},"geometry":{"bbox":[87.50000000000006,22.000000000000114,96.50000000000006,28],"type":"Polygon","coordinates":[[[87.50000000000006,22.000000000000114],[87.50000000000006,28],[96.50000000000006,28],[96.50000000000006,22.000000000000114],[87.50000000000006,22.000000000000114]]]}},{"type":"Feature","properties":{"Id":0,"Sheet_ID":"北沿赤道帶 51","label":"北沿赤道帶 51","call_short":"G8001 .P6 S1000 .J3","call_num":"G8001 .P6 S1000 .J3 B-51","recid":"zf165zc3502","websiteUrl":"https://purl.stanford.edu/zf165zc3502","title":"百万分一航空圖","ckey":10162336,"web_map":"","available":"true","iiifUrl":"https://purl.stanford.edu/zf165zc3502/iiif/manifest"},"geometry":{"bbox":[111.50000000000011,22.000000000000114,120.50000000000011,28],"type":"Polygon","coordinates":[[[111.50000000000011,22.000000000000114],[111.50000000000011,28],[120.50000000000011,28],[120.50000000000011,22.000000000000114],[111.50000000000011,22.000000000000114]]]}},{"type":"Feature","properties":{"Id":0,"Sheet_ID":"北沿赤道帶 45","label":"北沿赤道帶 45","call_short":"G8001 .P6 S1000 .J3","call_num":"G8001 .P6 S1000 .J3 B-45","recid":"tw092ms5372","websiteUrl":"https://purl.stanford.edu/tw092ms5372","title":"百万分一航空圖","ckey":10162336,"web_map":"","available":"true","iiifUrl":"https://purl.stanford.edu/tw092ms5372/iiif/manifest"},"geometry":{"bbox":[119.50000000000013,22.000000000000114,128.5000000000001,28],"type":"Polygon","coordinates":[[[119.50000000000013,22.000000000000114],[119.50000000000013,28],[128.5000000000001,28],[128.5000000000001,22.000000000000114],[119.50000000000013,22.000000000000114]]]}},{"type":"Feature","properties":{"Id":0,"Sheet_ID":"北沿赤道帶 39","label":"北沿赤道帶 39","call_short":"G8001 .P6 S1000 .J3","call_num":"G8001 .P6 S1000 .J3 B-39","recid":"bp910ys7655","websiteUrl":"https://purl.stanford.edu/bp910ys7655","title":"百万分一航空圖","ckey":10162336,"web_map":"","available":"true","iiifUrl":"https://purl.stanford.edu/bp910ys7655/iiif/manifest"},"geometry":{"bbox":[127.50000000000011,22.000000000000114,136.5000000000001,28],"type":"Polygon","coordinates":[[[127.50000000000011,22.000000000000114],[127.50000000000011,28],[136.5000000000001,28],[136.5000000000001,22.000000000000114],[127.50000000000011,22.000000000000114]]]}},{"type":"Feature","properties":{"Id":0,"Sheet_ID":"北沿赤道帶 33","label":"北沿赤道帶 33","call_short":"G8001 .P6 S1000 .J3","call_num":"G8001 .P6 S1000 .J3 B-33","recid":"kf147zj1936","websiteUrl":"https://purl.stanford.edu/kf147zj1936","title":"百万分一航空圖","ckey":10162336,"web_map":"","available":"true","iiifUrl":"https://purl.stanford.edu/kf147zj1936/iiif/manifest"},"geometry":{"bbox":[135.5000000000001,22.000000000000114,144.5000000000001,28],"type":"Polygon","coordinates":[[[135.5000000000001,22.000000000000114],[135.5000000000001,28],[144.5000000000001,28],[144.5000000000001,22.000000000000114],[135.5000000000001,22.000000000000114]]]}},{"type":"Feature","properties":{"Id":0,"Sheet_ID":"北沿赤道帶 50","label":"北沿赤道帶 50","call_short":"G8001 .P6 S1000 .J3","call_num":"G8001 .P6 S1000 .J3 B-50","recid":"dv758nx0147","websiteUrl":"https://purl.stanford.edu/dv758nx0147","title":"百万分一航空圖","ckey":10162336,"web_map":"","available":"true","iiifUrl":"https://purl.stanford.edu/dv758nx0147/iiif/manifest"},"geometry":{"bbox":[111.50000000000011,27,120.50000000000011,33.00000000000006],"type":"Polygon","coordinates":[[[111.50000000000011,27],[111.50000000000011,33.00000000000006],[120.50000000000011,33.00000000000006],[120.50000000000011,27],[111.50000000000011,27]]]}},{"type":"Feature","properties":{"Id":0,"Sheet_ID":"北沿赤道帶 44","label":"北沿赤道帶 44","call_short":"G8001 .P6 S1000 .J3","call_num":"G8001 .P6 S1000 .J3 B-44","recid":"bv455gn0141","websiteUrl":"https://purl.stanford.edu/bv455gn0141","title":"百万分一航空圖","ckey":10162336,"web_map":"","available":"true","iiifUrl":"https://purl.stanford.edu/bv455gn0141/iiif/manifest"},"geometry":{"bbox":[119.50000000000013,27,128.5000000000001,33.00000000000006],"type":"Polygon","coordinates":[[[119.50000000000013,27],[119.50000000000013,33.00000000000006],[128.5000000000001,33.00000000000006],[128.5000000000001,27],[119.50000000000013,27]]]}},{"type":"Feature","properties":{"Id":0,"Sheet_ID":"北沿赤道帶 38","label":"北沿赤道帶 38","call_short":"G8001 .P6 S1000 .J3","call_num":"G8001 .P6 S1000 .J3 B-38","recid":"nr700gb8806","websiteUrl":"https://purl.stanford.edu/nr700gb8806","title":"百万分一航空圖","ckey":10162336,"web_map":"","available":"true","iiifUrl":"https://purl.stanford.edu/nr700gb8806/iiif/manifest"},"geometry":{"bbox":[127.50000000000011,27,136.5000000000001,33.00000000000006],"type":"Polygon","coordinates":[[[127.50000000000011,27],[127.50000000000011,33.00000000000006],[136.5000000000001,33.00000000000006],[136.5000000000001,27],[127.50000000000011,27]]]}},{"type":"Feature","properties":{"Id":0,"Sheet_ID":"北沿赤道帶 32","label":"北沿赤道帶 32","call_short":"","call_num":"","recid":"","websiteUrl":"","title":"","ckey":0,"web_map":"","available":"false","iiifUrl":""},"geometry":{"bbox":[135.5000000000001,27,144.5000000000001,33.00000000000006],"type":"Polygon","coordinates":[[[135.5000000000001,27],[135.5000000000001,33.00000000000006],[144.5000000000001,33.00000000000006],[144.5000000000001,27],[135.5000000000001,27]]]}},{"type":"Feature","properties":{"Id":0,"Sheet_ID":"北沿赤道帶 55","label":"北沿赤道帶 55","call_short":"G8001 .P6 S1000 .J3","call_num":"G8001 .P6 S1000 .J3 B-55","recid":"gj193tn3250","websiteUrl":"https://purl.stanford.edu/gj193tn3250","title":"百万分一航空圖","ckey":10162336,"web_map":"","available":"true","iiifUrl":"https://purl.stanford.edu/gj193tn3250/iiif/manifest"},"geometry":{"bbox":[103.50000000000011,32.000000000000114,112.50000000000011,37.99999999999994],"type":"Polygon","coordinates":[[[103.50000000000011,32.000000000000114],[103.50000000000011,37.99999999999994],[112.50000000000011,37.99999999999994],[112.50000000000011,32.000000000000114],[103.50000000000011,32.000000000000114]]]}},{"type":"Feature","properties":{"Id":0,"Sheet_ID":"北沿赤道帶 49","label":"北沿赤道帶 49","call_short":"G8001 .P6 S1000 .J3","call_num":"G8001 .P6 S1000 .J3 B-49","recid":"my261zc8147","websiteUrl":"https://purl.stanford.edu/my261zc8147","title":"百万分一航空圖","ckey":10162336,"web_map":"","available":"true","iiifUrl":"https://purl.stanford.edu/my261zc8147/iiif/manifest"},"geometry":{"bbox":[111.50000000000011,32.000000000000114,120.50000000000011,37.99999999999994],"type":"Polygon","coordinates":[[[111.50000000000011,32.000000000000114],[111.50000000000011,37.99999999999994],[120.50000000000011,37.99999999999994],[120.50000000000011,32.000000000000114],[111.50000000000011,32.000000000000114]]]}},{"type":"Feature","properties":{"Id":0,"Sheet_ID":"北沿赤道帶 43","label":"北沿赤道帶 43","call_short":"G8001 .P6 S1000 .J3","call_num":"G8001 .P6 S1000 .J3 B-43","recid":"hn698qs9223","websiteUrl":"https://purl.stanford.edu/hn698qs9223","title":"百万分一航空圖","ckey":10162336,"web_map":"","available":"true","iiifUrl":"https://purl.stanford.edu/hn698qs9223/iiif/manifest"},"geometry":{"bbox":[119.50000000000013,32.000000000000114,128.5000000000001,37.99999999999994],"type":"Polygon","coordinates":[[[119.50000000000013,32.000000000000114],[119.50000000000013,37.99999999999994],[128.5000000000001,37.99999999999994],[128.5000000000001,32.000000000000114],[119.50000000000013,32.000000000000114]]]}},{"type":"Feature","properties":{"Id":0,"Sheet_ID":"赤道帶 35","label":"赤道帶 35","call_short":"G8001 .P6 S1000 .J3","call_num":"G8001 .P6 S1000 .J3 C-35","recid":"bx976kr5269","websiteUrl":"https://purl.stanford.edu/bx976kr5269","title":"百万分一航空圖","ckey":10162336,"web_map":"","available":"true","iiifUrl":"https://purl.stanford.edu/bx976kr5269/iiif/manifest"},"geometry":{"bbox":[127.50000000000011,-13,136.5000000000001,-6.999999999999886],"type":"Polygon","coordinates":[[[127.50000000000011,-13],[127.50000000000011,-6.999999999999886],[136.5000000000001,-6.999999999999886],[136.5000000000001,-13],[127.50000000000011,-13]]]}},{"type":"Feature","properties":{"Id":0,"Sheet_ID":"赤道帶 30","label":"赤道帶 30","call_short":"G8001 .P6 S1000 .J3","call_num":"G8001 .P6 S1000 .J3 C-30","recid":"dq448sx6285","websiteUrl":"https://purl.stanford.edu/dq448sx6285","title":"百万分一航空圖","ckey":10162336,"web_map":"","available":"true","iiifUrl":"https://purl.stanford.edu/dq448sx6285/iiif/manifest"},"geometry":{"bbox":[135.5000000000001,-13,144.5000000000001,-6.999999999999886],"type":"Polygon","coordinates":[[[135.5000000000001,-13],[135.5000000000001,-6.999999999999886],[144.5000000000001,-6.999999999999886],[144.5000000000001,-13],[135.5000000000001,-13]]]}},{"type":"Feature","properties":{"Id":0,"Sheet_ID":"赤道帶 20","label":"赤道帶 20","call_short":"G8001 .P6 S1000 .J3","call_num":"G8001 .P6 S1000 .J3 C-20","recid":"yy133zv5222","websiteUrl":"https://purl.stanford.edu/yy133zv5222","title":"百万分一航空圖","ckey":10162336,"web_map":"","available":"true","iiifUrl":"https://purl.stanford.edu/yy133zv5222/iiif/manifest"},"geometry":{"bbox":[151.5,-13,160.5000000000001,-6.999999999999886],"type":"Polygon","coordinates":[[[151.5,-13],[151.5,-6.999999999999886],[160.5000000000001,-6.999999999999886],[160.5000000000001,-13],[151.5,-13]]]}},{"type":"Feature","properties":{"Id":0,"Sheet_ID":"赤道帶 44","label":"赤道帶 44","call_short":"G8001 .P6 S1000 .J3","call_num":"G8001 .P6 S1000 .J3 C-44","recid":"bh340xn7816","websiteUrl":"https://purl.stanford.edu/bh340xn7816","title":"百万分一航空圖","ckey":10162336,"web_map":"","available":"true","iiifUrl":"https://purl.stanford.edu/bh340xn7816/iiif/manifest"},"geometry":{"bbox":[111.50000000000011,-7.999999999999943,120.50000000000011,-2],"type":"Polygon","coordinates":[[[111.50000000000011,-7.999999999999943],[111.50000000000011,-2],[120.50000000000011,-2],[120.50000000000011,-7.999999999999943],[111.50000000000011,-7.999999999999943]]]}},{"type":"Feature","properties":{"Id":0,"Sheet_ID":"赤道帶 39","label":"赤道帶 39","call_short":"","call_num":"","recid":"","websiteUrl":"","title":"","ckey":0,"web_map":"","available":"false","iiifUrl":""},"geometry":{"bbox":[119.50000000000013,-7.999999999999943,128.5000000000001,-2],"type":"Polygon","coordinates":[[[119.50000000000013,-7.999999999999943],[119.50000000000013,-2],[128.5000000000001,-2],[128.5000000000001,-7.999999999999943],[119.50000000000013,-7.999999999999943]]]}},{"type":"Feature","properties":{"Id":0,"Sheet_ID":"赤道帶 34","label":"赤道帶 34","call_short":"","call_num":"","recid":"","websiteUrl":"","title":"","ckey":0,"web_map":"","available":"false","iiifUrl":""},"geometry":{"bbox":[127.50000000000011,-7.999999999999943,136.5000000000001,-2],"type":"Polygon","coordinates":[[[127.50000000000011,-7.999999999999943],[127.50000000000011,-2],[136.5000000000001,-2],[136.5000000000001,-7.999999999999943],[127.50000000000011,-7.999999999999943]]]}},{"type":"Feature","properties":{"Id":0,"Sheet_ID":"赤道帶 48","label":"赤道帶 48","call_short":"G8001 .P6 S1000 .J3","call_num":"G8001 .P6 S1000 .J3 C-48","recid":"yh966qn8578","websiteUrl":"https://purl.stanford.edu/yh966qn8578","title":"百万分一航空圖","ckey":10162336,"web_map":"","available":"true","iiifUrl":"https://purl.stanford.edu/yh966qn8578/iiif/manifest"},"geometry":{"bbox":[103.50000000000011,-2.9999999999999436,112.50000000000011,3.0000000000000004],"type":"Polygon","coordinates":[[[103.50000000000011,-2.9999999999999436],[103.50000000000011,3.0000000000000004],[112.50000000000011,3.0000000000000004],[112.50000000000011,-2.9999999999999436],[103.50000000000011,-2.9999999999999436]]]}},{"type":"Feature","properties":{"Id":0,"Sheet_ID":"赤道帶 43","label":"赤道帶 43","call_short":"G8001 .P6 S1000 .J3","call_num":"G8001 .P6 S1000 .J3 C-43","recid":"zm967rv6832","websiteUrl":"https://purl.stanford.edu/zm967rv6832","title":"百万分一航空圖","ckey":10162336,"web_map":"","available":"true","iiifUrl":"https://purl.stanford.edu/zm967rv6832/iiif/manifest"},"geometry":{"bbox":[111.50000000000011,-2.9999999999999436,120.50000000000011,3.0000000000000004],"type":"Polygon","coordinates":[[[111.50000000000011,-2.9999999999999436],[111.50000000000011,3.0000000000000004],[120.50000000000011,3.0000000000000004],[120.50000000000011,-2.9999999999999436],[111.50000000000011,-2.9999999999999436]]]}},{"type":"Feature","properties":{"Id":0,"Sheet_ID":"赤道帶 28","label":"赤道帶 28","call_short":"","call_num":"","recid":"","websiteUrl":"","title":"","ckey":0,"web_map":"","available":"false","iiifUrl":""},"geometry":{"bbox":[135.5000000000001,-2.9999999999999436,144.5000000000001,3.0000000000000004],"type":"Polygon","coordinates":[[[135.5000000000001,-2.9999999999999436],[135.5000000000001,3.0000000000000004],[144.5000000000001,3.0000000000000004],[144.5000000000001,-2.9999999999999436],[135.5000000000001,-2.9999999999999436]]]}},{"type":"Feature","properties":{"Id":0,"Sheet_ID":"赤道帶 23","label":"赤道帶 23","call_short":"","call_num":"","recid":"","websiteUrl":"","title":"","ckey":0,"web_map":"","available":"false","iiifUrl":""},"geometry":{"bbox":[143.5000000000001,-2.9999999999999436,152.5000000000001,3.0000000000000004],"type":"Polygon","coordinates":[[[143.5000000000001,-2.9999999999999436],[143.5000000000001,3.0000000000000004],[152.5000000000001,3.0000000000000004],[152.5000000000001,-2.9999999999999436],[143.5000000000001,-2.9999999999999436]]]}},{"type":"Feature","properties":{"Id":0,"Sheet_ID":"赤道帶 37","label":"赤道帶 37","call_short":"G8001 .P6 S1000 .J3","call_num":"G8001 .P6 S1000 .J3 C-37","recid":"fh299qf7350","websiteUrl":"https://purl.stanford.edu/fh299qf7350","title":"百万分一應急航空圖","ckey":10162336,"web_map":"","available":"true","iiifUrl":"https://purl.stanford.edu/fh299qf7350/iiif/manifest"},"geometry":{"bbox":[119.50000000000013,2,128.5000000000001,8.000000000000057],"type":"Polygon","coordinates":[[[119.50000000000013,2],[119.50000000000013,8.000000000000057],[128.5000000000001,8.000000000000057],[128.5000000000001,2],[119.50000000000013,2]]]}},{"type":"Feature","properties":{"Id":0,"Sheet_ID":"赤道帶 32","label":"赤道帶 32","call_short":"G8001 .P6 S1000 .J3","call_num":"G8001 .P6 S1000 .J3 C-32","recid":"gy669ss6414","websiteUrl":"https://purl.stanford.edu/gy669ss6414","title":"百万分一航空圖","ckey":10162336,"web_map":"","available":"true","iiifUrl":"https://purl.stanford.edu/gy669ss6414/iiif/manifest"},"geometry":{"bbox":[127.50000000000011,2,136.5000000000001,8.000000000000057],"type":"Polygon","coordinates":[[[127.50000000000011,2],[127.50000000000011,8.000000000000057],[136.5000000000001,8.000000000000057],[136.5000000000001,2],[127.50000000000011,2]]]}},{"type":"Feature","properties":{"Id":0,"Sheet_ID":"赤道帶 27","label":"赤道帶 27","call_short":"G8001 .P6 S1000 .J3","call_num":"G8001 .P6 S1000 .J3 C-27","recid":"dw402fj7771","websiteUrl":"https://purl.stanford.edu/dw402fj7771","title":"百万分一航空圖","ckey":10162336,"web_map":"","available":"true","iiifUrl":"https://purl.stanford.edu/dw402fj7771/iiif/manifest"},"geometry":{"bbox":[135.5000000000001,2,144.5000000000001,8.000000000000057],"type":"Polygon","coordinates":[[[135.5000000000001,2],[135.5000000000001,8.000000000000057],[144.5000000000001,8.000000000000057],[144.5000000000001,2],[135.5000000000001,2]]]}},{"type":"Feature","properties":{"Id":0,"Sheet_ID":"赤道帶 22","label":"赤道帶 22","call_short":"","call_num":"","recid":"","websiteUrl":"","title":"","ckey":0,"web_map":"","available":"false","iiifUrl":""},"geometry":{"bbox":[143.5000000000001,2,152.5000000000001,8.000000000000057],"type":"Polygon","coordinates":[[[143.5000000000001,2],[143.5000000000001,8.000000000000057],[152.5000000000001,8.000000000000057],[152.5000000000001,2],[143.5000000000001,2]]]}},{"type":"Feature","properties":{"Id":0,"Sheet_ID":"赤道帶 17","label":"赤道帶 17","call_short":"","call_num":"","recid":"","websiteUrl":"","title":"","ckey":0,"web_map":"","available":"false","iiifUrl":""},"geometry":{"bbox":[151.5,2,160.5000000000001,8.000000000000057],"type":"Polygon","coordinates":[[[151.5,2],[151.5,8.000000000000057],[160.5000000000001,8.000000000000057],[160.5000000000001,2],[151.5,2]]]}},{"type":"Feature","properties":{"Id":0,"Sheet_ID":"赤道帶 41","label":"赤道帶 41","call_short":"G8001 .P6 S1000 .J3","call_num":"G8001 .P6 S1000 .J3 C-41","recid":"mz331ht3116","websiteUrl":"https://purl.stanford.edu/mz331ht3116","title":"百万分一航空圖","ckey":10162336,"web_map":"","available":"true","iiifUrl":"https://purl.stanford.edu/mz331ht3116/iiif/manifest"},"geometry":{"bbox":[111.50000000000011,7.000000000000114,120.50000000000011,12.999999999999943],"type":"Polygon","coordinates":[[[111.50000000000011,7.000000000000114],[111.50000000000011,12.999999999999943],[120.50000000000011,12.999999999999943],[120.50000000000011,7.000000000000114],[111.50000000000011,7.000000000000114]]]}},{"type":"Feature","properties":{"Id":0,"Sheet_ID":"赤道帶 36","label":"赤道帶 36","call_short":"G8001 .P6 S1000 .J3","call_num":"G8001 .P6 S1000 .J3 C-36","recid":"fk648rp4660","websiteUrl":"https://purl.stanford.edu/fk648rp4660","title":"百万分一應急航空圖","ckey":10162336,"web_map":"","available":"true","iiifUrl":"https://purl.stanford.edu/fk648rp4660/iiif/manifest"},"geometry":{"bbox":[119.50000000000013,7.000000000000114,128.5000000000001,12.999999999999943],"type":"Polygon","coordinates":[[[119.50000000000013,7.000000000000114],[119.50000000000013,12.999999999999943],[128.5000000000001,12.999999999999943],[128.5000000000001,7.000000000000114],[119.50000000000013,7.000000000000114]]]}},{"type":"Feature","properties":{"Id":0,"Sheet_ID":"赤道帶 26","label":"赤道帶 26","call_short":"G8001 .P6 S1000 .J3","call_num":"G8001 .P6 S1000 .J3 C-26","recid":"wb941mr2008","websiteUrl":"https://purl.stanford.edu/wb941mr2008","title":"百万分一航空圖","ckey":10162336,"web_map":"","available":"true","iiifUrl":"https://purl.stanford.edu/wb941mr2008/iiif/manifest"},"geometry":{"bbox":[135.5000000000001,7.000000000000114,144.5000000000001,12.999999999999943],"type":"Polygon","coordinates":[[[135.5000000000001,7.000000000000114],[135.5000000000001,12.999999999999943],[144.5000000000001,12.999999999999943],[144.5000000000001,7.000000000000114],[135.5000000000001,7.000000000000114]]]}},{"type":"Feature","properties":{"Id":0,"Sheet_ID":"赤道帶 21","label":"赤道帶 21","call_short":"","call_num":"","recid":"","websiteUrl":"","title":"","ckey":0,"web_map":"","available":"false","iiifUrl":""},"geometry":{"bbox":[143.5000000000001,7.000000000000114,152.5000000000001,12.999999999999943],"type":"Polygon","coordinates":[[[143.5000000000001,7.000000000000114],[143.5000000000001,12.999999999999943],[152.5000000000001,12.999999999999943],[152.5000000000001,7.000000000000114],[143.5000000000001,7.000000000000114]]]}},{"type":"Feature","properties":{"Id":0,"Sheet_ID":"赤道帶 11","label":"赤道帶 11","call_short":"","call_num":"","recid":"","websiteUrl":"","title":"","ckey":0,"web_map":"","available":"false","iiifUrl":""},"geometry":{"bbox":[159.5,7.000000000000114,168.5,12.999999999999943],"type":"Polygon","coordinates":[[[159.5,7.000000000000114],[159.5,12.999999999999943],[168.5,12.999999999999943],[168.5,7.000000000000114],[159.5,7.000000000000114]]]}},{"type":"Feature","properties":{"Id":0,"Sheet_ID":"赤道帶 38","label":"赤道帶 38","call_short":"","call_num":"","recid":"","websiteUrl":"","title":"","ckey":0,"web_map":"","available":"false","iiifUrl":""},"geometry":{"bbox":[119.50000000000013,-2.9999999999999436,128.5000000000001,3.0000000000000004],"type":"Polygon","coordinates":[[[119.50000000000013,-2.9999999999999436],[119.50000000000013,3.0000000000000004],[128.5000000000001,3.0000000000000004],[128.5000000000001,-2.9999999999999436],[119.50000000000013,-2.9999999999999436]]]}}],"name":"index_10162336"}
