{"type":"FeatureCollection","features":[{"type":"Feature","properties":{"Id":0,"Sheet_ID":"SHEET 6","label":"SHEET 6","call_short":"","call_num":"","recid":"","websiteUrl":"","title":"","ckey":0,"web_map":"","available":"false","iiiUrl":""},"geometry":{"bbox":[140,-11.666667,144,-8.333333666666666],"type":"Polygon","coordinates":[[[140,-11.666667],[140,-8.333333666666666],[144,-8.333333666666666],[144,-11.666667],[140,-11.666667]]]}},{"type":"Feature","properties":{"Id":0,"Sheet_ID":"SHEET 3","label":"SHEET 3","call_short":"","call_num":"","recid":"","websiteUrl":"","title":"","ckey":0,"web_map":"","available":"false","iiiUrl":""},"geometry":{"bbox":[144,-11.666667,148,-8.333333666666666],"type":"Polygon","coordinates":[[[144,-11.666667],[144,-8.333333666666666],[148,-8.333333666666666],[148,-11.666667],[144,-11.666667]]]}},{"type":"Feature","properties":{"Id":0,"Sheet_ID":"SHEET 5","label":"SHEET 5","call_short":"","call_num":"","recid":"","websiteUrl":"","title":"","ckey":0,"web_map":"","available":"false","iiiUrl":""},"geometry":{"bbox":[140,-8.333333666666666,144,-5.0000003333333325],"type":"Polygon","coordinates":[[[140,-8.333333666666666],[140,-5.0000003333333325],[144,-5.0000003333333325],[144,-8.333333666666666],[140,-8.333333666666666]]]}},{"type":"Feature","properties":{"Id":0,"Sheet_ID":"SHEET 2","label":"SHEET 2","call_short":"","call_num":"","recid":"","websiteUrl":"","title":"","ckey":0,"web_map":"","available":"false","iiiUrl":""},"geometry":{"bbox":[144,-8.333333666666666,148,-5.0000003333333325],"type":"Polygon","coordinates":[[[144,-8.333333666666666],[144,-5.0000003333333325],[148,-5.0000003333333325],[148,-8.333333666666666],[144,-8.333333666666666]]]}},{"type":"Feature","properties":{"Id":0,"Sheet_ID":"SHEET 4","label":"SHEET 4","call_short":"G8161 .R3 S500 .J3","call_num":"G8161 .R3 S500 .J3 SHEET 4","recid":"kx434pd6966","websiteUrl":"https://purl.stanford.edu/kx434pd6966","title":"五十万分一東部パプア島兵要地誌圖","ckey":13898583,"web_map":"","available":"true","iiiUrl":"https://purl.stanford.edu/kx434pd6966/iiif/manifest"},"geometry":{"bbox":[140,-5.0000003333333325,144,-1.6666669999999986],"type":"Polygon","coordinates":[[[140,-5.0000003333333325],[140,-1.6666669999999986],[144,-1.6666669999999986],[144,-5.0000003333333325],[140,-5.0000003333333325]]]}},{"type":"Feature","properties":{"Id":0,"Sheet_ID":"SHEET 1","label":"SHEET 1","call_short":"","call_num":"","recid":"","websiteUrl":"","title":"","ckey":0,"web_map":"","available":"false","iiiUrl":""},"geometry":{"bbox":[144,-5.0000003333333325,148,-1.6666669999999986],"type":"Polygon","coordinates":[[[144,-5.0000003333333325],[144,-1.6666669999999986],[148,-1.6666669999999986],[148,-5.0000003333333325],[144,-5.0000003333333325]]]}}],"name":"index_13898583"}
