{
"type": "FeatureCollection",
"name": "index_map",
"xy_coordinate_resolution": 1e-07,
"features": [
{ "type": "Feature", "properties": { "Id": 0, "Sheet_ID": "MATANO-MEER", "label": "MATANO-MEER", "call_short": "G8110 S100 .J3", "call_num": "G8110 S100 .J3 SHEET 79-80/XXI", "recid": "zj534bt7821", "websiteUrl": "https://purl.stanford.edu/zj534bt7821", "title": "十万分一圖セレベス島", "ckey": 13897303, "available": true, "iiifUrl": "https://purl.stanford.edu/zj534bt7821/iiif/manifest" }, "geometry": { "type": "Polygon", "coordinates": [ [ [ 121.025, -2.666667 ], [ 121.475, -2.666667 ], [ 121.475, -2.333333 ], [ 121.025, -2.333333 ], [ 121.025, -2.666667 ] ] ] } },
{ "type": "Feature", "properties": { "Id": 0, "Sheet_ID": "TOTOK", "label": "TOTOK", "call_short": "G8110 S100 .J3", "call_num": "G8110 S100 .J3 SHEET 89-90/XVI", "recid": "bb750rr8926", "websiteUrl": "https://purl.stanford.edu/bb750rr8926", "title": "十万分一圖セレベス島", "ckey": 13897303, "available": true, "iiifUrl": "https://purl.stanford.edu/bb750rr8926/iiif/manifest" }, "geometry": { "type": "Polygon", "coordinates": [ [ [ 124.308333, 0.666667 ], [ 124.808333, 0.666667 ], [ 124.808333, 1.0 ], [ 124.308333, 1.0 ], [ 124.308333, 0.666667 ] ] ] } },
{ "type": "Feature", "properties": { "Id": 0, "Sheet_ID": "LIKOEPANG", "label": "LIKOEPANG", "call_short": "G8110 S100 .J3", "call_num": "G8110 S100 .J3 SHEET 90-91-92/XIII", "recid": "np314qx8804", "websiteUrl": "https://purl.stanford.edu/np314qx8804", "title": "十万分一圖セレベス島", "ckey": 13897303, "available": true, "iiifUrl": "https://purl.stanford.edu/np314qx8804/iiif/manifest" }, "geometry": { "type": "Polygon", "coordinates": [ [ [ 124.720833, 1.666667 ], [ 125.2, 1.666667 ], [ 125.2, 2.0 ], [ 124.720833, 2.0 ], [ 124.720833, 1.666667 ] ] ] } },
{ "type": "Feature", "properties": { "Id": 0, "Sheet_ID": "P. LEMBEH", "label": "P. LEMBEH", "call_short": "G8110 S100 .J3", "call_num": "G8110 S100 .J3 SHEET 92/XIV", "recid": "cm110hv0856", "websiteUrl": "https://purl.stanford.edu/cm110hv0856", "title": "十万分一圖セレベス島", "ckey": 13897303, "available": true, "iiifUrl": "https://purl.stanford.edu/cm110hv0856/iiif/manifest" }, "geometry": { "type": "Polygon", "coordinates": [ [ [ 125.141667, 1.333333 ], [ 125.475, 1.333333 ], [ 125.475, 1.666667 ], [ 125.141667, 1.666667 ], [ 125.141667, 1.333333 ] ] ] } }
]
}
