{"type":"FeatureCollection","features":[{"type":"Feature","properties":{"Id":0,"Sheet_ID":"SHEET 2","label":"SHEET 2","call_short":"G5670 1942 .J3","call_num":"G5670 1942 .J3 SHEET 2","recid":"rn784vc9463","websiteUrl":"https://purl.stanford.edu/rn784vc9463","title":"六百万分一印度及西亞","ckey":9680842,"web_map":"","available":"true","iiiUrl":"https://purl.stanford.edu/rn784vc9463/iiif/manifest"},"geometry":{"bbox":[25,0,65,49],"type":"Polygon","coordinates":[[[25,0],[25,49],[65,49],[65,0],[25,0]]]}},{"type":"Feature","properties":{"Id":0,"Sheet_ID":"SHEET 1","label":"SHEET 1","call_short":"G5670 1942 .J3","call_num":"G5670 1942 .J3 SHEET 1","recid":"dx650yf2686","websiteUrl":"https://purl.stanford.edu/dx650yf2686","title":"六百万分一印度及西亞","ckey":9680842,"web_map":"","available":"true","iiiUrl":"https://purl.stanford.edu/dx650yf2686/iiif/manifest"},"geometry":{"bbox":[65,0,105.00000000000001,49],"type":"Polygon","coordinates":[[[65,0],[65,49],[105.00000000000001,49],[105.00000000000001,0],[65,0]]]}}],"name":"index_9680842"}
