{
"type": "FeatureCollection",
"name": "index_map",
"xy_coordinate_resolution": 1e-07,
"features": [
{ "type": "Feature", "properties": { "Id": 0, "Sheet_ID": "SHEET 25", "label": "SHEET 25", "call_short": "G7824 .D3 S1 .J36", "call_num": "G7824 .D3 S1 .J36 SHEET 25", "recid": "wn462jk6325", "websiteUrl": "https://purl.stanford.edu/wn462jk6325", "title": "大連市街圖 西部", "ckey": 13901787, "available": true, "iiifUrl": "https://purl.stanford.edu/wn462jk6325/iiif/manifest" }, "geometry": { "type": "Polygon", "coordinates": [ [ [ 121.565278, 38.8947227 ], [ 121.5769446, 38.8947227 ], [ 121.5769446, 38.9016671 ], [ 121.565278, 38.9016671 ], [ 121.565278, 38.8947227 ] ] ] } },
{ "type": "Feature", "properties": { "Id": 0, "Sheet_ID": "SHEET 20", "label": "SHEET 20", "call_short": "G7824 .D3 S1 .J36", "call_num": "G7824 .D3 S1 .J36 SHEET 20", "recid": "zj818bd2692", "websiteUrl": "https://purl.stanford.edu/zj818bd2692", "title": "大連市街圖 西部", "ckey": 13901787, "available": true, "iiifUrl": "https://purl.stanford.edu/zj818bd2692/iiif/manifest" }, "geometry": { "type": "Polygon", "coordinates": [ [ [ 121.5769446, 38.8947227 ], [ 121.5886112, 38.8947227 ], [ 121.5886112, 38.9016671 ], [ 121.5769446, 38.9016671 ], [ 121.5769446, 38.8947227 ] ] ] } },
{ "type": "Feature", "properties": { "Id": 0, "Sheet_ID": "SHEET 15", "label": "SHEET 15", "call_short": "0", "call_num": "0", "recid": "0", "websiteUrl": "0", "title": "0", "ckey": 0, "available": false, "iiifUrl": "0" }, "geometry": { "type": "Polygon", "coordinates": [ [ [ 121.5886112, 38.8947227 ], [ 121.6002778, 38.8947227 ], [ 121.6002778, 38.9016671 ], [ 121.5886112, 38.9016671 ], [ 121.5886112, 38.8947227 ] ] ] } },
{ "type": "Feature", "properties": { "Id": 0, "Sheet_ID": "SHEET 10", "label": "SHEET 10", "call_short": "G7824 .D3 S1 .J36", "call_num": "G7824 .D3 S1 .J36 SHEET 10", "recid": "xb580fh3634", "websiteUrl": "https://purl.stanford.edu/xb580fh3634", "title": "大連市街圖 西部", "ckey": 13901787, "available": true, "iiifUrl": "https://purl.stanford.edu/xb580fh3634/iiif/manifest" }, "geometry": { "type": "Polygon", "coordinates": [ [ [ 121.6002778, 38.8947227 ], [ 121.6119444, 38.8947227 ], [ 121.6119444, 38.9016671 ], [ 121.6002778, 38.9016671 ], [ 121.6002778, 38.8947227 ] ] ] } },
{ "type": "Feature", "properties": { "Id": 0, "Sheet_ID": "SHEET 5", "label": "SHEET 5", "call_short": "0", "call_num": "0", "recid": "0", "websiteUrl": "0", "title": "0", "ckey": 0, "available": false, "iiifUrl": "0" }, "geometry": { "type": "Polygon", "coordinates": [ [ [ 121.6119444, 38.8947227 ], [ 121.623611, 38.8947227 ], [ 121.623611, 38.9016671 ], [ 121.6119444, 38.9016671 ], [ 121.6119444, 38.8947227 ] ] ] } },
{ "type": "Feature", "properties": { "Id": 0, "Sheet_ID": "SHEET 24", "label": "SHEET 24", "call_short": "0", "call_num": "0", "recid": "0", "websiteUrl": "0", "title": "0", "ckey": 0, "available": false, "iiifUrl": "0" }, "geometry": { "type": "Polygon", "coordinates": [ [ [ 121.565278, 38.9016671 ], [ 121.5769446, 38.9016671 ], [ 121.5769446, 38.9086115 ], [ 121.565278, 38.9086115 ], [ 121.565278, 38.9016671 ] ] ] } },
{ "type": "Feature", "properties": { "Id": 0, "Sheet_ID": "SHEET 19", "label": "SHEET 19", "call_short": "G7824 .D3 S1 .J36", "call_num": "G7824 .D3 S1 .J36 SHEET 19", "recid": "kd009yr0585", "websiteUrl": "https://purl.stanford.edu/kd009yr0585", "title": "大連市街圖 西部", "ckey": 13901787, "available": true, "iiifUrl": "https://purl.stanford.edu/kd009yr0585/iiif/manifest" }, "geometry": { "type": "Polygon", "coordinates": [ [ [ 121.5769446, 38.9016671 ], [ 121.5886112, 38.9016671 ], [ 121.5886112, 38.9086115 ], [ 121.5769446, 38.9086115 ], [ 121.5769446, 38.9016671 ] ] ] } },
{ "type": "Feature", "properties": { "Id": 0, "Sheet_ID": "SHEET 14", "label": "SHEET 14", "call_short": "G7824 .D3 S1 .J36", "call_num": "G7824 .D3 S1 .J36 SHEET 14", "recid": "yd580vg8802", "websiteUrl": "https://purl.stanford.edu/yd580vg8802", "title": "大連市街圖 西部", "ckey": 13901787, "available": true, "iiifUrl": "https://purl.stanford.edu/yd580vg8802/iiif/manifest" }, "geometry": { "type": "Polygon", "coordinates": [ [ [ 121.5886112, 38.9016671 ], [ 121.6002778, 38.9016671 ], [ 121.6002778, 38.9086115 ], [ 121.5886112, 38.9086115 ], [ 121.5886112, 38.9016671 ] ] ] } },
{ "type": "Feature", "properties": { "Id": 0, "Sheet_ID": "SHEET 9", "label": "SHEET 9", "call_short": "0", "call_num": "0", "recid": "0", "websiteUrl": "0", "title": "0", "ckey": 0, "available": false, "iiifUrl": "0" }, "geometry": { "type": "Polygon", "coordinates": [ [ [ 121.6002778, 38.9016671 ], [ 121.6119444, 38.9016671 ], [ 121.6119444, 38.9086115 ], [ 121.6002778, 38.9086115 ], [ 121.6002778, 38.9016671 ] ] ] } },
{ "type": "Feature", "properties": { "Id": 0, "Sheet_ID": "SHEET 4", "label": "SHEET 4", "call_short": "0", "call_num": "0", "recid": "0", "websiteUrl": "0", "title": "0", "ckey": 0, "available": false, "iiifUrl": "0" }, "geometry": { "type": "Polygon", "coordinates": [ [ [ 121.6119444, 38.9016671 ], [ 121.623611, 38.9016671 ], [ 121.623611, 38.9086115 ], [ 121.6119444, 38.9086115 ], [ 121.6119444, 38.9016671 ] ] ] } },
{ "type": "Feature", "properties": { "Id": 0, "Sheet_ID": "SHEET 23", "label": "SHEET 23", "call_short": "0", "call_num": "0", "recid": "0", "websiteUrl": "0", "title": "0", "ckey": 0, "available": false, "iiifUrl": "0" }, "geometry": { "type": "Polygon", "coordinates": [ [ [ 121.565278, 38.9086115 ], [ 121.5769446, 38.9086115 ], [ 121.5769446, 38.9155559 ], [ 121.565278, 38.9155559 ], [ 121.565278, 38.9086115 ] ] ] } },
{ "type": "Feature", "properties": { "Id": 0, "Sheet_ID": "SHEET 18", "label": "SHEET 18", "call_short": "G7824 .D3 S1 .J36", "call_num": "G7824 .D3 S1 .J36 SHEET 18", "recid": "hh078ds7004", "websiteUrl": "https://purl.stanford.edu/hh078ds7004", "title": "大連市街圖 西部", "ckey": 13901787, "available": true, "iiifUrl": "https://purl.stanford.edu/hh078ds7004/iiif/manifest" }, "geometry": { "type": "Polygon", "coordinates": [ [ [ 121.5769446, 38.9086115 ], [ 121.5886112, 38.9086115 ], [ 121.5886112, 38.9155559 ], [ 121.5769446, 38.9155559 ], [ 121.5769446, 38.9086115 ] ] ] } },
{ "type": "Feature", "properties": { "Id": 0, "Sheet_ID": "SHEET 13", "label": "SHEET 13", "call_short": "0", "call_num": "0", "recid": "0", "websiteUrl": "0", "title": "0", "ckey": 0, "available": false, "iiifUrl": "0" }, "geometry": { "type": "Polygon", "coordinates": [ [ [ 121.5886112, 38.9086115 ], [ 121.6002778, 38.9086115 ], [ 121.6002778, 38.9155559 ], [ 121.5886112, 38.9155559 ], [ 121.5886112, 38.9086115 ] ] ] } },
{ "type": "Feature", "properties": { "Id": 0, "Sheet_ID": "SHEET 8", "label": "SHEET 8", "call_short": "0", "call_num": "0", "recid": "0", "websiteUrl": "0", "title": "0", "ckey": 0, "available": false, "iiifUrl": "0" }, "geometry": { "type": "Polygon", "coordinates": [ [ [ 121.6002778, 38.9086115 ], [ 121.6119444, 38.9086115 ], [ 121.6119444, 38.9155559 ], [ 121.6002778, 38.9155559 ], [ 121.6002778, 38.9086115 ] ] ] } },
{ "type": "Feature", "properties": { "Id": 0, "Sheet_ID": "SHEET 3", "label": "SHEET 3", "call_short": "G7824 .D3 S1 .J36", "call_num": "G7824 .D3 S1 .J36 SHEET 3", "recid": "cn821vk0060", "websiteUrl": "https://purl.stanford.edu/cn821vk0060", "title": "大連市街圖 西部", "ckey": 13901787, "available": true, "iiifUrl": "https://purl.stanford.edu/cn821vk0060/iiif/manifest" }, "geometry": { "type": "Polygon", "coordinates": [ [ [ 121.6119444, 38.9086115 ], [ 121.623611, 38.9086115 ], [ 121.623611, 38.9155559 ], [ 121.6119444, 38.9155559 ], [ 121.6119444, 38.9086115 ] ] ] } },
{ "type": "Feature", "properties": { "Id": 0, "Sheet_ID": "SHEET 22", "label": "SHEET 22", "call_short": "0", "call_num": "0", "recid": "0", "websiteUrl": "0", "title": "0", "ckey": 0, "available": false, "iiifUrl": "0" }, "geometry": { "type": "Polygon", "coordinates": [ [ [ 121.565278, 38.9155559 ], [ 121.5769446, 38.9155559 ], [ 121.5769446, 38.9225003 ], [ 121.565278, 38.9225003 ], [ 121.565278, 38.9155559 ] ] ] } },
{ "type": "Feature", "properties": { "Id": 0, "Sheet_ID": "SHEET 17", "label": "SHEET 17", "call_short": "0", "call_num": "0", "recid": "0", "websiteUrl": "0", "title": "0", "ckey": 0, "available": false, "iiifUrl": "0" }, "geometry": { "type": "Polygon", "coordinates": [ [ [ 121.5769446, 38.9155559 ], [ 121.5886112, 38.9155559 ], [ 121.5886112, 38.9225003 ], [ 121.5769446, 38.9225003 ], [ 121.5769446, 38.9155559 ] ] ] } },
{ "type": "Feature", "properties": { "Id": 0, "Sheet_ID": "SHEET 12", "label": "SHEET 12", "call_short": "0", "call_num": "0", "recid": "0", "websiteUrl": "0", "title": "0", "ckey": 0, "available": false, "iiifUrl": "0" }, "geometry": { "type": "Polygon", "coordinates": [ [ [ 121.5886112, 38.9155559 ], [ 121.6002778, 38.9155559 ], [ 121.6002778, 38.9225003 ], [ 121.5886112, 38.9225003 ], [ 121.5886112, 38.9155559 ] ] ] } },
{ "type": "Feature", "properties": { "Id": 0, "Sheet_ID": "SHEET 7", "label": "SHEET 7", "call_short": "G7824 .D3 S1 .J36", "call_num": "G7824 .D3 S1 .J36 SHEET 7", "recid": "hp361cn8056", "websiteUrl": "https://purl.stanford.edu/hp361cn8056", "title": "大連市街圖 西部", "ckey": 13901787, "available": true, "iiifUrl": "https://purl.stanford.edu/hp361cn8056/iiif/manifest" }, "geometry": { "type": "Polygon", "coordinates": [ [ [ 121.6002778, 38.9155559 ], [ 121.6119444, 38.9155559 ], [ 121.6119444, 38.9225003 ], [ 121.6002778, 38.9225003 ], [ 121.6002778, 38.9155559 ] ] ] } },
{ "type": "Feature", "properties": { "Id": 0, "Sheet_ID": "SHEET 2", "label": "SHEET 2", "call_short": "G7824 .D3 S1 .J36", "call_num": "G7824 .D3 S1 .J36 SHEET 2", "recid": "hp434rs3843", "websiteUrl": "https://purl.stanford.edu/hp434rs3843", "title": "大連市街圖 西部", "ckey": 13901787, "available": true, "iiifUrl": "https://purl.stanford.edu/hp434rs3843/iiif/manifest" }, "geometry": { "type": "Polygon", "coordinates": [ [ [ 121.6119444, 38.9155559 ], [ 121.623611, 38.9155559 ], [ 121.623611, 38.9225003 ], [ 121.6119444, 38.9225003 ], [ 121.6119444, 38.9155559 ] ] ] } },
{ "type": "Feature", "properties": { "Id": 0, "Sheet_ID": "SHEET 21", "label": "SHEET 21", "call_short": "0", "call_num": "0", "recid": "0", "websiteUrl": "0", "title": "0", "ckey": 0, "available": false, "iiifUrl": "0" }, "geometry": { "type": "Polygon", "coordinates": [ [ [ 121.565278, 38.9225003 ], [ 121.5769446, 38.9225003 ], [ 121.5769446, 38.9294447 ], [ 121.565278, 38.9294447 ], [ 121.565278, 38.9225003 ] ] ] } },
{ "type": "Feature", "properties": { "Id": 0, "Sheet_ID": "SHEET 16", "label": "SHEET 16", "call_short": "0", "call_num": "0", "recid": "0", "websiteUrl": "0", "title": "0", "ckey": 0, "available": false, "iiifUrl": "0" }, "geometry": { "type": "Polygon", "coordinates": [ [ [ 121.5769446, 38.9225003 ], [ 121.5886112, 38.9225003 ], [ 121.5886112, 38.9294447 ], [ 121.5769446, 38.9294447 ], [ 121.5769446, 38.9225003 ] ] ] } },
{ "type": "Feature", "properties": { "Id": 0, "Sheet_ID": "SHEET 11", "label": "SHEET 11", "call_short": "0", "call_num": "0", "recid": "0", "websiteUrl": "0", "title": "0", "ckey": 0, "available": false, "iiifUrl": "0" }, "geometry": { "type": "Polygon", "coordinates": [ [ [ 121.5886112, 38.9225003 ], [ 121.6002778, 38.9225003 ], [ 121.6002778, 38.9294447 ], [ 121.5886112, 38.9294447 ], [ 121.5886112, 38.9225003 ] ] ] } },
{ "type": "Feature", "properties": { "Id": 0, "Sheet_ID": "SHEET 6", "label": "SHEET 6", "call_short": "G7824 .D3 S1 .J36", "call_num": "G7824 .D3 S1 .J36 SHEET 6", "recid": "sy753my9606", "websiteUrl": "https://purl.stanford.edu/sy753my9606", "title": "大連市街圖 西部", "ckey": 13901787, "available": true, "iiifUrl": "https://purl.stanford.edu/sy753my9606/iiif/manifest" }, "geometry": { "type": "Polygon", "coordinates": [ [ [ 121.6002778, 38.9225003 ], [ 121.6119444, 38.9225003 ], [ 121.6119444, 38.9294447 ], [ 121.6002778, 38.9294447 ], [ 121.6002778, 38.9225003 ] ] ] } },
{ "type": "Feature", "properties": { "Id": 0, "Sheet_ID": "SHEET 1", "label": "SHEET 1", "call_short": "0", "call_num": "0", "recid": "0", "websiteUrl": "0", "title": "0", "ckey": 0, "available": false, "iiifUrl": "0" }, "geometry": { "type": "Polygon", "coordinates": [ [ [ 121.6119444, 38.9225003 ], [ 121.623611, 38.9225003 ], [ 121.623611, 38.9294447 ], [ 121.6119444, 38.9294447 ], [ 121.6119444, 38.9225003 ] ] ] } }
]
}
