{
"type": "FeatureCollection",
"name": "index_map",
"features": [
{ "type": "Feature", "properties": { "Id": 0, "Sheet_ID": "1. 交趾支那 - マライ・スマトラ", "label": "1. 交趾支那 - マライ・スマトラ", "call_short": "G8000 S2000 .J3", "call_num": "G8000 S2000 .J3 SHEET 1", "recid": "kn203nd7912", "websiteUrl": "https://purl.stanford.edu/kn203nd7912", "title": "二百万分一南方圖", "ckey": 10496422, "available": true, "iiifUrl": "https://purl.stanford.edu/kn203nd7912/iiif/manifest" }, "geometry": { "type": "Polygon", "coordinates": [ [ [ 95.0, -7.25 ], [ 107.666667, -7.25 ], [ 107.666667, 11.666667 ], [ 95.0, 11.666667 ], [ 95.0, -7.25 ] ] ] } },
{ "type": "Feature", "properties": { "Id": 0, "Sheet_ID": "2. ボルネオ - ジャワ", "label": "2. ボルネオ - ジャワ", "call_short": "G8000 S2000 .J3", "call_num": "G8000 S2000 .J3 SHEET 2", "recid": "hj824jq0099", "websiteUrl": "https://purl.stanford.edu/hj824jq0099", "title": "二百万分一南方圖", "ckey": 10496422, "available": true, "iiifUrl": "https://purl.stanford.edu/hj824jq0099/iiif/manifest" }, "geometry": { "type": "Polygon", "coordinates": [ [ [ 106.333333, -10.5 ], [ 119.5, -10.5 ], [ 119.5, 7.5 ], [ 106.333333, 7.5 ], [ 106.333333, -10.5 ] ] ] } },
{ "type": "Feature", "properties": { "Id": 0, "Sheet_ID": "3. ミンダナオ南部 - セレベス・ティモール", "label": "3. ミンダナオ南部 - セレベス・ティモール", "call_short": "G8000 S2000 .J3", "call_num": "G8000 S2000 .J3 SHEET 3", "recid": "zp524dh1068", "websiteUrl": "https://purl.stanford.edu/zp524dh1068", "title": "二百万分一南方圖", "ckey": 10496422, "available": true, "iiifUrl": "https://purl.stanford.edu/zp524dh1068/iiif/manifest" }, "geometry": { "type": "Polygon", "coordinates": [ [ [ 117.0, -11.0 ], [ 130.0, -11.0 ], [ 130.0, 7.333333 ], [ 117.0, 7.333333 ], [ 117.0, -11.0 ] ] ] } },
{ "type": "Feature", "properties": { "Id": 0, "Sheet_ID": "4. フィリッピン - ボルネオ北部", "label": "4. フィリッピン - ボルネオ北部", "call_short": "G8000 S2000 .J3", "call_num": "G8000 S2000 .J3 SHEET 4", "recid": "ny954nz7433", "websiteUrl": "https://purl.stanford.edu/ny954nz7433", "title": "二百万分一南方圖", "ckey": 10496422, "available": true, "iiifUrl": "https://purl.stanford.edu/ny954nz7433/iiif/manifest" }, "geometry": { "type": "Polygon", "coordinates": [ [ [ 114.0, 2.0 ], [ 127.0, 2.0 ], [ 127.0, 20.0 ], [ 114.0, 20.0 ], [ 114.0, 2.0 ] ] ] } },
{ "type": "Feature", "properties": { "Id": 0, "Sheet_ID": "5. 海南島 - サイゴン - ラングーン", "label": "5. 海南島 - サイゴン - ラングーン", "call_short": "G8000 S2000 .J3", "call_num": "G8000 S2000 .J3 SHEET 5", "recid": "dj643nr8775", "websiteUrl": "https://purl.stanford.edu/dj643nr8775", "title": "二百万分一南方圖", "ckey": 10496422, "available": true, "iiifUrl": "https://purl.stanford.edu/dj643nr8775/iiif/manifest" }, "geometry": { "type": "Polygon", "coordinates": [ [ [ 96.0, 7.166667 ], [ 114.666667, 7.166667 ], [ 114.666667, 20.0 ], [ 96.0, 20.0 ], [ 96.0, 7.166667 ] ] ] } },
{ "type": "Feature", "properties": { "Id": 0, "Sheet_ID": "6. ハノイ - バンコク - カルカッタ", "label": "6. ハノイ - バンコク - カルカッタ", "call_short": "G8000 S2000 .J3", "call_num": "G8000 S2000 .J3 SHEET 6", "recid": "jw239nc5204", "websiteUrl": "https://purl.stanford.edu/jw239nc5204", "title": "二百万分一南方圖", "ckey": 10496422, "available": true, "iiifUrl": "https://purl.stanford.edu/jw239nc5204/iiif/manifest" }, "geometry": { "type": "Polygon", "coordinates": [ [ [ 88.0, 13.166667 ], [ 106.0, 13.166667 ], [ 106.0, 25.833333 ], [ 88.0, 25.833333 ], [ 88.0, 13.166667 ] ] ] } },
{ "type": "Feature", "properties": { "Id": 0, "Sheet_ID": "7. パラオ - ニューギニァ西部", "label": "7. パラオ - ニューギニァ西部", "call_short": "G8000 S2000 .J3", "call_num": "G8000 S2000 .J3 SHEET 7", "recid": "xt947nn2262", "websiteUrl": "https://purl.stanford.edu/xt947nn2262", "title": "二百万分一南方圖", "ckey": 10496422, "available": true, "iiifUrl": "https://purl.stanford.edu/xt947nn2262/iiif/manifest" }, "geometry": { "type": "Polygon", "coordinates": [ [ [ 125.0, -10.0 ], [ 138.0, -10.0 ], [ 138.0, 8.0 ], [ 125.0, 8.0 ], [ 125.0, -10.0 ] ] ] } },
{ "type": "Feature", "properties": { "Id": 0, "Sheet_ID": "8. ティモール - 濠洲ポートダーウィン ED.2", "label": "8. ティモール - 濠洲ポートダーウィン ED.2", "call_short": "G8000 S2000 .J3", "call_num": "G8000 S2000 .J3 SHEET 8 ED.2", "recid": "qp658xp4271", "websiteUrl": "https://purl.stanford.edu/qp658xp4271", "title": "二百万分一南方圖", "ckey": 10496422, "available": true, "iiifUrl": "https://purl.stanford.edu/qp658xp4271/iiif/manifest" }, "geometry": { "type": "Polygon", "coordinates": [ [ [ 122.0, -16.5 ], [ 135.0, -16.5 ], [ 135.0, -7.5 ], [ 122.0, -7.5 ], [ 122.0, -16.5 ] ] ] } },
{ "type": "Feature", "properties": { "Id": 0, "Sheet_ID": "8. ティモール - 濠洲ポートダーウィン", "label": "8. ティモール - 濠洲ポートダーウィン", "call_short": "G8000 S2000 .J3", "call_num": "G8000 S2000 .J3 SHEET 8", "recid": "xw634zh3059", "websiteUrl": "https://purl.stanford.edu/xw634zh3059", "title": "二百万分一南方圖", "ckey": 10496422, "available": true, "iiifUrl": "https://purl.stanford.edu/xw634zh3059/iiif/manifest" }, "geometry": { "type": "Polygon", "coordinates": [ [ [ 122.0, -16.5 ], [ 135.0, -16.5 ], [ 135.0, -7.5 ], [ 122.0, -7.5 ], [ 122.0, -16.5 ] ] ] } },
{ "type": "Feature", "properties": { "Id": 0, "Sheet_ID": "9. トラック - グァム - パラオ", "label": "9. トラック - グァム - パラオ", "call_short": null, "call_num": null, "recid": null, "websiteUrl": null, "title": null, "ckey": 0, "available": false, "iiifUrl": null }, "geometry": { "type": "Polygon", "coordinates": [ [ [ 134.0, 4.0 ], [ 152.333333, 4.0 ], [ 152.333333, 15.0 ], [ 134.0, 15.0 ], [ 134.0, 4.0 ] ] ] } },
{ "type": "Feature", "properties": { "Id": 0, "Sheet_ID": "10. 小笠原 - グァム", "label": "10. 小笠原 - グァム", "call_short": null, "call_num": null, "recid": null, "websiteUrl": null, "title": null, "ckey": 0, "available": false, "iiifUrl": null }, "geometry": { "type": "Polygon", "coordinates": [ [ [ 136.0, 12.5 ], [ 148.666667, 12.5 ], [ 148.666667, 29.0 ], [ 136.0, 29.0 ], [ 136.0, 12.5 ] ] ] } }
]
}
