{
"type": "FeatureCollection",
"name": "index_map",
"xy_coordinate_resolution": 1e-07,
"features": [
{ "type": "Feature", "properties": { "Id": 0, "Sheet_ID": "9. 張登鎮", "label": "9. 張登鎮", "call_short": "G7824 .P35 A1 1937 .J3", "call_num": "G7824 .P35 A1 1937 .J3 SHEET 9", "recid": "pm750dk8142", "websiteUrl": "https://purl.stanford.edu/pm750dk8142", "title": "二万分一保定近傍", "ckey": 9680624, "available": true, "iiifUrl": "https://purl.stanford.edu/pm750dk8142/iiif/manifest" }, "geometry": { "type": "Polygon", "coordinates": [ [ [ 115.266667, 38.5 ], [ 115.4444447, 38.5 ], [ 115.4444447, 38.7 ], [ 115.266667, 38.7 ], [ 115.266667, 38.5 ] ] ] } },
{ "type": "Feature", "properties": { "Id": 0, "Sheet_ID": "6. 草橋", "label": "6. 草橋", "call_short": "G7824 .P35 A1 1937 .J3", "call_num": "G7824 .P35 A1 1937 .J3 SHEET 6", "recid": "jr981sp0427", "websiteUrl": "https://purl.stanford.edu/jr981sp0427", "title": "二万分一保定近傍", "ckey": 9680624, "available": true, "iiifUrl": "https://purl.stanford.edu/jr981sp0427/iiif/manifest" }, "geometry": { "type": "Polygon", "coordinates": [ [ [ 115.4444447, 38.5 ], [ 115.6222223, 38.5 ], [ 115.6222223, 38.7 ], [ 115.4444447, 38.7 ], [ 115.4444447, 38.5 ] ] ] } },
{ "type": "Feature", "properties": { "Id": 0, "Sheet_ID": "3. 高陽", "label": "3. 高陽", "call_short": "G7824 .P35 A1 1937 .J3", "call_num": "G7824 .P35 A1 1937 .J3 SHEET 3", "recid": "ry161dx4436", "websiteUrl": "https://purl.stanford.edu/ry161dx4436", "title": "二万分一保定近傍", "ckey": 9680624, "available": true, "iiifUrl": "https://purl.stanford.edu/ry161dx4436/iiif/manifest" }, "geometry": { "type": "Polygon", "coordinates": [ [ [ 115.6222223, 38.5 ], [ 115.8, 38.5 ], [ 115.8, 38.7 ], [ 115.6222223, 38.7 ], [ 115.6222223, 38.5 ] ] ] } },
{ "type": "Feature", "properties": { "Id": 0, "Sheet_ID": "8. 江城", "label": "8. 江城", "call_short": "G7824 .P35 A1 1937 .J3", "call_num": "G7824 .P35 A1 1937 .J3 SHEET 8", "recid": "kd889vj0788", "websiteUrl": "https://purl.stanford.edu/kd889vj0788", "title": "二万分一保定近傍", "ckey": 9680624, "available": true, "iiifUrl": "https://purl.stanford.edu/kd889vj0788/iiif/manifest" }, "geometry": { "type": "Polygon", "coordinates": [ [ [ 115.266667, 38.7 ], [ 115.4444447, 38.7 ], [ 115.4444447, 38.9 ], [ 115.266667, 38.9 ], [ 115.266667, 38.7 ] ] ] } },
{ "type": "Feature", "properties": { "Id": 0, "Sheet_ID": "5. 保定", "label": "5. 保定", "call_short": "G7824 .P35 A1 1937 .J3", "call_num": "G7824 .P35 A1 1937 .J3 SHEET 5", "recid": "rh840py5124", "websiteUrl": "https://purl.stanford.edu/rh840py5124", "title": "二万分一保定近傍", "ckey": 9680624, "available": true, "iiifUrl": "https://purl.stanford.edu/rh840py5124/iiif/manifest" }, "geometry": { "type": "Polygon", "coordinates": [ [ [ 115.4444447, 38.7 ], [ 115.6222223, 38.7 ], [ 115.6222223, 38.9 ], [ 115.4444447, 38.9 ], [ 115.4444447, 38.7 ] ] ] } },
{ "type": "Feature", "properties": { "Id": 0, "Sheet_ID": "2. 臧村", "label": "2. 臧村", "call_short": "G7824 .P35 A1 1937 .J3", "call_num": "G7824 .P35 A1 1937 .J3 SHEET 2", "recid": "np720wk9248", "websiteUrl": "https://purl.stanford.edu/np720wk9248", "title": "二万分一保定近傍", "ckey": 9680624, "available": true, "iiifUrl": "https://purl.stanford.edu/np720wk9248/iiif/manifest" }, "geometry": { "type": "Polygon", "coordinates": [ [ [ 115.6222223, 38.7 ], [ 115.8, 38.7 ], [ 115.8, 38.9 ], [ 115.6222223, 38.9 ], [ 115.6222223, 38.7 ] ] ] } },
{ "type": "Feature", "properties": { "Id": 0, "Sheet_ID": "7. 瀰城", "label": "7. 瀰城", "call_short": "G7824 .P35 A1 1937 .J3", "call_num": "G7824 .P35 A1 1937 .J3 SHEET 7", "recid": "jd411dz0417", "websiteUrl": "https://purl.stanford.edu/jd411dz0417", "title": "二万分一保定近傍", "ckey": 9680624, "available": true, "iiifUrl": "https://purl.stanford.edu/jd411dz0417/iiif/manifest" }, "geometry": { "type": "Polygon", "coordinates": [ [ [ 115.266667, 38.9 ], [ 115.4444447, 38.9 ], [ 115.4444447, 39.1 ], [ 115.266667, 39.1 ], [ 115.266667, 38.9 ] ] ] } },
{ "type": "Feature", "properties": { "Id": 0, "Sheet_ID": "4. 漕河", "label": "4. 漕河", "call_short": "G7824 .P35 A1 1937 .J3", "call_num": "G7824 .P35 A1 1937 .J3 SHEET 4", "recid": "hb447yd6966", "websiteUrl": "https://purl.stanford.edu/hb447yd6966", "title": "二万分一保定近傍", "ckey": 9680624, "available": true, "iiifUrl": "https://purl.stanford.edu/hb447yd6966/iiif/manifest" }, "geometry": { "type": "Polygon", "coordinates": [ [ [ 115.4444447, 38.9 ], [ 115.6222223, 38.9 ], [ 115.6222223, 39.1 ], [ 115.4444447, 39.1 ], [ 115.4444447, 38.9 ] ] ] } },
{ "type": "Feature", "properties": { "Id": 0, "Sheet_ID": "1. 徐水", "label": "1. 徐水", "call_short": "G7824 .P35 A1 1937 .J3", "call_num": "G7824 .P35 A1 1937 .J3 SHEET 1", "recid": "zx573kx4334", "websiteUrl": "https://purl.stanford.edu/zx573kx4334", "title": "二万分一保定近傍", "ckey": 9680624, "available": true, "iiifUrl": "https://purl.stanford.edu/zx573kx4334/iiif/manifest" }, "geometry": { "type": "Polygon", "coordinates": [ [ [ 115.6222223, 38.9 ], [ 115.8, 38.9 ], [ 115.8, 39.1 ], [ 115.6222223, 39.1 ], [ 115.6222223, 38.9 ] ] ] } }
]
}
