{"type":"FeatureCollection","features":[{"type":"Feature","properties":{"Id":0,"Sheet_ID":"5. 湯原","label":"5. 湯原","call_short":"G7823 .B5 S100 .J3","call_num":"G7823 .B5 S100 .J3 SHEET 5","recid":"yv825vm7830","websiteUrl":"https://purl.stanford.edu/yv825vm7830","title":"満州十万分一圖 小興安嶺","ckey":12375436,"web_map":"","available":"true","iiifUrl":"https://purl.stanford.edu/yv825vm7830/iiif/manifest"},"geometry":{"bbox":[129,46.666667,130,47.333333599999996],"type":"Polygon","coordinates":[[[129,46.666667],[129,47.333333599999996],[130,47.333333599999996],[130,46.666667],[129,46.666667]]]}},{"type":"Feature","properties":{"Id":0,"Sheet_ID":"4. 屯鄂模","label":"4. 屯鄂模","call_short":"G7823 .B5 S100 .J3","call_num":"G7823 .B5 S100 .J3 SHEET 4","recid":"td008qx2655","websiteUrl":"https://purl.stanford.edu/td008qx2655","title":"満州十万分一圖 小興安嶺","ckey":12375436,"web_map":"","available":"true","iiifUrl":"https://purl.stanford.edu/td008qx2655/iiif/manifest"},"geometry":{"bbox":[129,47.333333599999996,130,48.000000199999995],"type":"Polygon","coordinates":[[[129,47.333333599999996],[129,48.000000199999995],[130,48.000000199999995],[130,47.333333599999996],[129,47.333333599999996]]]}},{"type":"Feature","properties":{"Id":0,"Sheet_ID":"23. 克山","label":"23. 克山","call_short":"G7823 .B5 S100 .J3","call_num":"G7823 .B5 S100 .J3 SHEET 23","recid":"vv423sx8768","websiteUrl":"https://purl.stanford.edu/vv423sx8768","title":"満州十万分一圖 小興安嶺","ckey":12375436,"web_map":"","available":"true","iiifUrl":"https://purl.stanford.edu/vv423sx8768/iiif/manifest"},"geometry":{"bbox":[125.00000000000001,48.000000199999995,126,48.666666799999994],"type":"Polygon","coordinates":[[[125.00000000000001,48.000000199999995],[125.00000000000001,48.666666799999994],[126,48.666666799999994],[126,48.000000199999995],[125.00000000000001,48.000000199999995]]]}},{"type":"Feature","properties":{"Id":0,"Sheet_ID":"18. 二克山","label":"18. 二克山","call_short":"G7823 .B5 S100 .J3","call_num":"G7823 .B5 S100 .J3 SHEET 18","recid":"jj856sj8600","websiteUrl":"https://purl.stanford.edu/jj856sj8600","title":"満州十万分一圖 小興安嶺","ckey":12375436,"web_map":"","available":"true","iiifUrl":"https://purl.stanford.edu/jj856sj8600/iiif/manifest"},"geometry":{"bbox":[126,48.000000199999995,127.00000000000001,48.666666799999994],"type":"Polygon","coordinates":[[[126,48.000000199999995],[126,48.666666799999994],[127.00000000000001,48.666666799999994],[127.00000000000001,48.000000199999995],[126,48.000000199999995]]]}},{"type":"Feature","properties":{"Id":0,"Sheet_ID":"13-1. 天日弘墾公司 (1)","label":"13-1. 天日弘墾公司 (1)","call_short":"G7823 .B5 S100 .J3","call_num":"G7823 .B5 S100 .J3 SHEET 13-1","recid":"jc852tq9446","websiteUrl":"https://purl.stanford.edu/jc852tq9446","title":"満州十万分一圖 小興安嶺","ckey":12375436,"web_map":"","available":"true","iiifUrl":"https://purl.stanford.edu/jc852tq9446/iiif/manifest"},"geometry":{"bbox":[127.50000000000011,48.00000019999993,128,48.66666680000003],"type":"Polygon","coordinates":[[[127.50000000000011,48.00000019999993],[127.50000000000011,48.66666680000003],[128,48.66666680000003],[128,48.00000019999993],[127.50000000000011,48.00000019999993]]]}},{"type":"Feature","properties":{"Id":0,"Sheet_ID":"8. 科爾芬河原","label":"8. 科爾芬河原","call_short":"G7823 .B5 S100 .J3","call_num":"G7823 .B5 S100 .J3 SHEET 8","recid":"kr621pk4467","websiteUrl":"https://purl.stanford.edu/kr621pk4467","title":"満州十万分一圖 小興安嶺","ckey":12375436,"web_map":"","available":"true","iiifUrl":"https://purl.stanford.edu/kr621pk4467/iiif/manifest"},"geometry":{"bbox":[128,48.000000199999995,129,48.666666799999994],"type":"Polygon","coordinates":[[[128,48.000000199999995],[128,48.666666799999994],[129,48.666666799999994],[129,48.000000199999995],[128,48.000000199999995]]]}},{"type":"Feature","properties":{"Id":0,"Sheet_ID":"3: 瑪哈剌山","label":"3: 瑪哈剌山","call_short":"","call_num":"","recid":"","websiteUrl":"","title":"","ckey":0,"web_map":"","available":"false","iiifUrl":""},"geometry":{"bbox":[129,48.000000199999995,130,48.666666799999994],"type":"Polygon","coordinates":[[[129,48.000000199999995],[129,48.666666799999994],[130,48.666666799999994],[130,48.000000199999995],[129,48.000000199999995]]]}},{"type":"Feature","properties":{"Id":0,"Sheet_ID":"22. 嫩江","label":"22. 嫩江","call_short":"G7823 .B5 S100 .J3","call_num":"G7823 .B5 S100 .J3 SHEET 22","recid":"cn977hv9348","websiteUrl":"https://purl.stanford.edu/cn977hv9348","title":"満州十万分一圖 小興安嶺","ckey":12375436,"web_map":"","available":"true","iiifUrl":"https://purl.stanford.edu/cn977hv9348/iiif/manifest"},"geometry":{"bbox":[125.00000000000001,48.6666668,126,49.3333334],"type":"Polygon","coordinates":[[[125.00000000000001,48.6666668],[125.00000000000001,49.3333334],[126,49.3333334],[126,48.6666668],[125.00000000000001,48.6666668]]]}},{"type":"Feature","properties":{"Id":0,"Sheet_ID":"17. 龍鎮","label":"17. 龍鎮","call_short":"G7823 .B5 S100 .J3","call_num":"G7823 .B5 S100 .J3 SHEET 17","recid":"hy943cf4125","websiteUrl":"https://purl.stanford.edu/hy943cf4125","title":"満州十万分一圖 小興安嶺","ckey":12375436,"web_map":"","available":"true","iiifUrl":"https://purl.stanford.edu/hy943cf4125/iiif/manifest"},"geometry":{"bbox":[126,48.6666668,127.00000000000001,49.3333334],"type":"Polygon","coordinates":[[[126,48.6666668],[126,49.3333334],[127.00000000000001,49.3333334],[127.00000000000001,48.6666668],[126,48.6666668]]]}},{"type":"Feature","properties":{"Id":0,"Sheet_ID":"12. 辰清","label":"12. 辰清","call_short":"","call_num":"","recid":"","websiteUrl":"","title":"","ckey":0,"web_map":"","available":"false","iiifUrl":""},"geometry":{"bbox":[127.00000000000001,48.6666668,128,49.3333334],"type":"Polygon","coordinates":[[[127.00000000000001,48.6666668],[127.00000000000001,49.3333334],[128,49.3333334],[128,48.6666668],[127.00000000000001,48.6666668]]]}},{"type":"Feature","properties":{"Id":0,"Sheet_ID":"7-1. 張格達屯 (1)","label":"7-1. 張格達屯 (1)","call_short":"G7823 .B5 S100 .J3","call_num":"G7823 .B5 S100 .J3 SHEET 7-1","recid":"ht616sr9621","websiteUrl":"https://purl.stanford.edu/ht616sr9621","title":"満州十万分一圖 小興安嶺","ckey":12375436,"web_map":"","available":"true","iiifUrl":"https://purl.stanford.edu/ht616sr9621/iiif/manifest"},"geometry":{"bbox":[128,49.000000000000114,129,49.33333340000013],"type":"Polygon","coordinates":[[[128,49.000000000000114],[128,49.33333340000013],[129,49.33333340000013],[129,49.000000000000114],[128,49.000000000000114]]]}},{"type":"Feature","properties":{"Id":0,"Sheet_ID":"2. 烏雲","label":"2. 烏雲","call_short":"G7823 .B5 S100 .J3","call_num":"G7823 .B5 S100 .J3 SHEET 2","recid":"yt716vv4147","websiteUrl":"https://purl.stanford.edu/yt716vv4147","title":"満州及西伯利十万分一圖 小興安嶺","ckey":12375436,"web_map":"","available":"true","iiifUrl":"https://purl.stanford.edu/yt716vv4147/iiif/manifest"},"geometry":{"bbox":[129,48.6666668,130,49.3333334],"type":"Polygon","coordinates":[[[129,48.6666668],[129,49.3333334],[130,49.3333334],[130,48.6666668],[129,48.6666668]]]}},{"type":"Feature","properties":{"Id":0,"Sheet_ID":"21. 柏根里","label":"21. 柏根里","call_short":"G7823 .B5 S100 .J3","call_num":"G7823 .B5 S100 .J3 SHEET 21","recid":"gs766vy7745","websiteUrl":"https://purl.stanford.edu/gs766vy7745","title":"満州十万分一圖 小興安嶺","ckey":12375436,"web_map":"","available":"true","iiifUrl":"https://purl.stanford.edu/gs766vy7745/iiif/manifest"},"geometry":{"bbox":[125.00000000000001,49.3333334,126,50],"type":"Polygon","coordinates":[[[125.00000000000001,49.3333334],[125.00000000000001,50],[126,50],[126,49.3333334],[125.00000000000001,49.3333334]]]}},{"type":"Feature","properties":{"Id":0,"Sheet_ID":"16. 塔溪","label":"16. 塔溪","call_short":"G7823 .B5 S100 .J3","call_num":"G7823 .B5 S100 .J3 SHEET 16","recid":"nv625mh5812","websiteUrl":"https://purl.stanford.edu/nv625mh5812","title":"満州十万分一圖 小興安嶺","ckey":12375436,"web_map":"","available":"true","iiifUrl":"https://purl.stanford.edu/nv625mh5812/iiif/manifest"},"geometry":{"bbox":[126,49.3333334,127.00000000000001,50],"type":"Polygon","coordinates":[[[126,49.3333334],[126,50],[127.00000000000001,50],[127.00000000000001,49.3333334],[126,49.3333334]]]}},{"type":"Feature","properties":{"Id":0,"Sheet_ID":"11. 璦琿","label":"11. 璦琿","call_short":"G7823 .B5 S100 .J3","call_num":"G7823 .B5 S100 .J3 SHEET 11","recid":"vd326ms8780","websiteUrl":"https://purl.stanford.edu/vd326ms8780","title":"満州及西伯利十万分一圖 小興安嶺","ckey":12375436,"web_map":"","available":"true","iiifUrl":"https://purl.stanford.edu/vd326ms8780/iiif/manifest"},"geometry":{"bbox":[127.00000000000001,49.3333334,128,50],"type":"Polygon","coordinates":[[[127.00000000000001,49.3333334],[127.00000000000001,50],[128,50],[128,49.3333334],[127.00000000000001,49.3333334]]]}},{"type":"Feature","properties":{"Id":0,"Sheet_ID":"6. 竒克","label":"6. 竒克","call_short":"G7823 .B5 S100 .J3","call_num":"G7823 .B5 S100 .J3 SHEET 6","recid":"bq739by8391","websiteUrl":"https://purl.stanford.edu/bq739by8391","title":"満州及西伯利十万分一圖 小興安嶺","ckey":12375436,"web_map":"","available":"true","iiifUrl":"https://purl.stanford.edu/bq739by8391/iiif/manifest"},"geometry":{"bbox":[128,49.3333334,129,50],"type":"Polygon","coordinates":[[[128,49.3333334],[128,50],[129,50],[129,49.3333334],[128,49.3333334]]]}},{"type":"Feature","properties":{"Id":0,"Sheet_ID":"1. ライチーハ","label":"1. ライチーハ","call_short":"","call_num":"","recid":"","websiteUrl":"","title":"","ckey":0,"web_map":"","available":"false","iiifUrl":""},"geometry":{"bbox":[129,49.3333334,130,50],"type":"Polygon","coordinates":[[[129,49.3333334],[129,50],[130,50],[130,49.3333334],[129,49.3333334]]]}},{"type":"Feature","properties":{"Id":0,"Sheet_ID":"7-2. 張格達屯 (2)","label":"7-2. 張格達屯 (2)","call_short":"G7823 .B5 S100 .J3","call_num":"G7823 .B5 S100 .J3 SHEET 7-2","recid":"qp373mz8955","websiteUrl":"https://purl.stanford.edu/qp373mz8955","title":"満州十万分一圖 小興安嶺","ckey":12375436,"web_map":"","available":"true","iiifUrl":"https://purl.stanford.edu/qp373mz8955/iiif/manifest"},"geometry":{"bbox":[128,48.66666680000003,129,49.000000000000114],"type":"Polygon","coordinates":[[[128,48.66666680000003],[128,49.000000000000114],[129,49.000000000000114],[129,48.66666680000003],[128,48.66666680000003]]]}},{"type":"Feature","properties":{"Id":0,"Sheet_ID":"13-2. 天日弘墾公司 (2)","label":"13-2. 天日弘墾公司 (2)","call_short":"G7823 .B5 S100 .J3","call_num":"G7823 .B5 S100 .J3 SHEET 13-2","recid":"sz480pt3929","websiteUrl":"https://purl.stanford.edu/sz480pt3929","title":"満州十万分一圖 小興安嶺","ckey":12375436,"web_map":"","available":"true","iiifUrl":"https://purl.stanford.edu/sz480pt3929/iiif/manifest"},"geometry":{"bbox":[127.00000000000001,48.00000019999993,127.50000000000011,48.66666680000003],"type":"Polygon","coordinates":[[[127.00000000000001,48.00000019999993],[127.00000000000001,48.66666680000003],[127.50000000000011,48.66666680000003],[127.50000000000011,48.00000019999993],[127.00000000000001,48.00000019999993]]]}}],"name":"index_12375436"}
