{
"type": "FeatureCollection",
"name": "index_map",
"features": [
{ "type": "Feature", "properties": { "Id": 0, "Sheet_ID": "マキン島及小マキン島", "label": "マキン島及小マキン島", "call_short": "G9481 .P5 1943 .J3", "call_num": "G9481 .P5 1943 .J3 SHEET 1", "recid": "dm942cq9171", "websiteUrl": "https://purl.stanford.edu/dm942cq9171", "title": "十万分一圖ギルバート諸島", "ckey": 10550731, "web_map": null, "available": true, "iiifUrl": "https://purl.stanford.edu/dm942cq9171/iiif/manifest" }, "geometry": { "type": "Polygon", "coordinates": [ [ [ 172.666667, 3.0 ], [ 173.05, 3.0 ], [ 173.05, 3.416667 ], [ 172.666667, 3.416667 ], [ 172.666667, 3.0 ] ] ] } },
{ "type": "Feature", "properties": { "Id": 0, "Sheet_ID": "アバイアン、タワラ島", "label": "アバイアン、タワラ島", "call_short": "G9481 .P5 1943 .J3", "call_num": "G9481 .P5 1943 .J3 SHEET 4", "recid": "wt670mj9123", "websiteUrl": "https://purl.stanford.edu/wt670mj9123", "title": "十万分一圖ギルバート諸島", "ckey": 10550731, "web_map": null, "available": true, "iiifUrl": "https://purl.stanford.edu/wt670mj9123/iiif/manifest" }, "geometry": { "type": "Polygon", "coordinates": [ [ [ 172.75, 1.3 ], [ 173.416667, 1.3 ], [ 173.416667, 2.083333 ], [ 172.75, 2.083333 ], [ 172.75, 1.3 ] ] ] } },
{ "type": "Feature", "properties": { "Id": 0, "Sheet_ID": "マイアナ島", "label": "マイアナ島", "call_short": "G9481 .P5 1943 .J3", "call_num": "G9481 .P5 1943 .J3 SHEET 6", "recid": "xp846jq3201", "websiteUrl": "https://purl.stanford.edu/xp846jq3201", "title": "十万分一圖ギルバート諸島", "ckey": 10550731, "web_map": null, "available": true, "iiifUrl": "https://purl.stanford.edu/xp846jq3201/iiif/manifest" }, "geometry": { "type": "Polygon", "coordinates": [ [ [ 172.883333, 0.75 ], [ 173.133333, 0.75 ], [ 173.133333, 1.083333 ], [ 172.883333, 1.083333 ], [ 172.883333, 0.75 ] ] ] } },
{ "type": "Feature", "properties": { "Id": 0, "Sheet_ID": "アパママ、クリア及アラヌカ", "label": "アパママ、クリア及アラヌカ", "call_short": "G9481 .P5 1943 .J3", "call_num": "G9481 .P5 1943 .J3 SHEET 7'", "recid": "dr380nh5436", "websiteUrl": "https://purl.stanford.edu/dr380nh5436", "title": "十万分一圖ギルバート諸島", "ckey": 10550731, "web_map": null, "available": true, "iiifUrl": "https://purl.stanford.edu/dr380nh5436/iiif/manifest" }, "geometry": { "type": "Polygon", "coordinates": [ [ [ 173.333333, 0.0 ], [ 174.0, 0.0 ], [ 174.0, 0.666667 ], [ 173.333333, 0.666667 ], [ 173.333333, 0.0 ] ] ] } },
{ "type": "Feature", "properties": { "Id": 0, "Sheet_ID": "ノヌチ島", "label": "ノヌチ島", "call_short": "G9481 .P5 1943 .J3", "call_num": "G9481 .P5 1943 .J3 SHEET 10", "recid": "rg981dj4906", "websiteUrl": "https://purl.stanford.edu/rg981dj4906", "title": "十万分一圖ギルバート諸島", "ckey": 10550731, "web_map": null, "available": true, "iiifUrl": "https://purl.stanford.edu/rg981dj4906/iiif/manifest" }, "geometry": { "type": "Polygon", "coordinates": [ [ [ 174.133333, -0.85 ], [ 174.516667, -0.85 ], [ 174.516667, -0.483333 ], [ 174.133333, -0.483333 ], [ 174.133333, -0.85 ] ] ] } },
{ "type": "Feature", "properties": { "Id": 0, "Sheet_ID": "ベル島", "label": "ベル島", "call_short": "G9481 .P5 1943 .J3", "call_num": "G9481 .P5 1943 .J3 SHEET 12", "recid": "pr648wb5727", "websiteUrl": "https://purl.stanford.edu/pr648wb5727", "title": "[ギルバート諸島]", "ckey": 10550731, "web_map": null, "available": true, "iiifUrl": "https://purl.stanford.edu/pr648wb5727/iiif/manifest" }, "geometry": { "type": "Polygon", "coordinates": [ [ [ 175.916667, -1.391667 ], [ 176.05, -1.391667 ], [ 176.05, -1.25 ], [ 175.916667, -1.25 ], [ 175.916667, -1.391667 ] ] ] } },
{ "type": "Feature", "properties": { "Id": 0, "Sheet_ID": "オノトア島", "label": "オノトア島", "call_short": "G9481 .P5 1943 .J3", "call_num": "G9481 .P5 1943 .J3 SHEET 14", "recid": "zx065qn4169", "websiteUrl": "https://purl.stanford.edu/zx065qn4169", "title": "[ギルバート諸島]", "ckey": 10550731, "web_map": null, "available": true, "iiifUrl": "https://purl.stanford.edu/zx065qn4169/iiif/manifest" }, "geometry": { "type": "Polygon", "coordinates": [ [ [ 175.475, -1.975 ], [ 175.641667, -1.975 ], [ 175.641667, -1.775 ], [ 175.475, -1.775 ], [ 175.475, -1.975 ] ] ] } },
{ "type": "Feature", "properties": { "Id": 0, "Sheet_ID": "マラケイ島", "label": "マラケイ島", "call_short": "G9481 .P5 1943 .J3", "call_num": "G9481 .P5 1943 .J3 SHEET 3", "recid": "bj359qh5048", "websiteUrl": "https://purl.stanford.edu/bj359qh5048", "title": "[ギルバート諸島]", "ckey": 10550731, "web_map": null, "available": true, "iiifUrl": "https://purl.stanford.edu/bj359qh5048/iiif/manifest" }, "geometry": { "type": "Polygon", "coordinates": [ [ [ 173.241667, 1.963889 ], [ 173.316667, 1.963889 ], [ 173.316667, 2.066667 ], [ 173.241667, 2.066667 ], [ 173.241667, 1.963889 ] ] ] } },
{ "type": "Feature", "properties": { "Id": 0, "Sheet_ID": "アパママ島", "label": "アパママ島", "call_short": "G9481 .P5 1943 .J3", "call_num": "G9481 .P5 1943 .J3 SHEET 7", "recid": "ht222pj7462", "websiteUrl": "https://purl.stanford.edu/ht222pj7462", "title": "[ギルバート諸島]", "ckey": 10550731, "web_map": null, "available": true, "iiifUrl": "https://purl.stanford.edu/ht222pj7462/iiif/manifest" }, "geometry": { "type": "Polygon", "coordinates": [ [ [ 173.733333, 0.266667 ], [ 173.983333, 0.266667 ], [ 173.983333, 0.516667 ], [ 173.733333, 0.516667 ], [ 173.733333, 0.266667 ] ] ] } }
]
}
