{
"type": "FeatureCollection",
"name": "index_map",
"xy_coordinate_resolution": 1e-07,
"features": [
{ "type": "Feature", "properties": { "Id": 0, "Sheet_ID": "鶴見", "label": "鶴見", "call_short": "0", "call_num": "0", "recid": "0", "websiteUrl": "0", "title": "0", "ckey": 0, "available": false, "iiifUrl": "0" }, "geometry": { "type": "Polygon", "coordinates": [ [ [ 139.65, 35.503333 ], [ 139.7, 35.503333 ], [ 139.7, 35.5366664 ], [ 139.65, 35.5366664 ], [ 139.65, 35.503333 ] ] ] } },
{ "type": "Feature", "properties": { "Id": 0, "Sheet_ID": "川崎", "label": "川崎", "call_short": "0", "call_num": "0", "recid": "0", "websiteUrl": "0", "title": "0", "ckey": 0, "available": false, "iiifUrl": "0" }, "geometry": { "type": "Polygon", "coordinates": [ [ [ 139.7, 35.503333 ], [ 139.75, 35.503333 ], [ 139.75, 35.5366664 ], [ 139.7, 35.5366664 ], [ 139.7, 35.503333 ] ] ] } },
{ "type": "Feature", "properties": { "Id": 0, "Sheet_ID": "羽田燈台", "label": "羽田燈台", "call_short": "0", "call_num": "0", "recid": "0", "websiteUrl": "0", "title": "0", "ckey": 0, "available": false, "iiifUrl": "0" }, "geometry": { "type": "Polygon", "coordinates": [ [ [ 139.75, 35.503333 ], [ 139.8, 35.503333 ], [ 139.8, 35.5366664 ], [ 139.75, 35.5366664 ], [ 139.75, 35.503333 ] ] ] } },
{ "type": "Feature", "properties": { "Id": 0, "Sheet_ID": "日吉", "label": "日吉", "call_short": "0", "call_num": "0", "recid": "0", "websiteUrl": "0", "title": "0", "ckey": 0, "available": false, "iiifUrl": "0" }, "geometry": { "type": "Polygon", "coordinates": [ [ [ 139.6, 35.5366664 ], [ 139.65, 35.5366664 ], [ 139.65, 35.5699998 ], [ 139.6, 35.5699998 ], [ 139.6, 35.5366664 ] ] ] } },
{ "type": "Feature", "properties": { "Id": 0, "Sheet_ID": "矢口", "label": "矢口", "call_short": "G7964 .T7 S10 .J3", "call_num": "G7964 .T7 S10 .J3 F-9", "recid": "pv672pn5728", "websiteUrl": "https://purl.stanford.edu/pv672pn5728", "title": "[一万分一 戦災復興都市計画圖 東京]", "ckey": 9705084, "available": true, "iiifUrl": "https://purl.stanford.edu/pv672pn5728/iiif/manifest" }, "geometry": { "type": "Polygon", "coordinates": [ [ [ 139.65, 35.5366664 ], [ 139.7, 35.5366664 ], [ 139.7, 35.5699998 ], [ 139.65, 35.5699998 ], [ 139.65, 35.5366664 ] ] ] } },
{ "type": "Feature", "properties": { "Id": 0, "Sheet_ID": "蒲田", "label": "蒲田", "call_short": "G7964 .T7 S10 .J3", "call_num": "G7964 .T7 S10 .J3 E-9", "recid": "nx122zn0679", "websiteUrl": "https://purl.stanford.edu/nx122zn0679", "title": "[一万分一 戦災復興都市計画圖 東京]", "ckey": 9705084, "available": true, "iiifUrl": "https://purl.stanford.edu/nx122zn0679/iiif/manifest" }, "geometry": { "type": "Polygon", "coordinates": [ [ [ 139.7, 35.5366664 ], [ 139.75, 35.5366664 ], [ 139.75, 35.5699998 ], [ 139.7, 35.5699998 ], [ 139.7, 35.5366664 ] ] ] } },
{ "type": "Feature", "properties": { "Id": 0, "Sheet_ID": "穴守", "label": "穴守", "call_short": "G7964 .T7 S10 .J3", "call_num": "G7964 .T7 S10 .J3 D-9", "recid": "jk209cg5337", "websiteUrl": "https://purl.stanford.edu/jk209cg5337", "title": "[一万分一 戦災復興都市計画圖 東京]", "ckey": 9705084, "available": true, "iiifUrl": "https://purl.stanford.edu/jk209cg5337/iiif/manifest" }, "geometry": { "type": "Polygon", "coordinates": [ [ [ 139.75, 35.5366664 ], [ 139.8, 35.5366664 ], [ 139.8, 35.5699998 ], [ 139.75, 35.5699998 ], [ 139.75, 35.5366664 ] ] ] } },
{ "type": "Feature", "properties": { "Id": 0, "Sheet_ID": "溝口", "label": "溝口", "call_short": "G7964 .T7 S10 .J3", "call_num": "G7964 .T7 S10 .J3 G-8", "recid": "yf536mc6112", "websiteUrl": "https://purl.stanford.edu/yf536mc6112", "title": "[一万分一 戦災復興都市計画圖 東京]", "ckey": 9705084, "available": true, "iiifUrl": "https://purl.stanford.edu/yf536mc6112/iiif/manifest" }, "geometry": { "type": "Polygon", "coordinates": [ [ [ 139.6, 35.5699998 ], [ 139.65, 35.5699998 ], [ 139.65, 35.6033332 ], [ 139.6, 35.6033332 ], [ 139.6, 35.5699998 ] ] ] } },
{ "type": "Feature", "properties": { "Id": 0, "Sheet_ID": "田園調布", "label": "田園調布", "call_short": "G7964 .T7 S10 .J3", "call_num": "G7964 .T7 S10 .J3 F-8", "recid": "dy575xv0660", "websiteUrl": "https://purl.stanford.edu/dy575xv0660", "title": "[一万分一 戦災復興都市計画圖 東京]", "ckey": 9705084, "available": true, "iiifUrl": "https://purl.stanford.edu/dy575xv0660/iiif/manifest" }, "geometry": { "type": "Polygon", "coordinates": [ [ [ 139.65, 35.5699998 ], [ 139.7, 35.5699998 ], [ 139.7, 35.6033332 ], [ 139.65, 35.6033332 ], [ 139.65, 35.5699998 ] ] ] } },
{ "type": "Feature", "properties": { "Id": 0, "Sheet_ID": "大森", "label": "大森", "call_short": "G7964 .T7 S10 .J3", "call_num": "G7964 .T7 S10 .J3 E-8", "recid": "vs139yq1752", "websiteUrl": "https://purl.stanford.edu/vs139yq1752", "title": "[一万分一 戦災復興都市計画圖 東京]", "ckey": 9705084, "available": true, "iiifUrl": "https://purl.stanford.edu/vs139yq1752/iiif/manifest" }, "geometry": { "type": "Polygon", "coordinates": [ [ [ 139.7, 35.5699998 ], [ 139.75, 35.5699998 ], [ 139.75, 35.6033332 ], [ 139.7, 35.6033332 ], [ 139.7, 35.5699998 ] ] ] } },
{ "type": "Feature", "properties": { "Id": 0, "Sheet_ID": "登戸", "label": "登戸", "call_short": "G7964 .T7 S10 .J3", "call_num": "G7964 .T7 S10 .J3 H-7", "recid": "zw437mb4843", "websiteUrl": "https://purl.stanford.edu/zw437mb4843", "title": "[一万分一 戦災復興都市計画圖 東京]", "ckey": 9705084, "available": true, "iiifUrl": "https://purl.stanford.edu/zw437mb4843/iiif/manifest" }, "geometry": { "type": "Polygon", "coordinates": [ [ [ 139.55, 35.6033332 ], [ 139.6, 35.6033332 ], [ 139.6, 35.6366666 ], [ 139.55, 35.6366666 ], [ 139.55, 35.6033332 ] ] ] } },
{ "type": "Feature", "properties": { "Id": 0, "Sheet_ID": "二子", "label": "二子", "call_short": "G7964 .T7 S10 .J3", "call_num": "G7964 .T7 S10 .J3 G-7", "recid": "cq055kp3798", "websiteUrl": "https://purl.stanford.edu/cq055kp3798", "title": "[一万分一 戦災復興都市計画圖 東京]", "ckey": 9705084, "available": true, "iiifUrl": "https://purl.stanford.edu/cq055kp3798/iiif/manifest" }, "geometry": { "type": "Polygon", "coordinates": [ [ [ 139.6, 35.6033332 ], [ 139.65, 35.6033332 ], [ 139.65, 35.6366666 ], [ 139.6, 35.6366666 ], [ 139.6, 35.6033332 ] ] ] } },
{ "type": "Feature", "properties": { "Id": 0, "Sheet_ID": "碑文谷", "label": "碑文谷", "call_short": "G7964 .T7 S10 .J3", "call_num": "G7964 .T7 S10 .J3 F-7", "recid": "qn980rm2344", "websiteUrl": "https://purl.stanford.edu/qn980rm2344", "title": "[一万分一 戦災復興都市計画圖 東京]", "ckey": 9705084, "available": true, "iiifUrl": "https://purl.stanford.edu/qn980rm2344/iiif/manifest" }, "geometry": { "type": "Polygon", "coordinates": [ [ [ 139.65, 35.6033332 ], [ 139.7, 35.6033332 ], [ 139.7, 35.6366666 ], [ 139.65, 35.6366666 ], [ 139.65, 35.6033332 ] ] ] } },
{ "type": "Feature", "properties": { "Id": 0, "Sheet_ID": "品川", "label": "品川", "call_short": "G7964 .T7 S10 .J3", "call_num": "G7964 .T7 S10 .J3 E-7", "recid": "hr706xg0616", "websiteUrl": "https://purl.stanford.edu/hr706xg0616", "title": "[一万分一 戦災復興都市計画圖 東京]", "ckey": 9705084, "available": true, "iiifUrl": "https://purl.stanford.edu/hr706xg0616/iiif/manifest" }, "geometry": { "type": "Polygon", "coordinates": [ [ [ 139.7, 35.6033332 ], [ 139.75, 35.6033332 ], [ 139.75, 35.6366666 ], [ 139.7, 35.6366666 ], [ 139.7, 35.6033332 ] ] ] } },
{ "type": "Feature", "properties": { "Id": 0, "Sheet_ID": "品川台場", "label": "品川台場", "call_short": "G7964 .T7 S10 .J3", "call_num": "G7964 .T7 S10 .J3 D-7", "recid": "bv948sj1784", "websiteUrl": "https://purl.stanford.edu/bv948sj1784", "title": "[一万分一 戦災復興都市計画圖 東京]", "ckey": 9705084, "available": true, "iiifUrl": "https://purl.stanford.edu/bv948sj1784/iiif/manifest" }, "geometry": { "type": "Polygon", "coordinates": [ [ [ 139.75, 35.6033332 ], [ 139.8, 35.6033332 ], [ 139.8, 35.6366666 ], [ 139.75, 35.6366666 ], [ 139.75, 35.6033332 ] ] ] } },
{ "type": "Feature", "properties": { "Id": 0, "Sheet_ID": "江戸河口", "label": "江戸河口", "call_short": "0", "call_num": "0", "recid": "0", "websiteUrl": "0", "title": "0", "ckey": 0, "available": false, "iiifUrl": "0" }, "geometry": { "type": "Polygon", "coordinates": [ [ [ 139.85, 35.6033332 ], [ 139.9, 35.6033332 ], [ 139.9, 35.6366666 ], [ 139.85, 35.6366666 ], [ 139.85, 35.6033332 ] ] ] } },
{ "type": "Feature", "properties": { "Id": 0, "Sheet_ID": "成城", "label": "成城", "call_short": "G7964 .T7 S10 .J3", "call_num": "G7964 .T7 S10 .J3 H-6", "recid": "dh804wc9991", "websiteUrl": "https://purl.stanford.edu/dh804wc9991", "title": "[一万分一 戦災復興都市計画圖 東京]", "ckey": 9705084, "available": true, "iiifUrl": "https://purl.stanford.edu/dh804wc9991/iiif/manifest" }, "geometry": { "type": "Polygon", "coordinates": [ [ [ 139.55, 35.6366666 ], [ 139.6, 35.6366666 ], [ 139.6, 35.67 ], [ 139.55, 35.67 ], [ 139.55, 35.6366666 ] ] ] } },
{ "type": "Feature", "properties": { "Id": 0, "Sheet_ID": "経堂", "label": "経堂", "call_short": "G7964 .T7 S10 .J3", "call_num": "G7964 .T7 S10 .J3 G-6", "recid": "ph082cp2611", "websiteUrl": "https://purl.stanford.edu/ph082cp2611", "title": "[一万分一 戦災復興都市計画圖 東京]", "ckey": 9705084, "available": true, "iiifUrl": "https://purl.stanford.edu/ph082cp2611/iiif/manifest" }, "geometry": { "type": "Polygon", "coordinates": [ [ [ 139.6, 35.6366666 ], [ 139.65, 35.6366666 ], [ 139.65, 35.67 ], [ 139.6, 35.67 ], [ 139.6, 35.6366666 ] ] ] } },
{ "type": "Feature", "properties": { "Id": 0, "Sheet_ID": "世田谷", "label": "世田谷", "call_short": "G7964 .T7 S10 .J3", "call_num": "G7964 .T7 S10 .J3 F-6", "recid": "ms185dx5969", "websiteUrl": "https://purl.stanford.edu/ms185dx5969", "title": "[一万分一 戦災復興都市計画圖 東京]", "ckey": 9705084, "available": true, "iiifUrl": "https://purl.stanford.edu/ms185dx5969/iiif/manifest" }, "geometry": { "type": "Polygon", "coordinates": [ [ [ 139.65, 35.6366666 ], [ 139.7, 35.6366666 ], [ 139.7, 35.67 ], [ 139.65, 35.67 ], [ 139.65, 35.6366666 ] ] ] } },
{ "type": "Feature", "properties": { "Id": 0, "Sheet_ID": "三田", "label": "三田", "call_short": "G7964 .T7 S10 .J3", "call_num": "G7964 .T7 S10 .J3 E-6", "recid": "rk160vp4089", "websiteUrl": "https://purl.stanford.edu/rk160vp4089", "title": "[一万分一 戦災復興都市計画圖 東京]", "ckey": 9705084, "available": true, "iiifUrl": "https://purl.stanford.edu/rk160vp4089/iiif/manifest" }, "geometry": { "type": "Polygon", "coordinates": [ [ [ 139.7, 35.6366666 ], [ 139.75, 35.6366666 ], [ 139.75, 35.67 ], [ 139.7, 35.67 ], [ 139.7, 35.6366666 ] ] ] } },
{ "type": "Feature", "properties": { "Id": 0, "Sheet_ID": "新橋", "label": "新橋", "call_short": "G7964 .T7 S10 .J3", "call_num": "G7964 .T7 S10 .J3 D-6", "recid": "mg981js0844", "websiteUrl": "https://purl.stanford.edu/mg981js0844", "title": "[一万分一 戦災復興都市計画圖 東京]", "ckey": 9705084, "available": true, "iiifUrl": "https://purl.stanford.edu/mg981js0844/iiif/manifest" }, "geometry": { "type": "Polygon", "coordinates": [ [ [ 139.75, 35.6366666 ], [ 139.8, 35.6366666 ], [ 139.8, 35.67 ], [ 139.75, 35.67 ], [ 139.75, 35.6366666 ] ] ] } },
{ "type": "Feature", "properties": { "Id": 0, "Sheet_ID": "洲崎", "label": "洲崎", "call_short": "G7964 .T7 S10 .J3", "call_num": "G7964 .T7 S10 .J3 C-6", "recid": "pt308kw6988", "websiteUrl": "https://purl.stanford.edu/pt308kw6988", "title": "[一万分一 戦災復興都市計画圖 東京]", "ckey": 9705084, "available": true, "iiifUrl": "https://purl.stanford.edu/pt308kw6988/iiif/manifest" }, "geometry": { "type": "Polygon", "coordinates": [ [ [ 139.8, 35.6366666 ], [ 139.85, 35.6366666 ], [ 139.85, 35.67 ], [ 139.8, 35.67 ], [ 139.8, 35.6366666 ] ] ] } },
{ "type": "Feature", "properties": { "Id": 0, "Sheet_ID": "浦安", "label": "浦安", "call_short": "G7964 .T7 S10 .J3", "call_num": "G7964 .T7 S10 .J3 B-6", "recid": "tf473rj1502", "websiteUrl": "https://purl.stanford.edu/tf473rj1502", "title": "[一万分一 戦災復興都市計画圖 東京]", "ckey": 9705084, "available": true, "iiifUrl": "https://purl.stanford.edu/tf473rj1502/iiif/manifest" }, "geometry": { "type": "Polygon", "coordinates": [ [ [ 139.85, 35.6366666 ], [ 139.9, 35.6366666 ], [ 139.9, 35.67 ], [ 139.85, 35.67 ], [ 139.85, 35.6366666 ] ] ] } },
{ "type": "Feature", "properties": { "Id": 0, "Sheet_ID": "井之頭", "label": "井之頭", "call_short": "G7964 .T7 S10 .J3", "call_num": "G7964 .T7 S10 .J3 H-5", "recid": "wx585zx6722", "websiteUrl": "https://purl.stanford.edu/wx585zx6722", "title": "[一万分一 戦災復興都市計画圖 東京]", "ckey": 9705084, "available": true, "iiifUrl": "https://purl.stanford.edu/wx585zx6722/iiif/manifest" }, "geometry": { "type": "Polygon", "coordinates": [ [ [ 139.55, 35.67 ], [ 139.6, 35.67 ], [ 139.6, 35.7033334 ], [ 139.55, 35.7033334 ], [ 139.55, 35.67 ] ] ] } },
{ "type": "Feature", "properties": { "Id": 0, "Sheet_ID": "上高井戸", "label": "上高井戸", "call_short": "G7964 .T7 S10 .J3", "call_num": "G7964 .T7 S10 .J3 G-5", "recid": "pg298rr7027", "websiteUrl": "https://purl.stanford.edu/pg298rr7027", "title": "[一万分一 戦災復興都市計画圖 東京]", "ckey": 9705084, "available": true, "iiifUrl": "https://purl.stanford.edu/pg298rr7027/iiif/manifest" }, "geometry": { "type": "Polygon", "coordinates": [ [ [ 139.6, 35.67 ], [ 139.65, 35.67 ], [ 139.65, 35.7033334 ], [ 139.6, 35.7033334 ], [ 139.6, 35.67 ] ] ] } },
{ "type": "Feature", "properties": { "Id": 0, "Sheet_ID": "中野", "label": "中野", "call_short": "G7964 .T7 S10 .J3", "call_num": "G7964 .T7 S10 .J3 F-5", "recid": "hx666nm9193", "websiteUrl": "https://purl.stanford.edu/hx666nm9193", "title": "[一万分一 戦災復興都市計画圖 東京]", "ckey": 9705084, "available": true, "iiifUrl": "https://purl.stanford.edu/hx666nm9193/iiif/manifest" }, "geometry": { "type": "Polygon", "coordinates": [ [ [ 139.65, 35.67 ], [ 139.7, 35.67 ], [ 139.7, 35.7033334 ], [ 139.65, 35.7033334 ], [ 139.65, 35.67 ] ] ] } },
{ "type": "Feature", "properties": { "Id": 0, "Sheet_ID": "四谷", "label": "四谷", "call_short": "G7964 .T7 S10 .J3", "call_num": "G7964 .T7 S10 .J3 E-5", "recid": "sz697gr3920", "websiteUrl": "https://purl.stanford.edu/sz697gr3920", "title": "[一万分一 戦災復興都市計画圖 東京]", "ckey": 9705084, "available": true, "iiifUrl": "https://purl.stanford.edu/sz697gr3920/iiif/manifest" }, "geometry": { "type": "Polygon", "coordinates": [ [ [ 139.7, 35.67 ], [ 139.75, 35.67 ], [ 139.75, 35.7033334 ], [ 139.7, 35.7033334 ], [ 139.7, 35.67 ] ] ] } },
{ "type": "Feature", "properties": { "Id": 0, "Sheet_ID": "日本橋", "label": "日本橋", "call_short": "G7964 .T7 S10 .J3", "call_num": "G7964 .T7 S10 .J3 D-5", "recid": "vj646qc4677", "websiteUrl": "https://purl.stanford.edu/vj646qc4677", "title": "[一万分一 戦災復興都市計画圖 東京]", "ckey": 9705084, "available": true, "iiifUrl": "https://purl.stanford.edu/vj646qc4677/iiif/manifest" }, "geometry": { "type": "Polygon", "coordinates": [ [ [ 139.75, 35.67 ], [ 139.8, 35.67 ], [ 139.8, 35.7033334 ], [ 139.75, 35.7033334 ], [ 139.75, 35.67 ] ] ] } },
{ "type": "Feature", "properties": { "Id": 0, "Sheet_ID": "深川", "label": "深川", "call_short": "G7964 .T7 S10 .J3", "call_num": "G7964 .T7 S10 .J3 C-5", "recid": "st662by4905", "websiteUrl": "https://purl.stanford.edu/st662by4905", "title": "[一万分一 戦災復興都市計画圖 東京]", "ckey": 9705084, "available": true, "iiifUrl": "https://purl.stanford.edu/st662by4905/iiif/manifest" }, "geometry": { "type": "Polygon", "coordinates": [ [ [ 139.8, 35.67 ], [ 139.85, 35.67 ], [ 139.85, 35.7033334 ], [ 139.8, 35.7033334 ], [ 139.8, 35.67 ] ] ] } },
{ "type": "Feature", "properties": { "Id": 0, "Sheet_ID": "小松川", "label": "小松川", "call_short": "G7964 .T7 S10 .J3", "call_num": "G7964 .T7 S10 .J3 B-5", "recid": "sx672cq9895", "websiteUrl": "https://purl.stanford.edu/sx672cq9895", "title": "[一万分一 戦災復興都市計画圖 東京]", "ckey": 9705084, "available": true, "iiifUrl": "https://purl.stanford.edu/sx672cq9895/iiif/manifest" }, "geometry": { "type": "Polygon", "coordinates": [ [ [ 139.85, 35.67 ], [ 139.9, 35.67 ], [ 139.9, 35.7033334 ], [ 139.85, 35.7033334 ], [ 139.85, 35.67 ] ] ] } },
{ "type": "Feature", "properties": { "Id": 0, "Sheet_ID": "行徳", "label": "行徳", "call_short": "G7964 .T7 S10 .J3", "call_num": "G7964 .T7 S10 .J3 A-5", "recid": "hc742vg9787", "websiteUrl": "https://purl.stanford.edu/hc742vg9787", "title": "[一万分一 戦災復興都市計画圖 東京]", "ckey": 9705084, "available": true, "iiifUrl": "https://purl.stanford.edu/hc742vg9787/iiif/manifest" }, "geometry": { "type": "Polygon", "coordinates": [ [ [ 139.9, 35.67 ], [ 139.95, 35.67 ], [ 139.95, 35.7033334 ], [ 139.9, 35.7033334 ], [ 139.9, 35.67 ] ] ] } },
{ "type": "Feature", "properties": { "Id": 0, "Sheet_ID": "吉祥寺", "label": "吉祥寺", "call_short": "G7964 .T7 S10 .J3", "call_num": "G7964 .T7 S10 .J3 H-4", "recid": "qg538mg1368", "websiteUrl": "https://purl.stanford.edu/qg538mg1368", "title": "[一万分一 戦災復興都市計画圖 東京]", "ckey": 9705084, "available": true, "iiifUrl": "https://purl.stanford.edu/qg538mg1368/iiif/manifest" }, "geometry": { "type": "Polygon", "coordinates": [ [ [ 139.55, 35.7033334 ], [ 139.6, 35.7033334 ], [ 139.6, 35.7366668 ], [ 139.55, 35.7366668 ], [ 139.55, 35.7033334 ] ] ] } },
{ "type": "Feature", "properties": { "Id": 0, "Sheet_ID": "荻窪", "label": "荻窪", "call_short": "G7964 .T7 S10 .J3", "call_num": "G7964 .T7 S10 .J3 G-4", "recid": "td418rs5346", "websiteUrl": "https://purl.stanford.edu/td418rs5346", "title": "[一万分一 戦災復興都市計画圖 東京]", "ckey": 9705084, "available": true, "iiifUrl": "https://purl.stanford.edu/td418rs5346/iiif/manifest" }, "geometry": { "type": "Polygon", "coordinates": [ [ [ 139.6, 35.7033334 ], [ 139.65, 35.7033334 ], [ 139.65, 35.7366668 ], [ 139.6, 35.7366668 ], [ 139.6, 35.7033334 ] ] ] } },
{ "type": "Feature", "properties": { "Id": 0, "Sheet_ID": "新井", "label": "新井", "call_short": "G7964 .T7 S10 .J3", "call_num": "G7964 .T7 S10 .J3 F-4", "recid": "qw773pn7909", "websiteUrl": "https://purl.stanford.edu/qw773pn7909", "title": "[一万分一 戦災復興都市計画圖 東京]", "ckey": 9705084, "available": true, "iiifUrl": "https://purl.stanford.edu/qw773pn7909/iiif/manifest" }, "geometry": { "type": "Polygon", "coordinates": [ [ [ 139.65, 35.7033334 ], [ 139.7, 35.7033334 ], [ 139.7, 35.7366668 ], [ 139.65, 35.7366668 ], [ 139.65, 35.7033334 ] ] ] } },
{ "type": "Feature", "properties": { "Id": 0, "Sheet_ID": "早稲田", "label": "早稲田", "call_short": "G7964 .T7 S10 .J3", "call_num": "G7964 .T7 S10 .J3 E-4", "recid": "zs474jh4384", "websiteUrl": "https://purl.stanford.edu/zs474jh4384", "title": "[一万分一 戦災復興都市計画圖 東京]", "ckey": 9705084, "available": true, "iiifUrl": "https://purl.stanford.edu/zs474jh4384/iiif/manifest" }, "geometry": { "type": "Polygon", "coordinates": [ [ [ 139.7, 35.7033334 ], [ 139.75, 35.7033334 ], [ 139.75, 35.7366668 ], [ 139.7, 35.7366668 ], [ 139.7, 35.7033334 ] ] ] } },
{ "type": "Feature", "properties": { "Id": 0, "Sheet_ID": "上野", "label": "上野", "call_short": "G7964 .T7 S10 .J3", "call_num": "G7964 .T7 S10 .J3 D-4", "recid": "qj807rf2670", "websiteUrl": "https://purl.stanford.edu/qj807rf2670", "title": "[一万分一 戦災復興都市計画圖 東京]", "ckey": 9705084, "available": true, "iiifUrl": "https://purl.stanford.edu/qj807rf2670/iiif/manifest" }, "geometry": { "type": "Polygon", "coordinates": [ [ [ 139.75, 35.7033334 ], [ 139.8, 35.7033334 ], [ 139.8, 35.7366668 ], [ 139.75, 35.7366668 ], [ 139.75, 35.7033334 ] ] ] } },
{ "type": "Feature", "properties": { "Id": 0, "Sheet_ID": "向島", "label": "向島", "call_short": "G7964 .T7 S10 .J3", "call_num": "G7964 .T7 S10 .J3 C-4", "recid": "fz744rh0204", "websiteUrl": "https://purl.stanford.edu/fz744rh0204", "title": "[一万分一 戦災復興都市計画圖 東京]", "ckey": 9705084, "available": true, "iiifUrl": "https://purl.stanford.edu/fz744rh0204/iiif/manifest" }, "geometry": { "type": "Polygon", "coordinates": [ [ [ 139.8, 35.7033334 ], [ 139.85, 35.7033334 ], [ 139.85, 35.7366668 ], [ 139.8, 35.7366668 ], [ 139.8, 35.7033334 ] ] ] } },
{ "type": "Feature", "properties": { "Id": 0, "Sheet_ID": "小岩", "label": "小岩", "call_short": "G7964 .T7 S10 .J3", "call_num": "G7964 .T7 S10 .J3 B-4", "recid": "dk658nm8119", "websiteUrl": "https://purl.stanford.edu/dk658nm8119", "title": "[一万分一 戦災復興都市計画圖 東京]", "ckey": 9705084, "available": true, "iiifUrl": "https://purl.stanford.edu/dk658nm8119/iiif/manifest" }, "geometry": { "type": "Polygon", "coordinates": [ [ [ 139.85, 35.7033334 ], [ 139.9, 35.7033334 ], [ 139.9, 35.7366668 ], [ 139.85, 35.7366668 ], [ 139.85, 35.7033334 ] ] ] } },
{ "type": "Feature", "properties": { "Id": 0, "Sheet_ID": "市川", "label": "市川", "call_short": "G7964 .T7 S10 .J3", "call_num": "G7964 .T7 S10 .J3 A-4", "recid": "nj543tv9010", "websiteUrl": "https://purl.stanford.edu/nj543tv9010", "title": "[一万分一 戦災復興都市計画圖 東京]", "ckey": 9705084, "available": true, "iiifUrl": "https://purl.stanford.edu/nj543tv9010/iiif/manifest" }, "geometry": { "type": "Polygon", "coordinates": [ [ [ 139.9, 35.7033334 ], [ 139.95, 35.7033334 ], [ 139.95, 35.7366668 ], [ 139.9, 35.7366668 ], [ 139.9, 35.7033334 ] ] ] } },
{ "type": "Feature", "properties": { "Id": 0, "Sheet_ID": "下保谷", "label": "下保谷", "call_short": "G7964 .T7 S10 .J3", "call_num": "G7964 .T7 S10 .J3 H-3", "recid": "rz945yr6146", "websiteUrl": "https://purl.stanford.edu/rz945yr6146", "title": "[一万分一 戦災復興都市計画圖 東京]", "ckey": 9705084, "available": true, "iiifUrl": "https://purl.stanford.edu/rz945yr6146/iiif/manifest" }, "geometry": { "type": "Polygon", "coordinates": [ [ [ 139.55, 35.7366668 ], [ 139.6, 35.7366668 ], [ 139.6, 35.7700002 ], [ 139.55, 35.7700002 ], [ 139.55, 35.7366668 ] ] ] } },
{ "type": "Feature", "properties": { "Id": 0, "Sheet_ID": "石神井", "label": "石神井", "call_short": "G7964 .T7 S10 .J3", "call_num": "G7964 .T7 S10 .J3 G-3", "recid": "ms427bm6924", "websiteUrl": "https://purl.stanford.edu/ms427bm6924", "title": "[一万分一 戦災復興都市計画圖 東京]", "ckey": 9705084, "available": true, "iiifUrl": "https://purl.stanford.edu/ms427bm6924/iiif/manifest" }, "geometry": { "type": "Polygon", "coordinates": [ [ [ 139.6, 35.7366668 ], [ 139.65, 35.7366668 ], [ 139.65, 35.7700002 ], [ 139.6, 35.7700002 ], [ 139.6, 35.7366668 ] ] ] } },
{ "type": "Feature", "properties": { "Id": 0, "Sheet_ID": "練馬", "label": "練馬", "call_short": "G7964 .T7 S10 .J3", "call_num": "G7964 .T7 S10 .J3 F-3", "recid": "hq330nz9710", "websiteUrl": "https://purl.stanford.edu/hq330nz9710", "title": "[一万分一 戦災復興都市計画圖 東京]", "ckey": 9705084, "available": true, "iiifUrl": "https://purl.stanford.edu/hq330nz9710/iiif/manifest" }, "geometry": { "type": "Polygon", "coordinates": [ [ [ 139.65, 35.7366668 ], [ 139.7, 35.7366668 ], [ 139.7, 35.7700002 ], [ 139.65, 35.7700002 ], [ 139.65, 35.7366668 ] ] ] } },
{ "type": "Feature", "properties": { "Id": 0, "Sheet_ID": "王子", "label": "王子", "call_short": "G7964 .T7 S10 .J3", "call_num": "G7964 .T7 S10 .J3 E-3", "recid": "ww238ck1564", "websiteUrl": "https://purl.stanford.edu/ww238ck1564", "title": "[一万分一 戦災復興都市計画圖 東京]", "ckey": 9705084, "available": true, "iiifUrl": "https://purl.stanford.edu/ww238ck1564/iiif/manifest" }, "geometry": { "type": "Polygon", "coordinates": [ [ [ 139.7, 35.7366668 ], [ 139.75, 35.7366668 ], [ 139.75, 35.7700002 ], [ 139.7, 35.7700002 ], [ 139.7, 35.7366668 ] ] ] } },
{ "type": "Feature", "properties": { "Id": 0, "Sheet_ID": "三河島", "label": "三河島", "call_short": "G7964 .T7 S10 .J3", "call_num": "G7964 .T7 S10 .J3 D-3", "recid": "cv644dh6109", "websiteUrl": "https://purl.stanford.edu/cv644dh6109", "title": "[一万分一 戦災復興都市計画圖 東京]", "ckey": 9705084, "available": true, "iiifUrl": "https://purl.stanford.edu/cv644dh6109/iiif/manifest" }, "geometry": { "type": "Polygon", "coordinates": [ [ [ 139.75, 35.7366668 ], [ 139.8, 35.7366668 ], [ 139.8, 35.7700002 ], [ 139.75, 35.7700002 ], [ 139.75, 35.7366668 ] ] ] } },
{ "type": "Feature", "properties": { "Id": 0, "Sheet_ID": "千住", "label": "千住", "call_short": "G7964 .T7 S10 .J3", "call_num": "G7964 .T7 S10 .J3 C-3", "recid": "xn773vj6478", "websiteUrl": "https://purl.stanford.edu/xn773vj6478", "title": "[一万分一 戦災復興都市計画圖 東京]", "ckey": 9705084, "available": true, "iiifUrl": "https://purl.stanford.edu/xn773vj6478/iiif/manifest" }, "geometry": { "type": "Polygon", "coordinates": [ [ [ 139.8, 35.7366668 ], [ 139.85, 35.7366668 ], [ 139.85, 35.7700002 ], [ 139.8, 35.7700002 ], [ 139.8, 35.7366668 ] ] ] } },
{ "type": "Feature", "properties": { "Id": 0, "Sheet_ID": "金町", "label": "金町", "call_short": "G7964 .T7 S10 .J3", "call_num": "G7964 .T7 S10 .J3 B-3", "recid": "pp650vk4824", "websiteUrl": "https://purl.stanford.edu/pp650vk4824", "title": "[一万分一 戦災復興都市計画圖 東京]", "ckey": 9705084, "available": true, "iiifUrl": "https://purl.stanford.edu/pp650vk4824/iiif/manifest" }, "geometry": { "type": "Polygon", "coordinates": [ [ [ 139.85, 35.7366668 ], [ 139.9, 35.7366668 ], [ 139.9, 35.7700002 ], [ 139.85, 35.7700002 ], [ 139.85, 35.7366668 ] ] ] } },
{ "type": "Feature", "properties": { "Id": 0, "Sheet_ID": "膝折", "label": "膝折", "call_short": "0", "call_num": "0", "recid": "0", "websiteUrl": "0", "title": "0", "ckey": 0, "available": false, "iiifUrl": "0" }, "geometry": { "type": "Polygon", "coordinates": [ [ [ 139.55, 35.7700002 ], [ 139.6, 35.7700002 ], [ 139.6, 35.8033336 ], [ 139.55, 35.8033336 ], [ 139.55, 35.7700002 ] ] ] } },
{ "type": "Feature", "properties": { "Id": 0, "Sheet_ID": "成増", "label": "成増", "call_short": "G7964 .T7 S10 .J3", "call_num": "G7964 .T7 S10 .J3 G-2", "recid": "yx944jt6468", "websiteUrl": "https://purl.stanford.edu/yx944jt6468", "title": "[一万分一 戦災復興都市計画圖 東京]", "ckey": 9705084, "available": true, "iiifUrl": "https://purl.stanford.edu/yx944jt6468/iiif/manifest" }, "geometry": { "type": "Polygon", "coordinates": [ [ [ 139.6, 35.7700002 ], [ 139.65, 35.7700002 ], [ 139.65, 35.8033336 ], [ 139.6, 35.8033336 ], [ 139.6, 35.7700002 ] ] ] } },
{ "type": "Feature", "properties": { "Id": 0, "Sheet_ID": "志村", "label": "志村", "call_short": "G7964 .T7 S10 .J3", "call_num": "G7964 .T7 S10 .J3 F-2", "recid": "jp387kb0477", "websiteUrl": "https://purl.stanford.edu/jp387kb0477", "title": "[一万分一 戦災復興都市計画圖 東京]", "ckey": 9705084, "available": true, "iiifUrl": "https://purl.stanford.edu/jp387kb0477/iiif/manifest" }, "geometry": { "type": "Polygon", "coordinates": [ [ [ 139.65, 35.7700002 ], [ 139.7, 35.7700002 ], [ 139.7, 35.8033336 ], [ 139.65, 35.8033336 ], [ 139.65, 35.7700002 ] ] ] } },
{ "type": "Feature", "properties": { "Id": 0, "Sheet_ID": "赤羽", "label": "赤羽", "call_short": "G7964 .T7 S10 .J3", "call_num": "G7964 .T7 S10 .J3 E-2", "recid": "xr723nk3464", "websiteUrl": "https://purl.stanford.edu/xr723nk3464", "title": "[一万分一 戦災復興都市計画圖 東京]", "ckey": 9705084, "available": true, "iiifUrl": "https://purl.stanford.edu/xr723nk3464/iiif/manifest" }, "geometry": { "type": "Polygon", "coordinates": [ [ [ 139.7, 35.7700002 ], [ 139.75, 35.7700002 ], [ 139.75, 35.8033336 ], [ 139.7, 35.8033336 ], [ 139.7, 35.7700002 ] ] ] } },
{ "type": "Feature", "properties": { "Id": 0, "Sheet_ID": "西新井", "label": "西新井", "call_short": "G7964 .T7 S10 .J3", "call_num": "G7964 .T7 S10 .J3 D-2", "recid": "gr332zk5388", "websiteUrl": "https://purl.stanford.edu/gr332zk5388", "title": "[一万分一 戦災復興都市計画圖 東京]", "ckey": 9705084, "available": true, "iiifUrl": "https://purl.stanford.edu/gr332zk5388/iiif/manifest" }, "geometry": { "type": "Polygon", "coordinates": [ [ [ 139.75, 35.7700002 ], [ 139.8, 35.7700002 ], [ 139.8, 35.8033336 ], [ 139.75, 35.8033336 ], [ 139.75, 35.7700002 ] ] ] } },
{ "type": "Feature", "properties": { "Id": 0, "Sheet_ID": "花畑", "label": "花畑", "call_short": "0", "call_num": "0", "recid": "0", "websiteUrl": "0", "title": "0", "ckey": 0, "available": false, "iiifUrl": "0" }, "geometry": { "type": "Polygon", "coordinates": [ [ [ 139.8, 35.7700002 ], [ 139.85, 35.7700002 ], [ 139.85, 35.8033336 ], [ 139.8, 35.8033336 ], [ 139.8, 35.7700002 ] ] ] } },
{ "type": "Feature", "properties": { "Id": 0, "Sheet_ID": "松戸", "label": "松戸", "call_short": "G7964 .T7 S10 .J3", "call_num": "G7964 .T7 S10 .J3 B-2", "recid": "jf962cc0551", "websiteUrl": "https://purl.stanford.edu/jf962cc0551", "title": "[一万分一 戦災復興都市計画圖 東京]", "ckey": 9705084, "available": true, "iiifUrl": "https://purl.stanford.edu/jf962cc0551/iiif/manifest" }, "geometry": { "type": "Polygon", "coordinates": [ [ [ 139.85, 35.7700002 ], [ 139.9, 35.7700002 ], [ 139.9, 35.8033336 ], [ 139.85, 35.8033336 ], [ 139.85, 35.7700002 ] ] ] } },
{ "type": "Feature", "properties": { "Id": 0, "Sheet_ID": "舎人", "label": "舎人", "call_short": "G7964 .T7 S10 .J3", "call_num": "G7964 .T7 S10 .J3 D-1", "recid": "nx801dw2363", "websiteUrl": "https://purl.stanford.edu/nx801dw2363", "title": "[一万分一 戦災復興都市計画圖 東京]", "ckey": 9705084, "available": true, "iiifUrl": "https://purl.stanford.edu/nx801dw2363/iiif/manifest" }, "geometry": { "type": "Polygon", "coordinates": [ [ [ 139.75, 35.8033336 ], [ 139.8, 35.8033336 ], [ 139.8, 35.836667 ], [ 139.75, 35.836667 ], [ 139.75, 35.8033336 ] ] ] } },
{ "type": "Feature", "properties": { "Id": 0, "Sheet_ID": "草加", "label": "草加", "call_short": "G7964 .T7 S10 .J3", "call_num": "G7964 .T7 S10 .J3 C-1", "recid": "ss962qt8176", "websiteUrl": "https://purl.stanford.edu/ss962qt8176", "title": "[一万分一 戦災復興都市計画圖 東京]", "ckey": 9705084, "available": true, "iiifUrl": "https://purl.stanford.edu/ss962qt8176/iiif/manifest" }, "geometry": { "type": "Polygon", "coordinates": [ [ [ 139.8, 35.8033336 ], [ 139.85, 35.8033336 ], [ 139.85, 35.836667 ], [ 139.8, 35.836667 ], [ 139.8, 35.8033336 ] ] ] } }
]
}
