{
"type": "FeatureCollection",
"name": "index_map",
"xy_coordinate_resolution": 1e-07,
"features": [
{ "type": "Feature", "properties": { "Id": 0, "Sheet_ID": "SHEET 11", "label": "SHEET 11", "call_short": "G7004 .P4 A1 S5 .J3", "call_num": "G7004 .P4 A1 S5 .J3 SHEET 11", "recid": "gk114xp8465", "websiteUrl": "https://purl.stanford.edu/gk114xp8465", "title": "十和田", "ckey": 8930498, "available": true, "iiifUrl": "https://purl.stanford.edu/gk114xp8465/iiif/manifest" }, "geometry": { "type": "Polygon", "coordinates": [ [ [ 141.870833, 46.216667 ], [ 141.9374997, 46.216667 ], [ 141.9374997, 46.2388892 ], [ 141.870833, 46.2388892 ], [ 141.870833, 46.216667 ] ] ] } },
{ "type": "Feature", "properties": { "Id": 0, "Sheet_ID": "SHEET 9", "label": "SHEET 9", "call_short": "G7004 .P4 A1 S5 .J3", "call_num": "G7004 .P4 A1 S5 .J3 SHEET 9", "recid": "dk393qx4302", "websiteUrl": "https://purl.stanford.edu/dk393qx4302", "title": "十和田", "ckey": 8930498, "available": true, "iiifUrl": "https://purl.stanford.edu/dk393qx4302/iiif/manifest" }, "geometry": { "type": "Polygon", "coordinates": [ [ [ 141.870833, 46.2388892 ], [ 141.9374997, 46.2388892 ], [ 141.9374997, 46.2611114 ], [ 141.870833, 46.2611114 ], [ 141.870833, 46.2388892 ] ] ] } },
{ "type": "Feature", "properties": { "Id": 0, "Sheet_ID": "SHEET 10", "label": "SHEET 10", "call_short": "G7004 .P4 A1 S5 .J3", "call_num": "G7004 .P4 A1 S5 .J3 SHEET 10", "recid": "sv455rs1516", "websiteUrl": "https://purl.stanford.edu/sv455rs1516", "title": "十和田", "ckey": 8930498, "available": true, "iiifUrl": "https://purl.stanford.edu/sv455rs1516/iiif/manifest" }, "geometry": { "type": "Polygon", "coordinates": [ [ [ 141.9374997, 46.2388892 ], [ 142.0041663, 46.2388892 ], [ 142.0041663, 46.2611114 ], [ 141.9374997, 46.2611114 ], [ 141.9374997, 46.2388892 ] ] ] } },
{ "type": "Feature", "properties": { "Id": 0, "Sheet_ID": "SHEET 7", "label": "SHEET 7", "call_short": "G7004 .P4 A1 S5 .J3", "call_num": "G7004 .P4 A1 S5 .J3 SHEET 7", "recid": "gq067ft6656", "websiteUrl": "https://purl.stanford.edu/gq067ft6656", "title": "十和田", "ckey": 8930498, "available": true, "iiifUrl": "https://purl.stanford.edu/gq067ft6656/iiif/manifest" }, "geometry": { "type": "Polygon", "coordinates": [ [ [ 141.870833, 46.2611114 ], [ 141.9374997, 46.2611114 ], [ 141.9374997, 46.2833336 ], [ 141.870833, 46.2833336 ], [ 141.870833, 46.2611114 ] ] ] } },
{ "type": "Feature", "properties": { "Id": 0, "Sheet_ID": "SHEET 8", "label": "SHEET 8", "call_short": "G7004 .P4 A1 S5 .J3", "call_num": "G7004 .P4 A1 S5 .J3 SHEET 8", "recid": "gw818ph9935", "websiteUrl": "https://purl.stanford.edu/gw818ph9935", "title": "十和田", "ckey": 8930498, "available": true, "iiifUrl": "https://purl.stanford.edu/gw818ph9935/iiif/manifest" }, "geometry": { "type": "Polygon", "coordinates": [ [ [ 141.9374997, 46.2611114 ], [ 142.0041663, 46.2611114 ], [ 142.0041663, 46.2833336 ], [ 141.9374997, 46.2833336 ], [ 141.9374997, 46.2611114 ] ] ] } },
{ "type": "Feature", "properties": { "Id": 0, "Sheet_ID": "SHEET 4", "label": "SHEET 4", "call_short": "G7004 .P4 A1 S5 .J3", "call_num": "G7004 .P4 A1 S5 .J3 SHEET 4", "recid": "ym314wr5864", "websiteUrl": "https://purl.stanford.edu/ym314wr5864", "title": "十和田", "ckey": 8930498, "available": true, "iiifUrl": "https://purl.stanford.edu/ym314wr5864/iiif/manifest" }, "geometry": { "type": "Polygon", "coordinates": [ [ [ 141.870833, 46.2833336 ], [ 141.9374997, 46.2833336 ], [ 141.9374997, 46.3055558 ], [ 141.870833, 46.3055558 ], [ 141.870833, 46.2833336 ] ] ] } },
{ "type": "Feature", "properties": { "Id": 0, "Sheet_ID": "SHEET 5", "label": "SHEET 5", "call_short": "G7004 .P4 A1 S5 .J3", "call_num": "G7004 .P4 A1 S5 .J3 SHEET 5", "recid": "kw082nw8299", "websiteUrl": "https://purl.stanford.edu/kw082nw8299", "title": "十和田", "ckey": 8930498, "available": true, "iiifUrl": "https://purl.stanford.edu/kw082nw8299/iiif/manifest" }, "geometry": { "type": "Polygon", "coordinates": [ [ [ 141.9374997, 46.2833336 ], [ 142.0041663, 46.2833336 ], [ 142.0041663, 46.3055558 ], [ 141.9374997, 46.3055558 ], [ 141.9374997, 46.2833336 ] ] ] } },
{ "type": "Feature", "properties": { "Id": 0, "Sheet_ID": "SHEET 6", "label": "SHEET 6", "call_short": "G7004 .P4 A1 S5 .J3", "call_num": "G7004 .P4 A1 S5 .J3 SHEET 6", "recid": "dk656gy5419", "websiteUrl": "https://purl.stanford.edu/dk656gy5419", "title": "十和田", "ckey": 8930498, "available": true, "iiifUrl": "https://purl.stanford.edu/dk656gy5419/iiif/manifest" }, "geometry": { "type": "Polygon", "coordinates": [ [ [ 142.0041663, 46.2833336 ], [ 142.070833, 46.2833336 ], [ 142.070833, 46.3055558 ], [ 142.0041663, 46.3055558 ], [ 142.0041663, 46.2833336 ] ] ] } },
{ "type": "Feature", "properties": { "Id": 0, "Sheet_ID": "SHEET 1", "label": "SHEET 1", "call_short": "G7004 .P4 A1 S5 .J3", "call_num": "G7004 .P4 A1 S5 .J3 SHEET 1", "recid": "wj234wy1580", "websiteUrl": "https://purl.stanford.edu/wj234wy1580", "title": "十和田", "ckey": 8930498, "available": true, "iiifUrl": "https://purl.stanford.edu/wj234wy1580/iiif/manifest" }, "geometry": { "type": "Polygon", "coordinates": [ [ [ 141.870833, 46.3055558 ], [ 141.9374997, 46.3055558 ], [ 141.9374997, 46.327778 ], [ 141.870833, 46.327778 ], [ 141.870833, 46.3055558 ] ] ] } },
{ "type": "Feature", "properties": { "Id": 0, "Sheet_ID": "SHEET 2", "label": "SHEET 2", "call_short": "G7004 .P4 A1 S5 .J3", "call_num": "G7004 .P4 A1 S5 .J3 SHEET 2", "recid": "tb321nx0248", "websiteUrl": "https://purl.stanford.edu/tb321nx0248", "title": "十和田", "ckey": 8930498, "available": true, "iiifUrl": "https://purl.stanford.edu/tb321nx0248/iiif/manifest" }, "geometry": { "type": "Polygon", "coordinates": [ [ [ 141.9374997, 46.3055558 ], [ 142.0041663, 46.3055558 ], [ 142.0041663, 46.327778 ], [ 141.9374997, 46.327778 ], [ 141.9374997, 46.3055558 ] ] ] } },
{ "type": "Feature", "properties": { "Id": 0, "Sheet_ID": "SHEET 3", "label": "SHEET 3", "call_short": "G7004 .P4 A1 S5 .J3", "call_num": "G7004 .P4 A1 S5 .J3 SHEET 3", "recid": "dt631tr5089", "websiteUrl": "https://purl.stanford.edu/dt631tr5089", "title": "十和田", "ckey": 8930498, "available": true, "iiifUrl": "https://purl.stanford.edu/dt631tr5089/iiif/manifest" }, "geometry": { "type": "Polygon", "coordinates": [ [ [ 142.0041663, 46.3055558 ], [ 142.070833, 46.3055558 ], [ 142.070833, 46.327778 ], [ 142.0041663, 46.327778 ], [ 142.0041663, 46.3055558 ] ] ] } }
]
}
