{"type":"FeatureCollection","features":[{"type":"Feature","properties":{"Id":0,"Sheet_ID":"SHEET 20","label":"SHEET 20","call_short":"G7822 .M2 A1 S50 .J3","call_num":"G7822 .M2 A1 S50 .J3 SHEET 20","recid":"gv290pr6641","websiteUrl":"https://purl.stanford.edu/gv290pr6641","title":"滿洲五万分一拜泉克山附近","ckey":11051731,"web_map":"","available":"true","iiiUrl":"https://purl.stanford.edu/gv290pr6641/iiif/manifest"},"geometry":{"bbox":[125.25,47.5,125.5,47.66666675],"type":"Polygon","coordinates":[[[125.25,47.5],[125.25,47.66666675],[125.5,47.66666675],[125.5,47.5],[125.25,47.5]]]}},{"type":"Feature","properties":{"Id":0,"Sheet_ID":"SHEET 16","label":"SHEET 16","call_short":"G7822 .M2 A1 S50 .J3","call_num":"G7822 .M2 A1 S50 .J3 SHEET 16","recid":"tm610nh0787","websiteUrl":"https://purl.stanford.edu/tm610nh0787","title":"滿洲五万分一拜泉克山附近","ckey":11051731,"web_map":"","available":"true","iiiUrl":"https://purl.stanford.edu/tm610nh0787/iiif/manifest"},"geometry":{"bbox":[125.5,47.5,125.74999999999999,47.66666675],"type":"Polygon","coordinates":[[[125.5,47.5],[125.5,47.66666675],[125.74999999999999,47.66666675],[125.74999999999999,47.5],[125.5,47.5]]]}},{"type":"Feature","properties":{"Id":0,"Sheet_ID":"SHEET 12","label":"SHEET 12","call_short":"G7822 .M2 A1 S50 .J3","call_num":"G7822 .M2 A1 S50 .J3 SHEET 12","recid":"jy770cv3013","websiteUrl":"https://purl.stanford.edu/jy770cv3013","title":"滿洲五万分一拜泉克山附近","ckey":11051731,"web_map":"","available":"true","iiiUrl":"https://purl.stanford.edu/jy770cv3013/iiif/manifest"},"geometry":{"bbox":[125.74999999999999,47.5,126,47.66666675],"type":"Polygon","coordinates":[[[125.74999999999999,47.5],[125.74999999999999,47.66666675],[126,47.66666675],[126,47.5],[125.74999999999999,47.5]]]}},{"type":"Feature","properties":{"Id":0,"Sheet_ID":"SHEET 8","label":"SHEET 8","call_short":"G7822 .M2 A1 S50 .J3","call_num":"G7822 .M2 A1 S50 .J3 SHEET 8","recid":"tf700qq2119","websiteUrl":"https://purl.stanford.edu/tf700qq2119","title":"滿洲五万分一拜泉克山附近","ckey":11051731,"web_map":"","available":"true","iiiUrl":"https://purl.stanford.edu/tf700qq2119/iiif/manifest"},"geometry":{"bbox":[126,47.5,126.25000000000001,47.66666675],"type":"Polygon","coordinates":[[[126,47.5],[126,47.66666675],[126.25000000000001,47.66666675],[126.25000000000001,47.5],[126,47.5]]]}},{"type":"Feature","properties":{"Id":0,"Sheet_ID":"SHEET 4","label":"SHEET 4","call_short":"G7822 .M2 A1 S50 .J3","call_num":"G7822 .M2 A1 S50 .J3 SHEET 4","recid":"bp291cx1708","websiteUrl":"https://purl.stanford.edu/bp291cx1708","title":"滿洲五万分一拜泉克山附近","ckey":11051731,"web_map":"","available":"true","iiiUrl":"https://purl.stanford.edu/bp291cx1708/iiif/manifest"},"geometry":{"bbox":[126.25000000000001,47.5,126.5,47.66666675],"type":"Polygon","coordinates":[[[126.25000000000001,47.5],[126.25000000000001,47.66666675],[126.5,47.66666675],[126.5,47.5],[126.25000000000001,47.5]]]}},{"type":"Feature","properties":{"Id":0,"Sheet_ID":"SHEET 19","label":"SHEET 19","call_short":"G7822 .M2 A1 S50 .J3","call_num":"G7822 .M2 A1 S50 .J3 SHEET 19","recid":"rr420jn3682","websiteUrl":"https://purl.stanford.edu/rr420jn3682","title":"滿洲五万分一拜泉克山附近","ckey":11051731,"web_map":"","available":"true","iiiUrl":"https://purl.stanford.edu/rr420jn3682/iiif/manifest"},"geometry":{"bbox":[125.25,47.66666675,125.5,47.833333499999995],"type":"Polygon","coordinates":[[[125.25,47.66666675],[125.25,47.833333499999995],[125.5,47.833333499999995],[125.5,47.66666675],[125.25,47.66666675]]]}},{"type":"Feature","properties":{"Id":0,"Sheet_ID":"SHEET 15","label":"SHEET 15","call_short":"G7822 .M2 A1 S50 .J3","call_num":"G7822 .M2 A1 S50 .J3 SHEET 15","recid":"hz260vq6735","websiteUrl":"https://purl.stanford.edu/hz260vq6735","title":"滿洲五万分一拜泉克山附近","ckey":11051731,"web_map":"","available":"true","iiiUrl":"https://purl.stanford.edu/hz260vq6735/iiif/manifest"},"geometry":{"bbox":[125.5,47.66666675,125.74999999999999,47.833333499999995],"type":"Polygon","coordinates":[[[125.5,47.66666675],[125.5,47.833333499999995],[125.74999999999999,47.833333499999995],[125.74999999999999,47.66666675],[125.5,47.66666675]]]}},{"type":"Feature","properties":{"Id":0,"Sheet_ID":"SHEET 11","label":"SHEET 11","call_short":"G7822 .M2 A1 S50 .J3","call_num":"G7822 .M2 A1 S50 .J3 SHEET 11","recid":"yb190rq3742","websiteUrl":"https://purl.stanford.edu/yb190rq3742","title":"滿洲五万分一拜泉克山附近","ckey":11051731,"web_map":"","available":"true","iiiUrl":"https://purl.stanford.edu/yb190rq3742/iiif/manifest"},"geometry":{"bbox":[125.74999999999999,47.66666675,126,47.833333499999995],"type":"Polygon","coordinates":[[[125.74999999999999,47.66666675],[125.74999999999999,47.833333499999995],[126,47.833333499999995],[126,47.66666675],[125.74999999999999,47.66666675]]]}},{"type":"Feature","properties":{"Id":0,"Sheet_ID":"SHEET 7","label":"SHEET 7","call_short":"G7822 .M2 A1 S50 .J3","call_num":"G7822 .M2 A1 S50 .J3 SHEET 7","recid":"sp939kg2643","websiteUrl":"https://purl.stanford.edu/sp939kg2643","title":"滿洲五万分一拜泉克山附近","ckey":11051731,"web_map":"","available":"true","iiiUrl":"https://purl.stanford.edu/sp939kg2643/iiif/manifest"},"geometry":{"bbox":[126,47.66666675,126.25000000000001,47.833333499999995],"type":"Polygon","coordinates":[[[126,47.66666675],[126,47.833333499999995],[126.25000000000001,47.833333499999995],[126.25000000000001,47.66666675],[126,47.66666675]]]}},{"type":"Feature","properties":{"Id":0,"Sheet_ID":"SHEET 3","label":"SHEET 3","call_short":"G7822 .M2 A1 S50 .J3","call_num":"G7822 .M2 A1 S50 .J3 SHEET 3","recid":"vt946hf8078","websiteUrl":"https://purl.stanford.edu/vt946hf8078","title":"滿洲五万分一拜泉克山附近","ckey":11051731,"web_map":"","available":"true","iiiUrl":"https://purl.stanford.edu/vt946hf8078/iiif/manifest"},"geometry":{"bbox":[126.25000000000001,47.66666675,126.5,47.833333499999995],"type":"Polygon","coordinates":[[[126.25000000000001,47.66666675],[126.25000000000001,47.833333499999995],[126.5,47.833333499999995],[126.5,47.66666675],[126.25000000000001,47.66666675]]]}},{"type":"Feature","properties":{"Id":0,"Sheet_ID":"SHEET 18","label":"SHEET 18","call_short":"G7822 .M2 A1 S50 .J3","call_num":"G7822 .M2 A1 S50 .J3 SHEET 18","recid":"cj359wt3590","websiteUrl":"https://purl.stanford.edu/cj359wt3590","title":"滿洲五万分一拜泉克山附近","ckey":11051731,"web_map":"","available":"true","iiiUrl":"https://purl.stanford.edu/cj359wt3590/iiif/manifest"},"geometry":{"bbox":[125.25,47.833333499999995,125.5,48.00000024999999],"type":"Polygon","coordinates":[[[125.25,47.833333499999995],[125.25,48.00000024999999],[125.5,48.00000024999999],[125.5,47.833333499999995],[125.25,47.833333499999995]]]}},{"type":"Feature","properties":{"Id":0,"Sheet_ID":"SHEET 14","label":"SHEET 14","call_short":"G7822 .M2 A1 S50 .J3","call_num":"G7822 .M2 A1 S50 .J3 SHEET 14","recid":"mj597qq7091","websiteUrl":"https://purl.stanford.edu/mj597qq7091","title":"滿洲五万分一拜泉克山附近","ckey":11051731,"web_map":"","available":"true","iiiUrl":"https://purl.stanford.edu/mj597qq7091/iiif/manifest"},"geometry":{"bbox":[125.5,47.833333499999995,125.74999999999999,48.00000024999999],"type":"Polygon","coordinates":[[[125.5,47.833333499999995],[125.5,48.00000024999999],[125.74999999999999,48.00000024999999],[125.74999999999999,47.833333499999995],[125.5,47.833333499999995]]]}},{"type":"Feature","properties":{"Id":0,"Sheet_ID":"SHEET 10","label":"SHEET 10","call_short":"G7822 .M2 A1 S50 .J3","call_num":"G7822 .M2 A1 S50 .J3 SHEET 10","recid":"ks689yd6085","websiteUrl":"https://purl.stanford.edu/ks689yd6085","title":"滿洲五万分一拜泉克山附近","ckey":11051731,"web_map":"","available":"true","iiiUrl":"https://purl.stanford.edu/ks689yd6085/iiif/manifest"},"geometry":{"bbox":[125.74999999999999,47.833333499999995,126,48.00000024999999],"type":"Polygon","coordinates":[[[125.74999999999999,47.833333499999995],[125.74999999999999,48.00000024999999],[126,48.00000024999999],[126,47.833333499999995],[125.74999999999999,47.833333499999995]]]}},{"type":"Feature","properties":{"Id":0,"Sheet_ID":"SHEET 6","label":"SHEET 6","call_short":"G7822 .M2 A1 S50 .J3","call_num":"G7822 .M2 A1 S50 .J3 SHEET 6","recid":"qj722hw5999","websiteUrl":"https://purl.stanford.edu/qj722hw5999","title":"滿洲五万分一拜泉克山附近","ckey":11051731,"web_map":"","available":"true","iiiUrl":"https://purl.stanford.edu/qj722hw5999/iiif/manifest"},"geometry":{"bbox":[126,47.833333499999995,126.25000000000001,48.00000024999999],"type":"Polygon","coordinates":[[[126,47.833333499999995],[126,48.00000024999999],[126.25000000000001,48.00000024999999],[126.25000000000001,47.833333499999995],[126,47.833333499999995]]]}},{"type":"Feature","properties":{"Id":0,"Sheet_ID":"SHEET 2","label":"SHEET 2","call_short":"G7822 .M2 A1 S50 .J3","call_num":"G7822 .M2 A1 S50 .J3 SHEET 2","recid":"zp239yv9919","websiteUrl":"https://purl.stanford.edu/zp239yv9919","title":"滿洲五万分一拜泉克山附近","ckey":11051731,"web_map":"","available":"true","iiiUrl":"https://purl.stanford.edu/zp239yv9919/iiif/manifest"},"geometry":{"bbox":[126.25000000000001,47.833333499999995,126.5,48.00000024999999],"type":"Polygon","coordinates":[[[126.25000000000001,47.833333499999995],[126.25000000000001,48.00000024999999],[126.5,48.00000024999999],[126.5,47.833333499999995],[126.25000000000001,47.833333499999995]]]}},{"type":"Feature","properties":{"Id":0,"Sheet_ID":"SHEET 17","label":"SHEET 17","call_short":"G7822 .M2 A1 S50 .J3","call_num":"G7822 .M2 A1 S50 .J3 SHEET 17","recid":"vc463dh5346","websiteUrl":"https://purl.stanford.edu/vc463dh5346","title":"滿洲五万分一拜泉克山附近","ckey":11051731,"web_map":"","available":"true","iiiUrl":"https://purl.stanford.edu/vc463dh5346/iiif/manifest"},"geometry":{"bbox":[125.25,48.00000025,125.5,48.166667],"type":"Polygon","coordinates":[[[125.25,48.00000025],[125.25,48.166667],[125.5,48.166667],[125.5,48.00000025],[125.25,48.00000025]]]}},{"type":"Feature","properties":{"Id":0,"Sheet_ID":"SHEET 13","label":"SHEET 13","call_short":"G7822 .M2 A1 S50 .J3","call_num":"G7822 .M2 A1 S50 .J3 SHEET 13","recid":"ct582nd2043","websiteUrl":"https://purl.stanford.edu/ct582nd2043","title":"滿洲五万分一拜泉克山附近","ckey":11051731,"web_map":"","available":"true","iiiUrl":"https://purl.stanford.edu/ct582nd2043/iiif/manifest"},"geometry":{"bbox":[125.5,48.00000025,125.74999999999999,48.166667],"type":"Polygon","coordinates":[[[125.5,48.00000025],[125.5,48.166667],[125.74999999999999,48.166667],[125.74999999999999,48.00000025],[125.5,48.00000025]]]}},{"type":"Feature","properties":{"Id":0,"Sheet_ID":"SHEET 9","label":"SHEET 9","call_short":"G7822 .M2 A1 S50 .J3","call_num":"G7822 .M2 A1 S50 .J3 SHEET 9","recid":"jv982ch7026","websiteUrl":"https://purl.stanford.edu/jv982ch7026","title":"滿洲五万分一拜泉克山附近","ckey":11051731,"web_map":"","available":"true","iiiUrl":"https://purl.stanford.edu/jv982ch7026/iiif/manifest"},"geometry":{"bbox":[125.74999999999999,48.00000025,126,48.166667],"type":"Polygon","coordinates":[[[125.74999999999999,48.00000025],[125.74999999999999,48.166667],[126,48.166667],[126,48.00000025],[125.74999999999999,48.00000025]]]}},{"type":"Feature","properties":{"Id":0,"Sheet_ID":"SHEET 5","label":"SHEET 5","call_short":"G7822 .M2 A1 S50 .J3","call_num":"G7822 .M2 A1 S50 .J3 SHEET 5","recid":"pj543ck7012","websiteUrl":"https://purl.stanford.edu/pj543ck7012","title":"滿洲五万分一拜泉克山附近","ckey":11051731,"web_map":"","available":"true","iiiUrl":"https://purl.stanford.edu/pj543ck7012/iiif/manifest"},"geometry":{"bbox":[126,48.00000025,126.25000000000001,48.166667],"type":"Polygon","coordinates":[[[126,48.00000025],[126,48.166667],[126.25000000000001,48.166667],[126.25000000000001,48.00000025],[126,48.00000025]]]}},{"type":"Feature","properties":{"Id":0,"Sheet_ID":"SHEET 1","label":"SHEET 1","call_short":"G7822 .M2 A1 S50 .J3","call_num":"G7822 .M2 A1 S50 .J3 SHEET 1","recid":"kv028hz9783","websiteUrl":"https://purl.stanford.edu/kv028hz9783","title":"滿洲五万分一拜泉克山附近","ckey":11051731,"web_map":"","available":"true","iiiUrl":"https://purl.stanford.edu/kv028hz9783/iiif/manifest"},"geometry":{"bbox":[126.25000000000001,48.00000025,126.5,48.166667],"type":"Polygon","coordinates":[[[126.25000000000001,48.00000025],[126.25000000000001,48.166667],[126.5,48.166667],[126.5,48.00000025],[126.25000000000001,48.00000025]]]}}],"name":"index_11051731"}
