{
"type": "FeatureCollection",
"name": "index_map",
"xy_coordinate_resolution": 1e-07,
"features": [
{ "type": "Feature", "properties": { "Id": 0, "Sheet_ID": "SHEET 28", "label": "SHEET 28", "call_short": "0", "call_num": "0", "recid": "0", "websiteUrl": "0", "title": "0", "ckey": 0, "available": false, "iiifUrl": "0" }, "geometry": { "type": "Polygon", "coordinates": [ [ [ 121.6527778, 38.873889 ], [ 121.6644445, 38.873889 ], [ 121.6644445, 38.8808334 ], [ 121.6527778, 38.8808334 ], [ 121.6527778, 38.873889 ] ] ] } },
{ "type": "Feature", "properties": { "Id": 0, "Sheet_ID": "SHEET 29", "label": "SHEET 29", "call_short": "0", "call_num": "0", "recid": "0", "websiteUrl": "0", "title": "0", "ckey": 0, "available": false, "iiifUrl": "0" }, "geometry": { "type": "Polygon", "coordinates": [ [ [ 121.6644445, 38.873889 ], [ 121.6761112, 38.873889 ], [ 121.6761112, 38.8808334 ], [ 121.6644445, 38.8808334 ], [ 121.6644445, 38.873889 ] ] ] } },
{ "type": "Feature", "properties": { "Id": 0, "Sheet_ID": "SHEET 30", "label": "SHEET 30", "call_short": "G7824 .D3 S1 .J37", "call_num": "G7824 .D3 S1 .J37 SHEET 30", "recid": "kh108fv7858", "websiteUrl": "https://purl.stanford.edu/kh108fv7858", "title": "大連市街圖 東部", "ckey": 13901786, "available": true, "iiifUrl": "https://purl.stanford.edu/kh108fv7858/iiif/manifest" }, "geometry": { "type": "Polygon", "coordinates": [ [ [ 121.6294444, 38.8808334 ], [ 121.6411111, 38.8808334 ], [ 121.6411111, 38.8877779 ], [ 121.6294444, 38.8877779 ], [ 121.6294444, 38.8808334 ] ] ] } },
{ "type": "Feature", "properties": { "Id": 0, "Sheet_ID": "SHEET 26", "label": "SHEET 26", "call_short": "G7824 .D3 S1 .J37", "call_num": "G7824 .D3 S1 .J37 SHEET 26", "recid": "db490zg8059", "websiteUrl": "https://purl.stanford.edu/db490zg8059", "title": "大連市街圖 東部", "ckey": 13901786, "available": true, "iiifUrl": "https://purl.stanford.edu/db490zg8059/iiif/manifest" }, "geometry": { "type": "Polygon", "coordinates": [ [ [ 121.6411111, 38.8808334 ], [ 121.6527778, 38.8808334 ], [ 121.6527778, 38.8877779 ], [ 121.6411111, 38.8877779 ], [ 121.6411111, 38.8808334 ] ] ] } },
{ "type": "Feature", "properties": { "Id": 0, "Sheet_ID": "SHEET 27", "label": "SHEET 27", "call_short": "G7824 .D3 S1 .J37", "call_num": "G7824 .D3 S1 .J37 SHEET 27", "recid": "yt397wj3805", "websiteUrl": "https://purl.stanford.edu/yt397wj3805", "title": "大連市街圖 東部", "ckey": 13901786, "available": true, "iiifUrl": "https://purl.stanford.edu/yt397wj3805/iiif/manifest" }, "geometry": { "type": "Polygon", "coordinates": [ [ [ 121.6527778, 38.8808334 ], [ 121.6644445, 38.8808334 ], [ 121.6644445, 38.8877779 ], [ 121.6527778, 38.8877779 ], [ 121.6527778, 38.8808334 ] ] ] } },
{ "type": "Feature", "properties": { "Id": 0, "Sheet_ID": "SHEET 25", "label": "SHEET 25", "call_short": "0", "call_num": "0", "recid": "0", "websiteUrl": "0", "title": "0", "ckey": 0, "available": false, "iiifUrl": "0" }, "geometry": { "type": "Polygon", "coordinates": [ [ [ 121.6411111, 38.8877779 ], [ 121.6527778, 38.8877779 ], [ 121.6527778, 38.8947223 ], [ 121.6411111, 38.8947223 ], [ 121.6411111, 38.8877779 ] ] ] } },
{ "type": "Feature", "properties": { "Id": 0, "Sheet_ID": "SHEET 36", "label": "SHEET 36", "call_short": "G7824 .D3 S1 .J37", "call_num": "G7824 .D3 S1 .J37 SHEET 36", "recid": "sz530fh7315", "websiteUrl": "https://purl.stanford.edu/sz530fh7315", "title": "大連市街圖 東部", "ckey": 13901786, "available": true, "iiifUrl": "https://purl.stanford.edu/sz530fh7315/iiif/manifest" }, "geometry": { "type": "Polygon", "coordinates": [ [ [ 121.623611, 38.898194 ], [ 121.6352777, 38.898194 ], [ 121.6352777, 38.9016668 ], [ 121.623611, 38.9016668 ], [ 121.623611, 38.898194 ] ] ] } },
{ "type": "Feature", "properties": { "Id": 0, "Sheet_ID": "SHEET 24", "label": "SHEET 24", "call_short": "G7824 .D3 S1 .J37", "call_num": "G7824 .D3 S1 .J37 SHEET 24", "recid": "bk102gh6453", "websiteUrl": "https://purl.stanford.edu/bk102gh6453", "title": "大連市街圖 東部", "ckey": 13901786, "available": true, "iiifUrl": "https://purl.stanford.edu/bk102gh6453/iiif/manifest" }, "geometry": { "type": "Polygon", "coordinates": [ [ [ 121.6352777, 38.8947223 ], [ 121.6469444, 38.8947223 ], [ 121.6469444, 38.9016668 ], [ 121.6352777, 38.9016668 ], [ 121.6352777, 38.8947223 ] ] ] } },
{ "type": "Feature", "properties": { "Id": 0, "Sheet_ID": "SHEET 18", "label": "SHEET 18", "call_short": "0", "call_num": "0", "recid": "0", "websiteUrl": "0", "title": "0", "ckey": 0, "available": false, "iiifUrl": "0" }, "geometry": { "type": "Polygon", "coordinates": [ [ [ 121.6469444, 38.8947223 ], [ 121.6586111, 38.8947223 ], [ 121.6586111, 38.9016668 ], [ 121.6469444, 38.9016668 ], [ 121.6469444, 38.8947223 ] ] ] } },
{ "type": "Feature", "properties": { "Id": 0, "Sheet_ID": "SHEET 35", "label": "SHEET 35", "call_short": "G7824 .D3 S1 .J37", "call_num": "G7824 .D3 S1 .J37 SHEET 35", "recid": "gn741st8798", "websiteUrl": "https://purl.stanford.edu/gn741st8798", "title": "大連市街圖 東部", "ckey": 13901786, "available": true, "iiifUrl": "https://purl.stanford.edu/gn741st8798/iiif/manifest" }, "geometry": { "type": "Polygon", "coordinates": [ [ [ 121.623611, 38.9016668 ], [ 121.6352777, 38.9016668 ], [ 121.6352777, 38.9086112 ], [ 121.623611, 38.9086112 ], [ 121.623611, 38.9016668 ] ] ] } },
{ "type": "Feature", "properties": { "Id": 0, "Sheet_ID": "SHEET 23", "label": "SHEET 23", "call_short": "G7824 .D3 S1 .J37", "call_num": "G7824 .D3 S1 .J37 SHEET 23", "recid": "ky597vt2520", "websiteUrl": "https://purl.stanford.edu/ky597vt2520", "title": "大連市街圖 東部", "ckey": 13901786, "available": true, "iiifUrl": "https://purl.stanford.edu/ky597vt2520/iiif/manifest" }, "geometry": { "type": "Polygon", "coordinates": [ [ [ 121.6352777, 38.9016668 ], [ 121.6469444, 38.9016668 ], [ 121.6469444, 38.9086112 ], [ 121.6352777, 38.9086112 ], [ 121.6352777, 38.9016668 ] ] ] } },
{ "type": "Feature", "properties": { "Id": 0, "Sheet_ID": "SHEET 17", "label": "SHEET 17", "call_short": "G7824 .D3 S1 .J37", "call_num": "G7824 .D3 S1 .J37 SHEET 17", "recid": "rh642xx7850", "websiteUrl": "https://purl.stanford.edu/rh642xx7850", "title": "大連市街圖 東部", "ckey": 13901786, "available": true, "iiifUrl": "https://purl.stanford.edu/rh642xx7850/iiif/manifest" }, "geometry": { "type": "Polygon", "coordinates": [ [ [ 121.6469444, 38.9016668 ], [ 121.6586111, 38.9016668 ], [ 121.6586111, 38.9086112 ], [ 121.6469444, 38.9086112 ], [ 121.6469444, 38.9016668 ] ] ] } },
{ "type": "Feature", "properties": { "Id": 0, "Sheet_ID": "SHEET 34", "label": "SHEET 34", "call_short": "G7824 .D3 S1 .J37", "call_num": "G7824 .D3 S1 .J37 SHEET 34", "recid": "hf431dc9596", "websiteUrl": "https://purl.stanford.edu/hf431dc9596", "title": "大連市街圖 東部", "ckey": 13901786, "available": true, "iiifUrl": "https://purl.stanford.edu/hf431dc9596/iiif/manifest" }, "geometry": { "type": "Polygon", "coordinates": [ [ [ 121.623611, 38.9086112 ], [ 121.6352777, 38.9086112 ], [ 121.6352777, 38.9155557 ], [ 121.623611, 38.9155557 ], [ 121.623611, 38.9086112 ] ] ] } },
{ "type": "Feature", "properties": { "Id": 0, "Sheet_ID": "SHEET 22", "label": "SHEET 22", "call_short": "G7824 .D3 S1 .J37", "call_num": "G7824 .D3 S1 .J37 SHEET 22", "recid": "yn144nb1880", "websiteUrl": "https://purl.stanford.edu/yn144nb1880", "title": "大連市街圖 東部", "ckey": 13901786, "available": true, "iiifUrl": "https://purl.stanford.edu/yn144nb1880/iiif/manifest" }, "geometry": { "type": "Polygon", "coordinates": [ [ [ 121.6352777, 38.9086112 ], [ 121.6469444, 38.9086112 ], [ 121.6469444, 38.9155557 ], [ 121.6352777, 38.9155557 ], [ 121.6352777, 38.9086112 ] ] ] } },
{ "type": "Feature", "properties": { "Id": 0, "Sheet_ID": "SHEET 16", "label": "SHEET 16", "call_short": "G7824 .D3 S1 .J37", "call_num": "G7824 .D3 S1 .J37 SHEET 16", "recid": "qf987cc3857", "websiteUrl": "https://purl.stanford.edu/qf987cc3857", "title": "大連市街圖 東部", "ckey": 13901786, "available": true, "iiifUrl": "https://purl.stanford.edu/qf987cc3857/iiif/manifest" }, "geometry": { "type": "Polygon", "coordinates": [ [ [ 121.6469444, 38.9086112 ], [ 121.6586111, 38.9086112 ], [ 121.6586111, 38.9155557 ], [ 121.6469444, 38.9155557 ], [ 121.6469444, 38.9086112 ] ] ] } },
{ "type": "Feature", "properties": { "Id": 0, "Sheet_ID": "SHEET 12", "label": "SHEET 12", "call_short": "G7824 .D3 S1 .J37", "call_num": "G7824 .D3 S1 .J37 SHEET 12", "recid": "gr179cs5666", "websiteUrl": "https://purl.stanford.edu/gr179cs5666", "title": "大連市街圖 東部", "ckey": 13901786, "available": true, "iiifUrl": "https://purl.stanford.edu/gr179cs5666/iiif/manifest" }, "geometry": { "type": "Polygon", "coordinates": [ [ [ 121.6586111, 38.9086112 ], [ 121.6702779, 38.9086112 ], [ 121.6702779, 38.9155557 ], [ 121.6586111, 38.9155557 ], [ 121.6586111, 38.9086112 ] ] ] } },
{ "type": "Feature", "properties": { "Id": 0, "Sheet_ID": "SHEET 8", "label": "SHEET 8", "call_short": "0", "call_num": "0", "recid": "0", "websiteUrl": "0", "title": "0", "ckey": 0, "available": false, "iiifUrl": "0" }, "geometry": { "type": "Polygon", "coordinates": [ [ [ 121.6702779, 38.9086112 ], [ 121.6819446, 38.9086112 ], [ 121.6819446, 38.9155557 ], [ 121.6702779, 38.9155557 ], [ 121.6702779, 38.9086112 ] ] ] } },
{ "type": "Feature", "properties": { "Id": 0, "Sheet_ID": "SHEET 5", "label": "SHEET 5", "call_short": "G7824 .D3 S1 .J37", "call_num": "G7824 .D3 S1 .J37 SHEET 5", "recid": "nv842zk3172", "websiteUrl": "https://purl.stanford.edu/nv842zk3172", "title": "大連市街圖 東部", "ckey": 13901786, "available": true, "iiifUrl": "https://purl.stanford.edu/nv842zk3172/iiif/manifest" }, "geometry": { "type": "Polygon", "coordinates": [ [ [ 121.6819446, 38.9086112 ], [ 121.6936113, 38.9086112 ], [ 121.6936113, 38.9155557 ], [ 121.6819446, 38.9155557 ], [ 121.6819446, 38.9086112 ] ] ] } },
{ "type": "Feature", "properties": { "Id": 0, "Sheet_ID": "SHEET 3", "label": "SHEET 3", "call_short": "0", "call_num": "0", "recid": "0", "websiteUrl": "0", "title": "0", "ckey": 0, "available": false, "iiifUrl": "0" }, "geometry": { "type": "Polygon", "coordinates": [ [ [ 121.6936113, 38.905139 ], [ 121.705278, 38.905139 ], [ 121.705278, 38.9120834 ], [ 121.6936113, 38.9120834 ], [ 121.6936113, 38.905139 ] ] ] } },
{ "type": "Feature", "properties": { "Id": 0, "Sheet_ID": "SHEET 33", "label": "SHEET 33", "call_short": "G7824 .D3 S1 .J37", "call_num": "G7824 .D3 S1 .J37 SHEET 33", "recid": "xb871bf6523", "websiteUrl": "https://purl.stanford.edu/xb871bf6523", "title": "大連市街圖 東部", "ckey": 13901786, "available": true, "iiifUrl": "https://purl.stanford.edu/xb871bf6523/iiif/manifest" }, "geometry": { "type": "Polygon", "coordinates": [ [ [ 121.623611, 38.9155557 ], [ 121.6352777, 38.9155557 ], [ 121.6352777, 38.9225001 ], [ 121.623611, 38.9225001 ], [ 121.623611, 38.9155557 ] ] ] } },
{ "type": "Feature", "properties": { "Id": 0, "Sheet_ID": "SHEET 21", "label": "SHEET 21", "call_short": "G7824 .D3 S1 .J37", "call_num": "G7824 .D3 S1 .J37 SHEET 21", "recid": "pf877yb8598", "websiteUrl": "https://purl.stanford.edu/pf877yb8598", "title": "大連市街圖 東部", "ckey": 13901786, "available": true, "iiifUrl": "https://purl.stanford.edu/pf877yb8598/iiif/manifest" }, "geometry": { "type": "Polygon", "coordinates": [ [ [ 121.6352777, 38.9155557 ], [ 121.6469444, 38.9155557 ], [ 121.6469444, 38.9225001 ], [ 121.6352777, 38.9225001 ], [ 121.6352777, 38.9155557 ] ] ] } },
{ "type": "Feature", "properties": { "Id": 0, "Sheet_ID": "SHEET 15", "label": "SHEET 15", "call_short": "0", "call_num": "0", "recid": "0", "websiteUrl": "0", "title": "0", "ckey": 0, "available": false, "iiifUrl": "0" }, "geometry": { "type": "Polygon", "coordinates": [ [ [ 121.6469444, 38.9155557 ], [ 121.6586111, 38.9155557 ], [ 121.6586111, 38.9225001 ], [ 121.6469444, 38.9225001 ], [ 121.6469444, 38.9155557 ] ] ] } },
{ "type": "Feature", "properties": { "Id": 0, "Sheet_ID": "SHEET 11", "label": "SHEET 11", "call_short": "G7824 .D3 S1 .J37", "call_num": "G7824 .D3 S1 .J37 SHEET 11", "recid": "nn138vt3745", "websiteUrl": "https://purl.stanford.edu/nn138vt3745", "title": "大連市街圖 東部", "ckey": 13901786, "available": true, "iiifUrl": "https://purl.stanford.edu/nn138vt3745/iiif/manifest" }, "geometry": { "type": "Polygon", "coordinates": [ [ [ 121.6586111, 38.9155557 ], [ 121.6702779, 38.9155557 ], [ 121.6702779, 38.9225001 ], [ 121.6586111, 38.9225001 ], [ 121.6586111, 38.9155557 ] ] ] } },
{ "type": "Feature", "properties": { "Id": 0, "Sheet_ID": "SHEET 7", "label": "SHEET 7", "call_short": "G7824 .D3 S1 .J37", "call_num": "G7824 .D3 S1 .J37 SHEET 7", "recid": "fq462br1262", "websiteUrl": "https://purl.stanford.edu/fq462br1262", "title": "大連市街圖 東部", "ckey": 13901786, "available": true, "iiifUrl": "https://purl.stanford.edu/fq462br1262/iiif/manifest" }, "geometry": { "type": "Polygon", "coordinates": [ [ [ 121.6702779, 38.9155557 ], [ 121.6819446, 38.9155557 ], [ 121.6819446, 38.9225001 ], [ 121.6702779, 38.9225001 ], [ 121.6702779, 38.9155557 ] ] ] } },
{ "type": "Feature", "properties": { "Id": 0, "Sheet_ID": "SHEET 4", "label": "SHEET 4", "call_short": "0", "call_num": "0", "recid": "0", "websiteUrl": "0", "title": "0", "ckey": 0, "available": false, "iiifUrl": "0" }, "geometry": { "type": "Polygon", "coordinates": [ [ [ 121.6819446, 38.9155557 ], [ 121.6936113, 38.9155557 ], [ 121.6936113, 38.9225001 ], [ 121.6819446, 38.9225001 ], [ 121.6819446, 38.9155557 ] ] ] } },
{ "type": "Feature", "properties": { "Id": 0, "Sheet_ID": "SHEET 2", "label": "SHEET 2", "call_short": "0", "call_num": "0", "recid": "0", "websiteUrl": "0", "title": "0", "ckey": 0, "available": false, "iiifUrl": "0" }, "geometry": { "type": "Polygon", "coordinates": [ [ [ 121.6936113, 38.9120834 ], [ 121.705278, 38.9120834 ], [ 121.705278, 38.9190279 ], [ 121.6936113, 38.9190279 ], [ 121.6936113, 38.9120834 ] ] ] } },
{ "type": "Feature", "properties": { "Id": 0, "Sheet_ID": "SHEET 32", "label": "SHEET 32", "call_short": "0", "call_num": "0", "recid": "0", "websiteUrl": "0", "title": "0", "ckey": 0, "available": false, "iiifUrl": "0" }, "geometry": { "type": "Polygon", "coordinates": [ [ [ 121.623611, 38.9225001 ], [ 121.6352777, 38.9225001 ], [ 121.6352777, 38.9294446 ], [ 121.623611, 38.9294446 ], [ 121.623611, 38.9225001 ] ] ] } },
{ "type": "Feature", "properties": { "Id": 0, "Sheet_ID": "SHEET 20", "label": "SHEET 20", "call_short": "G7824 .D3 S1 .J37", "call_num": "G7824 .D3 S1 .J37 SHEET 20", "recid": "mk994yb4901", "websiteUrl": "https://purl.stanford.edu/mk994yb4901", "title": "大連市街圖 東部", "ckey": 13901786, "available": true, "iiifUrl": "https://purl.stanford.edu/mk994yb4901/iiif/manifest" }, "geometry": { "type": "Polygon", "coordinates": [ [ [ 121.6352777, 38.9225001 ], [ 121.6469444, 38.9225001 ], [ 121.6469444, 38.9294446 ], [ 121.6352777, 38.9294446 ], [ 121.6352777, 38.9225001 ] ] ] } },
{ "type": "Feature", "properties": { "Id": 0, "Sheet_ID": "SHEET 14", "label": "SHEET 14", "call_short": "0", "call_num": "0", "recid": "0", "websiteUrl": "0", "title": "0", "ckey": 0, "available": false, "iiifUrl": "0" }, "geometry": { "type": "Polygon", "coordinates": [ [ [ 121.6469444, 38.9225001 ], [ 121.6586111, 38.9225001 ], [ 121.6586111, 38.9294446 ], [ 121.6469444, 38.9294446 ], [ 121.6469444, 38.9225001 ] ] ] } },
{ "type": "Feature", "properties": { "Id": 0, "Sheet_ID": "SHEET 10", "label": "SHEET 10", "call_short": "0", "call_num": "0", "recid": "0", "websiteUrl": "0", "title": "0", "ckey": 0, "available": false, "iiifUrl": "0" }, "geometry": { "type": "Polygon", "coordinates": [ [ [ 121.6586111, 38.9225001 ], [ 121.6702779, 38.9225001 ], [ 121.6702779, 38.9294446 ], [ 121.6586111, 38.9294446 ], [ 121.6586111, 38.9225001 ] ] ] } },
{ "type": "Feature", "properties": { "Id": 0, "Sheet_ID": "SHEET 6", "label": "SHEET 6", "call_short": "0", "call_num": "0", "recid": "0", "websiteUrl": "0", "title": "0", "ckey": 0, "available": false, "iiifUrl": "0" }, "geometry": { "type": "Polygon", "coordinates": [ [ [ 121.6702779, 38.9225001 ], [ 121.6819446, 38.9225001 ], [ 121.6819446, 38.9294446 ], [ 121.6702779, 38.9294446 ], [ 121.6702779, 38.9225001 ] ] ] } },
{ "type": "Feature", "properties": { "Id": 0, "Sheet_ID": "SHEET 1", "label": "SHEET 1", "call_short": "0", "call_num": "0", "recid": "0", "websiteUrl": "0", "title": "0", "ckey": 0, "available": false, "iiifUrl": "0" }, "geometry": { "type": "Polygon", "coordinates": [ [ [ 121.6936113, 38.9190279 ], [ 121.705278, 38.9190279 ], [ 121.705278, 38.9259723 ], [ 121.6936113, 38.9259723 ], [ 121.6936113, 38.9190279 ] ] ] } },
{ "type": "Feature", "properties": { "Id": 0, "Sheet_ID": "SHEET 31", "label": "SHEET 31", "call_short": "G7824 .D3 S1 .J37", "call_num": "G7824 .D3 S1 .J37 SHEET 31", "recid": "xt954tb7869", "websiteUrl": "https://purl.stanford.edu/xt954tb7869", "title": "大連市街圖 東部", "ckey": 13901786, "available": true, "iiifUrl": "https://purl.stanford.edu/xt954tb7869/iiif/manifest" }, "geometry": { "type": "Polygon", "coordinates": [ [ [ 121.623611, 38.9294446 ], [ 121.6352777, 38.9294446 ], [ 121.6352777, 38.936389 ], [ 121.623611, 38.936389 ], [ 121.623611, 38.9294446 ] ] ] } },
{ "type": "Feature", "properties": { "Id": 0, "Sheet_ID": "SHEET 19", "label": "SHEET 19", "call_short": "G7824 .D3 S1 .J37", "call_num": "G7824 .D3 S1 .J37 SHEET 19", "recid": "ww881jj0240", "websiteUrl": "https://purl.stanford.edu/ww881jj0240", "title": "大連市街圖 東部", "ckey": 13901786, "available": true, "iiifUrl": "https://purl.stanford.edu/ww881jj0240/iiif/manifest" }, "geometry": { "type": "Polygon", "coordinates": [ [ [ 121.6352777, 38.9294446 ], [ 121.6469444, 38.9294446 ], [ 121.6469444, 38.936389 ], [ 121.6352777, 38.936389 ], [ 121.6352777, 38.9294446 ] ] ] } },
{ "type": "Feature", "properties": { "Id": 0, "Sheet_ID": "SHEET 13", "label": "SHEET 13", "call_short": "G7824 .D3 S1 .J37", "call_num": "G7824 .D3 S1 .J37 SHEET 13", "recid": "rq002kq8093", "websiteUrl": "https://purl.stanford.edu/rq002kq8093", "title": "大連市街圖 東部", "ckey": 13901786, "available": true, "iiifUrl": "https://purl.stanford.edu/rq002kq8093/iiif/manifest" }, "geometry": { "type": "Polygon", "coordinates": [ [ [ 121.6469444, 38.9294446 ], [ 121.6586111, 38.9294446 ], [ 121.6586111, 38.936389 ], [ 121.6469444, 38.936389 ], [ 121.6469444, 38.9294446 ] ] ] } },
{ "type": "Feature", "properties": { "Id": 0, "Sheet_ID": "SHEET 9", "label": "SHEET 9", "call_short": "0", "call_num": "0", "recid": "0", "websiteUrl": "0", "title": "0", "ckey": 0, "available": false, "iiifUrl": "0" }, "geometry": { "type": "Polygon", "coordinates": [ [ [ 121.6586111, 38.9294446 ], [ 121.6702779, 38.9294446 ], [ 121.6702779, 38.936389 ], [ 121.6586111, 38.936389 ], [ 121.6586111, 38.9294446 ] ] ] } }
]
}
