{"type":"FeatureCollection","features":[{"type":"Feature","properties":{"Id":0,"Sheet_ID":"壹貮ニ175. シバイ島","label":"壹貮ニ175. シバイ島","call_short":"G8060 S100 .J3","call_num":"G8060 S100 .J3 12-NI-175","recid":"fr412db4215","websiteUrl":"https://purl.stanford.edu/fr412db4215","title":"比律賓十万分一圖","ckey":9687203,"web_map":"","available":"true","iiifUrl":"https://purl.stanford.edu/fr412db4215/iiif/manifest"},"geometry":{"bbox":[121,11.666667,121.5,12.000000200000002],"type":"Polygon","coordinates":[[[121,11.666667],[121,12.000000200000002],[121.5,12.000000200000002],[121.5,11.666667],[121,11.666667]]]}},{"type":"Feature","properties":{"Id":0,"Sheet_ID":"壹貮ニ174. ブララカオ","label":"壹貮ニ174. ブララカオ","call_short":"G8060 S100 .J3","call_num":"G8060 S100 .J3 12-NI-174","recid":"br665pg7290","websiteUrl":"https://purl.stanford.edu/br665pg7290","title":"比律賓十万分一圖","ckey":9687203,"web_map":"","available":"true","iiifUrl":"https://purl.stanford.edu/br665pg7290/iiif/manifest"},"geometry":{"bbox":[121,12.000000200000002,121.5,12.3333334],"type":"Polygon","coordinates":[[[121,12.000000200000002],[121,12.3333334],[121.5,12.3333334],[121.5,12.000000200000002],[121,12.000000200000002]]]}},{"type":"Feature","properties":{"Id":0,"Sheet_ID":"壹貮ニ183. イリロン","label":"壹貮ニ183. イリロン","call_short":"G8060 S100 .J3","call_num":"G8060 S100 .J3 12-NI-183","recid":"jk674kd0000","websiteUrl":"https://purl.stanford.edu/jk674kd0000","title":"比律賓十万分一圖","ckey":9687203,"web_map":"","available":"true","iiifUrl":"https://purl.stanford.edu/jk674kd0000/iiif/manifest"},"geometry":{"bbox":[120.50000000000001,12.3333334,121,12.666666600000001],"type":"Polygon","coordinates":[[[120.50000000000001,12.3333334],[120.50000000000001,12.666666600000001],[121,12.666666600000001],[121,12.3333334],[120.50000000000001,12.3333334]]]}},{"type":"Feature","properties":{"Id":0,"Sheet_ID":"壹貮ニ173. ミンドロ・サンホセ","label":"壹貮ニ173. ミンドロ・サンホセ","call_short":"G8060 S100 .J3","call_num":"G8060 S100 .J3 12-NI-173","recid":"qf665nh6954","websiteUrl":"https://purl.stanford.edu/qf665nh6954","title":"比律賓十万分一圖","ckey":9687203,"web_map":"","available":"true","iiifUrl":"https://purl.stanford.edu/qf665nh6954/iiif/manifest"},"geometry":{"bbox":[121,12.3333334,121.5,12.666666600000001],"type":"Polygon","coordinates":[[[121,12.3333334],[121,12.666666600000001],[121.5,12.666666600000001],[121.5,12.3333334],[121,12.3333334]]]}},{"type":"Feature","properties":{"Id":0,"Sheet_ID":"壹貮ニ163. オディオンガン","label":"壹貮ニ163. オディオンガン","call_short":"G8060 S100 .J3","call_num":"G8060 S100 .J3 12-NI-163","recid":"ky714sw7357","websiteUrl":"https://purl.stanford.edu/ky714sw7357","title":"比律賓十万分一圖","ckey":9687203,"web_map":"","available":"true","iiifUrl":"https://purl.stanford.edu/ky714sw7357/iiif/manifest"},"geometry":{"bbox":[121.5,12.3333334,122,12.666666600000001],"type":"Polygon","coordinates":[[[121.5,12.3333334],[121.5,12.666666600000001],[122,12.666666600000001],[122,12.3333334],[121.5,12.3333334]]]}},{"type":"Feature","properties":{"Id":0,"Sheet_ID":"壹貮ニ182. サブラヤン","label":"壹貮ニ182. サブラヤン","call_short":"G8060 S100 .J3","call_num":"G8060 S100 .J3 12-NI-182","recid":"xn116jz0853","websiteUrl":"https://purl.stanford.edu/xn116jz0853","title":"比律賓十万分一圖","ckey":9687203,"web_map":"","available":"true","iiifUrl":"https://purl.stanford.edu/xn116jz0853/iiif/manifest"},"geometry":{"bbox":[120.50000000000001,12.6666666,121,12.999999800000001],"type":"Polygon","coordinates":[[[120.50000000000001,12.6666666],[120.50000000000001,12.999999800000001],[121,12.999999800000001],[121,12.6666666],[120.50000000000001,12.6666666]]]}},{"type":"Feature","properties":{"Id":0,"Sheet_ID":"壹貮ニ172. ミンドロ・ボンガボン","label":"壹貮ニ172. ミンドロ・ボンガボン","call_short":"G8060 S100 .J3","call_num":"G8060 S100 .J3 12-NI-172","recid":"mg448rp8463","websiteUrl":"https://purl.stanford.edu/mg448rp8463","title":"比律賓十万分一圖","ckey":9687203,"web_map":"","available":"true","iiifUrl":"https://purl.stanford.edu/mg448rp8463/iiif/manifest"},"geometry":{"bbox":[121,12.6666666,121.5,12.999999800000001],"type":"Polygon","coordinates":[[[121,12.6666666],[121,12.999999800000001],[121.5,12.999999800000001],[121.5,12.6666666],[121,12.6666666]]]}},{"type":"Feature","properties":{"Id":0,"Sheet_ID":"壹貮ニ162. マエストレデカンポ島","label":"壹貮ニ162. マエストレデカンポ島","call_short":"G8060 S100 .J3","call_num":"G8060 S100 .J3 12-NI-162","recid":"cr229wt3578","websiteUrl":"https://purl.stanford.edu/cr229wt3578","title":"比律賓十万分一圖","ckey":9687203,"web_map":"","available":"true","iiifUrl":"https://purl.stanford.edu/cr229wt3578/iiif/manifest"},"geometry":{"bbox":[121.5,12.6666666,122,12.999999800000001],"type":"Polygon","coordinates":[[[121.5,12.6666666],[121.5,12.999999800000001],[122,12.999999800000001],[122,12.6666666],[121.5,12.6666666]]]}},{"type":"Feature","properties":{"Id":0,"Sheet_ID":"壹貮ニ181. ミンドロ マンブラオ","label":"壹貮ニ181. ミンドロ マンブラオ","call_short":"G8060 S100 .J3","call_num":"G8060 S100 .J3 12-NI-181","recid":"kt580wb6229","websiteUrl":"https://purl.stanford.edu/kt580wb6229","title":"比律賓十万分一圖","ckey":9687203,"web_map":"","available":"true","iiifUrl":"https://purl.stanford.edu/kt580wb6229/iiif/manifest"},"geometry":{"bbox":[120.50000000000001,12.999999800000001,121,13.333333],"type":"Polygon","coordinates":[[[120.50000000000001,12.999999800000001],[120.50000000000001,13.333333],[121,13.333333],[121,12.999999800000001],[120.50000000000001,12.999999800000001]]]}},{"type":"Feature","properties":{"Id":0,"Sheet_ID":"壹貮ニ171. ナウハン湖","label":"壹貮ニ171. ナウハン湖","call_short":"G8060 S100 .J3","call_num":"G8060 S100 .J3 12-NI-171","recid":"sk424jn5622","websiteUrl":"https://purl.stanford.edu/sk424jn5622","title":"比律賓十万分一圖","ckey":9687203,"web_map":"","available":"true","iiifUrl":"https://purl.stanford.edu/sk424jn5622/iiif/manifest"},"geometry":{"bbox":[121,12.999999800000001,121.5,13.333333],"type":"Polygon","coordinates":[[[121,12.999999800000001],[121,13.333333],[121.5,13.333333],[121.5,12.999999800000001],[121,12.999999800000001]]]}},{"type":"Feature","properties":{"Id":0,"Sheet_ID":"壹壹ハ177. カティール","label":"壹壹ハ177. カティール","call_short":"G8060 S100 .J3","call_num":"G8060 S100 .J3 11-HA-177","recid":"vq598jc9318","websiteUrl":"https://purl.stanford.edu/vq598jc9318","title":"比律賓十万分一圖","ckey":9687203,"web_map":"","available":"true","iiifUrl":"https://purl.stanford.edu/vq598jc9318/iiif/manifest"},"geometry":{"bbox":[126,7.666667,126.5,8.000000333333334],"type":"Polygon","coordinates":[[[126,7.666667],[126,8.000000333333334],[126.5,8.000000333333334],[126.5,7.666667],[126,7.666667]]]}},{"type":"Feature","properties":{"Id":0,"Sheet_ID":"壹壹ハ176. ビスリグ","label":"壹壹ハ176. ビスリグ","call_short":"G8060 S100 .J3","call_num":"G8060 S100 .J3 11-HA-176","recid":"xx294ty5764","websiteUrl":"https://purl.stanford.edu/xx294ty5764","title":"比律賓十万分一圖","ckey":9687203,"web_map":"","available":"true","iiifUrl":"https://purl.stanford.edu/xx294ty5764/iiif/manifest"},"geometry":{"bbox":[126,8.000000333333334,126.5,8.333333666666668],"type":"Polygon","coordinates":[[[126,8.000000333333334],[126,8.333333666666668],[126.5,8.333333666666668],[126.5,8.000000333333334],[126,8.000000333333334]]]}},{"type":"Feature","properties":{"Id":0,"Sheet_ID":"壹壹ハ185. アスピティア","label":"壹壹ハ185. アスピティア","call_short":"G8060 S100 .J3","call_num":"G8060 S100 .J3 11-HA-185","recid":"my136yb9527","websiteUrl":"https://purl.stanford.edu/my136yb9527","title":"比律賓十万分一圖","ckey":9687203,"web_map":"","available":"true","iiifUrl":"https://purl.stanford.edu/my136yb9527/iiif/manifest"},"geometry":{"bbox":[125.5,8.333333666666666,126,8.666667],"type":"Polygon","coordinates":[[[125.5,8.333333666666666],[125.5,8.666667],[126,8.666667],[126,8.333333666666666],[125.5,8.333333666666666]]]}},{"type":"Feature","properties":{"Id":0,"Sheet_ID":"壹壹ハ175. リアンガ","label":"壹壹ハ175. リアンガ","call_short":"G8060 S100 .J3","call_num":"G8060 S100 .J3 11-HA-175","recid":"hw910hr6219","websiteUrl":"https://purl.stanford.edu/hw910hr6219","title":"比律賓十万分一圖","ckey":9687203,"web_map":"","available":"true","iiifUrl":"https://purl.stanford.edu/hw910hr6219/iiif/manifest"},"geometry":{"bbox":[126,8.333333666666666,126.5,8.666667],"type":"Polygon","coordinates":[[[126,8.333333666666666],[126,8.666667],[126.5,8.666667],[126.5,8.333333666666666],[126,8.333333666666666]]]}},{"type":"Feature","properties":{"Id":0,"Sheet_ID":"壹壹ハ184. メイガタサン","label":"壹壹ハ184. メイガタサン","call_short":"G8060 S100 .J3","call_num":"G8060 S100 .J3 11-HA-184","recid":"yh296dc9782","websiteUrl":"https://purl.stanford.edu/yh296dc9782","title":"比律賓十万分一圖","ckey":9687203,"web_map":"","available":"true","iiifUrl":"https://purl.stanford.edu/yh296dc9782/iiif/manifest"},"geometry":{"bbox":[125.5,8.666667,126,9.000000333333334],"type":"Polygon","coordinates":[[[125.5,8.666667],[125.5,9.000000333333334],[126,9.000000333333334],[126,8.666667],[125.5,8.666667]]]}},{"type":"Feature","properties":{"Id":0,"Sheet_ID":"壹壹ハ174. マリハタグ","label":"壹壹ハ174. マリハタグ","call_short":"G8060 S100 .J3","call_num":"G8060 S100 .J3 11-HA-174","recid":"vd852qc2559","websiteUrl":"https://purl.stanford.edu/vd852qc2559","title":"比律賓十万分一圖","ckey":9687203,"web_map":"","available":"true","iiifUrl":"https://purl.stanford.edu/vd852qc2559/iiif/manifest"},"geometry":{"bbox":[126,8.666667,126.5,9.000000333333334],"type":"Polygon","coordinates":[[[126,8.666667],[126,9.000000333333334],[126.5,9.000000333333334],[126.5,8.666667],[126,8.666667]]]}},{"type":"Feature","properties":{"Id":0,"Sheet_ID":"壹壹ハ192. ボロボロ","label":"壹壹ハ192. ボロボロ","call_short":"G8060 S100 .J3","call_num":"G8060 S100 .J3 11-HA-192","recid":"py210xq5160","websiteUrl":"https://purl.stanford.edu/py210xq5160","title":"比律賓十万分一圖","ckey":9687203,"web_map":"","available":"true","iiifUrl":"https://purl.stanford.edu/py210xq5160/iiif/manifest"},"geometry":{"bbox":[125.00000000000001,9.333333666666666,125.5,9.666667],"type":"Polygon","coordinates":[[[125.00000000000001,9.333333666666666],[125.00000000000001,9.666667],[125.5,9.666667],[125.5,9.333333666666666],[125.00000000000001,9.333333666666666]]]}},{"type":"Feature","properties":{"Id":0,"Sheet_ID":"壹壹ハ182. プラセル","label":"壹壹ハ182. プラセル","call_short":"G8060 S100 .J3","call_num":"G8060 S100 .J3 11-HA-182","recid":"kk838ts5598","websiteUrl":"https://purl.stanford.edu/kk838ts5598","title":"比律賓十万分一圖","ckey":9687203,"web_map":"","available":"true","iiifUrl":"https://purl.stanford.edu/kk838ts5598/iiif/manifest"},"geometry":{"bbox":[125.5,9.333333666666666,126,9.666667],"type":"Polygon","coordinates":[[[125.5,9.333333666666666],[125.5,9.666667],[126,9.666667],[126,9.333333666666666],[125.5,9.333333666666666]]]}},{"type":"Feature","properties":{"Id":0,"Sheet_ID":"壹壹ハ172. ヘネラル島","label":"壹壹ハ172. ヘネラル島","call_short":"G8060 S100 .J3","call_num":"G8060 S100 .J3 11-HA-172","recid":"ty568tr9332","websiteUrl":"https://purl.stanford.edu/ty568tr9332","title":"比律賓十万分一圖","ckey":9687203,"web_map":"","available":"true","iiifUrl":"https://purl.stanford.edu/ty568tr9332/iiif/manifest"},"geometry":{"bbox":[126,9.333333666666666,126.5,9.666667],"type":"Polygon","coordinates":[[[126,9.333333666666666],[126,9.666667],[126.5,9.666667],[126.5,9.333333666666666],[126,9.333333666666666]]]}},{"type":"Feature","properties":{"Id":0,"Sheet_ID":"壹壹ハ191. スリガオ","label":"壹壹ハ191. スリガオ","call_short":"G8060 S100 .J3","call_num":"G8060 S100 .J3 11-HA-191","recid":"nc761fz0206","websiteUrl":"https://purl.stanford.edu/nc761fz0206","title":"比律賓十万分一圖","ckey":9687203,"web_map":"","available":"true","iiifUrl":"https://purl.stanford.edu/nc761fz0206/iiif/manifest"},"geometry":{"bbox":[125.00000000000001,9.666667,125.5,10.000000333333334],"type":"Polygon","coordinates":[[[125.00000000000001,9.666667],[125.00000000000001,10.000000333333334],[125.5,10.000000333333334],[125.5,9.666667],[125.00000000000001,9.666667]]]}},{"type":"Feature","properties":{"Id":0,"Sheet_ID":"壹壹ハ181. ディナガット島南部","label":"壹壹ハ181. ディナガット島南部","call_short":"G8060 S100 .J3","call_num":"G8060 S100 .J3 11-HA-181","recid":"px391rw8956","websiteUrl":"https://purl.stanford.edu/px391rw8956","title":"比律賓十万分一圖","ckey":9687203,"web_map":"","available":"true","iiifUrl":"https://purl.stanford.edu/px391rw8956/iiif/manifest"},"geometry":{"bbox":[125.5,9.666667,126,10.000000333333334],"type":"Polygon","coordinates":[[[125.5,9.666667],[125.5,10.000000333333334],[126,10.000000333333334],[126,9.666667],[125.5,9.666667]]]}},{"type":"Feature","properties":{"Id":0,"Sheet_ID":"壹壹ハ171. シアルカオ島","label":"壹壹ハ171. シアルカオ島","call_short":"G8060 S100 .J3","call_num":"G8060 S100 .J3 11-HA-171","recid":"mz569nt8859","websiteUrl":"https://purl.stanford.edu/mz569nt8859","title":"比律賓十万分一圖","ckey":9687203,"web_map":"","available":"true","iiifUrl":"https://purl.stanford.edu/mz569nt8859/iiif/manifest"},"geometry":{"bbox":[126,9.666667,126.5,10.000000333333334],"type":"Polygon","coordinates":[[[126,9.666667],[126,10.000000333333334],[126.5,10.000000333333334],[126.5,9.666667],[126,9.666667]]]}},{"type":"Feature","properties":{"Id":0,"Sheet_ID":"壹貮ニ110. マアシン","label":"壹貮ニ110. マアシン","call_short":"G8060 S100 .J3","call_num":"G8060 S100 .J3 12-NI-110","recid":"wp810ss0459","websiteUrl":"https://purl.stanford.edu/wp810ss0459","title":"比律賓十万分一圖","ckey":9687203,"web_map":"","available":"true","iiifUrl":"https://purl.stanford.edu/wp810ss0459/iiif/manifest"},"geometry":{"bbox":[124.49999999999999,10.000000333333332,125.00000000000001,10.333333666666666],"type":"Polygon","coordinates":[[[124.49999999999999,10.000000333333332],[124.49999999999999,10.333333666666666],[125.00000000000001,10.333333666666666],[125.00000000000001,10.000000333333332],[124.49999999999999,10.000000333333332]]]}},{"type":"Feature","properties":{"Id":0,"Sheet_ID":"壹壹ニ200. カバリアン","label":"壹壹ニ200. カバリアン","call_short":"G8060 S100 .J3","call_num":"G8060 S100 .J3 11-NI-200","recid":"gw459xk3572","websiteUrl":"https://purl.stanford.edu/gw459xk3572","title":"比律賓十万分一圖","ckey":9687203,"web_map":"","available":"true","iiifUrl":"https://purl.stanford.edu/gw459xk3572/iiif/manifest"},"geometry":{"bbox":[125.00000000000001,10.000000333333332,125.5,10.333333666666666],"type":"Polygon","coordinates":[[[125.00000000000001,10.000000333333332],[125.00000000000001,10.333333666666666],[125.5,10.333333666666666],[125.5,10.000000333333332],[125.00000000000001,10.000000333333332]]]}},{"type":"Feature","properties":{"Id":0,"Sheet_ID":"壹壹ニ190. ディナガット島中部","label":"壹壹ニ190. ディナガット島中部","call_short":"G8060 S100 .J3","call_num":"G8060 S100 .J3 11-NI-190","recid":"xf466zj2765","websiteUrl":"https://purl.stanford.edu/xf466zj2765","title":"比律賓十万分一圖","ckey":9687203,"web_map":"","available":"true","iiifUrl":"https://purl.stanford.edu/xf466zj2765/iiif/manifest"},"geometry":{"bbox":[125.5,10.000000333333332,126,10.333333666666666],"type":"Polygon","coordinates":[[[125.5,10.000000333333332],[125.5,10.333333666666666],[126,10.333333666666666],[126,10.000000333333332],[125.5,10.000000333333332]]]}},{"type":"Feature","properties":{"Id":0,"Sheet_ID":"壹壹ニ199. ヒヌンダヤン","label":"壹壹ニ199. ヒヌンダヤン","call_short":"G8060 S100 .J3","call_num":"G8060 S100 .J3 11-NI-199","recid":"kr154kz6339","websiteUrl":"https://purl.stanford.edu/kr154kz6339","title":"比律賓十万分一圖","ckey":9687203,"web_map":"","available":"true","iiifUrl":"https://purl.stanford.edu/kr154kz6339/iiif/manifest"},"geometry":{"bbox":[125.00000000000001,10.333333666666666,125.5,10.666667],"type":"Polygon","coordinates":[[[125.00000000000001,10.333333666666666],[125.00000000000001,10.666667],[125.5,10.666667],[125.5,10.333333666666666],[125.00000000000001,10.333333666666666]]]}},{"type":"Feature","properties":{"Id":0,"Sheet_ID":"壹壹ニ189. ディナガット島北部","label":"壹壹ニ189. ディナガット島北部","call_short":"G8060 S100 .J3","call_num":"G8060 S100 .J3 11-NI-189","recid":"rz134gd3226","websiteUrl":"https://purl.stanford.edu/rz134gd3226","title":"比律賓十万分一圖","ckey":9687203,"web_map":"","available":"true","iiifUrl":"https://purl.stanford.edu/rz134gd3226/iiif/manifest"},"geometry":{"bbox":[125.5,10.333333666666666,126,10.666667],"type":"Polygon","coordinates":[[[125.5,10.333333666666666],[125.5,10.666667],[126,10.666667],[126,10.333333666666666],[125.5,10.333333666666666]]]}},{"type":"Feature","properties":{"Id":0,"Sheet_ID":"壹貮ニ108. バイバイ","label":"壹貮ニ108. バイバイ","call_short":"G8060 S100 .J3","call_num":"G8060 S100 .J3 12-NI-108","recid":"fd664ss4683","websiteUrl":"https://purl.stanford.edu/fd664ss4683","title":"比律賓十万分一圖","ckey":9687203,"web_map":"","available":"true","iiifUrl":"https://purl.stanford.edu/fd664ss4683/iiif/manifest"},"geometry":{"bbox":[124.49999999999999,10.666667,125.00000000000001,11.000000333333334],"type":"Polygon","coordinates":[[[124.49999999999999,10.666667],[124.49999999999999,11.000000333333334],[125.00000000000001,11.000000333333334],[125.00000000000001,10.666667],[124.49999999999999,10.666667]]]}},{"type":"Feature","properties":{"Id":0,"Sheet_ID":"壹壹ニ198. ドゥラグ","label":"壹壹ニ198. ドゥラグ","call_short":"G8060 S100 .J3","call_num":"G8060 S100 .J3 11-NI-198","recid":"cf739zn3717","websiteUrl":"https://purl.stanford.edu/cf739zn3717","title":"比律賓十万分一圖","ckey":9687203,"web_map":"","available":"true","iiifUrl":"https://purl.stanford.edu/cf739zn3717/iiif/manifest"},"geometry":{"bbox":[125.00000000000001,10.666667,125.5,11.000000333333334],"type":"Polygon","coordinates":[[[125.00000000000001,10.666667],[125.00000000000001,11.000000333333334],[125.5,11.000000333333334],[125.5,10.666667],[125.00000000000001,10.666667]]]}},{"type":"Feature","properties":{"Id":0,"Sheet_ID":"壹壹ニ188. ホモンホン島","label":"壹壹ニ188. ホモンホン島","call_short":"G8060 S100 .J3","call_num":"G8060 S100 .J3 11-NI-188","recid":"pf834gt5358","websiteUrl":"https://purl.stanford.edu/pf834gt5358","title":"比律賓十万分一圖","ckey":9687203,"web_map":"","available":"true","iiifUrl":"https://purl.stanford.edu/pf834gt5358/iiif/manifest"},"geometry":{"bbox":[125.5,10.666667,126,11.000000333333334],"type":"Polygon","coordinates":[[[125.5,10.666667],[125.5,11.000000333333334],[126,11.000000333333334],[126,10.666667],[125.5,10.666667]]]}},{"type":"Feature","properties":{"Id":0,"Sheet_ID":"壹貮ニ107. オルモック","label":"壹貮ニ107. オルモック","call_short":"G8060 S100 .J3","call_num":"G8060 S100 .J3 12-NI-107","recid":"sj461gy5100","websiteUrl":"https://purl.stanford.edu/sj461gy5100","title":"比律賓十万分一圖","ckey":9687203,"web_map":"","available":"true","iiifUrl":"https://purl.stanford.edu/sj461gy5100/iiif/manifest"},"geometry":{"bbox":[124.49999999999999,11.000000333333332,125.00000000000001,11.333333666666666],"type":"Polygon","coordinates":[[[124.49999999999999,11.000000333333332],[124.49999999999999,11.333333666666666],[125.00000000000001,11.333333666666666],[125.00000000000001,11.000000333333332],[124.49999999999999,11.000000333333332]]]}},{"type":"Feature","properties":{"Id":0,"Sheet_ID":"壹壹ニ197. タクロバン","label":"壹壹ニ197. タクロバン","call_short":"G8060 S100 .J3","call_num":"G8060 S100 .J3 11-NI-197","recid":"jt547sf3060","websiteUrl":"https://purl.stanford.edu/jt547sf3060","title":"比律賓十万分一圖","ckey":9687203,"web_map":"","available":"true","iiifUrl":"https://purl.stanford.edu/jt547sf3060/iiif/manifest"},"geometry":{"bbox":[125.00000000000001,11.000000333333332,125.5,11.333333666666666],"type":"Polygon","coordinates":[[[125.00000000000001,11.000000333333332],[125.00000000000001,11.333333666666666],[125.5,11.333333666666666],[125.5,11.000000333333332],[125.00000000000001,11.000000333333332]]]}},{"type":"Feature","properties":{"Id":0,"Sheet_ID":"壹壹ニ187. ギウアン","label":"壹壹ニ187. ギウアン","call_short":"G8060 S100 .J3","call_num":"G8060 S100 .J3 11-NI-187","recid":"mx062pp1828","websiteUrl":"https://purl.stanford.edu/mx062pp1828","title":"比律賓十万分一圖","ckey":9687203,"web_map":"","available":"true","iiifUrl":"https://purl.stanford.edu/mx062pp1828/iiif/manifest"},"geometry":{"bbox":[125.5,11.000000333333332,126,11.333333666666666],"type":"Polygon","coordinates":[[[125.5,11.000000333333332],[125.5,11.333333666666666],[126,11.333333666666666],[126,11.000000333333332],[125.5,11.000000333333332]]]}},{"type":"Feature","properties":{"Id":0,"Sheet_ID":"壹貮ニ106. スマラガ","label":"壹貮ニ106. スマラガ","call_short":"","call_num":"","recid":"","websiteUrl":"","title":"","ckey":0,"web_map":"","available":"false","iiifUrl":""},"geometry":{"bbox":[124.49999999999999,11.333333666666666,125.00000000000001,11.666667],"type":"Polygon","coordinates":[[[124.49999999999999,11.333333666666666],[124.49999999999999,11.666667],[125.00000000000001,11.666667],[125.00000000000001,11.333333666666666],[124.49999999999999,11.333333666666666]]]}},{"type":"Feature","properties":{"Id":0,"Sheet_ID":"壹壹ニ196. ホロンガン","label":"壹壹ニ196. ホロンガン","call_short":"G8060 S100 .J3","call_num":"G8060 S100 .J3 11-NI-196","recid":"hh422rt6746","websiteUrl":"https://purl.stanford.edu/hh422rt6746","title":"比律賓十万分一圖","ckey":9687203,"web_map":"","available":"true","iiifUrl":"https://purl.stanford.edu/hh422rt6746/iiif/manifest"},"geometry":{"bbox":[125.00000000000001,11.333333666666666,125.5,11.666667],"type":"Polygon","coordinates":[[[125.00000000000001,11.333333666666666],[125.00000000000001,11.666667],[125.5,11.666667],[125.5,11.333333666666666],[125.00000000000001,11.333333666666666]]]}},{"type":"Feature","properties":{"Id":0,"Sheet_ID":"壹壹ニ186. リョレンテ","label":"壹壹ニ186. リョレンテ","call_short":"G8060 S100 .J3","call_num":"G8060 S100 .J3 11-NI-186","recid":"rq246bk0327","websiteUrl":"https://purl.stanford.edu/rq246bk0327","title":"比律賓十万分一圖","ckey":9687203,"web_map":"","available":"true","iiifUrl":"https://purl.stanford.edu/rq246bk0327/iiif/manifest"},"geometry":{"bbox":[125.5,11.333333666666666,126,11.666667],"type":"Polygon","coordinates":[[[125.5,11.333333666666666],[125.5,11.666667],[126,11.666667],[126,11.333333666666666],[125.5,11.333333666666666]]]}},{"type":"Feature","properties":{"Id":0,"Sheet_ID":"壹貮ニ105. カトバロガン","label":"壹貮ニ105. カトバロガン","call_short":"G8060 S100 .J3","call_num":"G8060 S100 .J3 12-NI-105","recid":"cb489hc4879","websiteUrl":"https://purl.stanford.edu/cb489hc4879","title":"比律賓十万分一圖","ckey":9687203,"web_map":"","available":"true","iiifUrl":"https://purl.stanford.edu/cb489hc4879/iiif/manifest"},"geometry":{"bbox":[124.49999999999999,11.666667,125.00000000000001,12.000000333333334],"type":"Polygon","coordinates":[[[124.49999999999999,11.666667],[124.49999999999999,12.000000333333334],[125.00000000000001,12.000000333333334],[125.00000000000001,11.666667],[124.49999999999999,11.666667]]]}},{"type":"Feature","properties":{"Id":0,"Sheet_ID":"壹壹ニ195. ライト","label":"壹壹ニ195. ライト","call_short":"G8060 S100 .J3","call_num":"G8060 S100 .J3 11-NI-195","recid":"qq444rg6333","websiteUrl":"https://purl.stanford.edu/qq444rg6333","title":"比律賓十万分一圖","ckey":9687203,"web_map":"","available":"true","iiifUrl":"https://purl.stanford.edu/qq444rg6333/iiif/manifest"},"geometry":{"bbox":[125.00000000000001,11.666667,125.5,12.000000333333334],"type":"Polygon","coordinates":[[[125.00000000000001,11.666667],[125.00000000000001,12.000000333333334],[125.5,12.000000333333334],[125.5,11.666667],[125.00000000000001,11.666667]]]}},{"type":"Feature","properties":{"Id":0,"Sheet_ID":"壹貮ニ114. サンホアキン","label":"壹貮ニ114. サンホアキン","call_short":"G8060 S100 .J3","call_num":"G8060 S100 .J3 12-NI-114","recid":"gv381ds9358","websiteUrl":"https://purl.stanford.edu/gv381ds9358","title":"比律賓十万分一圖","ckey":9687203,"web_map":"","available":"true","iiifUrl":"https://purl.stanford.edu/gv381ds9358/iiif/manifest"},"geometry":{"bbox":[124,12.000000333333332,124.49999999999999,12.333333666666666],"type":"Polygon","coordinates":[[[124,12.000000333333332],[124,12.333333666666666],[124.49999999999999,12.333333666666666],[124.49999999999999,12.000000333333332],[124,12.000000333333332]]]}},{"type":"Feature","properties":{"Id":0,"Sheet_ID":"壹貮ニ104. カルバヨグ","label":"壹貮ニ104. カルバヨグ","call_short":"G8060 S100 .J3","call_num":"G8060 S100 .J3 12-NI-104","recid":"bn473rh3115","websiteUrl":"https://purl.stanford.edu/bn473rh3115","title":"比律賓十万分一圖","ckey":9687203,"web_map":"","available":"true","iiifUrl":"https://purl.stanford.edu/bn473rh3115/iiif/manifest"},"geometry":{"bbox":[124.49999999999999,12.000000333333332,125.00000000000001,12.333333666666666],"type":"Polygon","coordinates":[[[124.49999999999999,12.000000333333332],[124.49999999999999,12.333333666666666],[125.00000000000001,12.333333666666666],[125.00000000000001,12.000000333333332],[124.49999999999999,12.000000333333332]]]}},{"type":"Feature","properties":{"Id":0,"Sheet_ID":"壹壹ニ194. オラス","label":"壹壹ニ194. オラス","call_short":"G8060 S100 .J3","call_num":"G8060 S100 .J3 11-NI-194","recid":"zn171qw4268","websiteUrl":"https://purl.stanford.edu/zn171qw4268","title":"比律賓十万分一圖","ckey":9687203,"web_map":"","available":"true","iiifUrl":"https://purl.stanford.edu/zn171qw4268/iiif/manifest"},"geometry":{"bbox":[125.00000000000001,12.000000333333332,125.5,12.333333666666666],"type":"Polygon","coordinates":[[[125.00000000000001,12.000000333333332],[125.00000000000001,12.333333666666666],[125.5,12.333333666666666],[125.5,12.000000333333332],[125.00000000000001,12.000000333333332]]]}},{"type":"Feature","properties":{"Id":0,"Sheet_ID":"壹壹ニ184. ヒラバン島","label":"壹壹ニ184. ヒラバン島","call_short":"G8060 S100 .J3","call_num":"G8060 S100 .J3 11-NI-184","recid":"tc227sn6003","websiteUrl":"https://purl.stanford.edu/tc227sn6003","title":"比律賓十万分一圖","ckey":9687203,"web_map":"","available":"true","iiifUrl":"https://purl.stanford.edu/tc227sn6003/iiif/manifest"},"geometry":{"bbox":[125.5,12.000000333333332,126,12.333333666666666],"type":"Polygon","coordinates":[[[125.5,12.000000333333332],[125.5,12.333333666666666],[126,12.333333666666666],[126,12.000000333333332],[125.5,12.000000333333332]]]}},{"type":"Feature","properties":{"Id":0,"Sheet_ID":"壹貮ニ113. アリエン","label":"壹貮ニ113. アリエン","call_short":"G8060 S100 .J3","call_num":"G8060 S100 .J3 12-NI-113","recid":"by235vr4240","websiteUrl":"https://purl.stanford.edu/by235vr4240","title":"比律賓十万分一圖","ckey":9687203,"web_map":"","available":"true","iiifUrl":"https://purl.stanford.edu/by235vr4240/iiif/manifest"},"geometry":{"bbox":[124.00000000000013,12.333333666666704,124.49999999999999,12.699999999999932],"type":"Polygon","coordinates":[[[124.00000000000013,12.333333666666704],[124.00000000000013,12.699999999999932],[124.49999999999999,12.699999999999932],[124.49999999999999,12.333333666666704],[124.00000000000013,12.333333666666704]]]}},{"type":"Feature","properties":{"Id":0,"Sheet_ID":"壹貮ニ103. カタールマン","label":"壹貮ニ103. カタールマン","call_short":"G8060 S100 .J3","call_num":"G8060 S100 .J3 12-NI-103","recid":"wj058cf0291","websiteUrl":"https://purl.stanford.edu/wj058cf0291","title":"比律賓十万分一圖","ckey":9687203,"web_map":"","available":"true","iiifUrl":"https://purl.stanford.edu/wj058cf0291/iiif/manifest"},"geometry":{"bbox":[124.49999999999999,12.333333666666666,125.00000000000001,12.666667],"type":"Polygon","coordinates":[[[124.49999999999999,12.333333666666666],[124.49999999999999,12.666667],[125.00000000000001,12.666667],[125.00000000000001,12.333333666666666],[124.49999999999999,12.333333666666666]]]}},{"type":"Feature","properties":{"Id":0,"Sheet_ID":"壹壹ニ193. パラバグ","label":"壹壹ニ193. パラバグ","call_short":"G8060 S100 .J3","call_num":"G8060 S100 .J3 11-NI-193","recid":"kz906mp5280","websiteUrl":"https://purl.stanford.edu/kz906mp5280","title":"比律賓十万分一圖","ckey":9687203,"web_map":"","available":"true","iiifUrl":"https://purl.stanford.edu/kz906mp5280/iiif/manifest"},"geometry":{"bbox":[125.00000000000011,12.333333666666704,125.5,12.699999999999932],"type":"Polygon","coordinates":[[[125.00000000000011,12.333333666666704],[125.00000000000011,12.699999999999932],[125.5,12.699999999999932],[125.5,12.333333666666704],[125.00000000000011,12.333333666666704]]]}},{"type":"Feature","properties":{"Id":0,"Sheet_ID":"壹壹ハ167. バンカイ岬","label":"壹壹ハ167. バンカイ岬","call_short":"G8060 S100 .J3","call_num":"G8060 S100 .J3 11-HA-167","recid":"xf258dm1980","websiteUrl":"https://purl.stanford.edu/xf258dm1980","title":"比律賓十万分一圖","ckey":9687203,"web_map":"","available":"true","iiifUrl":"https://purl.stanford.edu/xf258dm1980/iiif/manifest"},"geometry":{"bbox":[126.5,7.666667000000019,126.66666699999996,8.000000333333446],"type":"Polygon","coordinates":[[[126.5,7.666667000000019],[126.5,8.000000333333446],[126.66666699999996,8.000000333333446],[126.66666699999996,7.666667000000019],[126.5,7.666667000000019]]]}}],"name":"index_9687203"}
